{"type":"FeatureCollection","features":[{"type":"Feature","properties":{"code":"110502","name":"บ้านคลองสวน","parentCode":"1105"},"geometry":{"type":"Polygon","coordinates":[[[100.47693016600005,13.602955251000026],[100.45457348200006,13.60510359500006],[100.44659849100003,13.540908238000043],[100.50412550100003,13.552895275000026],[100.50924264300005,13.576753014000076],[100.51151138100005,13.596854386000075],[100.47693016600005,13.602955251000026]]]}},{"type":"Feature","properties":{"code":"110202","name":"บ้านระกาศ","parentCode":"1102"},"geometry":{"type":"Polygon","coordinates":[[[100.89005663200004,13.564609813000061],[100.91758485000008,13.641735651000033],[100.89944198300009,13.647809366000047],[100.89775378700006,13.64083000200003],[100.86263488500003,13.546730996000065],[100.87926438000005,13.546735721000061],[100.89005663200004,13.564609813000061]]]}},{"type":"Feature","properties":{"code":"110201","name":"บางบ่อ","parentCode":"1102"},"geometry":{"type":"Polygon","coordinates":[[[100.89775378700006,13.64083000200003],[100.85257063000006,13.645132942000032],[100.83247412000009,13.578644009000072],[100.84756344500005,13.550575662000028],[100.86263488500003,13.546730996000065],[100.89775378700006,13.64083000200003]]]}},{"type":"Feature","properties":{"code":"110403","name":"บางจาก","parentCode":"1104"},"geometry":{"type":"Polygon","coordinates":[[[100.55135740800006,13.618557683000063],[100.54173423700007,13.628522754000073],[100.52038072400006,13.608840996000026],[100.52103794300007,13.605141864000075],[100.54087356200006,13.609027357000059],[100.55135740800006,13.618557683000063]]]}},{"type":"Feature","properties":{"code":"110304","name":"บางโฉลง","parentCode":"1103"},"geometry":{"type":"Polygon","coordinates":[[[100.79140194000007,13.661907910000025],[100.74238357500008,13.649629434000076],[100.71799785900004,13.628413426000066],[100.72043392400008,13.603091015000075],[100.77477254800004,13.596326856000076],[100.77935212100004,13.594981586000074],[100.79140194000007,13.661907910000025]]]}},{"type":"Feature","properties":{"code":"110113","name":"บางด้วน","parentCode":"1101"},"geometry":{"type":"Polygon","coordinates":[[[100.58579987100006,13.629297049000058],[100.57275507100007,13.633772863000047],[100.57116983700007,13.610910644000057],[100.58962461300007,13.608014122000043],[100.58579987100006,13.629297049000058]]]}},{"type":"Feature","properties":{"code":"110406","name":"บางหัวเสือ","parentCode":"1104"},"geometry":{"type":"Polygon","coordinates":[[[100.56877370000007,13.637330507000058],[100.56478926400007,13.640797435000025],[100.54173423700007,13.628522754000073],[100.55135740800006,13.618557683000063],[100.56877370000007,13.637330507000058]]]}},{"type":"Feature","properties":{"code":"110409","name":"บางกะเจ้า","parentCode":"1104"},"geometry":{"type":"Polygon","coordinates":[[[100.56423580400008,13.684278694000056],[100.57137094500007,13.703075786000056],[100.55486719200007,13.705483354000023],[100.55248804600006,13.689724858000034],[100.56423580400008,13.684278694000056]]]}},{"type":"Feature","properties":{"code":"110302","name":"บางแก้ว","parentCode":"1103"},"geometry":{"type":"Polygon","coordinates":[[[100.66690756900005,13.66816975300003],[100.65379229100006,13.668975588000023],[100.64480773300005,13.653638436000051],[100.62905742500004,13.628815343000042],[100.67061336300009,13.613903254000036],[100.69827132300009,13.65632908300006],[100.66690756900005,13.66816975300003]]]}},{"type":"Feature","properties":{"code":"110404","name":"บางครุ","parentCode":"1104"},"geometry":{"type":"Polygon","coordinates":[[[100.53022176200005,13.650746600000048],[100.51694478500008,13.637779635000072],[100.52038072400006,13.608840996000026],[100.54173423700007,13.628522754000073],[100.53412611000005,13.649273322000056],[100.53022176200005,13.650746600000048]]]}},{"type":"Feature","properties":{"code":"110412","name":"บางกอบัว","parentCode":"1104"},"geometry":{"type":"Polygon","coordinates":[[[100.58210186600007,13.69753195100003],[100.57137094500007,13.703075786000056],[100.56423580400008,13.684278694000056],[100.57193811500008,13.683471202000021],[100.58787719000009,13.691568184000062],[100.58391953000006,13.69609611900006],[100.58210186600007,13.69753195100003]]]}},{"type":"Feature","properties":{"code":"110411","name":"บางกระสอบ","parentCode":"1104"},"geometry":{"type":"Polygon","coordinates":[[[100.56504415000006,13.676273395000067],[100.55829597600007,13.66918221900005],[100.55702982900004,13.655697796000027],[100.57044230900004,13.660650351000072],[100.57872044600003,13.668259785000032],[100.56504415000006,13.676273395000067]]]}},{"type":"Feature","properties":{"code":"110103","name":"บางเมือง","parentCode":"1101"},"geometry":{"type":"Polygon","coordinates":[[[100.64690156300009,13.612499115000048],[100.62181254100005,13.622029196000028],[100.59835549600007,13.607044934000044],[100.61042661400006,13.594056998000042],[100.62286535600003,13.589206878000027],[100.63100695100007,13.59927250100003],[100.64690156300009,13.612499115000048]]]}},{"type":"Feature","properties":{"code":"110114","name":"บางเมืองใหม่","parentCode":"1101"},"geometry":{"type":"Polygon","coordinates":[[[100.62181254100005,13.622029196000028],[100.59001785900006,13.637925319000033],[100.58702487100004,13.62884232600004],[100.59835549600007,13.607044934000044],[100.62181254100005,13.622029196000028]]]}},{"type":"Feature","properties":{"code":"110410","name":"บางน้ำผึ้ง","parentCode":"1104"},"geometry":{"type":"Polygon","coordinates":[[[100.58876983900007,13.683015013000045],[100.58787719000009,13.691568184000062],[100.57193811500008,13.683471202000021],[100.56504415000006,13.676273395000067],[100.57872044600003,13.668259785000032],[100.57945837800008,13.669222685000022],[100.58876983900007,13.683015013000045]]]}},{"type":"Feature","properties":{"code":"110203","name":"บางพลีน้อย","parentCode":"1102"},"geometry":{"type":"Polygon","coordinates":[[[100.91393576900003,13.576741274000028],[100.90713986500003,13.592049031000045],[100.94216081600007,13.65055574400003],[100.91758485000008,13.641735651000033],[100.89005663200004,13.564609813000061],[100.91393576900003,13.576741274000028]]]}},{"type":"Feature","properties":{"code":"110301","name":"บางพลีใหญ่","parentCode":"1103"},"geometry":{"type":"Polygon","coordinates":[[[100.71799785900004,13.628413426000066],[100.70641271700003,13.678615355000034],[100.69827132300009,13.65632908300006],[100.67061336300009,13.613903254000036],[100.66850540100006,13.603844804000062],[100.70113509000004,13.570538831000022],[100.72043392400008,13.603091015000075],[100.71799785900004,13.628413426000066]]]}},{"type":"Feature","properties":{"code":"110204","name":"บางเพรียง","parentCode":"1102"},"geometry":{"type":"Polygon","coordinates":[[[100.84756344500005,13.550575662000028],[100.83247412000009,13.578644009000072],[100.77216344500005,13.553657159000068],[100.76585653500007,13.521771201000035],[100.77698507400004,13.520525471000042],[100.84756344500005,13.550575662000028]]]}},{"type":"Feature","properties":{"code":"110402","name":"บางพึ่ง","parentCode":"1104"},"geometry":{"type":"Polygon","coordinates":[[[100.52807754900005,13.673816612000053],[100.52340115700008,13.677882705000059],[100.51751520700009,13.661599672000023],[100.51529291900005,13.644735910000065],[100.51694478500008,13.637779635000072],[100.53022176200005,13.650746600000048],[100.52878624800007,13.664834846000076],[100.52807754900005,13.673816612000053]]]}},{"type":"Feature","properties":{"code":"110303","name":"บางปลา","parentCode":"1103"},"geometry":{"type":"Polygon","coordinates":[[[100.77477254800004,13.596326856000076],[100.72043392400008,13.603091015000075],[100.70113509000004,13.570538831000022],[100.70181858400008,13.532263553000064],[100.71881890400005,13.51971854900006],[100.76585653500007,13.521771201000035],[100.77216344500005,13.553657159000068],[100.77477254800004,13.596326856000076]]]}},{"type":"Feature","properties":{"code":"110111","name":"บางโปรง","parentCode":"1101"},"geometry":{"type":"Polygon","coordinates":[[[100.57275507100007,13.633772863000047],[100.56877370000007,13.637330507000058],[100.55135740800006,13.618557683000063],[100.57116983700007,13.610910644000057],[100.57275507100007,13.633772863000047]]]}},{"type":"Feature","properties":{"code":"110112","name":"บางปู","parentCode":"1101"},"geometry":{"type":"Polygon","coordinates":[[[100.77698507400004,13.520525471000042],[100.76585653500007,13.521771201000035],[100.71881890400005,13.51971854900006],[100.71236375700005,13.501072277000048],[100.78037276600008,13.491971804000059],[100.77698507400004,13.520525471000042]]]}},{"type":"Feature","properties":{"code":"110108","name":"บางปูใหม่","parentCode":"1101"},"geometry":{"type":"Polygon","coordinates":[[[100.67357909500004,13.545840111000075],[100.62553694000007,13.556081444000029],[100.62150659600007,13.540634724000029],[100.61502672700004,13.535640429000068],[100.71236375700005,13.501072277000048],[100.71881890400005,13.51971854900006],[100.70181858400008,13.532263553000064],[100.67357909500004,13.545840111000075]]]}},{"type":"Feature","properties":{"code":"110601","name":"บางเสาธง","parentCode":"1106"},"geometry":{"type":"Polygon","coordinates":[[[100.85934736500008,13.689560424000035],[100.82884563200008,13.701802998000062],[100.82871884700006,13.70184921300006],[100.82355156400007,13.66729304100005],[100.79908145100006,13.590620689000048],[100.77935212100004,13.594981586000074],[100.77477254800004,13.596326856000076],[100.77216344500005,13.553657159000068],[100.83247412000009,13.578644009000072],[100.85257063000006,13.645132942000032],[100.85934736500008,13.689560424000035]]]}},{"type":"Feature","properties":{"code":"110405","name":"บางหญ้าแพรก","parentCode":"1104"},"geometry":{"type":"Polygon","coordinates":[[[100.55468242000006,13.656393156000036],[100.53819965500008,13.659866660000034],[100.53412611000005,13.649273322000056],[100.54173423700007,13.628522754000073],[100.56478926400007,13.640797435000025],[100.55396091400007,13.650833659000057],[100.55468242000006,13.656393156000036]]]}},{"type":"Feature","properties":{"code":"110408","name":"บางยอ","parentCode":"1104"},"geometry":{"type":"Polygon","coordinates":[[[100.56423580400008,13.684278694000056],[100.55248804600006,13.689724858000034],[100.54996409700004,13.675845432000074],[100.54735667900007,13.672603031000051],[100.55829597600007,13.66918221900005],[100.56504415000006,13.676273395000067],[100.57193811500008,13.683471202000021],[100.56423580400008,13.684278694000056]]]}},{"type":"Feature","properties":{"code":"110205","name":"คลองด่าน","parentCode":"1102"},"geometry":{"type":"Polygon","coordinates":[[[100.86263488500003,13.546730996000065],[100.84756344500005,13.550575662000028],[100.77698507400004,13.520525471000042],[100.78037276600008,13.491971804000059],[100.84839130800003,13.478420328000027],[100.87744661000005,13.539942293000024],[100.87926438000005,13.546735721000061],[100.86263488500003,13.546730996000065]]]}},{"type":"Feature","properties":{"code":"110208","name":"คลองนิยมยาตรา","parentCode":"1102"},"geometry":{"type":"Polygon","coordinates":[[[100.96097103400007,13.636038575000043],[100.95298315200006,13.658603882000023],[100.94216081600007,13.65055574400003],[100.90713986500003,13.592049031000045],[100.96097103400007,13.636038575000043]]]}},{"type":"Feature","properties":{"code":"110206","name":"คลองสวน","parentCode":"1102"},"geometry":{"type":"Polygon","coordinates":[[[100.93755046400008,13.668675565000058],[100.91805437300007,13.67548110100006],[100.89944198300009,13.647809366000047],[100.91758485000008,13.641735651000033],[100.94216081600007,13.65055574400003],[100.95298315200006,13.658603882000023],[100.95582065100007,13.66237977000003],[100.93755046400008,13.668675565000058]]]}},{"type":"Feature","properties":{"code":"110503","name":"แหลมฟ้าผ่า","parentCode":"1105"},"geometry":{"type":"Polygon","coordinates":[[[100.58828622800007,13.587881375000052],[100.57701689300006,13.589326215000028],[100.53851163800005,13.565327472000035],[100.53028003900005,13.512322796000035],[100.46290473100004,13.500246778000076],[100.57243990400008,13.514939570000024],[100.59733268100007,13.538992501000052],[100.58274035500006,13.580127978000064],[100.58828622800007,13.587881375000052]]]}},{"type":"Feature","properties":{"code":"110501","name":"นาเกลือ","parentCode":"1105"},"geometry":{"type":"Polygon","coordinates":[[[100.53851163800005,13.565327472000035],[100.50924264300005,13.576753014000076],[100.50412550100003,13.552895275000026],[100.44659849100003,13.540908238000043],[100.45369343500005,13.501979764000055],[100.46290473100004,13.500246778000076],[100.53028003900005,13.512322796000035],[100.53851163800005,13.565327472000035]]]}},{"type":"Feature","properties":{"code":"110505","name":"ในคลองบางปลากด","parentCode":"1105"},"geometry":{"type":"Polygon","coordinates":[[[100.57701689300006,13.589326215000028],[100.54087356200006,13.609027357000059],[100.52103794300007,13.605141864000075],[100.51151138100005,13.596854386000075],[100.50924264300005,13.576753014000076],[100.53851163800005,13.565327472000035],[100.57701689300006,13.589326215000028]]]}},{"type":"Feature","properties":{"code":"110309","name":"หนองปรือ","parentCode":"1103"},"geometry":{"type":"Polygon","coordinates":[[[100.78335778600007,13.716618769000036],[100.76110053200006,13.71618537300003],[100.74238357500008,13.649629434000076],[100.79140194000007,13.661907910000025],[100.79067484300003,13.677215965000073],[100.78335778600007,13.716618769000036]]]}},{"type":"Feature","properties":{"code":"110504","name":"ปากคลองบางปลากด","parentCode":"1105"},"geometry":{"type":"Polygon","coordinates":[[[100.57116983700007,13.610910644000057],[100.55135740800006,13.618557683000063],[100.54087356200006,13.609027357000059],[100.57701689300006,13.589326215000028],[100.58828622800007,13.587881375000052],[100.58962461300007,13.608014122000043],[100.57116983700007,13.610910644000057]]]}},{"type":"Feature","properties":{"code":"110101","name":"ปากน้ำ","parentCode":"1101"},"geometry":{"type":"Polygon","coordinates":[[[100.60535097800005,13.573958313000048],[100.61042661400006,13.594056998000042],[100.59835549600007,13.607044934000044],[100.58702487100004,13.62884232600004],[100.58579987100006,13.629297049000058],[100.58962461300007,13.608014122000043],[100.58828622800007,13.587881375000052],[100.58274035500006,13.580127978000064],[100.60535097800005,13.573958313000048]]]}},{"type":"Feature","properties":{"code":"110110","name":"แพรกษา","parentCode":"1101"},"geometry":{"type":"Polygon","coordinates":[[[100.67357909500004,13.545840111000075],[100.66258278500004,13.59737827500004],[100.63100695100007,13.59927250100003],[100.62286535600003,13.589206878000027],[100.62553694000007,13.556081444000029],[100.67357909500004,13.545840111000075]]]}},{"type":"Feature","properties":{"code":"110117","name":"แพรกษาใหม่","parentCode":"1101"},"geometry":{"type":"Polygon","coordinates":[[[100.66850540100006,13.603844804000062],[100.64690156300009,13.612499115000048],[100.63100695100007,13.59927250100003],[100.66258278500004,13.59737827500004],[100.67357909500004,13.545840111000075],[100.70181858400008,13.532263553000064],[100.70113509000004,13.570538831000022],[100.66850540100006,13.603844804000062]]]}},{"type":"Feature","properties":{"code":"110207","name":"เปร็ง","parentCode":"1102"},"geometry":{"type":"Polygon","coordinates":[[[100.86802712500008,13.693765024000072],[100.86076681300005,13.696903409000072],[100.85934736500008,13.689560424000035],[100.85257063000006,13.645132942000032],[100.89775378700006,13.64083000200003],[100.89944198300009,13.647809366000047],[100.91805437300007,13.67548110100006],[100.88843158600008,13.686099011000067],[100.86802712500008,13.693765024000072]]]}},{"type":"Feature","properties":{"code":"110308","name":"ราชาเทวะ","parentCode":"1103"},"geometry":{"type":"Polygon","coordinates":[[[100.76110053200006,13.71618537300003],[100.70999435100003,13.716782075000026],[100.70998966200005,13.695167681000044],[100.70641271700003,13.678615355000034],[100.71799785900004,13.628413426000066],[100.74238357500008,13.649629434000076],[100.76110053200006,13.71618537300003]]]}},{"type":"Feature","properties":{"code":"110414","name":"สำโรง","parentCode":"1104"},"geometry":{"type":"Polygon","coordinates":[[[100.59314915600004,13.648470270000075],[100.59210252600008,13.663807903000077],[100.57945837800008,13.669222685000022],[100.57872044600003,13.668259785000032],[100.57044230900004,13.660650351000072],[100.59314915600004,13.648470270000075]]]}},{"type":"Feature","properties":{"code":"110415","name":"สำโรงกลาง","parentCode":"1104"},"geometry":{"type":"Polygon","coordinates":[[[100.59314915600004,13.648470270000075],[100.57044230900004,13.660650351000072],[100.55702982900004,13.655697796000027],[100.55468242000006,13.656393156000036],[100.55396091400007,13.650833659000057],[100.59180403300007,13.643380525000055],[100.59314915600004,13.648470270000075]]]}},{"type":"Feature","properties":{"code":"110102","name":"สำโรงเหนือ","parentCode":"1101"},"geometry":{"type":"Polygon","coordinates":[[[100.64480773300005,13.653638436000051],[100.59210252600008,13.663807903000077],[100.59314915600004,13.648470270000075],[100.62905742500004,13.628815343000042],[100.64480773300005,13.653638436000051]]]}},{"type":"Feature","properties":{"code":"110407","name":"สำโรงใต้","parentCode":"1104"},"geometry":{"type":"Polygon","coordinates":[[[100.59180403300007,13.643380525000055],[100.55396091400007,13.650833659000057],[100.56478926400007,13.640797435000025],[100.56877370000007,13.637330507000058],[100.57275507100007,13.633772863000047],[100.58579987100006,13.629297049000058],[100.58702487100004,13.62884232600004],[100.59001785900006,13.637925319000033],[100.59180403300007,13.643380525000055]]]}},{"type":"Feature","properties":{"code":"110602","name":"ศีรษะจรเข้น้อย","parentCode":"1106"},"geometry":{"type":"Polygon","coordinates":[[[100.82871884700006,13.70184921300006],[100.78795231600009,13.716605352000045],[100.78335778600007,13.716618769000036],[100.79067484300003,13.677215965000073],[100.82355156400007,13.66729304100005],[100.82871884700006,13.70184921300006]]]}},{"type":"Feature","properties":{"code":"110603","name":"ศีรษะจรเข้ใหญ่","parentCode":"1106"},"geometry":{"type":"Polygon","coordinates":[[[100.82355156400007,13.66729304100005],[100.79067484300003,13.677215965000073],[100.79140194000007,13.661907910000025],[100.77935212100004,13.594981586000074],[100.79908145100006,13.590620689000048],[100.82355156400007,13.66729304100005]]]}},{"type":"Feature","properties":{"code":"110413","name":"ทรงคนอง","parentCode":"1104"},"geometry":{"type":"Polygon","coordinates":[[[100.54735667900007,13.672603031000051],[100.52807754900005,13.673816612000053],[100.52878624800007,13.664834846000076],[100.53819965500008,13.659866660000034],[100.55468242000006,13.656393156000036],[100.55702982900004,13.655697796000027],[100.55829597600007,13.66918221900005],[100.54735667900007,13.672603031000051]]]}},{"type":"Feature","properties":{"code":"110401","name":"ตลาด","parentCode":"1104"},"geometry":{"type":"Polygon","coordinates":[[[100.53819965500008,13.659866660000034],[100.52878624800007,13.664834846000076],[100.53022176200005,13.650746600000048],[100.53412611000005,13.649273322000056],[100.53819965500008,13.659866660000034]]]}},{"type":"Feature","properties":{"code":"110104","name":"ท้ายบ้าน","parentCode":"1101"},"geometry":{"type":"Polygon","coordinates":[[[100.62150659600007,13.540634724000029],[100.60535097800005,13.573958313000048],[100.58274035500006,13.580127978000064],[100.59733268100007,13.538992501000052],[100.61502672700004,13.535640429000068],[100.62150659600007,13.540634724000029]]]}},{"type":"Feature","properties":{"code":"110116","name":"ท้ายบ้านใหม่","parentCode":"1101"},"geometry":{"type":"Polygon","coordinates":[[[100.62553694000007,13.556081444000029],[100.62286535600003,13.589206878000027],[100.61042661400006,13.594056998000042],[100.60535097800005,13.573958313000048],[100.62150659600007,13.540634724000029],[100.62553694000007,13.556081444000029]]]}},{"type":"Feature","properties":{"code":"110115","name":"เทพารักษ์","parentCode":"1101"},"geometry":{"type":"Polygon","coordinates":[[[100.62905742500004,13.628815343000042],[100.59314915600004,13.648470270000075],[100.59180403300007,13.643380525000055],[100.59001785900006,13.637925319000033],[100.62181254100005,13.622029196000028],[100.64690156300009,13.612499115000048],[100.66850540100006,13.603844804000062],[100.67061336300009,13.613903254000036],[100.62905742500004,13.628815343000042]]]}}]}