{"type":"FeatureCollection","features":[{"type":"Feature","properties":{"code":"120306","name":"บ้านใหม่","parentCode":"1203"},"geometry":{"type":"Polygon","coordinates":[[[100.34176289000004,13.883369329000061],[100.29681910800008,13.869552457000054],[100.31334667200008,13.834801424000034],[100.36116225500007,13.842411704000028],[100.36294221600008,13.880346387000031],[100.34176289000004,13.883369329000061]]]}},{"type":"Feature","properties":{"code":"120603","name":"บ้านใหม่","parentCode":"1206"},"geometry":{"type":"Polygon","coordinates":[[[100.56754835800007,13.951203277000047],[100.53902738900007,13.955698917000063],[100.52268407600008,13.943510795000066],[100.53183833200006,13.908400592000078],[100.55696743200008,13.906331849000026],[100.55889311700008,13.914457016000028],[100.56358727300005,13.934500067000045],[100.56754835800007,13.951203277000047]]]}},{"type":"Feature","properties":{"code":"120402","name":"บางบัวทอง","parentCode":"1204"},"geometry":{"type":"Polygon","coordinates":[[[100.42455129400008,13.919121141000062],[100.42654869100005,13.923622657000067],[100.35576105900009,14.000445546000037],[100.35268146600004,13.998502889000065],[100.34964639500004,13.996636059000025],[100.35623821600007,13.949894720000032],[100.41548650500005,13.917145324000046],[100.42455129400008,13.919121141000062]]]}},{"type":"Feature","properties":{"code":"120204","name":"บางขนุน","parentCode":"1202"},"geometry":{"type":"Polygon","coordinates":[[[100.46602201200005,13.825329969000052],[100.46365302400005,13.827161086000046],[100.44501785900007,13.808627731000058],[100.45421819000006,13.803287781000051],[100.47149911100007,13.815940845000057],[100.46602201200005,13.825329969000052]]]}},{"type":"Feature","properties":{"code":"120103","name":"บางเขน","parentCode":"1201"},"geometry":{"type":"Polygon","coordinates":[[[100.54362947200008,13.849628112000062],[100.54919873800009,13.873047406000069],[100.53556117700003,13.86792022800006],[100.52657681000005,13.85691505400007],[100.50471406200006,13.826030850000052],[100.50734355800006,13.821377377000033],[100.54362947200008,13.849628112000062]]]}},{"type":"Feature","properties":{"code":"120404","name":"บางคูรัด","parentCode":"1204"},"geometry":{"type":"Polygon","coordinates":[[[100.37290598600003,13.924568846000057],[100.33912114000003,13.928749918000051],[100.33055074500004,13.921530104000055],[100.34176289000004,13.883369329000061],[100.36294221600008,13.880346387000031],[100.37194322600004,13.911599960000046],[100.37290598600003,13.924568846000057]]]}},{"type":"Feature","properties":{"code":"120206","name":"บางคูเวียง","parentCode":"1202"},"geometry":{"type":"Polygon","coordinates":[[[100.42760873600008,13.833864894000044],[100.42547856500005,13.836702397000067],[100.40302642000006,13.82399945800006],[100.41321834200005,13.805200357000047],[100.42460767000006,13.817594882000037],[100.43033102100009,13.832213662000072],[100.42760873600008,13.833864894000044]]]}},{"type":"Feature","properties":{"code":"120205","name":"บางขุนกอง","parentCode":"1202"},"geometry":{"type":"Polygon","coordinates":[[[100.45913506400007,13.830072598000072],[100.43033102100009,13.832213662000072],[100.42460767000006,13.817594882000037],[100.44501785900007,13.808627731000058],[100.46365302400005,13.827161086000046],[100.45913506400007,13.830072598000072]]]}},{"type":"Feature","properties":{"code":"120108","name":"บางกร่าง","parentCode":"1201"},"geometry":{"type":"Polygon","coordinates":[[[100.46963653800003,13.848448510000026],[100.44824598400004,13.86449206900005],[100.42760873600008,13.833864894000044],[100.43033102100009,13.832213662000072],[100.45913506400007,13.830072598000072],[100.47011258700007,13.848558609000065],[100.46963653800003,13.848448510000026]]]}},{"type":"Feature","properties":{"code":"120104","name":"บางกระสอ","parentCode":"1201"},"geometry":{"type":"Polygon","coordinates":[[[100.53556117700003,13.86792022800006],[100.48468860300005,13.885474996000028],[100.47784732900004,13.859759975000031],[100.48388157100004,13.86061700700003],[100.52657681000005,13.85691505400007],[100.53556117700003,13.86792022800006]]]}},{"type":"Feature","properties":{"code":"120202","name":"บางกรวย","parentCode":"1202"},"geometry":{"type":"Polygon","coordinates":[[[100.48336887500005,13.79421534100004],[100.49427238000004,13.798142494000047],[100.51525513000007,13.813274840000076],[100.50740059800006,13.816038387000049],[100.50235003400007,13.819494598000063],[100.49134071900005,13.809561513000062],[100.48339175400008,13.806175477000068],[100.48336887500005,13.79421534100004]]]}},{"type":"Feature","properties":{"code":"120303","name":"บางเลน","parentCode":"1203"},"geometry":{"type":"Polygon","coordinates":[[[100.42760873600008,13.833864894000044],[100.44824598400004,13.86449206900005],[100.44792779800008,13.867365125000049],[100.42870252200004,13.863018187000023],[100.42436910900005,13.852237714000069],[100.42547856500005,13.836702397000067],[100.42760873600008,13.833864894000044]]]}},{"type":"Feature","properties":{"code":"120302","name":"บางแม่นาง","parentCode":"1203"},"geometry":{"type":"Polygon","coordinates":[[[100.41635224500004,13.851543651000043],[100.37958777500006,13.896769027000062],[100.37194322600004,13.911599960000046],[100.36294221600008,13.880346387000031],[100.36116225500007,13.842411704000028],[100.39495177100008,13.84830462800005],[100.41635224500004,13.851543651000043]]]}},{"type":"Feature","properties":{"code":"120301","name":"บางม่วง","parentCode":"1203"},"geometry":{"type":"Polygon","coordinates":[[[100.42436910900005,13.852237714000069],[100.41635224500004,13.851543651000043],[100.39495177100008,13.84830462800005],[100.34809665600005,13.824753517000033],[100.39168153400004,13.825901377000037],[100.40302642000006,13.82399945800006],[100.42547856500005,13.836702397000067],[100.42436910900005,13.852237714000069]]]}},{"type":"Feature","properties":{"code":"120106","name":"บางไผ่","parentCode":"1201"},"geometry":{"type":"Polygon","coordinates":[[[100.50235003400007,13.819494598000063],[100.49064418000006,13.840092730000038],[100.48203903600006,13.822424898000065],[100.49134071900005,13.809561513000062],[100.50235003400007,13.819494598000063]]]}},{"type":"Feature","properties":{"code":"120611","name":"บางพลับ","parentCode":"1206"},"geometry":{"type":"Polygon","coordinates":[[[100.46601211600006,13.936363124000025],[100.45076997000007,13.948202210000034],[100.44448811200004,13.936254219000034],[100.44132454200007,13.920603310000047],[100.44584417500005,13.919935206000048],[100.46915030700006,13.917640813000048],[100.47458322200004,13.918298529000026],[100.46601211600006,13.936363124000025]]]}},{"type":"Feature","properties":{"code":"120604","name":"บางพูด","parentCode":"1206"},"geometry":{"type":"Polygon","coordinates":[[[100.52267288600007,13.943510532000062],[100.50178209800004,13.936718788000064],[100.49931617000004,13.925311892000025],[100.52835707400004,13.909094595000056],[100.53183833200006,13.908400592000078],[100.52268407600008,13.943510795000066],[100.52267288600007,13.943510532000062]]]}},{"type":"Feature","properties":{"code":"120110","name":"บางรักน้อย","parentCode":"1201"},"geometry":{"type":"Polygon","coordinates":[[[100.46963653800003,13.848448510000026],[100.46217724300004,13.891973585000073],[100.44963300400008,13.889118015000065],[100.44792779800008,13.867365125000049],[100.44824598400004,13.86449206900005],[100.46963653800003,13.848448510000026]]]}},{"type":"Feature","properties":{"code":"120408","name":"บางรักพัฒนา","parentCode":"1204"},"geometry":{"type":"Polygon","coordinates":[[[100.43934527400006,13.899410289000059],[100.38695904800005,13.912476512000069],[100.37290598600003,13.924568846000057],[100.37194322600004,13.911599960000046],[100.37958777500006,13.896769027000062],[100.42103940400006,13.869021717000066],[100.44906746000004,13.891717911000057],[100.44785001000008,13.897937542000022],[100.43934527400006,13.899410289000059]]]}},{"type":"Feature","properties":{"code":"120403","name":"บางรักใหญ่","parentCode":"1204"},"geometry":{"type":"Polygon","coordinates":[[[100.44906746000004,13.891717911000057],[100.42103940400006,13.869021717000066],[100.42870252200004,13.863018187000023],[100.44792779800008,13.867365125000049],[100.44963300400008,13.889118015000065],[100.44906746000004,13.891717911000057]]]}},{"type":"Feature","properties":{"code":"120107","name":"บางศรีเมือง","parentCode":"1201"},"geometry":{"type":"Polygon","coordinates":[[[100.49064418000006,13.840092730000038],[100.47945678800005,13.85500311900006],[100.47011258700007,13.848558609000065],[100.45913506400007,13.830072598000072],[100.46365302400005,13.827161086000046],[100.46602201200005,13.825329969000052],[100.48203903600006,13.822424898000065],[100.49064418000006,13.840092730000038]]]}},{"type":"Feature","properties":{"code":"120203","name":"บางสีทอง","parentCode":"1202"},"geometry":{"type":"Polygon","coordinates":[[[100.48203903600006,13.822424898000065],[100.46602201200005,13.825329969000052],[100.47149911100007,13.815940845000057],[100.48339175400008,13.806175477000068],[100.49134071900005,13.809561513000062],[100.48203903600006,13.822424898000065]]]}},{"type":"Feature","properties":{"code":"120602","name":"บางตลาด","parentCode":"1206"},"geometry":{"type":"Polygon","coordinates":[[[100.52947389100007,13.904038767000031],[100.49089470300004,13.904112773000065],[100.48894758200004,13.899079073000053],[100.49041229700003,13.894419043000028],[100.55028518200004,13.877585603000057],[100.55435750400005,13.895301764000067],[100.52947389100007,13.904038767000031]]]}},{"type":"Feature","properties":{"code":"120605","name":"บางตะไนย์","parentCode":"1206"},"geometry":{"type":"Polygon","coordinates":[[[100.50178209800004,13.936718788000064],[100.48738511700009,13.945141245000059],[100.47868663300005,13.943282477000025],[100.49114385500008,13.914651713000069],[100.49931617000004,13.925311892000025],[100.50178209800004,13.936718788000064]]]}},{"type":"Feature","properties":{"code":"120305","name":"บางใหญ่","parentCode":"1203"},"geometry":{"type":"Polygon","coordinates":[[[100.34809665600005,13.824753517000033],[100.39495177100008,13.84830462800005],[100.36116225500007,13.842411704000028],[100.31334667200008,13.834801424000034],[100.31920486400008,13.822555284000032],[100.34809665600005,13.824753517000033]]]}},{"type":"Feature","properties":{"code":"120610","name":"คลองข่อย","parentCode":"1206"},"geometry":{"type":"Polygon","coordinates":[[[100.42333158100007,13.98385035800004],[100.38108060700006,13.994775593000043],[100.38049918000007,13.988812153000026],[100.39712843100006,13.984488116000023],[100.45076997000007,13.948202210000034],[100.46601211600006,13.936363124000025],[100.47868663300005,13.943282477000025],[100.48738511700009,13.945141245000059],[100.46226204000004,13.97165383500004],[100.42333158100007,13.98385035800004]]]}},{"type":"Feature","properties":{"code":"120506","name":"คลองขวาง","parentCode":"1205"},"geometry":{"type":"Polygon","coordinates":[[[100.35268146600004,13.998502889000065],[100.32484099600003,14.060640377000027],[100.30092178500007,14.025403792000077],[100.31018560900009,13.979630798000073],[100.34964639500004,13.996636059000025],[100.35268146600004,13.998502889000065]]]}},{"type":"Feature","properties":{"code":"120612","name":"คลองเกลือ","parentCode":"1206"},"geometry":{"type":"Polygon","coordinates":[[[100.53183833200006,13.908400592000078],[100.52835707400004,13.909094595000056],[100.52947389100007,13.904038767000031],[100.55435750400005,13.895301764000067],[100.55696743200008,13.906331849000026],[100.53183833200006,13.908400592000078]]]}},{"type":"Feature","properties":{"code":"120606","name":"คลองพระอุดม","parentCode":"1206"},"geometry":{"type":"Polygon","coordinates":[[[100.49114385500008,13.914651713000069],[100.47868663300005,13.943282477000025],[100.46601211600006,13.936363124000025],[100.47458322200004,13.918298529000026],[100.49114385500008,13.914651713000069]]]}},{"type":"Feature","properties":{"code":"120505","name":"ขุนศรี","parentCode":"1205"},"geometry":{"type":"Polygon","coordinates":[[[100.30233141600007,14.03808738600003],[100.26708626300007,14.045171824000022],[100.26242900800008,13.99812071100007],[100.29821991900008,13.963371049000045],[100.30487097400004,13.972078249000049],[100.31018560900009,13.979630798000073],[100.30092178500007,14.025403792000077],[100.30233141600007,14.03808738600003]]]}},{"type":"Feature","properties":{"code":"120608","name":"เกาะเกร็ด","parentCode":"1206"},"geometry":{"type":"Polygon","coordinates":[[[100.47458322200004,13.918298529000026],[100.46915030700006,13.917640813000048],[100.46726179100006,13.909404993000066],[100.48894758200004,13.899079073000053],[100.49089470300004,13.904112773000065],[100.49114385500008,13.914651713000069],[100.47458322200004,13.918298529000026]]]}},{"type":"Feature","properties":{"code":"120405","name":"ละหาร","parentCode":"1204"},"geometry":{"type":"Polygon","coordinates":[[[100.38049918000007,13.988812153000026],[100.35576105900009,14.000445546000037],[100.42654869100005,13.923622657000067],[100.44132454200007,13.920603310000047],[100.44448811200004,13.936254219000034],[100.39712843100006,13.984488116000023],[100.38049918000007,13.988812153000026]]]}},{"type":"Feature","properties":{"code":"120406","name":"ลำโพ","parentCode":"1204"},"geometry":{"type":"Polygon","coordinates":[[[100.45076997000007,13.948202210000034],[100.39712843100006,13.984488116000023],[100.44448811200004,13.936254219000034],[100.45076997000007,13.948202210000034]]]}},{"type":"Feature","properties":{"code":"120207","name":"มหาสวัสดิ์","parentCode":"1202"},"geometry":{"type":"Polygon","coordinates":[[[100.46415429100006,13.797313860000031],[100.45421819000006,13.803287781000051],[100.44501785900007,13.808627731000058],[100.42460767000006,13.817594882000037],[100.41321834200005,13.805200357000047],[100.41517794600009,13.801156540000022],[100.42524563900008,13.80056091800003],[100.46415429100006,13.797313860000031]]]}},{"type":"Feature","properties":{"code":"120503","name":"หนองเพรางาย","parentCode":"1205"},"geometry":{"type":"Polygon","coordinates":[[[100.33055074500004,13.921530104000055],[100.27492145800005,13.934871507000025],[100.28597582100008,13.892333072000042],[100.29681910800008,13.869552457000054],[100.34176289000004,13.883369329000061],[100.33055074500004,13.921530104000055]]]}},{"type":"Feature","properties":{"code":"120609","name":"อ้อมเกร็ด","parentCode":"1206"},"geometry":{"type":"Polygon","coordinates":[[[100.46915030700006,13.917640813000048],[100.44584417500005,13.919935206000048],[100.43934527400006,13.899410289000059],[100.44785001000008,13.897937542000022],[100.46726179100006,13.909404993000066],[100.46915030700006,13.917640813000048]]]}},{"type":"Feature","properties":{"code":"120601","name":"ปากเกร็ด","parentCode":"1206"},"geometry":{"type":"Polygon","coordinates":[[[100.52835707400004,13.909094595000056],[100.49931617000004,13.925311892000025],[100.49114385500008,13.914651713000069],[100.49089470300004,13.904112773000065],[100.52947389100007,13.904038767000031],[100.52835707400004,13.909094595000056]]]}},{"type":"Feature","properties":{"code":"120407","name":"พิมลราช","parentCode":"1204"},"geometry":{"type":"Polygon","coordinates":[[[100.41548650500005,13.917145324000046],[100.35623821600007,13.949894720000032],[100.35044744100009,13.942350153000064],[100.33912114000003,13.928749918000051],[100.37290598600003,13.924568846000057],[100.38695904800005,13.912476512000069],[100.43934527400006,13.899410289000059],[100.44584417500005,13.919935206000048],[100.44132454200007,13.920603310000047],[100.42654869100005,13.923622657000067],[100.42455129400008,13.919121141000062],[100.42852963500007,13.90951399100004],[100.41561096700008,13.908070632000033],[100.41548650500005,13.917145324000046]]]}},{"type":"Feature","properties":{"code":"120208","name":"ปลายบาง","parentCode":"1202"},"geometry":{"type":"Polygon","coordinates":[[[100.41321834200005,13.805200357000047],[100.40302642000006,13.82399945800006],[100.39168153400004,13.825901377000037],[100.39873887500005,13.801813812000034],[100.41105770500008,13.801346720000026],[100.41517794600009,13.801156540000022],[100.41321834200005,13.805200357000047]]]}},{"type":"Feature","properties":{"code":"120502","name":"ราษฎร์นิยม","parentCode":"1205"},"geometry":{"type":"Polygon","coordinates":[[[100.35576105900009,14.000445546000037],[100.33163955700007,14.056358135000039],[100.34150445900008,14.100929436000058],[100.34404018300006,14.115030502000025],[100.30820874700004,14.136428943000055],[100.30233141600007,14.03808738600003],[100.30092178500007,14.025403792000077],[100.32484099600003,14.060640377000027],[100.35268146600004,13.998502889000065],[100.35576105900009,14.000445546000037]]]}},{"type":"Feature","properties":{"code":"120109","name":"ไทรม้า","parentCode":"1201"},"geometry":{"type":"Polygon","coordinates":[[[100.48468860300005,13.885474996000028],[100.46217724300004,13.891973585000073],[100.46963653800003,13.848448510000026],[100.47011258700007,13.848558609000065],[100.47945678800005,13.85500311900006],[100.47784732900004,13.859759975000031],[100.48468860300005,13.885474996000028]]]}},{"type":"Feature","properties":{"code":"120501","name":"ไทรน้อย","parentCode":"1205"},"geometry":{"type":"Polygon","coordinates":[[[100.34964639500004,13.996636059000025],[100.31018560900009,13.979630798000073],[100.30487097400004,13.972078249000049],[100.35044744100009,13.942350153000064],[100.35623821600007,13.949894720000032],[100.34964639500004,13.996636059000025]]]}},{"type":"Feature","properties":{"code":"120504","name":"ไทรใหญ่","parentCode":"1205"},"geometry":{"type":"Polygon","coordinates":[[[100.30233141600007,14.03808738600003],[100.30820874700004,14.136428943000055],[100.28179029100005,14.126881928000046],[100.27710665600006,14.101211371000034],[100.27094645200003,14.066585660000044],[100.26708626300007,14.045171824000022],[100.30233141600007,14.03808738600003]]]}},{"type":"Feature","properties":{"code":"120209","name":"ศาลากลาง","parentCode":"1202"},"geometry":{"type":"Polygon","coordinates":[[[100.39168153400004,13.825901377000037],[100.34809665600005,13.824753517000033],[100.31920486400008,13.822555284000032],[100.32791238700008,13.80412552100006],[100.39873887500005,13.801813812000034],[100.39168153400004,13.825901377000037]]]}},{"type":"Feature","properties":{"code":"120401","name":"โสนลอย","parentCode":"1204"},"geometry":{"type":"Polygon","coordinates":[[[100.42455129400008,13.919121141000062],[100.41548650500005,13.917145324000046],[100.41561096700008,13.908070632000033],[100.42852963500007,13.90951399100004],[100.42455129400008,13.919121141000062]]]}},{"type":"Feature","properties":{"code":"120304","name":"เสาธงหิน","parentCode":"1203"},"geometry":{"type":"Polygon","coordinates":[[[100.42103940400006,13.869021717000066],[100.37958777500006,13.896769027000062],[100.41635224500004,13.851543651000043],[100.42436910900005,13.852237714000069],[100.42870252200004,13.863018187000023],[100.42103940400006,13.869021717000066]]]}},{"type":"Feature","properties":{"code":"120101","name":"สวนใหญ่","parentCode":"1201"},"geometry":{"type":"Polygon","coordinates":[[[100.48388157100004,13.86061700700003],[100.47784732900004,13.859759975000031],[100.47945678800005,13.85500311900006],[100.49064418000006,13.840092730000038],[100.50235003400007,13.819494598000063],[100.50740059800006,13.816038387000049],[100.50734355800006,13.821377377000033],[100.50471406200006,13.826030850000052],[100.48388157100004,13.86061700700003]]]}},{"type":"Feature","properties":{"code":"120102","name":"ตลาดขวัญ","parentCode":"1201"},"geometry":{"type":"Polygon","coordinates":[[[100.52657681000005,13.85691505400007],[100.48388157100004,13.86061700700003],[100.50471406200006,13.826030850000052],[100.52657681000005,13.85691505400007]]]}},{"type":"Feature","properties":{"code":"120607","name":"ท่าอิฐ","parentCode":"1206"},"geometry":{"type":"Polygon","coordinates":[[[100.46726179100006,13.909404993000066],[100.44785001000008,13.897937542000022],[100.44906746000004,13.891717911000057],[100.44963300400008,13.889118015000065],[100.46217724300004,13.891973585000073],[100.48468860300005,13.885474996000028],[100.49041229700003,13.894419043000028],[100.48894758200004,13.899079073000053],[100.46726179100006,13.909404993000066]]]}},{"type":"Feature","properties":{"code":"120105","name":"ท่าทราย","parentCode":"1201"},"geometry":{"type":"Polygon","coordinates":[[[100.55028518200004,13.877585603000057],[100.49041229700003,13.894419043000028],[100.48468860300005,13.885474996000028],[100.53556117700003,13.86792022800006],[100.54919873800009,13.873047406000069],[100.55028518200004,13.877585603000057]]]}},{"type":"Feature","properties":{"code":"120507","name":"ทวีวัฒนา","parentCode":"1205"},"geometry":{"type":"Polygon","coordinates":[[[100.35044744100009,13.942350153000064],[100.30487097400004,13.972078249000049],[100.29821991900008,13.963371049000045],[100.27492145800005,13.934871507000025],[100.33055074500004,13.921530104000055],[100.33912114000003,13.928749918000051],[100.35044744100009,13.942350153000064]]]}},{"type":"Feature","properties":{"code":"120201","name":"วัดชลอ","parentCode":"1202"},"geometry":{"type":"Polygon","coordinates":[[[100.47149911100007,13.815940845000057],[100.45421819000006,13.803287781000051],[100.46415429100006,13.797313860000031],[100.46617687000008,13.788917403000028],[100.48336887500005,13.79421534100004],[100.48339175400008,13.806175477000068],[100.47149911100007,13.815940845000057]]]}}]}