{"type":"FeatureCollection","features":[{"type":"Feature","properties":{"code":"130104","name":"บ้านฉาง","parentCode":"1301"},"geometry":{"type":"Polygon","coordinates":[[[100.52440625900005,14.031857674000037],[100.49660436000005,14.047146387000055],[100.48963414900004,14.02604565200005],[100.52836835600004,13.99136309000005],[100.53444006300003,13.995557723000047],[100.52440625900005,14.031857674000037]]]}},{"type":"Feature","properties":{"code":"130103","name":"บ้านกลาง","parentCode":"1301"},"geometry":{"type":"Polygon","coordinates":[[[100.55730820300005,14.02330312500004],[100.53894966100006,14.026274914000055],[100.53977327800004,14.002259751000054],[100.56733725400005,13.989731952000056],[100.57995900900005,14.002511673000072],[100.55730820300005,14.02330312500004]]]}},{"type":"Feature","properties":{"code":"130105","name":"บ้านกระแชง","parentCode":"1301"},"geometry":{"type":"Polygon","coordinates":[[[100.56659097500005,14.038689238000075],[100.55440937700007,14.042170639000062],[100.54667159000007,14.034843451000029],[100.54290177700005,14.030043560000024],[100.53894966100006,14.026274914000055],[100.55730820300005,14.02330312500004],[100.56435561000006,14.031275804000074],[100.56659097500005,14.038689238000075]]]}},{"type":"Feature","properties":{"code":"130102","name":"บ้านใหม่","parentCode":"1301"},"geometry":{"type":"Polygon","coordinates":[[[100.57017961400004,13.978999822000048],[100.53366421600003,13.966663913000048],[100.53902738900007,13.955698917000063],[100.56754835800007,13.951203277000047],[100.56763971400005,13.951587303000053],[100.57159179400008,13.972831865000046],[100.57017961400004,13.978999822000048]]]}},{"type":"Feature","properties":{"code":"130708","name":"บ้านงิ้ว","parentCode":"1307"},"geometry":{"type":"Polygon","coordinates":[[[100.55515819300007,14.083408297000062],[100.54546725000006,14.097390833000077],[100.52715175300006,14.085468709000054],[100.52404244800005,14.076665733000027],[100.53241313300003,14.066537930000038],[100.55515819300007,14.083408297000062]]]}},{"type":"Feature","properties":{"code":"130707","name":"บ้านปทุม","parentCode":"1307"},"geometry":{"type":"Polygon","coordinates":[[[100.58927953600005,14.074245553000026],[100.58607267200006,14.096138111000073],[100.55515819300007,14.083408297000062],[100.53241313300003,14.066537930000038],[100.54548735400004,14.056015849000062],[100.55320432300005,14.050792682000065],[100.58509059100004,14.073331608000046],[100.58927953600005,14.074245553000026]]]}},{"type":"Feature","properties":{"code":"130109","name":"บางเดื่อ","parentCode":"1301"},"geometry":{"type":"Polygon","coordinates":[[[100.52690665900008,13.988627293000036],[100.44991851100008,14.015587683000035],[100.47034642900007,13.99348443100007],[100.50585302900004,13.977690324000037],[100.52698097700005,13.974661501000071],[100.52690665900008,13.988627293000036]]]}},{"type":"Feature","properties":{"code":"130112","name":"บางกะดี","parentCode":"1301"},"geometry":{"type":"Polygon","coordinates":[[[100.56733725400005,13.989731952000056],[100.53977327800004,14.002259751000054],[100.53444006300003,13.995557723000047],[100.52836835600004,13.99136309000005],[100.52690665900008,13.988627293000036],[100.52698097700005,13.974661501000071],[100.53366421600003,13.966663913000048],[100.57017961400004,13.978999822000048],[100.56733725400005,13.989731952000056]]]}},{"type":"Feature","properties":{"code":"130106","name":"บางขะแยง","parentCode":"1301"},"geometry":{"type":"Polygon","coordinates":[[[100.52698097700005,13.974661501000071],[100.50585302900004,13.977690324000037],[100.52267288600007,13.943510532000062],[100.52268407600008,13.943510795000066],[100.53902738900007,13.955698917000063],[100.53366421600003,13.966663913000048],[100.52698097700005,13.974661501000071]]]}},{"type":"Feature","properties":{"code":"130107","name":"บางคูวัด","parentCode":"1301"},"geometry":{"type":"Polygon","coordinates":[[[100.47034642900007,13.99348443100007],[100.46226204000004,13.97165383500004],[100.48738511700009,13.945141245000059],[100.50178209800004,13.936718788000064],[100.52267288600007,13.943510532000062],[100.50585302900004,13.977690324000037],[100.47034642900007,13.99348443100007]]]}},{"type":"Feature","properties":{"code":"130710","name":"บางกระบือ","parentCode":"1307"},"geometry":{"type":"Polygon","coordinates":[[[100.55136656300004,14.111092880000058],[100.54068175300006,14.118091312000047],[100.53687435900008,14.118043709000062],[100.50085087800005,14.094538271000033],[100.52715175300006,14.085468709000054],[100.54546725000006,14.097390833000077],[100.55136656300004,14.111092880000058]]]}},{"type":"Feature","properties":{"code":"130108","name":"บางหลวง","parentCode":"1301"},"geometry":{"type":"Polygon","coordinates":[[[100.48963414900004,14.02604565200005],[100.44991851100008,14.015587683000035],[100.52690665900008,13.988627293000036],[100.52836835600004,13.99136309000005],[100.48963414900004,14.02604565200005]]]}},{"type":"Feature","properties":{"code":"130705","name":"บางโพธิ์เหนือ","parentCode":"1307"},"geometry":{"type":"Polygon","coordinates":[[[100.52520087500005,14.04201659000006],[100.51121654000008,14.047704315000033],[100.48149418900005,14.05867820900005],[100.49660436000005,14.047146387000055],[100.52440625900005,14.031857674000037],[100.54290177700005,14.030043560000024],[100.54667159000007,14.034843451000029],[100.52520087500005,14.04201659000006]]]}},{"type":"Feature","properties":{"code":"130111","name":"บางพูน","parentCode":"1301"},"geometry":{"type":"Polygon","coordinates":[[[100.60074485100006,14.001362323000023],[100.57995900900005,14.002511673000072],[100.56733725400005,13.989731952000056],[100.57017961400004,13.978999822000048],[100.57159179400008,13.972831865000046],[100.60326120500008,13.98084600900006],[100.60142998200007,13.99560950600005],[100.60074485100006,14.001362323000023]]]}},{"type":"Feature","properties":{"code":"130110","name":"บางพูด","parentCode":"1301"},"geometry":{"type":"Polygon","coordinates":[[[100.59753695000006,14.027212475000056],[100.58927953600005,14.074245553000026],[100.58509059100004,14.073331608000046],[100.56659097500005,14.038689238000075],[100.56435561000006,14.031275804000074],[100.59753695000006,14.027212475000056]]]}},{"type":"Feature","properties":{"code":"130101","name":"บางปรอก","parentCode":"1301"},"geometry":{"type":"Polygon","coordinates":[[[100.54290177700005,14.030043560000024],[100.52440625900005,14.031857674000037],[100.53444006300003,13.995557723000047],[100.53977327800004,14.002259751000054],[100.53894966100006,14.026274914000055],[100.54290177700005,14.030043560000024]]]}},{"type":"Feature","properties":{"code":"130701","name":"บางเตย","parentCode":"1307"},"geometry":{"type":"Polygon","coordinates":[[[100.52404244800005,14.076665733000027],[100.49515354800008,14.073196992000021],[100.43000758700003,14.114292481000064],[100.42208307800007,14.113991793000025],[100.42994464100008,14.095748746000027],[100.45215141200003,14.08727000500005],[100.48149418900005,14.05867820900005],[100.51121654000008,14.047704315000033],[100.53241313300003,14.066537930000038],[100.52404244800005,14.076665733000027]]]}},{"type":"Feature","properties":{"code":"130506","name":"บ่อเงิน","parentCode":"1305"},"geometry":{"type":"Polygon","coordinates":[[[100.42208307800007,14.113991793000025],[100.39766328600007,14.115079372000025],[100.34413741500003,14.11494637800007],[100.34404018300006,14.115030502000025],[100.34150445900008,14.100929436000058],[100.34626336400004,14.099114506000035],[100.42283346600004,14.060658626000077],[100.42994464100008,14.095748746000027],[100.42208307800007,14.113991793000025]]]}},{"type":"Feature","properties":{"code":"130401","name":"บึงบา","parentCode":"1304"},"geometry":{"type":"Polygon","coordinates":[[[100.84608580100007,14.15795238000004],[100.80079704700006,14.157500626000058],[100.80091854200003,14.131682343000023],[100.80116945400005,14.06016715900006],[100.84645590800005,14.07577881900005],[100.84610052500005,14.153744232000065],[100.84608580100007,14.15795238000004]]]}},{"type":"Feature","properties":{"code":"130402","name":"บึงบอน","parentCode":"1304"},"geometry":{"type":"Polygon","coordinates":[[[100.80116945400005,14.06016715900006],[100.80091854200003,14.131682343000023],[100.75535357400008,14.112878636000062],[100.75550331600004,14.044766109000022],[100.80116945400005,14.06016715900006]]]}},{"type":"Feature","properties":{"code":"130404","name":"บึงชำอ้อ","parentCode":"1304"},"geometry":{"type":"Polygon","coordinates":[[[100.80079704700006,14.157500626000058],[100.80019516600004,14.232537109000077],[100.77603842200006,14.221068651000053],[100.75505067800003,14.211074445000065],[100.75535357400008,14.112878636000062],[100.80091854200003,14.131682343000023],[100.80079704700006,14.157500626000058]]]}},{"type":"Feature","properties":{"code":"130403","name":"บึงกาสาม","parentCode":"1304"},"geometry":{"type":"Polygon","coordinates":[[[100.84608580100007,14.15795238000004],[100.84586794900008,14.254258483000058],[100.82149886400003,14.242746399000055],[100.80019516600004,14.232537109000077],[100.80079704700006,14.157500626000058],[100.84608580100007,14.15795238000004]]]}},{"type":"Feature","properties":{"code":"130603","name":"บึงคำพร้อย","parentCode":"1306"},"geometry":{"type":"Polygon","coordinates":[[[100.74766932600005,13.918191257000046],[100.75559026800005,14.013763089000065],[100.70622236900005,13.993874178000056],[100.70284829600007,13.916738001000056],[100.72868834300004,13.91745859100007],[100.74766932600005,13.918191257000046]]]}},{"type":"Feature","properties":{"code":"130607","name":"บึงคอไห","parentCode":"1306"},"geometry":{"type":"Polygon","coordinates":[[[100.91446162200003,14.008405539000023],[100.91483620300005,14.068209147000061],[100.84598464200008,14.043783294000036],[100.84434455800005,14.009392711000032],[100.88160270000009,14.005834901000071],[100.91446162200003,14.008405539000023]]]}},{"type":"Feature","properties":{"code":"130306","name":"บึงน้ำรักษ์","parentCode":"1303"},"geometry":{"type":"Polygon","coordinates":[[[100.91475820200009,14.08397640800007],[100.91413830700009,14.09962936200003],[100.84645590800005,14.07577881900005],[100.84599104200004,14.044051411000055],[100.84598464200008,14.043783294000036],[100.91483620300005,14.068209147000061],[100.91475820200009,14.08397640800007]]]}},{"type":"Feature","properties":{"code":"130305","name":"บึงสนั่น","parentCode":"1303"},"geometry":{"type":"Polygon","coordinates":[[[100.84599104200004,14.044051411000055],[100.84645590800005,14.07577881900005],[100.80116945400005,14.06016715900006],[100.80054401400008,14.02931618200006],[100.80047497800007,14.028365548000068],[100.84599104200004,14.044051411000055]]]}},{"type":"Feature","properties":{"code":"130605","name":"บึงทองหลาง","parentCode":"1306"},"geometry":{"type":"Polygon","coordinates":[[[100.79259794100005,13.931520458000023],[100.83944730700006,13.936520151000025],[100.84434455800005,14.009392711000032],[100.84598464200008,14.043783294000036],[100.84599104200004,14.044051411000055],[100.80047497800007,14.028365548000068],[100.79259794100005,13.931520458000023]]]}},{"type":"Feature","properties":{"code":"130302","name":"บึงยี่โถ","parentCode":"1303"},"geometry":{"type":"Polygon","coordinates":[[[100.70622236900005,13.993874178000056],[100.70985976900005,14.023861124000064],[100.69875284800008,14.01847052200003],[100.67633916500006,14.009045729000036],[100.66402458200008,14.008168384000044],[100.66348367400008,13.97945035500004],[100.70622236900005,13.993874178000056]]]}},{"type":"Feature","properties":{"code":"130709","name":"เชียงรากน้อย","parentCode":"1307"},"geometry":{"type":"Polygon","coordinates":[[[100.58607267200006,14.096138111000073],[100.58213962500008,14.128636878000066],[100.58047096700005,14.127746356000046],[100.55136656300004,14.111092880000058],[100.54546725000006,14.097390833000077],[100.55515819300007,14.083408297000062],[100.58607267200006,14.096138111000073]]]}},{"type":"Feature","properties":{"code":"130706","name":"เชียงรากใหญ่","parentCode":"1307"},"geometry":{"type":"Polygon","coordinates":[[[100.58509059100004,14.073331608000046],[100.55320432300005,14.050792682000065],[100.55440937700007,14.042170639000062],[100.56659097500005,14.038689238000075],[100.58509059100004,14.073331608000046]]]}},{"type":"Feature","properties":{"code":"130207","name":"คลองเจ็ด","parentCode":"1302"},"geometry":{"type":"Polygon","coordinates":[[[100.75535357400008,14.112878636000062],[100.75505067800003,14.211074445000065],[100.74344027700005,14.20552546600004],[100.74419504500008,14.04016107700005],[100.75550331600004,14.044766109000022],[100.75535357400008,14.112878636000062]]]}},{"type":"Feature","properties":{"code":"130205","name":"คลองห้า","parentCode":"1302"},"geometry":{"type":"Polygon","coordinates":[[[100.72094864600007,14.030608401000052],[100.72079882100007,14.194691958000021],[100.69870421100006,14.184334156000034],[100.69875284800008,14.01847052200003],[100.70985976900005,14.023861124000064],[100.72094864600007,14.030608401000052]]]}},{"type":"Feature","properties":{"code":"130206","name":"คลองหก","parentCode":"1302"},"geometry":{"type":"Polygon","coordinates":[[[100.74419504500008,14.04016107700005],[100.74344027700005,14.20552546600004],[100.73167660200005,14.199902369000029],[100.72079882100007,14.194691958000021],[100.72094864600007,14.030608401000052],[100.74419504500008,14.04016107700005]]]}},{"type":"Feature","properties":{"code":"130702","name":"คลองควาย","parentCode":"1307"},"geometry":{"type":"Polygon","coordinates":[[[100.48177952900005,14.111844631000054],[100.45452011700007,14.115897532000076],[100.43000758700003,14.114292481000064],[100.49515354800008,14.073196992000021],[100.52404244800005,14.076665733000027],[100.52715175300006,14.085468709000054],[100.50085087800005,14.094538271000033],[100.48177952900005,14.111844631000054]]]}},{"type":"Feature","properties":{"code":"130201","name":"คลองหนึ่ง","parentCode":"1302"},"geometry":{"type":"Polygon","coordinates":[[[100.63200301300009,14.002697977000025],[100.63095772300005,14.149049984000044],[100.61967321000009,14.143122747000064],[100.58213962500008,14.128636878000066],[100.58607267200006,14.096138111000073],[100.58927953600005,14.074245553000026],[100.59753695000006,14.027212475000056],[100.60074485100006,14.001362323000023],[100.60142998200007,13.99560950600005],[100.63200301300009,14.002697977000025]]]}},{"type":"Feature","properties":{"code":"130505","name":"คลองพระอุดม","parentCode":"1305"},"geometry":{"type":"Polygon","coordinates":[[[100.44991851100008,14.015587683000035],[100.44259151400007,14.018937186000073],[100.44225234900006,14.016696104000061],[100.42333158100007,13.98385035800004],[100.46226204000004,13.97165383500004],[100.47034642900007,13.99348443100007],[100.44991851100008,14.015587683000035]]]}},{"type":"Feature","properties":{"code":"130203","name":"คลองสาม","parentCode":"1302"},"geometry":{"type":"Polygon","coordinates":[[[100.67633916500006,14.009045729000036],[100.67438379800006,14.171842616000049],[100.66691256500008,14.167903853000041],[100.65244452100006,14.160321173000057],[100.65322391600006,14.007464407000043],[100.66402458200008,14.008168384000044],[100.67633916500006,14.009045729000036]]]}},{"type":"Feature","properties":{"code":"130204","name":"คลองสี่","parentCode":"1302"},"geometry":{"type":"Polygon","coordinates":[[[100.69875284800008,14.01847052200003],[100.69870421100006,14.184334156000034],[100.67438379800006,14.171842616000049],[100.67633916500006,14.009045729000036],[100.69875284800008,14.01847052200003]]]}},{"type":"Feature","properties":{"code":"130202","name":"คลองสอง","parentCode":"1302"},"geometry":{"type":"Polygon","coordinates":[[[100.65322391600006,14.007464407000043],[100.65244452100006,14.160321173000057],[100.63095772300005,14.149049984000044],[100.63200301300009,14.002697977000025],[100.65322391600006,14.007464407000043]]]}},{"type":"Feature","properties":{"code":"130503","name":"คูบางหลวง","parentCode":"1305"},"geometry":{"type":"Polygon","coordinates":[[[100.48149418900005,14.05867820900005],[100.45215141200003,14.08727000500005],[100.44350552300006,14.040451788000041],[100.44259151400007,14.018937186000073],[100.44991851100008,14.015587683000035],[100.48963414900004,14.02604565200005],[100.49660436000005,14.047146387000055],[100.48149418900005,14.05867820900005]]]}},{"type":"Feature","properties":{"code":"130601","name":"คูคต","parentCode":"1306"},"geometry":{"type":"Polygon","coordinates":[[[100.66254313500008,13.930439831000058],[100.66348367400008,13.97945035500004],[100.60513853800006,13.965549749000047],[100.60652594900006,13.954378499000029],[100.62254545900004,13.950251041000058],[100.66254313500008,13.930439831000058]]]}},{"type":"Feature","properties":{"code":"130504","name":"คูขวาง","parentCode":"1305"},"geometry":{"type":"Polygon","coordinates":[[[100.45215141200003,14.08727000500005],[100.42994464100008,14.095748746000027],[100.42283346600004,14.060658626000077],[100.44350552300006,14.040451788000041],[100.45215141200003,14.08727000500005]]]}},{"type":"Feature","properties":{"code":"130704","name":"กระแชง","parentCode":"1307"},"geometry":{"type":"Polygon","coordinates":[[[100.55320432300005,14.050792682000065],[100.54548735400004,14.056015849000062],[100.52520087500005,14.04201659000006],[100.54667159000007,14.034843451000029],[100.55440937700007,14.042170639000062],[100.55320432300005,14.050792682000065]]]}},{"type":"Feature","properties":{"code":"130114","name":"หลักหก","parentCode":"1301"},"geometry":{"type":"Polygon","coordinates":[[[100.60513853800006,13.965549749000047],[100.60326120500008,13.98084600900006],[100.57159179400008,13.972831865000046],[100.56763971400005,13.951587303000053],[100.60652594900006,13.954378499000029],[100.60513853800006,13.965549749000047]]]}},{"type":"Feature","properties":{"code":"130604","name":"ลำลูกกา","parentCode":"1306"},"geometry":{"type":"Polygon","coordinates":[[[100.79259794100005,13.931520458000023],[100.80047497800007,14.028365548000068],[100.80054401400008,14.02931618200006],[100.75559026800005,14.013763089000065],[100.74766932600005,13.918191257000046],[100.79259302400004,13.931387879000056],[100.79259794100005,13.931520458000023]]]}},{"type":"Feature","properties":{"code":"130304","name":"ลำผักกูด","parentCode":"1303"},"geometry":{"type":"Polygon","coordinates":[[[100.80054401400008,14.02931618200006],[100.80116945400005,14.06016715900006],[100.75550331600004,14.044766109000022],[100.75559026800005,14.013763089000065],[100.80054401400008,14.02931618200006]]]}},{"type":"Feature","properties":{"code":"130606","name":"ลำไทร","parentCode":"1306"},"geometry":{"type":"Polygon","coordinates":[[[100.88160270000009,14.005834901000071],[100.84434455800005,14.009392711000032],[100.83944730700006,13.936520151000025],[100.85173717800006,13.938145877000068],[100.88184058100006,13.94235092100007],[100.88160270000009,14.005834901000071]]]}},{"type":"Feature","properties":{"code":"130502","name":"ลาดหลุมแก้ว","parentCode":"1305"},"geometry":{"type":"Polygon","coordinates":[[[100.44225234900006,14.016696104000061],[100.38327467600004,14.045259730000055],[100.38108060700006,13.994775593000043],[100.42333158100007,13.98385035800004],[100.44225234900006,14.016696104000061]]]}},{"type":"Feature","properties":{"code":"130602","name":"ลาดสวาย","parentCode":"1306"},"geometry":{"type":"Polygon","coordinates":[[[100.70284829600007,13.916738001000056],[100.70622236900005,13.993874178000056],[100.66348367400008,13.97945035500004],[100.66254313500008,13.930439831000058],[100.68695337600008,13.916254426000023],[100.70284829600007,13.916738001000056]]]}},{"type":"Feature","properties":{"code":"130507","name":"หน้าไม้","parentCode":"1305"},"geometry":{"type":"Polygon","coordinates":[[[100.34626336400004,14.099114506000035],[100.34150445900008,14.100929436000058],[100.33163955700007,14.056358135000039],[100.35576105900009,14.000445546000037],[100.38049918000007,13.988812153000026],[100.38108060700006,13.994775593000043],[100.38327467600004,14.045259730000055],[100.34626336400004,14.099114506000035]]]}},{"type":"Feature","properties":{"code":"130405","name":"หนองสามวัง","parentCode":"1304"},"geometry":{"type":"Polygon","coordinates":[[[100.91379486000005,14.18082843700006],[100.85762618700005,14.163087192000035],[100.84610052500005,14.153744232000065],[100.84645590800005,14.07577881900005],[100.91413830700009,14.09962936200003],[100.91362505800004,14.135475867000025],[100.91379486000005,14.18082843700006]]]}},{"type":"Feature","properties":{"code":"130407","name":"นพรัตน์","parentCode":"1304"},"geometry":{"type":"Polygon","coordinates":[[[100.89158842100005,14.243650193000065],[100.89154523600007,14.27595109400005],[100.84586794900008,14.254258483000058],[100.84608580100007,14.15795238000004],[100.84610052500005,14.153744232000065],[100.85762618700005,14.163087192000035],[100.89158842100005,14.243650193000065]]]}},{"type":"Feature","properties":{"code":"130608","name":"พืชอุดม","parentCode":"1306"},"geometry":{"type":"Polygon","coordinates":[[[100.91446162200003,14.008405539000023],[100.88160270000009,14.005834901000071],[100.88184058100006,13.94235092100007],[100.91398311800003,13.946490894000021],[100.91421818800006,13.961278383000035],[100.91444602000007,14.006901563000042],[100.91446162200003,14.008405539000023]]]}},{"type":"Feature","properties":{"code":"130301","name":"ประชาธิปัตย์","parentCode":"1303"},"geometry":{"type":"Polygon","coordinates":[[[100.66348367400008,13.97945035500004],[100.66402458200008,14.008168384000044],[100.65322391600006,14.007464407000043],[100.63200301300009,14.002697977000025],[100.60142998200007,13.99560950600005],[100.60326120500008,13.98084600900006],[100.60513853800006,13.965549749000047],[100.66348367400008,13.97945035500004]]]}},{"type":"Feature","properties":{"code":"130501","name":"ระแหง","parentCode":"1305"},"geometry":{"type":"Polygon","coordinates":[[[100.42283346600004,14.060658626000077],[100.34626336400004,14.099114506000035],[100.38327467600004,14.045259730000055],[100.44225234900006,14.016696104000061],[100.44259151400007,14.018937186000073],[100.44350552300006,14.040451788000041],[100.42283346600004,14.060658626000077]]]}},{"type":"Feature","properties":{"code":"130303","name":"รังสิต","parentCode":"1303"},"geometry":{"type":"Polygon","coordinates":[[[100.75559026800005,14.013763089000065],[100.75550331600004,14.044766109000022],[100.74419504500008,14.04016107700005],[100.72094864600007,14.030608401000052],[100.70985976900005,14.023861124000064],[100.70622236900005,13.993874178000056],[100.75559026800005,14.013763089000065]]]}},{"type":"Feature","properties":{"code":"130406","name":"ศาลาครุ","parentCode":"1304"},"geometry":{"type":"Polygon","coordinates":[[[100.94643576800007,14.237134961000038],[100.95111814600006,14.271684207000021],[100.89158842100005,14.243650193000065],[100.85762618700005,14.163087192000035],[100.91379486000005,14.18082843700006],[100.91393621800006,14.209341899000037],[100.94643576800007,14.237134961000038]]]}},{"type":"Feature","properties":{"code":"130703","name":"สามโคก","parentCode":"1307"},"geometry":{"type":"Polygon","coordinates":[[[100.54548735400004,14.056015849000062],[100.53241313300003,14.066537930000038],[100.51121654000008,14.047704315000033],[100.52520087500005,14.04201659000006],[100.54548735400004,14.056015849000062]]]}},{"type":"Feature","properties":{"code":"130113","name":"สวนพริกไทย","parentCode":"1301"},"geometry":{"type":"Polygon","coordinates":[[[100.59753695000006,14.027212475000056],[100.56435561000006,14.031275804000074],[100.55730820300005,14.02330312500004],[100.57995900900005,14.002511673000072],[100.60074485100006,14.001362323000023],[100.59753695000006,14.027212475000056]]]}},{"type":"Feature","properties":{"code":"130711","name":"ท้ายเกาะ","parentCode":"1307"},"geometry":{"type":"Polygon","coordinates":[[[100.52542308000005,14.122280488000058],[100.48177952900005,14.111844631000054],[100.50085087800005,14.094538271000033],[100.53687435900008,14.118043709000062],[100.52542308000005,14.122280488000058]]]}}]}