{"type":"FeatureCollection","features":[{"type":"Feature","properties":{"code":"140802","name":"อมฤต","parentCode":"1408"},"geometry":{"type":"Polygon","coordinates":[[[100.37381776700005,14.477625622000062],[100.34251990000007,14.480226746000028],[100.34994022700005,14.461940164000055],[100.38002735000003,14.476013355000077],[100.37381776700005,14.477625622000062]]]}},{"type":"Feature","properties":{"code":"141402","name":"บ้านช้าง","parentCode":"1414"},"geometry":{"type":"Polygon","coordinates":[[[100.69158858000009,14.308958027000074],[100.70168191000005,14.338855472000034],[100.66226752700004,14.330689244000041],[100.65910791700009,14.322965929000077],[100.66558682000004,14.316537736000043],[100.68283819300007,14.299062724000066],[100.69158858000009,14.308958027000074]]]}},{"type":"Feature","properties":{"code":"140304","name":"บ้านชุ้ง","parentCode":"1403"},"geometry":{"type":"Polygon","coordinates":[[[100.68102479400005,14.475780622000059],[100.66903012900008,14.481233031000045],[100.64492333500004,14.475059889000022],[100.61476690000006,14.45479712100007],[100.62917005500003,14.444258065000042],[100.65280872300008,14.436922418000051],[100.68510567200008,14.453239273000065],[100.68102479400005,14.475780622000059]]]}},{"type":"Feature","properties":{"code":"141404","name":"บ้านหีบ","parentCode":"1414"},"geometry":{"type":"Polygon","coordinates":[[[100.75299243100005,14.362511537000046],[100.73516244200005,14.400315861000024],[100.72636351800008,14.400868483000067],[100.67980421200008,14.37564881000003],[100.68241186100005,14.35730976900004],[100.75299243100005,14.362511537000046]]]}},{"type":"Feature","properties":{"code":"140803","name":"บ้านแค","parentCode":"1408"},"geometry":{"type":"Polygon","coordinates":[[[100.41644957400007,14.476865514000053],[100.39953357300004,14.507346748000032],[100.39984701100008,14.490851589000044],[100.41008022500006,14.47632204000007],[100.41644957400007,14.476865514000053]]]}},{"type":"Feature","properties":{"code":"140507","name":"บ้านคลัง","parentCode":"1405"},"geometry":{"type":"Polygon","coordinates":[[[100.44748494800007,14.362909253000055],[100.44158138800003,14.364631318000022],[100.45130871900005,14.329429727000047],[100.47096482900008,14.348657435000064],[100.44748494800007,14.362909253000055]]]}},{"type":"Feature","properties":{"code":"140717","name":"บ้านขล้อ","parentCode":"1407"},"geometry":{"type":"Polygon","coordinates":[[[100.60048900100008,14.517638915000077],[100.60184496400007,14.554215713000076],[100.56847589700004,14.544886857000051],[100.57479948300005,14.511160138000037],[100.59474198500004,14.509162459000038],[100.60048900100008,14.517638915000077]]]}},{"type":"Feature","properties":{"code":"141510","name":"บ้านขวาง","parentCode":"1415"},"geometry":{"type":"Polygon","coordinates":[[[100.52814252800005,14.57337920200007],[100.52658496500004,14.595992353000042],[100.49194233000009,14.585597278000023],[100.49172470500008,14.583849641000029],[100.50929984200008,14.551247968000041],[100.51036212500009,14.548857868000027],[100.53217297800006,14.561521264000078],[100.52814252800005,14.57337920200007]]]}},{"type":"Feature","properties":{"code":"140411","name":"บ้านกลึง","parentCode":"1404"},"geometry":{"type":"Polygon","coordinates":[[[100.50823925500003,14.325487617000022],[100.47671582200007,14.319191842000066],[100.48721417800004,14.29655985200003],[100.48796158200008,14.294821700000057],[100.52550642200003,14.28649441500005],[100.50823925500003,14.325487617000022]]]}},{"type":"Feature","properties":{"code":"140116","name":"บ้านเกาะ","parentCode":"1401"},"geometry":{"type":"Polygon","coordinates":[[[100.57446327500008,14.404702452000038],[100.55963605200009,14.404103287000055],[100.57248997000005,14.375312320000035],[100.58830234400006,14.375643682000032],[100.61463845400004,14.393230106000033],[100.57446327500008,14.404702452000038]]]}},{"type":"Feature","properties":{"code":"140418","name":"บ้านเกาะ","parentCode":"1404"},"geometry":{"type":"Polygon","coordinates":[[[100.48098706000007,14.240892401000053],[100.43487366000005,14.246312662000037],[100.45208317600009,14.22581703700007],[100.48422729000004,14.231310514000029],[100.48402287700009,14.234262281000042],[100.48098706000007,14.240892401000053]]]}},{"type":"Feature","properties":{"code":"141210","name":"บ้านกระทุ่ม","parentCode":"1412"},"geometry":{"type":"Polygon","coordinates":[[[100.41628211500006,14.396396025000058],[100.40099714200005,14.404453069000056],[100.37516584200006,14.40227649600007],[100.37165074600006,14.40237836700004],[100.37123299100006,14.382676613000058],[100.41668760900006,14.385686802000066],[100.41628211500006,14.396396025000058]]]}},{"type":"Feature","properties":{"code":"140604","name":"บ้านกรด","parentCode":"1406"},"geometry":{"type":"Polygon","coordinates":[[[100.62970402600007,14.323369060000061],[100.59177374100005,14.320845851000058],[100.58673546200004,14.303705089000061],[100.58817659800008,14.290990571000066],[100.59967032400004,14.283809736000023],[100.61131495200004,14.288282354000046],[100.62970402600007,14.323369060000061]]]}},{"type":"Feature","properties":{"code":"140516","name":"บ้านกุ่ม","parentCode":"1405"},"geometry":{"type":"Polygon","coordinates":[[[100.50593265400005,14.44842999900004],[100.49689553500008,14.459504766000066],[100.46741694500008,14.442293309000036],[100.48422457800007,14.426227379000068],[100.50281934800006,14.40536871200004],[100.50494919300007,14.405893383000034],[100.50805162400007,14.431400919000055],[100.50593265400005,14.44842999900004]]]}},{"type":"Feature","properties":{"code":"140601","name":"บ้านเลน","parentCode":"1406"},"geometry":{"type":"Polygon","coordinates":[[[100.60653416500008,14.251523548000023],[100.58143288000008,14.254115471000034],[100.57336006200006,14.227191719000075],[100.56801214600006,14.208389886000077],[100.58050724700007,14.201643218000072],[100.58488222100004,14.233878365000066],[100.62704871500006,14.237393186000077],[100.60653416500008,14.251523548000023]]]}},{"type":"Feature","properties":{"code":"140713","name":"บ้านลี่","parentCode":"1407"},"geometry":{"type":"Polygon","coordinates":[[[100.54053652000005,14.465817995000066],[100.52130502000006,14.461427585000024],[100.50593265400005,14.44842999900004],[100.50805162400007,14.431400919000055],[100.53243514100006,14.429092506000075],[100.54053652000005,14.465817995000066]]]}},{"type":"Feature","properties":{"code":"141216","name":"บ้านหลวง","parentCode":"1412"},"geometry":{"type":"Polygon","coordinates":[[[100.38514066800008,14.284238490000064],[100.39386134200004,14.254326820000074],[100.41867737700005,14.275531154000078],[100.41284090000005,14.291023163000034],[100.38514066800008,14.284238490000064]]]}},{"type":"Feature","properties":{"code":"140417","name":"บ้านม้า","parentCode":"1404"},"geometry":{"type":"Polygon","coordinates":[[[100.51333555800005,14.15292420700007],[100.46165991300006,14.149776839000026],[100.46145687900008,14.125566613000046],[100.51507817500004,14.14381800600006],[100.51444659500004,14.149816785000041],[100.51333555800005,14.15292420700007]]]}},{"type":"Feature","properties":{"code":"140711","name":"บ้านม้า","parentCode":"1407"},"geometry":{"type":"Polygon","coordinates":[[[100.51709766900007,14.498381384000027],[100.50014695500005,14.502362953000045],[100.50872355400008,14.476992384000027],[100.52223224600004,14.483167854000044],[100.51709766900007,14.498381384000027]]]}},{"type":"Feature","properties":{"code":"140115","name":"บ้านใหม่","parentCode":"1401"},"geometry":{"type":"Polygon","coordinates":[[[100.52993588300006,14.401920424000025],[100.50494919300007,14.405893383000034],[100.50281934800006,14.40536871200004],[100.49898915300008,14.399296478000053],[100.50128542800007,14.386294270000064],[100.52118909800004,14.372411365000062],[100.53209990800008,14.366826321000076],[100.53852918900009,14.373241199000063],[100.52993588300006,14.401920424000025]]]}},{"type":"Feature","properties":{"code":"141512","name":"บ้านใหม่","parentCode":"1415"},"geometry":{"type":"Polygon","coordinates":[[[100.51036212500009,14.548857868000027],[100.50929984200008,14.551247968000041],[100.49151192900007,14.544094008000059],[100.49234545300004,14.532342630000073],[100.49639149400008,14.507660496000028],[100.51012933100009,14.532875506000039],[100.51036212500009,14.548857868000027]]]}},{"type":"Feature","properties":{"code":"141602","name":"บ้านใหม่","parentCode":"1416"},"geometry":{"type":"Polygon","coordinates":[[[100.60228489700006,14.655050733000053],[100.58072299000008,14.664360891000058],[100.56842093700004,14.662296393000076],[100.59097002800007,14.641781540000068],[100.60228489700006,14.655050733000053]]]}},{"type":"Feature","properties":{"code":"141509","name":"บ้านนา","parentCode":"1415"},"geometry":{"type":"Polygon","coordinates":[[[100.52116882400009,14.623539883000035],[100.50301201900004,14.630029568000054],[100.50012768700009,14.61770795600006],[100.49188486800006,14.594818089000057],[100.49194233000009,14.585597278000023],[100.52658496500004,14.595992353000042],[100.53125672200008,14.619947607000029],[100.52116882400009,14.623539883000035]]]}},{"type":"Feature","properties":{"code":"140404","name":"บ้านแป้ง","parentCode":"1404"},"geometry":{"type":"Polygon","coordinates":[[[100.51753987600006,14.239109512000027],[100.48402287700009,14.234262281000042],[100.48422729000004,14.231310514000029],[100.49258105100006,14.217347343000029],[100.52867679200006,14.224995156000034],[100.52909146600007,14.226546837000058],[100.51753987600006,14.239109512000027]]]}},{"type":"Feature","properties":{"code":"140613","name":"บ้านแป้ง","parentCode":"1406"},"geometry":{"type":"Polygon","coordinates":[[[100.57336006200006,14.227191719000075],[100.58143288000008,14.254115471000034],[100.52792431200004,14.240318148000028],[100.51753987600006,14.239109512000027],[100.52909146600007,14.226546837000058],[100.57336006200006,14.227191719000075]]]}},{"type":"Feature","properties":{"code":"141202","name":"บ้านแพน","parentCode":"1412"},"geometry":{"type":"Polygon","coordinates":[[[100.42734739300005,14.328786803000071],[100.43674093900006,14.364143945000023],[100.41590512600004,14.360246354000026],[100.40226172300004,14.331653086000074],[100.40766542900008,14.32377113800004],[100.40950624300007,14.319071302000054],[100.42734739300005,14.328786803000071]]]}},{"type":"Feature","properties":{"code":"140612","name":"บ้านพลับ","parentCode":"1406"},"geometry":{"type":"Polygon","coordinates":[[[100.57336006200006,14.227191719000075],[100.52909146600007,14.226546837000058],[100.52867679200006,14.224995156000034],[100.53029341100006,14.220898004000048],[100.56801214600006,14.208389886000077],[100.57336006200006,14.227191719000075]]]}},{"type":"Feature","properties":{"code":"140603","name":"บ้านโพ","parentCode":"1406"},"geometry":{"type":"Polygon","coordinates":[[[100.59967032400004,14.283809736000023],[100.58817659800008,14.290990571000066],[100.56505901300005,14.287821155000074],[100.57638975100008,14.271731943000077],[100.58143288000008,14.254115471000034],[100.60653416500008,14.251523548000023],[100.59967032400004,14.283809736000023]]]}},{"type":"Feature","properties":{"code":"141208","name":"บ้านโพธิ์","parentCode":"1412"},"geometry":{"type":"Polygon","coordinates":[[[100.41590512600004,14.360246354000026],[100.37289484100006,14.364304093000044],[100.39870928000005,14.327599160000034],[100.40226172300004,14.331653086000074],[100.41590512600004,14.360246354000026]]]}},{"type":"Feature","properties":{"code":"141601","name":"บ้านแพรก","parentCode":"1416"},"geometry":{"type":"Polygon","coordinates":[[[100.56842093700004,14.662296393000076],[100.56621750200009,14.662725778000038],[100.55940613500007,14.649349851000068],[100.58373611000007,14.630155161000062],[100.59097002800007,14.641781540000068],[100.56842093700004,14.662296393000076]]]}},{"type":"Feature","properties":{"code":"140120","name":"บ้านป้อม","parentCode":"1401"},"geometry":{"type":"Polygon","coordinates":[[[100.53209990800008,14.366826321000076],[100.52118909800004,14.372411365000062],[100.50948113100009,14.335749603000068],[100.50932027500005,14.325994799000057],[100.54885469700008,14.339524739000069],[100.54710747600006,14.356213785000023],[100.54523504500008,14.357740474000025],[100.53209990800008,14.366826321000076]]]}},{"type":"Feature","properties":{"code":"140204","name":"บ้านร่อม","parentCode":"1402"},"geometry":{"type":"Polygon","coordinates":[[[100.68267539300007,14.583799354000064],[100.65478812500004,14.606372118000024],[100.66893233400003,14.55697445900006],[100.68148234500006,14.557065841000053],[100.69350658000008,14.557255276000035],[100.71022430600004,14.56193405700003],[100.71244889800005,14.574940291000075],[100.68267539300007,14.583799354000064]]]}},{"type":"Feature","properties":{"code":"140121","name":"บ้านรุน","parentCode":"1401"},"geometry":{"type":"Polygon","coordinates":[[[100.57177654400004,14.320817973000032],[100.54928666400008,14.32634540500004],[100.54859155100007,14.300867200000027],[100.56569198800008,14.302372266000077],[100.56615867200009,14.304641250000032],[100.57177654400004,14.320817973000032]]]}},{"type":"Feature","properties":{"code":"140616","name":"บ้านสร้าง","parentCode":"1406"},"geometry":{"type":"Polygon","coordinates":[[[100.68283819300007,14.299062724000066],[100.66558682000004,14.316537736000043],[100.66792822200006,14.263626566000028],[100.67394127400007,14.274813186000074],[100.68283819300007,14.299062724000066]]]}},{"type":"Feature","properties":{"code":"141211","name":"บ้านแถว","parentCode":"1412"},"geometry":{"type":"Polygon","coordinates":[[[100.37394840300004,14.316197876000047],[100.35649282200006,14.325400179000042],[100.34254883700004,14.30496019800006],[100.32157066300005,14.275741187000051],[100.32985603400004,14.267895905000046],[100.37046571000008,14.301803475000042],[100.37394840300004,14.316197876000047]]]}},{"type":"Feature","properties":{"code":"140607","name":"บ้านหว้า","parentCode":"1406"},"geometry":{"type":"Polygon","coordinates":[[[100.59967032400004,14.283809736000023],[100.60653416500008,14.251523548000023],[100.62704871500006,14.237393186000077],[100.64291650200005,14.23465796000005],[100.64534776000005,14.236497762000056],[100.61167786400006,14.286116340000035],[100.61131495200004,14.288282354000046],[100.59967032400004,14.283809736000023]]]}},{"type":"Feature","properties":{"code":"140816","name":"บ้านใหญ่","parentCode":"1408"},"geometry":{"type":"Polygon","coordinates":[[[100.39748523100008,14.439642239000023],[100.36992268900008,14.440805074000025],[100.37421983500008,14.430731706000074],[100.39600965400007,14.43109922900004],[100.39748523100008,14.439642239000023]]]}},{"type":"Feature","properties":{"code":"140501","name":"บางบาล","parentCode":"1405"},"geometry":{"type":"Polygon","coordinates":[[[100.47351184900003,14.401057008000066],[100.48187779100004,14.423079739000059],[100.44754729200008,14.416859670000065],[100.44665305300003,14.409695040000031],[100.45227671500004,14.39564606700003],[100.47351184900003,14.401057008000066]]]}},{"type":"Feature","properties":{"code":"140515","name":"บางชะนี","parentCode":"1405"},"geometry":{"type":"Polygon","coordinates":[[[100.46741694500008,14.442293309000036],[100.44856402700003,14.442177197000035],[100.44829407200007,14.423920260000045],[100.44754729200008,14.416859670000065],[100.48187779100004,14.423079739000059],[100.48422457800007,14.426227379000068],[100.46741694500008,14.442293309000036]]]}},{"type":"Feature","properties":{"code":"140703","name":"บางเดื่อ","parentCode":"1407"},"geometry":{"type":"Polygon","coordinates":[[[100.58968290300004,14.446294178000073],[100.57484935400004,14.456281407000063],[100.55763259200006,14.430576261000056],[100.57710570200004,14.412046925000027],[100.57815540400009,14.420758521000039],[100.59764334000005,14.435025567000025],[100.58968290300004,14.446294178000073]]]}},{"type":"Feature","properties":{"code":"140514","name":"บางหัก","parentCode":"1405"},"geometry":{"type":"Polygon","coordinates":[[[100.44856402700003,14.442177197000035],[100.42020840100008,14.447148438000056],[100.41317827700004,14.423718192000024],[100.44829407200007,14.423920260000045],[100.44856402700003,14.442177197000035]]]}},{"type":"Feature","properties":{"code":"140605","name":"บางกระสั้น","parentCode":"1406"},"geometry":{"type":"Polygon","coordinates":[[[100.58050724700007,14.201643218000072],[100.56801214600006,14.208389886000077],[100.52947004000004,14.19706201400004],[100.53396783000005,14.166912276000062],[100.54098020600009,14.159879549000038],[100.55599642800007,14.149399711000058],[100.59891164200008,14.192588141000044],[100.58050724700007,14.201643218000072]]]}},{"type":"Feature","properties":{"code":"140512","name":"บางหลวง","parentCode":"1405"},"geometry":{"type":"Polygon","coordinates":[[[100.44665305300003,14.409695040000031],[100.41649020600005,14.41045679900003],[100.41628211500006,14.396396025000058],[100.45227671500004,14.39564606700003],[100.44665305300003,14.409695040000031]]]}},{"type":"Feature","properties":{"code":"140513","name":"บางหลวงโดด","parentCode":"1405"},"geometry":{"type":"Polygon","coordinates":[[[100.44829407200007,14.423920260000045],[100.41317827700004,14.423718192000024],[100.41649020600005,14.41045679900003],[100.44665305300003,14.409695040000031],[100.44754729200008,14.416859670000065],[100.44829407200007,14.423920260000045]]]}},{"type":"Feature","properties":{"code":"141505","name":"บางนา","parentCode":"1415"},"geometry":{"type":"Polygon","coordinates":[[[100.60168059200004,14.555627078000043],[100.57530143500009,14.595919925000032],[100.55820913500008,14.58238917600005],[100.55996489900008,14.569158405000053],[100.56404202500005,14.562289561000057],[100.60168059200004,14.555627078000043]]]}},{"type":"Feature","properties":{"code":"140708","name":"บางนางร้า","parentCode":"1407"},"geometry":{"type":"Polygon","coordinates":[[[100.54053652000005,14.465817995000066],[100.54395823600004,14.464192936000074],[100.55457741800006,14.482161896000036],[100.54916492900009,14.486317987000064],[100.52223224600004,14.483167854000044],[100.50872355400008,14.476992384000027],[100.52130502000006,14.461427585000024],[100.54053652000005,14.465817995000066]]]}},{"type":"Feature","properties":{"code":"141205","name":"บางนมโค","parentCode":"1412"},"geometry":{"type":"Polygon","coordinates":[[[100.42734739300005,14.328786803000071],[100.40950624300007,14.319071302000054],[100.41284090000005,14.291023163000034],[100.41867737700005,14.275531154000078],[100.43192318100006,14.252806359000033],[100.43643223500004,14.276930480000033],[100.43200830400008,14.307272767000029],[100.42734739300005,14.328786803000071]]]}},{"type":"Feature","properties":{"code":"140701","name":"บางปะหัน","parentCode":"1407"},"geometry":{"type":"Polygon","coordinates":[[[100.57291434800004,14.474177925000049],[100.55457741800006,14.482161896000036],[100.54395823600004,14.464192936000074],[100.54705227100004,14.438156849000052],[100.55763259200006,14.430576261000056],[100.57484935400004,14.456281407000063],[100.57291434800004,14.474177925000049]]]}},{"type":"Feature","properties":{"code":"140402","name":"บางพลี","parentCode":"1404"},"geometry":{"type":"Polygon","coordinates":[[[100.49258105100006,14.217347343000029],[100.48422729000004,14.231310514000029],[100.45208317600009,14.22581703700007],[100.44947741700008,14.213423122000052],[100.45246808700006,14.17290242100006],[100.49258105100006,14.217347343000029]]]}},{"type":"Feature","properties":{"code":"140706","name":"บางเพลิง","parentCode":"1407"},"geometry":{"type":"Polygon","coordinates":[[[100.59474198500004,14.509162459000038],[100.57479948300005,14.511160138000037],[100.56513164700004,14.501357896000059],[100.55734054500005,14.498436626000057],[100.58209770500008,14.483000119000053],[100.58617341600007,14.488003602000049],[100.59474198500004,14.509162459000038]]]}},{"type":"Feature","properties":{"code":"140307","name":"บางพระครู","parentCode":"1403"},"geometry":{"type":"Polygon","coordinates":[[[100.62252088700006,14.492502020000074],[100.59474198500004,14.509162459000038],[100.58617341600007,14.488003602000049],[100.61138456500004,14.470328104000032],[100.62252088700006,14.492502020000074]]]}},{"type":"Feature","properties":{"code":"140609","name":"บางประแดง","parentCode":"1406"},"geometry":{"type":"Polygon","coordinates":[[[100.56569198800008,14.302372266000077],[100.54859155100007,14.300867200000027],[100.52703105400008,14.279706176000047],[100.52668597500008,14.265914167000062],[100.56505901300005,14.287821155000074],[100.56569198800008,14.302372266000077]]]}},{"type":"Feature","properties":{"code":"140306","name":"บางระกำ","parentCode":"1403"},"geometry":{"type":"Polygon","coordinates":[[[100.61138456500004,14.470328104000032],[100.58617341600007,14.488003602000049],[100.58209770500008,14.483000119000053],[100.57291434800004,14.474177925000049],[100.57484935400004,14.456281407000063],[100.58968290300004,14.446294178000073],[100.60659254400008,14.450144657000067],[100.61138456500004,14.470328104000032]]]}},{"type":"Feature","properties":{"code":"140401","name":"บางไทร","parentCode":"1404"},"geometry":{"type":"Polygon","coordinates":[[[100.49258105100006,14.217347343000029],[100.45246808700006,14.17290242100006],[100.50384197000005,14.179013344000055],[100.50756865400007,14.200324887000022],[100.49258105100006,14.217347343000029]]]}},{"type":"Feature","properties":{"code":"141301","name":"บางซ้าย","parentCode":"1413"},"geometry":{"type":"Polygon","coordinates":[[[100.30873612600004,14.329886533000035],[100.27980742500006,14.351003375000062],[100.27521509700006,14.351882766000074],[100.25695968900004,14.299304262000021],[100.30457926500009,14.292875084000059],[100.30873612600004,14.329886533000035]]]}},{"type":"Feature","properties":{"code":"140406","name":"บางยี่โท","parentCode":"1404"},"geometry":{"type":"Polygon","coordinates":[[[100.45141136800004,14.323468541000068],[100.43200830400008,14.307272767000029],[100.43643223500004,14.276930480000033],[100.46474314600005,14.297983302000034],[100.45614711200005,14.304717078000067],[100.45190089300007,14.323448248000034],[100.45141136800004,14.323468541000068]]]}},{"type":"Feature","properties":{"code":"140303","name":"บ่อโพง","parentCode":"1403"},"geometry":{"type":"Polygon","coordinates":[[[100.62775216100005,14.405566298000053],[100.57815540400009,14.420758521000039],[100.57710570200004,14.412046925000027],[100.57446327500008,14.404702452000038],[100.61463845400004,14.393230106000033],[100.63213359800005,14.402489780000053],[100.62775216100005,14.405566298000053]]]}},{"type":"Feature","properties":{"code":"141102","name":"บ่อตาโล่","parentCode":"1411"},"geometry":{"type":"Polygon","coordinates":[[[100.71598624100005,14.245265133000032],[100.67394127400007,14.274813186000074],[100.66792822200006,14.263626566000028],[100.65291808300003,14.246157758000038],[100.64534776000005,14.236497762000056],[100.64291650200005,14.23465796000005],[100.64701791300007,14.22284213000006],[100.71598624100005,14.245265133000032]]]}},{"type":"Feature","properties":{"code":"141212","name":"ชายนา","parentCode":"1412"},"geometry":{"type":"Polygon","coordinates":[[[100.37046571000008,14.301803475000042],[100.32985603400004,14.267895905000046],[100.31927845700005,14.221881626000027],[100.35074372200006,14.224975561000065],[100.38514066800008,14.284238490000064],[100.37046571000008,14.301803475000042]]]}},{"type":"Feature","properties":{"code":"140812","name":"จักราช","parentCode":"1408"},"geometry":{"type":"Polygon","coordinates":[[[100.35148556300004,14.449404000000072],[100.34994022700005,14.461940164000055],[100.30105619600005,14.451366844000063],[100.30011975700006,14.43530069600007],[100.34300432400005,14.431685998000034],[100.35193526300009,14.442204796000055],[100.35148556300004,14.449404000000072]]]}},{"type":"Feature","properties":{"code":"141110","name":"ชะแมบ","parentCode":"1411"},"geometry":{"type":"Polygon","coordinates":[[[100.78651725400005,14.258714920000045],[100.79281588500004,14.29432673100007],[100.73163746000006,14.26529042900006],[100.73169413000005,14.232641439000076],[100.77619351700008,14.253861549000021],[100.78651725400005,14.258714920000045]]]}},{"type":"Feature","properties":{"code":"140202","name":"จำปา","parentCode":"1402"},"geometry":{"type":"Polygon","coordinates":[[[100.75706910900004,14.569021530000043],[100.73141840300008,14.569388824000043],[100.72687136000008,14.560045672000058],[100.72972116200003,14.527104417000032],[100.75424453100004,14.53725053900007],[100.76276504400005,14.56850518300007],[100.75706910900004,14.569021530000043]]]}},{"type":"Feature","properties":{"code":"140409","name":"ช่างเหล็ก","parentCode":"1404"},"geometry":{"type":"Polygon","coordinates":[[[100.47232293200005,14.294306333000065],[100.46474314600005,14.297983302000034],[100.43643223500004,14.276930480000033],[100.43192318100006,14.252806359000033],[100.44957663900004,14.257855187000075],[100.47232293200005,14.294306333000065]]]}},{"type":"Feature","properties":{"code":"140412","name":"ช้างน้อย","parentCode":"1404"},"geometry":{"type":"Polygon","coordinates":[[[100.52608137800007,14.263701921000063],[100.48365086500007,14.264431726000055],[100.48098706000007,14.240892401000053],[100.48402287700009,14.234262281000042],[100.51753987600006,14.239109512000027],[100.52792431200004,14.240318148000028],[100.53057817800004,14.25075916700007],[100.52608137800007,14.263701921000063]]]}},{"type":"Feature","properties":{"code":"140420","name":"ช้างใหญ่","parentCode":"1404"},"geometry":{"type":"Polygon","coordinates":[[[100.53396783000005,14.166912276000062],[100.50384197000005,14.179013344000055],[100.51333555800005,14.15292420700007],[100.51444659500004,14.149816785000041],[100.54098020600009,14.159879549000038],[100.53396783000005,14.166912276000062]]]}},{"type":"Feature","properties":{"code":"141203","name":"เจ้าเจ็ด","parentCode":"1412"},"geometry":{"type":"Polygon","coordinates":[[[100.39198987700007,14.325478533000023],[100.37394840300004,14.316197876000047],[100.37046571000008,14.301803475000042],[100.38514066800008,14.284238490000064],[100.39201350400003,14.325170272000037],[100.39198987700007,14.325478533000023]]]}},{"type":"Feature","properties":{"code":"141507","name":"เจ้าปลุก","parentCode":"1415"},"geometry":{"type":"Polygon","coordinates":[[[100.53607877200005,14.592199272000073],[100.52658496500004,14.595992353000042],[100.52814252800005,14.57337920200007],[100.55996489900008,14.569158405000053],[100.55820913500008,14.58238917600005],[100.53607877200005,14.592199272000073]]]}},{"type":"Feature","properties":{"code":"141217","name":"เจ้าเสด็จ","parentCode":"1412"},"geometry":{"type":"Polygon","coordinates":[[[100.39214105700006,14.326444239000068],[100.33545855200003,14.343093599000042],[100.35649282200006,14.325400179000042],[100.37394840300004,14.316197876000047],[100.39198987700007,14.325478533000023],[100.39214105700006,14.326444239000068]]]}},{"type":"Feature","properties":{"code":"140422","name":"เชียงรากน้อย","parentCode":"1404"},"geometry":{"type":"Polygon","coordinates":[[[100.58047096700005,14.127746356000046],[100.55599642800007,14.149399711000058],[100.54068175300006,14.118091312000047],[100.55136656300004,14.111092880000058],[100.58047096700005,14.127746356000046]]]}},{"type":"Feature","properties":{"code":"140602","name":"เชียงรากน้อย","parentCode":"1406"},"geometry":{"type":"Polygon","coordinates":[[[100.61842697900005,14.190412285000036],[100.59891164200008,14.192588141000044],[100.55599642800007,14.149399711000058],[100.58047096700005,14.127746356000046],[100.58213962500008,14.128636878000066],[100.61967321000009,14.143122747000064],[100.61951107300007,14.176329132000035],[100.61842697900005,14.190412285000036]]]}},{"type":"Feature","properties":{"code":"140807","name":"ดอนลาน","parentCode":"1408"},"geometry":{"type":"Polygon","coordinates":[[[100.30105619600005,14.451366844000063],[100.29968456100005,14.455930636000062],[100.25096396500004,14.438538132000076],[100.26896844500004,14.412558353000065],[100.27347966600007,14.407166232000066],[100.29246238800005,14.405247840000072],[100.30011975700006,14.43530069600007],[100.30105619600005,14.451366844000063]]]}},{"type":"Feature","properties":{"code":"141215","name":"ดอนทอง","parentCode":"1412"},"geometry":{"type":"Polygon","coordinates":[[[100.32985603400004,14.267895905000046],[100.32157066300005,14.275741187000051],[100.29729764300004,14.256453645000022],[100.27403947400006,14.219173000000069],[100.29025093000007,14.217177168000035],[100.31927845700005,14.221881626000027],[100.32985603400004,14.267895905000046]]]}},{"type":"Feature","properties":{"code":"140905","name":"ดอนหญ้านาง","parentCode":"1409"},"geometry":{"type":"Polygon","coordinates":[[[100.76430784600007,14.494022060000077],[100.71977492300005,14.504836520000026],[100.72870212600009,14.45723747900007],[100.72948860400004,14.456307689000027],[100.77301225700006,14.483671318000063],[100.76430784600007,14.494022060000077]]]}},{"type":"Feature","properties":{"code":"140707","name":"หันสัง","parentCode":"1407"},"geometry":{"type":"Polygon","coordinates":[[[100.52459625000006,14.523086486000068],[100.51012933100009,14.532875506000039],[100.49639149400008,14.507660496000028],[100.50014695500005,14.502362953000045],[100.51709766900007,14.498381384000027],[100.53593389800005,14.505628211000044],[100.52459625000006,14.523086486000068]]]}},{"type":"Feature","properties":{"code":"141107","name":"หันตะเภา","parentCode":"1411"},"geometry":{"type":"Polygon","coordinates":[[[100.79281588500004,14.29432673100007],[100.77982672300004,14.320584630000042],[100.77550453200007,14.318618553000022],[100.73225539900005,14.298169448000067],[100.73163746000006,14.26529042900006],[100.79281588500004,14.29432673100007]]]}},{"type":"Feature","properties":{"code":"140113","name":"หันตรา","parentCode":"1401"},"geometry":{"type":"Polygon","coordinates":[[[100.61480591800006,14.358684775000029],[100.61463845400004,14.393230106000033],[100.58830234400006,14.375643682000032],[100.58409634000009,14.365024234000032],[100.60671082100004,14.357369067000036],[100.61480591800006,14.358684775000029]]]}},{"type":"Feature","properties":{"code":"140413","name":"ห่อหมก","parentCode":"1404"},"geometry":{"type":"Polygon","coordinates":[[[100.48365086500007,14.264431726000055],[100.48881897300004,14.281752693000044],[100.44957663900004,14.257855187000075],[100.43192318100006,14.252806359000033],[100.42889171700006,14.250905502000023],[100.43487366000005,14.246312662000037],[100.48098706000007,14.240892401000053],[100.48365086500007,14.264431726000055]]]}},{"type":"Feature","properties":{"code":"140103","name":"หอรัตนไชย","parentCode":"1401"},"geometry":{"type":"Polygon","coordinates":[[[100.58120873400009,14.354600494000067],[100.57437610200009,14.361651597000048],[100.57451394300006,14.347200997000073],[100.57645000100007,14.34506405600007],[100.58120873400009,14.354600494000067]]]}},{"type":"Feature","properties":{"code":"141501","name":"หัวไผ่","parentCode":"1415"},"geometry":{"type":"Polygon","coordinates":[[[100.54045577800008,14.533270171000026],[100.51036212500009,14.548857868000027],[100.51012933100009,14.532875506000039],[100.52459625000006,14.523086486000068],[100.54307822200008,14.524201684000047],[100.54045577800008,14.533270171000026]]]}},{"type":"Feature","properties":{"code":"140104","name":"หัวรอ","parentCode":"1401"},"geometry":{"type":"Polygon","coordinates":[[[100.58830234400006,14.375643682000032],[100.57248997000005,14.375312320000035],[100.56950946900008,14.374303000000054],[100.56707537300008,14.363986974000056],[100.56835486100005,14.360986793000052],[100.57437610200009,14.361651597000048],[100.58120873400009,14.354600494000067],[100.58329974800006,14.35479728000007],[100.58409634000009,14.365024234000032],[100.58830234400006,14.375643682000032]]]}},{"type":"Feature","properties":{"code":"141206","name":"หัวเวียง","parentCode":"1412"},"geometry":{"type":"Polygon","coordinates":[[[100.41668760900006,14.385686802000066],[100.37123299100006,14.382676613000058],[100.37153601400007,14.365653589000033],[100.37289484100006,14.364304093000044],[100.41590512600004,14.360246354000026],[100.43674093900006,14.364143945000023],[100.41592522500008,14.374830882000026],[100.41668760900006,14.385686802000066]]]}},{"type":"Feature","properties":{"code":"141302","name":"แก้วฟ้า","parentCode":"1413"},"geometry":{"type":"Polygon","coordinates":[[[100.35649282200006,14.325400179000042],[100.30873612600004,14.329886533000035],[100.30457926500009,14.292875084000059],[100.34254883700004,14.30496019800006],[100.35649282200006,14.325400179000042]]]}},{"type":"Feature","properties":{"code":"140102","name":"กะมัง","parentCode":"1401"},"geometry":{"type":"Polygon","coordinates":[[[100.58476429100006,14.347883101000036],[100.58329974800006,14.35479728000007],[100.58120873400009,14.354600494000067],[100.57645000100007,14.34506405600007],[100.57605018900006,14.33146950300005],[100.58419040700005,14.340922335000073],[100.58476429100006,14.347883101000036]]]}},{"type":"Feature","properties":{"code":"141502","name":"กะทุ่ม","parentCode":"1415"},"geometry":{"type":"Polygon","coordinates":[[[100.60168059200004,14.555627078000043],[100.56404202500005,14.562289561000057],[100.54641221400004,14.549142841000048],[100.54045577800008,14.533270171000026],[100.54307822200008,14.524201684000047],[100.54923114900004,14.526186572000029],[100.56847589700004,14.544886857000051],[100.60184496400007,14.554215713000076],[100.60168059200004,14.555627078000043]]]}},{"type":"Feature","properties":{"code":"140407","name":"แคออก","parentCode":"1404"},"geometry":{"type":"Polygon","coordinates":[[[100.48721417800004,14.29655985200003],[100.47671582200007,14.319191842000066],[100.45614711200005,14.304717078000067],[100.46474314600005,14.297983302000034],[100.47232293200005,14.294306333000065],[100.48721417800004,14.29655985200003]]]}},{"type":"Feature","properties":{"code":"140408","name":"แคตก","parentCode":"1404"},"geometry":{"type":"Polygon","coordinates":[[[100.48721417800004,14.29655985200003],[100.47232293200005,14.294306333000065],[100.44957663900004,14.257855187000075],[100.48881897300004,14.281752693000044],[100.48796158200008,14.294821700000057],[100.48721417800004,14.29655985200003]]]}},{"type":"Feature","properties":{"code":"141401","name":"คานหาม","parentCode":"1414"},"geometry":{"type":"Polygon","coordinates":[[[100.66226752700004,14.330689244000041],[100.64270298600007,14.348615633000065],[100.61905155000005,14.347038979000047],[100.62970402600007,14.323369060000061],[100.65910791700009,14.322965929000077],[100.66226752700004,14.330689244000041]]]}},{"type":"Feature","properties":{"code":"140618","name":"ขนอนหลวง","parentCode":"1406"},"geometry":{"type":"Polygon","coordinates":[[[100.56505901300005,14.287821155000074],[100.58817659800008,14.290990571000066],[100.58673546200004,14.303705089000061],[100.56615867200009,14.304641250000032],[100.56569198800008,14.302372266000077],[100.56505901300005,14.287821155000074]]]}},{"type":"Feature","properties":{"code":"141411","name":"ข้าวเม่า","parentCode":"1414"},"geometry":{"type":"Polygon","coordinates":[[[100.65277557700006,14.401680472000066],[100.65801002100005,14.41510405300005],[100.63213359800005,14.402489780000053],[100.61463845400004,14.393230106000033],[100.61480591800006,14.358684775000029],[100.64366139000003,14.362052724000023],[100.65277557700006,14.401680472000066]]]}},{"type":"Feature","properties":{"code":"141109","name":"ข้าวงาม","parentCode":"1411"},"geometry":{"type":"Polygon","coordinates":[[[100.82149886400003,14.242746399000055],[100.82309349500008,14.276092371000061],[100.78651725400005,14.258714920000045],[100.77619351700008,14.253861549000021],[100.77603842200006,14.221068651000053],[100.80019516600004,14.232537109000077],[100.82149886400003,14.242746399000055]]]}},{"type":"Feature","properties":{"code":"140702","name":"ขยาย","parentCode":"1407"},"geometry":{"type":"Polygon","coordinates":[[[100.57710570200004,14.412046925000027],[100.55763259200006,14.430576261000056],[100.55550702200009,14.404909370000041],[100.55963605200009,14.404103287000055],[100.57446327500008,14.404702452000038],[100.57710570200004,14.412046925000027]]]}},{"type":"Feature","properties":{"code":"140606","name":"คลองจิก","parentCode":"1406"},"geometry":{"type":"Polygon","coordinates":[[[100.64291650200005,14.23465796000005],[100.62704871500006,14.237393186000077],[100.58488222100004,14.233878365000066],[100.58050724700007,14.201643218000072],[100.59891164200008,14.192588141000044],[100.61842697900005,14.190412285000036],[100.64701791300007,14.22284213000006],[100.64291650200005,14.23465796000005]]]}},{"type":"Feature","properties":{"code":"141604","name":"คลองน้อย","parentCode":"1416"},"geometry":{"type":"Polygon","coordinates":[[[100.56621750200009,14.662725778000038],[100.54128975700007,14.669642982000028],[100.53559032300006,14.666541735000067],[100.52116882400009,14.623539883000035],[100.53125672200008,14.619947607000029],[100.54884048500008,14.620643775000076],[100.55940613500007,14.649349851000068],[100.56621750200009,14.662725778000038]]]}},{"type":"Feature","properties":{"code":"141007","name":"คลองพระยาบันลือ","parentCode":"1410"},"geometry":{"type":"Polygon","coordinates":[[[100.38650326700008,14.15287195600007],[100.35045336300004,14.15572419700004],[100.34413741500003,14.11494637800007],[100.39766328600007,14.115079372000025],[100.38650326700008,14.15287195600007]]]}},{"type":"Feature","properties":{"code":"140118","name":"คลองสระบัว","parentCode":"1401"},"geometry":{"type":"Polygon","coordinates":[[[100.56950946900008,14.374303000000054],[100.55799280300005,14.380057070000078],[100.55456452300007,14.363246796000055],[100.56707537300008,14.363986974000056],[100.56950946900008,14.374303000000054]]]}},{"type":"Feature","properties":{"code":"140310","name":"คลองสะแก","parentCode":"1403"},"geometry":{"type":"Polygon","coordinates":[[[100.59764334000005,14.435025567000025],[100.57815540400009,14.420758521000039],[100.62775216100005,14.405566298000053],[100.62727284500005,14.426889474000063],[100.59764334000005,14.435025567000025]]]}},{"type":"Feature","properties":{"code":"140117","name":"คลองสวนพลู","parentCode":"1401"},"geometry":{"type":"Polygon","coordinates":[[[100.60102195200005,14.341562097000065],[100.58476429100006,14.347883101000036],[100.58419040700005,14.340922335000073],[100.59177374100005,14.320845851000058],[100.62970402600007,14.323369060000061],[100.61905155000005,14.347038979000047],[100.60102195200005,14.341562097000065]]]}},{"type":"Feature","properties":{"code":"140111","name":"คลองตะเคียน","parentCode":"1401"},"geometry":{"type":"Polygon","coordinates":[[[100.57491806800004,14.328314687000045],[100.54826491600005,14.334238678000077],[100.54928666400008,14.32634540500004],[100.57177654400004,14.320817973000032],[100.57491806800004,14.328314687000045]]]}},{"type":"Feature","properties":{"code":"140423","name":"โคกช้าง","parentCode":"1404"},"geometry":{"type":"Polygon","coordinates":[[[100.51507817500004,14.14381800600006],[100.46145687900008,14.125566613000046],[100.45452011700007,14.115897532000076],[100.48177952900005,14.111844631000054],[100.52542308000005,14.122280488000058],[100.51507817500004,14.14381800600006]]]}},{"type":"Feature","properties":{"code":"140811","name":"โคกช้าง","parentCode":"1408"},"geometry":{"type":"Polygon","coordinates":[[[100.39953357300004,14.507346748000032],[100.38381973200006,14.508236282000041],[100.37418399200004,14.500566028000037],[100.38778939100007,14.488302372000021],[100.39984701100008,14.490851589000044],[100.39953357300004,14.507346748000032]]]}},{"type":"Feature","properties":{"code":"140902","name":"โคกม่วง","parentCode":"1409"},"geometry":{"type":"Polygon","coordinates":[[[100.76739455200004,14.431013576000055],[100.74323298300004,14.439972186000034],[100.72079497900006,14.428796396000052],[100.69584809800006,14.406512831000043],[100.72636351800008,14.400868483000067],[100.73516244200005,14.400315861000024],[100.74433177100008,14.404984289000026],[100.75940667200007,14.413143052000066],[100.76739455200004,14.431013576000055]]]}},{"type":"Feature","properties":{"code":"141006","name":"คู้สลอด","parentCode":"1410"},"geometry":{"type":"Polygon","coordinates":[[[100.41749450700007,14.195375632000037],[100.41792606900003,14.224206091000042],[100.38554178300006,14.214630010000064],[100.35088431000008,14.20941057500005],[100.35152508800007,14.174136619000024],[100.42518142500006,14.161366190000024],[100.42483715900005,14.174800616000027],[100.41749450700007,14.195375632000037]]]}},{"type":"Feature","properties":{"code":"140614","name":"คุ้งลาน","parentCode":"1406"},"geometry":{"type":"Polygon","coordinates":[[[100.62837396200007,14.286612578000074],[100.62970402600007,14.323369060000061],[100.61131495200004,14.288282354000046],[100.61167786400006,14.286116340000035],[100.62837396200007,14.286612578000074]]]}},{"type":"Feature","properties":{"code":"140712","name":"ขวัญเมือง","parentCode":"1407"},"geometry":{"type":"Polygon","coordinates":[[[100.54395823600004,14.464192936000074],[100.54053652000005,14.465817995000066],[100.53243514100006,14.429092506000075],[100.54705227100004,14.438156849000052],[100.54395823600004,14.464192936000074]]]}},{"type":"Feature","properties":{"code":"140611","name":"เกาะเกิด","parentCode":"1406"},"geometry":{"type":"Polygon","coordinates":[[[100.56801214600006,14.208389886000077],[100.53029341100006,14.220898004000048],[100.52947004000004,14.19706201400004],[100.56801214600006,14.208389886000077]]]}},{"type":"Feature","properties":{"code":"140119","name":"เกาะเรียน","parentCode":"1401"},"geometry":{"type":"Polygon","coordinates":[[[100.59177374100005,14.320845851000058],[100.58419040700005,14.340922335000073],[100.57605018900006,14.33146950300005],[100.57491806800004,14.328314687000045],[100.57177654400004,14.320817973000032],[100.56615867200009,14.304641250000032],[100.58673546200004,14.303705089000061],[100.59177374100005,14.320845851000058]]]}},{"type":"Feature","properties":{"code":"140415","name":"กกแก้วบูรพา","parentCode":"1404"},"geometry":{"type":"Polygon","coordinates":[[[100.44947741700008,14.213423122000052],[100.41749450700007,14.195375632000037],[100.42483715900005,14.174800616000027],[100.45246808700006,14.17290242100006],[100.44947741700008,14.213423122000052]]]}},{"type":"Feature","properties":{"code":"140506","name":"กบเจา","parentCode":"1405"},"geometry":{"type":"Polygon","coordinates":[[[100.44949034900009,14.38680452500006],[100.44823672400008,14.379372540000077],[100.44748494800007,14.362909253000055],[100.47096482900008,14.348657435000064],[100.49349617200005,14.340553766000028],[100.46667280400004,14.376208551000047],[100.44949034900009,14.38680452500006]]]}},{"type":"Feature","properties":{"code":"140410","name":"กระแชง","parentCode":"1404"},"geometry":{"type":"Polygon","coordinates":[[[100.52550642200003,14.28649441500005],[100.48796158200008,14.294821700000057],[100.48881897300004,14.281752693000044],[100.48365086500007,14.264431726000055],[100.52608137800007,14.263701921000063],[100.52668597500008,14.265914167000062],[100.52703105400008,14.279706176000047],[100.52550642200003,14.28649441500005]]]}},{"type":"Feature","properties":{"code":"140907","name":"กระจิว","parentCode":"1409"},"geometry":{"type":"Polygon","coordinates":[[[100.72079497900006,14.428796396000052],[100.70787176700009,14.442731708000053],[100.70290237500006,14.439613570000063],[100.66018661900006,14.41602944400006],[100.69584809800006,14.406512831000043],[100.72079497900006,14.428796396000052]]]}},{"type":"Feature","properties":{"code":"140809","name":"กุฎี","parentCode":"1408"},"geometry":{"type":"Polygon","coordinates":[[[100.41644957400007,14.476865514000053],[100.41008022500006,14.47632204000007],[100.39803003300005,14.449937956000042],[100.39748523100008,14.439642239000023],[100.39600965400007,14.43109922900004],[100.40099714200005,14.404453069000056],[100.41628211500006,14.396396025000058],[100.41649020600005,14.41045679900003],[100.41317827700004,14.423718192000024],[100.42020840100008,14.447148438000056],[100.41968938400004,14.463318352000044],[100.41644957400007,14.476865514000053]]]}},{"type":"Feature","properties":{"code":"141002","name":"หลักชัย","parentCode":"1410"},"geometry":{"type":"Polygon","coordinates":[[[100.29025093000007,14.217177168000035],[100.27403947400006,14.219173000000069],[100.23608597400005,14.204408090000072],[100.21290035300007,14.179213636000043],[100.28413889900008,14.16959119300003],[100.29134059300009,14.168578960000048],[100.29025093000007,14.217177168000035]]]}},{"type":"Feature","properties":{"code":"141104","name":"ลำไทร","parentCode":"1411"},"geometry":{"type":"Polygon","coordinates":[[[100.71699875400009,14.225562044000071],[100.71598624100005,14.245265133000032],[100.64701791300007,14.22284213000006],[100.61842697900005,14.190412285000036],[100.61951107300007,14.176329132000035],[100.65927966200007,14.197304814000063],[100.71699875400009,14.225562044000071]]]}},{"type":"Feature","properties":{"code":"141101","name":"ลำตาเสา","parentCode":"1411"},"geometry":{"type":"Polygon","coordinates":[[[100.72908630300009,14.303210295000042],[100.69158858000009,14.308958027000074],[100.68283819300007,14.299062724000066],[100.67394127400007,14.274813186000074],[100.71598624100005,14.245265133000032],[100.71699875400009,14.225562044000071],[100.73169413000005,14.232641439000076],[100.73163746000006,14.26529042900006],[100.73225539900005,14.298169448000067],[100.72908630300009,14.303210295000042]]]}},{"type":"Feature","properties":{"code":"140810","name":"ลำตะเคียน","parentCode":"1408"},"geometry":{"type":"Polygon","coordinates":[[[100.34300432400005,14.431685998000034],[100.30011975700006,14.43530069600007],[100.29246238800005,14.405247840000072],[100.33984246800009,14.405447156000037],[100.34300432400005,14.431685998000034]]]}},{"type":"Feature","properties":{"code":"141001","name":"ลาดบัวหลวง","parentCode":"1410"},"geometry":{"type":"Polygon","coordinates":[[[100.35152508800007,14.174136619000024],[100.35088431000008,14.20941057500005],[100.35074372200006,14.224975561000065],[100.31927845700005,14.221881626000027],[100.29025093000007,14.217177168000035],[100.29134059300009,14.168578960000048],[100.35045336300004,14.15572419700004],[100.35152508800007,14.174136619000024]]]}},{"type":"Feature","properties":{"code":"140814","name":"ลาดชิด","parentCode":"1408"},"geometry":{"type":"Polygon","coordinates":[[[100.36992268900008,14.440805074000025],[100.35193526300009,14.442204796000055],[100.34300432400005,14.431685998000034],[100.33984246800009,14.405447156000037],[100.37103554500004,14.402456951000033],[100.37165074600006,14.40237836700004],[100.37516584200006,14.40227649600007],[100.37421983500008,14.430731706000074],[100.36992268900008,14.440805074000025]]]}},{"type":"Feature","properties":{"code":"140804","name":"ลาดน้ำเค็ม","parentCode":"1408"},"geometry":{"type":"Polygon","coordinates":[[[100.39984701100008,14.490851589000044],[100.38778939100007,14.488302372000021],[100.37381776700005,14.477625622000062],[100.38002735000003,14.476013355000077],[100.41008022500006,14.47632204000007],[100.39984701100008,14.490851589000044]]]}},{"type":"Feature","properties":{"code":"141214","name":"ลาดงา","parentCode":"1412"},"geometry":{"type":"Polygon","coordinates":[[[100.37165074600006,14.40237836700004],[100.37103554500004,14.402456951000033],[100.34108115300006,14.361136025000064],[100.37153601400007,14.365653589000033],[100.37123299100006,14.382676613000058],[100.37165074600006,14.40237836700004]]]}},{"type":"Feature","properties":{"code":"140114","name":"ลุมพลี","parentCode":"1401"},"geometry":{"type":"Polygon","coordinates":[[[100.55799280300005,14.380057070000078],[100.54943626400006,14.385485906000042],[100.54065685200004,14.371472291000032],[100.55253769300003,14.363129245000039],[100.55456452300007,14.363246796000055],[100.55799280300005,14.380057070000078]]]}},{"type":"Feature","properties":{"code":"140308","name":"แม่ลา","parentCode":"1403"},"geometry":{"type":"Polygon","coordinates":[[[100.64196720300004,14.479406331000064],[100.60048900100008,14.517638915000077],[100.59474198500004,14.509162459000038],[100.62252088700006,14.492502020000074],[100.64196720300004,14.479406331000064]]]}},{"type":"Feature","properties":{"code":"141503","name":"มหาราช","parentCode":"1415"},"geometry":{"type":"Polygon","coordinates":[[[100.53217297800006,14.561521264000078],[100.51036212500009,14.548857868000027],[100.54045577800008,14.533270171000026],[100.54641221400004,14.549142841000048],[100.53217297800006,14.561521264000078]]]}},{"type":"Feature","properties":{"code":"140505","name":"มหาพราหมณ์","parentCode":"1405"},"geometry":{"type":"Polygon","coordinates":[[[100.49836913100006,14.341295265000042],[100.50948113100009,14.335749603000068],[100.52118909800004,14.372411365000062],[100.50128542800007,14.386294270000064],[100.48468061000005,14.375622403000023],[100.49836913100006,14.341295265000042]]]}},{"type":"Feature","properties":{"code":"140416","name":"ไม้ตรา","parentCode":"1404"},"geometry":{"type":"Polygon","coordinates":[[[100.51333555800005,14.15292420700007],[100.50384197000005,14.179013344000055],[100.45246808700006,14.17290242100006],[100.42483715900005,14.174800616000027],[100.42518142500006,14.161366190000024],[100.46165991300006,14.149776839000026],[100.51333555800005,14.15292420700007]]]}},{"type":"Feature","properties":{"code":"141207","name":"มารวิชัย","parentCode":"1412"},"geometry":{"type":"Polygon","coordinates":[[[100.39386134200004,14.254326820000074],[100.38514066800008,14.284238490000064],[100.35074372200006,14.224975561000065],[100.35088431000008,14.20941057500005],[100.38554178300006,14.214630010000064],[100.39386134200004,14.254326820000074]]]}},{"type":"Feature","properties":{"code":"140815","name":"หน้าโคก","parentCode":"1408"},"geometry":{"type":"Polygon","coordinates":[[[100.38778939100007,14.488302372000021],[100.37418399200004,14.500566028000037],[100.33910109300007,14.493310010000073],[100.34251990000007,14.480226746000028],[100.37381776700005,14.477625622000062],[100.38778939100007,14.488302372000021]]]}},{"type":"Feature","properties":{"code":"140808","name":"นาคู","parentCode":"1408"},"geometry":{"type":"Polygon","coordinates":[[[100.29901575400004,14.495296686000074],[100.26736462600007,14.490082957000027],[100.25314556100005,14.48286126100004],[100.24611592000008,14.453801830000032],[100.25096396500004,14.438538132000076],[100.29968456100005,14.455930636000062],[100.29901575400004,14.495296686000074]]]}},{"type":"Feature","properties":{"code":"140405","name":"หน้าไม้","parentCode":"1404"},"geometry":{"type":"Polygon","coordinates":[[[100.47671582200007,14.319191842000066],[100.45190089300007,14.323448248000034],[100.45614711200005,14.304717078000067],[100.47671582200007,14.319191842000066]]]}},{"type":"Feature","properties":{"code":"140301","name":"นครหลวง","parentCode":"1403"},"geometry":{"type":"Polygon","coordinates":[[[100.64196720300004,14.479406331000064],[100.62252088700006,14.492502020000074],[100.61138456500004,14.470328104000032],[100.60659254400008,14.450144657000067],[100.61476690000006,14.45479712100007],[100.64492333500004,14.475059889000022],[100.64196720300004,14.479406331000064]]]}},{"type":"Feature","properties":{"code":"140509","name":"น้ำเต้า","parentCode":"1405"},"geometry":{"type":"Polygon","coordinates":[[[100.44158138800003,14.364631318000022],[100.43674093900006,14.364143945000023],[100.42734739300005,14.328786803000071],[100.43200830400008,14.307272767000029],[100.45141136800004,14.323468541000068],[100.45130871900005,14.329429727000047],[100.44158138800003,14.364631318000022]]]}},{"type":"Feature","properties":{"code":"141504","name":"น้ำเต้า","parentCode":"1415"},"geometry":{"type":"Polygon","coordinates":[[[100.55996489900008,14.569158405000053],[100.52814252800005,14.57337920200007],[100.53217297800006,14.561521264000078],[100.54641221400004,14.549142841000048],[100.56404202500005,14.562289561000057],[100.55996489900008,14.569158405000053]]]}},{"type":"Feature","properties":{"code":"140209","name":"หนองขนาก","parentCode":"1402"},"geometry":{"type":"Polygon","coordinates":[[[100.76667767200007,14.524473000000057],[100.75424453100004,14.53725053900007],[100.72972116200003,14.527104417000032],[100.72583386800005,14.52597927100004],[100.70296737900009,14.510316740000064],[100.70337445500007,14.496155180000073],[100.71977492300005,14.504836520000026],[100.76430784600007,14.494022060000077],[100.76667767200007,14.524473000000057]]]}},{"type":"Feature","properties":{"code":"141405","name":"หนองไม้ซุง","parentCode":"1414"},"geometry":{"type":"Polygon","coordinates":[[[100.77415901800003,14.361445509000077],[100.74433177100008,14.404984289000026],[100.73516244200005,14.400315861000024],[100.75299243100005,14.362511537000046],[100.76033568900004,14.353740754000057],[100.77415901800003,14.361445509000077]]]}},{"type":"Feature","properties":{"code":"140904","name":"หนองน้ำใส","parentCode":"1409"},"geometry":{"type":"Polygon","coordinates":[[[100.77309745000008,14.480580341000064],[100.77301225700006,14.483671318000063],[100.72948860400004,14.456307689000027],[100.74323298300004,14.439972186000034],[100.76739455200004,14.431013576000055],[100.77236061700006,14.434628474000021],[100.77309745000008,14.480580341000064]]]}},{"type":"Feature","properties":{"code":"141408","name":"หนองน้ำส้ม","parentCode":"1414"},"geometry":{"type":"Polygon","coordinates":[[[100.73206880600009,14.332164189000025],[100.70168191000005,14.338855472000034],[100.69158858000009,14.308958027000074],[100.72908630300009,14.303210295000042],[100.73206880600009,14.332164189000025]]]}},{"type":"Feature","properties":{"code":"140813","name":"หนองน้ำใหญ่","parentCode":"1408"},"geometry":{"type":"Polygon","coordinates":[[[100.30851068700008,14.493877852000026],[100.29901575400004,14.495296686000074],[100.29968456100005,14.455930636000062],[100.30105619600005,14.451366844000063],[100.34994022700005,14.461940164000055],[100.34251990000007,14.480226746000028],[100.33910109300007,14.493310010000073],[100.30851068700008,14.493877852000026]]]}},{"type":"Feature","properties":{"code":"140309","name":"หนองปลิง","parentCode":"1403"},"geometry":{"type":"Polygon","coordinates":[[[100.65280872300008,14.436922418000051],[100.62917005500003,14.444258065000042],[100.62727284500005,14.426889474000063],[100.62775216100005,14.405566298000053],[100.63213359800005,14.402489780000053],[100.65801002100005,14.41510405300005],[100.66018661900006,14.41602944400006],[100.65280872300008,14.436922418000051]]]}},{"type":"Feature","properties":{"code":"140305","name":"ปากจั่น","parentCode":"1403"},"geometry":{"type":"Polygon","coordinates":[[[100.61476690000006,14.45479712100007],[100.60659254400008,14.450144657000067],[100.58968290300004,14.446294178000073],[100.59764334000005,14.435025567000025],[100.62727284500005,14.426889474000063],[100.62917005500003,14.444258065000042],[100.61476690000006,14.45479712100007]]]}},{"type":"Feature","properties":{"code":"140107","name":"ปากกราน","parentCode":"1401"},"geometry":{"type":"Polygon","coordinates":[[[100.54826491600005,14.334238678000077],[100.54885469700008,14.339524739000069],[100.50932027500005,14.325994799000057],[100.50823925500003,14.325487617000022],[100.52550642200003,14.28649441500005],[100.52703105400008,14.279706176000047],[100.54859155100007,14.300867200000027],[100.54928666400008,14.32634540500004],[100.54826491600005,14.334238678000077]]]}},{"type":"Feature","properties":{"code":"140208","name":"ปากท่า","parentCode":"1402"},"geometry":{"type":"Polygon","coordinates":[[[100.65826669300009,14.519390431000033],[100.65681930200009,14.518916865000051],[100.66690516500006,14.50486642800007],[100.68737385400004,14.494989823000026],[100.70337445500007,14.496155180000073],[100.70296737900009,14.510316740000064],[100.69803959100005,14.515453184000023],[100.65826669300009,14.519390431000033]]]}},{"type":"Feature","properties":{"code":"140901","name":"ภาชี","parentCode":"1409"},"geometry":{"type":"Polygon","coordinates":[[[100.72948860400004,14.456307689000027],[100.72870212600009,14.45723747900007],[100.70787176700009,14.442731708000053],[100.72079497900006,14.428796396000052],[100.74323298300004,14.439972186000034],[100.72948860400004,14.456307689000027]]]}},{"type":"Feature","properties":{"code":"140106","name":"ไผ่ลิง","parentCode":"1401"},"geometry":{"type":"Polygon","coordinates":[[[100.60671082100004,14.357369067000036],[100.58409634000009,14.365024234000032],[100.58329974800006,14.35479728000007],[100.58476429100006,14.347883101000036],[100.60102195200005,14.341562097000065],[100.60671082100004,14.357369067000036]]]}},{"type":"Feature","properties":{"code":"140906","name":"ไผ่ล้อม","parentCode":"1409"},"geometry":{"type":"Polygon","coordinates":[[[100.72870212600009,14.45723747900007],[100.71977492300005,14.504836520000026],[100.70337445500007,14.496155180000073],[100.68737385400004,14.494989823000026],[100.68102479400005,14.475780622000059],[100.68510567200008,14.453239273000065],[100.70290237500006,14.439613570000063],[100.70787176700009,14.442731708000053],[100.72870212600009,14.45723747900007]]]}},{"type":"Feature","properties":{"code":"140414","name":"ไผ่พระ","parentCode":"1404"},"geometry":{"type":"Polygon","coordinates":[[[100.42889171700006,14.250905502000023],[100.41792606900003,14.224206091000042],[100.41749450700007,14.195375632000037],[100.44947741700008,14.213423122000052],[100.45208317600009,14.22581703700007],[100.43487366000005,14.246312662000037],[100.42889171700006,14.250905502000023]]]}},{"type":"Feature","properties":{"code":"140801","name":"ผักไห่","parentCode":"1408"},"geometry":{"type":"Polygon","coordinates":[[[100.39803003300005,14.449937956000042],[100.41008022500006,14.47632204000007],[100.38002735000003,14.476013355000077],[100.34994022700005,14.461940164000055],[100.35148556300004,14.449404000000072],[100.39803003300005,14.449937956000042]]]}},{"type":"Feature","properties":{"code":"141106","name":"พยอม","parentCode":"1411"},"geometry":{"type":"Polygon","coordinates":[[[100.66691256500008,14.167903853000041],[100.65927966200007,14.197304814000063],[100.61951107300007,14.176329132000035],[100.61967321000009,14.143122747000064],[100.63095772300005,14.149049984000044],[100.65244452100006,14.160321173000057],[100.66691256500008,14.167903853000041]]]}},{"type":"Feature","properties":{"code":"141508","name":"พิตเพียน","parentCode":"1415"},"geometry":{"type":"Polygon","coordinates":[[[100.53607877200005,14.592199272000073],[100.56332053400007,14.622329403000037],[100.54884048500008,14.620643775000076],[100.53125672200008,14.619947607000029],[100.52658496500004,14.595992353000042],[100.53607877200005,14.592199272000073]]]}},{"type":"Feature","properties":{"code":"140207","name":"โพธิ์เอน","parentCode":"1402"},"geometry":{"type":"Polygon","coordinates":[[[100.69342702600005,14.53191888200007],[100.65826669300009,14.519390431000033],[100.69803959100005,14.515453184000023],[100.69342702600005,14.53191888200007]]]}},{"type":"Feature","properties":{"code":"140714","name":"โพธิ์สามต้น","parentCode":"1407"},"geometry":{"type":"Polygon","coordinates":[[[100.55763259200006,14.430576261000056],[100.54705227100004,14.438156849000052],[100.53243514100006,14.429092506000075],[100.54515249400004,14.402759465000031],[100.55550702200009,14.404909370000041],[100.55763259200006,14.430576261000056]]]}},{"type":"Feature","properties":{"code":"141409","name":"โพสาวหาญ","parentCode":"1414"},"geometry":{"type":"Polygon","coordinates":[[[100.78371649900004,14.35004940600004],[100.78677699600007,14.370244253000067],[100.77415901800003,14.361445509000077],[100.76033568900004,14.353740754000057],[100.73206880600009,14.332164189000025],[100.72908630300009,14.303210295000042],[100.73225539900005,14.298169448000067],[100.77550453200007,14.318618553000022],[100.78371649900004,14.35004940600004]]]}},{"type":"Feature","properties":{"code":"140421","name":"โพแตง","parentCode":"1404"},"geometry":{"type":"Polygon","coordinates":[[[100.55599642800007,14.149399711000058],[100.54098020600009,14.159879549000038],[100.51444659500004,14.149816785000041],[100.51507817500004,14.14381800600006],[100.52542308000005,14.122280488000058],[100.53687435900008,14.118043709000062],[100.54068175300006,14.118091312000047],[100.55599642800007,14.149399711000058]]]}},{"type":"Feature","properties":{"code":"140908","name":"พระแก้ว","parentCode":"1409"},"geometry":{"type":"Polygon","coordinates":[[[100.70290237500006,14.439613570000063],[100.68510567200008,14.453239273000065],[100.65280872300008,14.436922418000051],[100.66018661900006,14.41602944400006],[100.70290237500006,14.439613570000063]]]}},{"type":"Feature","properties":{"code":"140508","name":"พระขาว","parentCode":"1405"},"geometry":{"type":"Polygon","coordinates":[[[100.49349617200005,14.340553766000028],[100.47096482900008,14.348657435000064],[100.45130871900005,14.329429727000047],[100.45141136800004,14.323468541000068],[100.45190089300007,14.323448248000034],[100.47671582200007,14.319191842000066],[100.50823925500003,14.325487617000022],[100.50932027500005,14.325994799000057],[100.50948113100009,14.335749603000068],[100.49836913100006,14.341295265000042],[100.49349617200005,14.340553766000028]]]}},{"type":"Feature","properties":{"code":"140312","name":"พระนอน","parentCode":"1403"},"geometry":{"type":"Polygon","coordinates":[[[100.60990592600007,14.553460164000057],[100.60184496400007,14.554215713000076],[100.60048900100008,14.517638915000077],[100.64196720300004,14.479406331000064],[100.64492333500004,14.475059889000022],[100.66903012900008,14.481233031000045],[100.65994221600005,14.493430932000024],[100.60990592600007,14.553460164000057]]]}},{"type":"Feature","properties":{"code":"141004","name":"พระยาบันลือ","parentCode":"1410"},"geometry":{"type":"Polygon","coordinates":[[[100.42518142500006,14.161366190000024],[100.35152508800007,14.174136619000024],[100.35045336300004,14.15572419700004],[100.38650326700008,14.15287195600007],[100.46165991300006,14.149776839000026],[100.42518142500006,14.161366190000024]]]}},{"type":"Feature","properties":{"code":"140108","name":"ภูเขาทอง","parentCode":"1401"},"geometry":{"type":"Polygon","coordinates":[[[100.54065685200004,14.371472291000032],[100.53852918900009,14.373241199000063],[100.53209990800008,14.366826321000076],[100.54523504500008,14.357740474000025],[100.55253769300003,14.363129245000039],[100.54065685200004,14.371472291000032]]]}},{"type":"Feature","properties":{"code":"140715","name":"พุทเลา","parentCode":"1407"},"geometry":{"type":"Polygon","coordinates":[[[100.54515249400004,14.402759465000031],[100.53243514100006,14.429092506000075],[100.50805162400007,14.431400919000055],[100.50494919300007,14.405893383000034],[100.52993588300006,14.401920424000025],[100.54515249400004,14.402759465000031]]]}},{"type":"Feature","properties":{"code":"141304","name":"ปลายกลัด","parentCode":"1413"},"geometry":{"type":"Polygon","coordinates":[[[100.29246238800005,14.405247840000072],[100.27347966600007,14.407166232000066],[100.26439361300004,14.362087590000044],[100.27521509700006,14.351882766000074],[100.27980742500006,14.351003375000062],[100.34108115300006,14.361136025000064],[100.37103554500004,14.402456951000033],[100.33984246800009,14.405447156000037],[100.29246238800005,14.405247840000072]]]}},{"type":"Feature","properties":{"code":"140101","name":"ประตูชัย","parentCode":"1401"},"geometry":{"type":"Polygon","coordinates":[[[100.57451394300006,14.347200997000073],[100.57437610200009,14.361651597000048],[100.56835486100005,14.360986793000052],[100.54710747600006,14.356213785000023],[100.54885469700008,14.339524739000069],[100.57451394300006,14.347200997000073]]]}},{"type":"Feature","properties":{"code":"141209","name":"รางจรเข้","parentCode":"1412"},"geometry":{"type":"Polygon","coordinates":[[[100.39870928000005,14.327599160000034],[100.37289484100006,14.364304093000044],[100.37153601400007,14.365653589000033],[100.34108115300006,14.361136025000064],[100.33545855200003,14.343093599000042],[100.39214105700006,14.326444239000068],[100.39870928000005,14.327599160000034]]]}},{"type":"Feature","properties":{"code":"140903","name":"ระโสม","parentCode":"1409"},"geometry":{"type":"Polygon","coordinates":[[[100.78225807600006,14.406150177000029],[100.75940667200007,14.413143052000066],[100.74433177100008,14.404984289000026],[100.77415901800003,14.361445509000077],[100.78677699600007,14.370244253000067],[100.78788282800008,14.379695881000032],[100.78225807600006,14.406150177000029]]]}},{"type":"Feature","properties":{"code":"140419","name":"ราชคราม","parentCode":"1404"},"geometry":{"type":"Polygon","coordinates":[[[100.53396783000005,14.166912276000062],[100.52947004000004,14.19706201400004],[100.50756865400007,14.200324887000022],[100.50384197000005,14.179013344000055],[100.53396783000005,14.166912276000062]]]}},{"type":"Feature","properties":{"code":"141506","name":"โรงช้าง","parentCode":"1415"},"geometry":{"type":"Polygon","coordinates":[[[100.57681425300007,14.60494699800006],[100.58198596700004,14.62440686900004],[100.56332053400007,14.622329403000037],[100.53607877200005,14.592199272000073],[100.55820913500008,14.58238917600005],[100.57530143500009,14.595919925000032],[100.57681425300007,14.60494699800006]]]}},{"type":"Feature","properties":{"code":"140503","name":"ไทรน้อย","parentCode":"1405"},"geometry":{"type":"Polygon","coordinates":[[[100.50281934800006,14.40536871200004],[100.48422457800007,14.426227379000068],[100.48187779100004,14.423079739000059],[100.47351184900003,14.401057008000066],[100.49898915300008,14.399296478000053],[100.50281934800006,14.40536871200004]]]}},{"type":"Feature","properties":{"code":"140205","name":"ศาลาลอย","parentCode":"1402"},"geometry":{"type":"Polygon","coordinates":[[[100.72583386800005,14.52597927100004],[100.69350658000008,14.557255276000035],[100.68148234500006,14.557065841000053],[100.69342702600005,14.53191888200007],[100.69803959100005,14.515453184000023],[100.70296737900009,14.510316740000064],[100.72583386800005,14.52597927100004]]]}},{"type":"Feature","properties":{"code":"141403","name":"สามบัณฑิต","parentCode":"1414"},"geometry":{"type":"Polygon","coordinates":[[[100.75299243100005,14.362511537000046],[100.68241186100005,14.35730976900004],[100.70168191000005,14.338855472000034],[100.73206880600009,14.332164189000025],[100.76033568900004,14.353740754000057],[100.75299243100005,14.362511537000046]]]}},{"type":"Feature","properties":{"code":"141204","name":"สามกอ","parentCode":"1412"},"geometry":{"type":"Polygon","coordinates":[[[100.40950624300007,14.319071302000054],[100.40766542900008,14.32377113800004],[100.39201350400003,14.325170272000037],[100.38514066800008,14.284238490000064],[100.41284090000005,14.291023163000034],[100.40950624300007,14.319071302000054]]]}},{"type":"Feature","properties":{"code":"141003","name":"สามเมือง","parentCode":"1410"},"geometry":{"type":"Polygon","coordinates":[[[100.34413741500003,14.11494637800007],[100.35045336300004,14.15572419700004],[100.29134059300009,14.168578960000048],[100.28413889900008,14.16959119300003],[100.28196936200004,14.146766481000043],[100.28179029100005,14.126881928000046],[100.30820874700004,14.136428943000055],[100.34404018300006,14.115030502000025],[100.34413741500003,14.11494637800007]]]}},{"type":"Feature","properties":{"code":"141603","name":"สำพะเนียง","parentCode":"1416"},"geometry":{"type":"Polygon","coordinates":[[[100.58373611000007,14.630155161000062],[100.55940613500007,14.649349851000068],[100.54884048500008,14.620643775000076],[100.56332053400007,14.622329403000037],[100.58198596700004,14.62440686900004],[100.58373611000007,14.630155161000062]]]}},{"type":"Feature","properties":{"code":"140610","name":"สามเรือน","parentCode":"1406"},"geometry":{"type":"Polygon","coordinates":[[[100.65910791700009,14.322965929000077],[100.62970402600007,14.323369060000061],[100.62837396200007,14.286612578000074],[100.65291808300003,14.246157758000038],[100.66792822200006,14.263626566000028],[100.66558682000004,14.316537736000043],[100.65910791700009,14.322965929000077]]]}},{"type":"Feature","properties":{"code":"140311","name":"สามไถ","parentCode":"1403"},"geometry":{"type":"Polygon","coordinates":[[[100.68737385400004,14.494989823000026],[100.66690516500006,14.50486642800007],[100.65994221600005,14.493430932000024],[100.66903012900008,14.481233031000045],[100.68102479400005,14.475780622000059],[100.68737385400004,14.494989823000026]]]}},{"type":"Feature","properties":{"code":"141213","name":"สามตุ่ม","parentCode":"1412"},"geometry":{"type":"Polygon","coordinates":[[[100.43192318100006,14.252806359000033],[100.41867737700005,14.275531154000078],[100.39386134200004,14.254326820000074],[100.38554178300006,14.214630010000064],[100.41792606900003,14.224206091000042],[100.42889171700006,14.250905502000023],[100.43192318100006,14.252806359000033]]]}},{"type":"Feature","properties":{"code":"140109","name":"สำเภาล่ม","parentCode":"1401"},"geometry":{"type":"Polygon","coordinates":[[[100.57451394300006,14.347200997000073],[100.54885469700008,14.339524739000069],[100.54826491600005,14.334238678000077],[100.57491806800004,14.328314687000045],[100.57605018900006,14.33146950300005],[100.57645000100007,14.34506405600007],[100.57451394300006,14.347200997000073]]]}},{"type":"Feature","properties":{"code":"140403","name":"สนามชัย","parentCode":"1404"},"geometry":{"type":"Polygon","coordinates":[[[100.52947004000004,14.19706201400004],[100.53029341100006,14.220898004000048],[100.52867679200006,14.224995156000034],[100.49258105100006,14.217347343000029],[100.50756865400007,14.200324887000022],[100.52947004000004,14.19706201400004]]]}},{"type":"Feature","properties":{"code":"141105","name":"สนับทึบ","parentCode":"1411"},"geometry":{"type":"Polygon","coordinates":[[[100.82313544300007,14.286127098000065],[100.81542556900007,14.326521008000043],[100.77982672300004,14.320584630000042],[100.79281588500004,14.29432673100007],[100.78651725400005,14.258714920000045],[100.82309349500008,14.276092371000061],[100.82313544300007,14.286127098000065]]]}},{"type":"Feature","properties":{"code":"140704","name":"เสาธง","parentCode":"1407"},"geometry":{"type":"Polygon","coordinates":[[[100.55734054500005,14.498436626000057],[100.53862368000006,14.503075576000072],[100.54916492900009,14.486317987000064],[100.55457741800006,14.482161896000036],[100.57291434800004,14.474177925000049],[100.58209770500008,14.483000119000053],[100.55734054500005,14.498436626000057]]]}},{"type":"Feature","properties":{"code":"140504","name":"สะพานไทย","parentCode":"1405"},"geometry":{"type":"Polygon","coordinates":[[[100.48468061000005,14.375622403000023],[100.46667280400004,14.376208551000047],[100.49349617200005,14.340553766000028],[100.49836913100006,14.341295265000042],[100.48468061000005,14.375622403000023]]]}},{"type":"Feature","properties":{"code":"141201","name":"เสนา","parentCode":"1412"},"geometry":{"type":"Polygon","coordinates":[[[100.40766542900008,14.32377113800004],[100.40226172300004,14.331653086000074],[100.39870928000005,14.327599160000034],[100.39214105700006,14.326444239000068],[100.39198987700007,14.325478533000023],[100.39201350400003,14.325170272000037],[100.40766542900008,14.32377113800004]]]}},{"type":"Feature","properties":{"code":"141407","name":"เสนา","parentCode":"1414"},"geometry":{"type":"Polygon","coordinates":[[[100.69584809800006,14.406512831000043],[100.66018661900006,14.41602944400006],[100.65801002100005,14.41510405300005],[100.65277557700006,14.401680472000066],[100.67980421200008,14.37564881000003],[100.72636351800008,14.400868483000067],[100.69584809800006,14.406512831000043]]]}},{"type":"Feature","properties":{"code":"141005","name":"สิงหนาท","parentCode":"1410"},"geometry":{"type":"Polygon","coordinates":[[[100.46165991300006,14.149776839000026],[100.38650326700008,14.15287195600007],[100.39766328600007,14.115079372000025],[100.42208307800007,14.113991793000025],[100.43000758700003,14.114292481000064],[100.45452011700007,14.115897532000076],[100.46145687900008,14.125566613000046],[100.46165991300006,14.149776839000026]]]}},{"type":"Feature","properties":{"code":"141605","name":"สองห้อง","parentCode":"1416"},"geometry":{"type":"Polygon","coordinates":[[[100.53559032300006,14.666541735000067],[100.50833993800006,14.673194754000065],[100.50341379100007,14.669919633000063],[100.50450016200006,14.655918954000072],[100.50301201900004,14.630029568000054],[100.52116882400009,14.623539883000035],[100.53559032300006,14.666541735000067]]]}},{"type":"Feature","properties":{"code":"140110","name":"สวนพริก","parentCode":"1401"},"geometry":{"type":"Polygon","coordinates":[[[100.55550702200009,14.404909370000041],[100.54515249400004,14.402759465000031],[100.54943626400006,14.385485906000042],[100.55799280300005,14.380057070000078],[100.56950946900008,14.374303000000054],[100.57248997000005,14.375312320000035],[100.55963605200009,14.404103287000055],[100.55550702200009,14.404909370000041]]]}},{"type":"Feature","properties":{"code":"140805","name":"ตาลาน","parentCode":"1408"},"geometry":{"type":"Polygon","coordinates":[[[100.39803003300005,14.449937956000042],[100.35148556300004,14.449404000000072],[100.35193526300009,14.442204796000055],[100.36992268900008,14.440805074000025],[100.39748523100008,14.439642239000023],[100.39803003300005,14.449937956000042]]]}},{"type":"Feature","properties":{"code":"140617","name":"ตลาดเกรียบ","parentCode":"1406"},"geometry":{"type":"Polygon","coordinates":[[[100.57638975100008,14.271731943000077],[100.56505901300005,14.287821155000074],[100.52668597500008,14.265914167000062],[100.52608137800007,14.263701921000063],[100.53057817800004,14.25075916700007],[100.57638975100008,14.271731943000077]]]}},{"type":"Feature","properties":{"code":"140615","name":"ตลิ่งชัน","parentCode":"1406"},"geometry":{"type":"Polygon","coordinates":[[[100.62837396200007,14.286612578000074],[100.61167786400006,14.286116340000035],[100.64534776000005,14.236497762000056],[100.65291808300003,14.246157758000038],[100.62837396200007,14.286612578000074]]]}},{"type":"Feature","properties":{"code":"140716","name":"ตาลเอน","parentCode":"1407"},"geometry":{"type":"Polygon","coordinates":[[[100.57479948300005,14.511160138000037],[100.56847589700004,14.544886857000051],[100.54923114900004,14.526186572000029],[100.56513164700004,14.501357896000059],[100.57479948300005,14.511160138000037]]]}},{"type":"Feature","properties":{"code":"140709","name":"ตานิม","parentCode":"1407"},"geometry":{"type":"Polygon","coordinates":[[[100.53862368000006,14.503075576000072],[100.53593389800005,14.505628211000044],[100.51709766900007,14.498381384000027],[100.52223224600004,14.483167854000044],[100.54916492900009,14.486317987000064],[100.53862368000006,14.503075576000072]]]}},{"type":"Feature","properties":{"code":"141303","name":"เต่าเล่า","parentCode":"1413"},"geometry":{"type":"Polygon","coordinates":[[[100.34108115300006,14.361136025000064],[100.27980742500006,14.351003375000062],[100.30873612600004,14.329886533000035],[100.35649282200006,14.325400179000042],[100.33545855200003,14.343093599000042],[100.34108115300006,14.361136025000064]]]}},{"type":"Feature","properties":{"code":"140302","name":"ท่าช้าง","parentCode":"1403"},"geometry":{"type":"Polygon","coordinates":[[[100.65681930200009,14.518916865000051],[100.60990592600007,14.553460164000057],[100.65994221600005,14.493430932000024],[100.66690516500006,14.50486642800007],[100.65681930200009,14.518916865000051]]]}},{"type":"Feature","properties":{"code":"140210","name":"ท่าเจ้าสนุก","parentCode":"1402"},"geometry":{"type":"Polygon","coordinates":[[[100.71022430600004,14.56193405700003],[100.69350658000008,14.557255276000035],[100.72583386800005,14.52597927100004],[100.72972116200003,14.527104417000032],[100.72687136000008,14.560045672000058],[100.71022430600004,14.56193405700003]]]}},{"type":"Feature","properties":{"code":"140806","name":"ท่าดินแดง","parentCode":"1408"},"geometry":{"type":"Polygon","coordinates":[[[100.40099714200005,14.404453069000056],[100.39600965400007,14.43109922900004],[100.37421983500008,14.430731706000074],[100.37516584200006,14.40227649600007],[100.40099714200005,14.404453069000056]]]}},{"type":"Feature","properties":{"code":"140203","name":"ท่าหลวง","parentCode":"1402"},"geometry":{"type":"Polygon","coordinates":[[[100.78270467300007,14.567032528000027],[100.76276504400005,14.56850518300007],[100.75424453100004,14.53725053900007],[100.76667767200007,14.524473000000057],[100.77865228600007,14.530733977000068],[100.78270467300007,14.567032528000027]]]}},{"type":"Feature","properties":{"code":"140201","name":"ท่าเรือ","parentCode":"1402"},"geometry":{"type":"Polygon","coordinates":[[[100.73141840300008,14.569388824000043],[100.71244889800005,14.574940291000075],[100.71022430600004,14.56193405700003],[100.72687136000008,14.560045672000058],[100.73141840300008,14.569388824000043]]]}},{"type":"Feature","properties":{"code":"141511","name":"ท่าตอ","parentCode":"1415"},"geometry":{"type":"Polygon","coordinates":[[[100.50929984200008,14.551247968000041],[100.49172470500008,14.583849641000029],[100.48035424200003,14.567929659000072],[100.49151192900007,14.544094008000059],[100.50929984200008,14.551247968000041]]]}},{"type":"Feature","properties":{"code":"140105","name":"ท่าวาสุกรี","parentCode":"1401"},"geometry":{"type":"Polygon","coordinates":[[[100.56835486100005,14.360986793000052],[100.56707537300008,14.363986974000056],[100.55456452300007,14.363246796000055],[100.55253769300003,14.363129245000039],[100.54523504500008,14.357740474000025],[100.54710747600006,14.356213785000023],[100.56835486100005,14.360986793000052]]]}},{"type":"Feature","properties":{"code":"140510","name":"ทางช้าง","parentCode":"1405"},"geometry":{"type":"Polygon","coordinates":[[[100.44823672400008,14.379372540000077],[100.41592522500008,14.374830882000026],[100.43674093900006,14.364143945000023],[100.44158138800003,14.364631318000022],[100.44748494800007,14.362909253000055],[100.44823672400008,14.379372540000077]]]}},{"type":"Feature","properties":{"code":"140705","name":"ทางกลาง","parentCode":"1407"},"geometry":{"type":"Polygon","coordinates":[[[100.56513164700004,14.501357896000059],[100.54923114900004,14.526186572000029],[100.54307822200008,14.524201684000047],[100.52459625000006,14.523086486000068],[100.53593389800005,14.505628211000044],[100.53862368000006,14.503075576000072],[100.55734054500005,14.498436626000057],[100.56513164700004,14.501357896000059]]]}},{"type":"Feature","properties":{"code":"141410","name":"ธนู","parentCode":"1414"},"geometry":{"type":"Polygon","coordinates":[[[100.64270298600007,14.348615633000065],[100.64366139000003,14.362052724000023],[100.61480591800006,14.358684775000029],[100.60671082100004,14.357369067000036],[100.60102195200005,14.341562097000065],[100.61905155000005,14.347038979000047],[100.64270298600007,14.348615633000065]]]}},{"type":"Feature","properties":{"code":"140710","name":"ทับน้ำ","parentCode":"1407"},"geometry":{"type":"Polygon","coordinates":[[[100.50872355400008,14.476992384000027],[100.50014695500005,14.502362953000045],[100.49110118800007,14.48746884600007],[100.49381430400007,14.468588373000046],[100.49689553500008,14.459504766000066],[100.50593265400005,14.44842999900004],[100.52130502000006,14.461427585000024],[100.50872355400008,14.476992384000027]]]}},{"type":"Feature","properties":{"code":"141305","name":"เทพมงคล","parentCode":"1413"},"geometry":{"type":"Polygon","coordinates":[[[100.29729764300004,14.256453645000022],[100.24994387100008,14.268495658000063],[100.23365112100004,14.241556800000069],[100.23146079800006,14.213102763000052],[100.23608597400005,14.204408090000072],[100.27403947400006,14.219173000000069],[100.29729764300004,14.256453645000022]]]}},{"type":"Feature","properties":{"code":"141406","name":"อุทัย","parentCode":"1414"},"geometry":{"type":"Polygon","coordinates":[[[100.67980421200008,14.37564881000003],[100.65277557700006,14.401680472000066],[100.64366139000003,14.362052724000023],[100.64270298600007,14.348615633000065],[100.66226752700004,14.330689244000041],[100.70168191000005,14.338855472000034],[100.68241186100005,14.35730976900004],[100.67980421200008,14.37564881000003]]]}},{"type":"Feature","properties":{"code":"141108","name":"วังจุฬา","parentCode":"1411"},"geometry":{"type":"Polygon","coordinates":[[[100.77603842200006,14.221068651000053],[100.77619351700008,14.253861549000021],[100.73169413000005,14.232641439000076],[100.73167660200005,14.199902369000029],[100.74344027700005,14.20552546600004],[100.75505067800003,14.211074445000065],[100.77603842200006,14.221068651000053]]]}},{"type":"Feature","properties":{"code":"140206","name":"วังแดง","parentCode":"1402"},"geometry":{"type":"Polygon","coordinates":[[[100.62220608600006,14.562426945000027],[100.60184496400007,14.554215713000076],[100.60990592600007,14.553460164000057],[100.65681930200009,14.518916865000051],[100.65826669300009,14.519390431000033],[100.69342702600005,14.53191888200007],[100.68148234500006,14.557065841000053],[100.66893233400003,14.55697445900006],[100.62220608600006,14.562426945000027]]]}},{"type":"Feature","properties":{"code":"141103","name":"วังน้อย","parentCode":"1411"},"geometry":{"type":"Polygon","coordinates":[[[100.66691256500008,14.167903853000041],[100.67438379800006,14.171842616000049],[100.69870421100006,14.184334156000034],[100.72079882100007,14.194691958000021],[100.73167660200005,14.199902369000029],[100.73169413000005,14.232641439000076],[100.71699875400009,14.225562044000071],[100.65927966200007,14.197304814000063],[100.66691256500008,14.167903853000041]]]}},{"type":"Feature","properties":{"code":"141306","name":"วังพัฒนา","parentCode":"1413"},"geometry":{"type":"Polygon","coordinates":[[[100.32157066300005,14.275741187000051],[100.34254883700004,14.30496019800006],[100.30457926500009,14.292875084000059],[100.25695968900004,14.299304262000021],[100.25574104900005,14.299143281000056],[100.24994387100008,14.268495658000063],[100.29729764300004,14.256453645000022],[100.32157066300005,14.275741187000051]]]}},{"type":"Feature","properties":{"code":"140511","name":"วัดตะกู","parentCode":"1405"},"geometry":{"type":"Polygon","coordinates":[[[100.45227671500004,14.39564606700003],[100.41628211500006,14.396396025000058],[100.41668760900006,14.385686802000066],[100.41592522500008,14.374830882000026],[100.44823672400008,14.379372540000077],[100.44949034900009,14.38680452500006],[100.45227671500004,14.39564606700003]]]}},{"type":"Feature","properties":{"code":"140112","name":"วัดตูม","parentCode":"1401"},"geometry":{"type":"Polygon","coordinates":[[[100.54515249400004,14.402759465000031],[100.52993588300006,14.401920424000025],[100.53852918900009,14.373241199000063],[100.54065685200004,14.371472291000032],[100.54943626400006,14.385485906000042],[100.54515249400004,14.402759465000031]]]}},{"type":"Feature","properties":{"code":"140502","name":"วัดยม","parentCode":"1405"},"geometry":{"type":"Polygon","coordinates":[[[100.47351184900003,14.401057008000066],[100.45227671500004,14.39564606700003],[100.44949034900009,14.38680452500006],[100.46667280400004,14.376208551000047],[100.48468061000005,14.375622403000023],[100.50128542800007,14.386294270000064],[100.49898915300008,14.399296478000053],[100.47351184900003,14.401057008000066]]]}},{"type":"Feature","properties":{"code":"140608","name":"วัดยม","parentCode":"1406"},"geometry":{"type":"Polygon","coordinates":[[[100.58143288000008,14.254115471000034],[100.57638975100008,14.271731943000077],[100.53057817800004,14.25075916700007],[100.52792431200004,14.240318148000028],[100.58143288000008,14.254115471000034]]]}}]}