{"type":"FeatureCollection","features":[{"type":"Feature","properties":{"code":"150401","name":"อ่างแก้ว","parentCode":"1504"},"geometry":{"type":"Polygon","coordinates":[[[100.41367374000004,14.665969776000054],[100.38843485100006,14.685096131000023],[100.37113138100005,14.659715092000056],[100.36932139400005,14.654270904000043],[100.37954739700007,14.649438281000073],[100.39673147100007,14.655848828000046],[100.40890769600009,14.657303940000077],[100.41367374000004,14.665969776000054]]]}},{"type":"Feature","properties":{"code":"150105","name":"บ้านแห","parentCode":"1501"},"geometry":{"type":"Polygon","coordinates":[[[100.44932426800005,14.576357109000071],[100.44627355400007,14.588132420000022],[100.43882229800005,14.584606405000045],[100.42918711700008,14.550647343000037],[100.44486352500007,14.558082334000062],[100.44932426800005,14.576357109000071]]]}},{"type":"Feature","properties":{"code":"150108","name":"บ้านอิฐ","parentCode":"1501"},"geometry":{"type":"Polygon","coordinates":[[[100.49188486800006,14.594818089000057],[100.47277856300008,14.598106178000023],[100.46595040300008,14.59168930800007],[100.45879578000006,14.582157745000075],[100.47008264300007,14.56756792300007],[100.48035424200003,14.567929659000072],[100.49172470500008,14.583849641000029],[100.49194233000009,14.585597278000023],[100.49188486800006,14.594818089000057]]]}},{"type":"Feature","properties":{"code":"150503","name":"บ้านพราน","parentCode":"1505"},"geometry":{"type":"Polygon","coordinates":[[[100.30762139100005,14.740308321000043],[100.29121048800005,14.745413616000064],[100.27277728400009,14.74362624400004],[100.27037049500007,14.70967679100005],[100.27860955900007,14.697864851000077],[100.31852809800006,14.70047327800006],[100.30762139100005,14.740308321000043]]]}},{"type":"Feature","properties":{"code":"150112","name":"บ้านรี","parentCode":"1501"},"geometry":{"type":"Polygon","coordinates":[[[100.50012768700009,14.61770795600006],[100.48385685400007,14.624553339000045],[100.47277856300008,14.598106178000023],[100.49188486800006,14.594818089000057],[100.50012768700009,14.61770795600006]]]}},{"type":"Feature","properties":{"code":"150607","name":"บางจัก","parentCode":"1506"},"geometry":{"type":"Polygon","coordinates":[[[100.37333122600006,14.533777955000062],[100.36417535900006,14.526258637000069],[100.31583187300004,14.514663174000077],[100.30851068700008,14.493877852000026],[100.33910109300007,14.493310010000073],[100.37418399200004,14.500566028000037],[100.38381973200006,14.508236282000041],[100.37333122600006,14.533777955000062]]]}},{"type":"Feature","properties":{"code":"150414","name":"บางเจ้าฉ่า","parentCode":"1504"},"geometry":{"type":"Polygon","coordinates":[[[100.41301539900007,14.706939404000025],[100.37691694200004,14.72497813900003],[100.37276685000006,14.719815176000054],[100.37476858500008,14.714072303000023],[100.38843485100006,14.685096131000023],[100.41367374000004,14.665969776000054],[100.41887185700006,14.674493828000038],[100.41301539900007,14.706939404000025]]]}},{"type":"Feature","properties":{"code":"150102","name":"บางแก้ว","parentCode":"1501"},"geometry":{"type":"Polygon","coordinates":[[[100.46087452800003,14.594147691000046],[100.45400029700005,14.594289409000055],[100.44627355400007,14.588132420000022],[100.44932426800005,14.576357109000071],[100.44960060700004,14.585744258000034],[100.46293515400004,14.590360213000054],[100.46087452800003,14.594147691000046]]]}},{"type":"Feature","properties":{"code":"150403","name":"บางพลับ","parentCode":"1504"},"geometry":{"type":"Polygon","coordinates":[[[100.40890769600009,14.657303940000077],[100.39673147100007,14.655848828000046],[100.39712602500003,14.62695091300003],[100.40040100600004,14.62631066800003],[100.41969994800007,14.630261396000037],[100.40890769600009,14.657303940000077]]]}},{"type":"Feature","properties":{"code":"150301","name":"บางปลากด","parentCode":"1503"},"geometry":{"type":"Polygon","coordinates":[[[100.46481765700008,14.507389140000043],[100.46712887200005,14.532463298000039],[100.46037412500004,14.526627220000023],[100.45462525700003,14.47773630000006],[100.45526857700008,14.478085431000068],[100.46481765700008,14.507389140000043]]]}},{"type":"Feature","properties":{"code":"150406","name":"บางระกำ","parentCode":"1504"},"geometry":{"type":"Polygon","coordinates":[[[100.41960507100003,14.726725673000033],[100.41490276800005,14.727578633000064],[100.41301539900007,14.706939404000025],[100.41887185700006,14.674493828000038],[100.42633886500005,14.676045995000038],[100.43204907300009,14.685661766000067],[100.41960507100003,14.726725673000033]]]}},{"type":"Feature","properties":{"code":"150305","name":"บางเสด็จ","parentCode":"1503"},"geometry":{"type":"Polygon","coordinates":[[[100.49381430400007,14.468588373000046],[100.45526857700008,14.478085431000068],[100.45462525700003,14.47773630000006],[100.45814740500003,14.467335675000072],[100.46741694500008,14.442293309000036],[100.49689553500008,14.459504766000066],[100.49381430400007,14.468588373000046]]]}},{"type":"Feature","properties":{"code":"150411","name":"บ่อแร่","parentCode":"1504"},"geometry":{"type":"Polygon","coordinates":[[[100.37954739700007,14.649438281000073],[100.36932139400005,14.654270904000043],[100.36137682700007,14.636619532000054],[100.35925625700008,14.621676944000058],[100.37805908100006,14.622551936000036],[100.37954739700007,14.649438281000073]]]}},{"type":"Feature","properties":{"code":"150202","name":"ไชยภูมิ","parentCode":"1502"},"geometry":{"type":"Polygon","coordinates":[[[100.45794010500003,14.721096421000027],[100.43358619000009,14.727916963000041],[100.45160923800006,14.694237341000076],[100.47545631500009,14.703125087000046],[100.45794010500003,14.721096421000027]]]}},{"type":"Feature","properties":{"code":"150203","name":"ชัยฤทธิ์","parentCode":"1502"},"geometry":{"type":"Polygon","coordinates":[[[100.50301201900004,14.630029568000054],[100.50450016200006,14.655918954000072],[100.46074348000008,14.641733160000058],[100.46039099700005,14.630042954000032],[100.48385685400007,14.624553339000045],[100.50012768700009,14.61770795600006],[100.50301201900004,14.630029568000054]]]}},{"type":"Feature","properties":{"code":"150206","name":"ไชโย","parentCode":"1502"},"geometry":{"type":"Polygon","coordinates":[[[100.43358619000009,14.727916963000041],[100.41960507100003,14.726725673000033],[100.43204907300009,14.685661766000067],[100.45193638900008,14.690478171000052],[100.45160923800006,14.694237341000076],[100.43358619000009,14.727916963000041]]]}},{"type":"Feature","properties":{"code":"150507","name":"จำลอง","parentCode":"1505"},"geometry":{"type":"Polygon","coordinates":[[[100.38158001400006,14.74300437900007],[100.36496881900007,14.762648665000029],[100.34913869300004,14.749353768000049],[100.34409071900006,14.736240114000054],[100.35686755200004,14.727020293000066],[100.37276685000006,14.719815176000054],[100.37691694200004,14.72497813900003],[100.38158001400006,14.74300437900007]]]}},{"type":"Feature","properties":{"code":"150110","name":"จำปาหล่อ","parentCode":"1501"},"geometry":{"type":"Polygon","coordinates":[[[100.45773997400005,14.517959890000043],[100.46037412500004,14.526627220000023],[100.44486352500007,14.558082334000062],[100.42918711700008,14.550647343000037],[100.40301384000009,14.550831734000042],[100.40438532500008,14.54311335500006],[100.40438017200006,14.540037977000054],[100.45773997400005,14.517959890000043]]]}},{"type":"Feature","properties":{"code":"150208","name":"ชะไว","parentCode":"1502"},"geometry":{"type":"Polygon","coordinates":[[[100.49797341700008,14.691152468000041],[100.46187338500005,14.675179832000026],[100.46245359900007,14.669406063000054],[100.47865824200005,14.671746596000048],[100.49797341700008,14.691152468000041]]]}},{"type":"Feature","properties":{"code":"150201","name":"จรเข้ร้อง","parentCode":"1502"},"geometry":{"type":"Polygon","coordinates":[[[100.47865824200005,14.671746596000048],[100.46245359900007,14.669406063000054],[100.46605516900007,14.659803057000033],[100.46074348000008,14.641733160000058],[100.50450016200006,14.655918954000072],[100.50341379100007,14.669919633000063],[100.47865824200005,14.671746596000048]]]}},{"type":"Feature","properties":{"code":"150307","name":"เอกราช","parentCode":"1503"},"geometry":{"type":"Polygon","coordinates":[[[100.43018317700006,14.510270959000025],[100.40423821500008,14.53113767800005],[100.39953357300004,14.507346748000032],[100.41644957400007,14.476865514000053],[100.41968938400004,14.463318352000044],[100.45591279500007,14.467177295000056],[100.43018317700006,14.510270959000025]]]}},{"type":"Feature","properties":{"code":"150109","name":"หัวไผ่","parentCode":"1501"},"geometry":{"type":"Polygon","coordinates":[[[100.48035424200003,14.567929659000072],[100.47008264300007,14.56756792300007],[100.46593355600004,14.534671695000043],[100.49234545300004,14.532342630000073],[100.49151192900007,14.544094008000059],[100.48035424200003,14.567929659000072]]]}},{"type":"Feature","properties":{"code":"150613","name":"หัวตะพาน","parentCode":"1506"},"geometry":{"type":"Polygon","coordinates":[[[100.39624614500008,14.603203595000025],[100.38147682800007,14.604918763000057],[100.37307031300008,14.56898873700004],[100.37888839100003,14.562743548000071],[100.38735265700006,14.557989118000023],[100.40195073100006,14.597574119000058],[100.39624614500008,14.603203595000025]]]}},{"type":"Feature","properties":{"code":"150608","name":"ห้วยคันแหลน","parentCode":"1506"},"geometry":{"type":"Polygon","coordinates":[[[100.30376148800008,14.56510065200007],[100.27127562700008,14.567919264000068],[100.24854670400003,14.540637247000063],[100.25809068400008,14.530191138000077],[100.27076799700006,14.528186916000038],[100.30238196600004,14.53476855100007],[100.30958707200006,14.554865618000065],[100.30376148800008,14.56510065200007]]]}},{"type":"Feature","properties":{"code":"150506","name":"ห้วยไผ่","parentCode":"1505"},"geometry":{"type":"Polygon","coordinates":[[[100.34886868900008,14.77950241800005],[100.31337348400007,14.789486495000062],[100.34913869300004,14.749353768000049],[100.36496881900007,14.762648665000029],[100.34886868900008,14.77950241800005]]]}},{"type":"Feature","properties":{"code":"150402","name":"อินทประมูล","parentCode":"1504"},"geometry":{"type":"Polygon","coordinates":[[[100.42633886500005,14.676045995000038],[100.41887185700006,14.674493828000038],[100.41367374000004,14.665969776000054],[100.40890769600009,14.657303940000077],[100.41969994800007,14.630261396000037],[100.43175677000005,14.626833240000053],[100.43807998000005,14.65871708900005],[100.42633886500005,14.676045995000038]]]}},{"type":"Feature","properties":{"code":"150415","name":"คำหยาด","parentCode":"1504"},"geometry":{"type":"Polygon","coordinates":[[[100.32729036600006,14.691285234000077],[100.30631808800007,14.680762342000037],[100.32400661900004,14.661423994000074],[100.36137682700007,14.636619532000054],[100.36932139400005,14.654270904000043],[100.37113138100005,14.659715092000056],[100.36974986700005,14.662527989000068],[100.32729036600006,14.691285234000077]]]}},{"type":"Feature","properties":{"code":"150609","name":"คลองขนาก","parentCode":"1506"},"geometry":{"type":"Polygon","coordinates":[[[100.35418278000009,14.547427596000034],[100.33324244700003,14.546172393000063],[100.31002295200005,14.52275293300005],[100.31583187300004,14.514663174000077],[100.36417535900006,14.526258637000069],[100.35418278000009,14.547427596000034]]]}},{"type":"Feature","properties":{"code":"150113","name":"คลองวัว","parentCode":"1501"},"geometry":{"type":"Polygon","coordinates":[[[100.43882229800005,14.584606405000045],[100.41348829300006,14.585859489000029],[100.40301384000009,14.550831734000042],[100.42918711700008,14.550647343000037],[100.43882229800005,14.584606405000045]]]}},{"type":"Feature","properties":{"code":"150409","name":"โคกพุทรา","parentCode":"1504"},"geometry":{"type":"Polygon","coordinates":[[[100.38843485100006,14.685096131000023],[100.37476858500008,14.714072303000023],[100.35797749500006,14.693959818000053],[100.36974986700005,14.662527989000068],[100.37113138100005,14.659715092000056],[100.38843485100006,14.685096131000023]]]}},{"type":"Feature","properties":{"code":"150207","name":"หลักฟ้า","parentCode":"1502"},"geometry":{"type":"Polygon","coordinates":[[[100.48657723700006,14.699679495000055],[100.47545631500009,14.703125087000046],[100.45160923800006,14.694237341000076],[100.45193638900008,14.690478171000052],[100.46187338500005,14.675179832000026],[100.49797341700008,14.691152468000041],[100.48657723700006,14.699679495000055]]]}},{"type":"Feature","properties":{"code":"150614","name":"หลักแก้ว","parentCode":"1506"},"geometry":{"type":"Polygon","coordinates":[[[100.30238196600004,14.53476855100007],[100.27076799700006,14.528186916000038],[100.26736462600007,14.490082957000027],[100.29901575400004,14.495296686000074],[100.30851068700008,14.493877852000026],[100.31583187300004,14.514663174000077],[100.31002295200005,14.52275293300005],[100.30238196600004,14.53476855100007]]]}},{"type":"Feature","properties":{"code":"150107","name":"มหาดไทย","parentCode":"1501"},"geometry":{"type":"Polygon","coordinates":[[[100.41477926600004,14.596722681000074],[100.40195073100006,14.597574119000058],[100.38735265700006,14.557989118000023],[100.40438532500008,14.54311335500006],[100.40301384000009,14.550831734000042],[100.41348829300006,14.585859489000029],[100.41477926600004,14.596722681000074]]]}},{"type":"Feature","properties":{"code":"150705","name":"มงคลธรรมนิมิต","parentCode":"1507"},"geometry":{"type":"Polygon","coordinates":[[[100.26964919000005,14.663112893000061],[100.24264875200004,14.652946421000024],[100.21387225400008,14.638269920000027],[100.26606749600006,14.618841776000068],[100.27519687900008,14.641761504000044],[100.26964919000005,14.663112893000061]]]}},{"type":"Feature","properties":{"code":"150612","name":"ม่วงเตี้ย","parentCode":"1506"},"geometry":{"type":"Polygon","coordinates":[[[100.36137682700007,14.636619532000054],[100.32400661900004,14.661423994000074],[100.28839956600007,14.633117758000026],[100.31803699100004,14.613658815000065],[100.33066531800006,14.610170996000022],[100.35472353200004,14.617577829000027],[100.35769353300009,14.618182142000023],[100.35925625700008,14.621676944000058],[100.36137682700007,14.636619532000054]]]}},{"type":"Feature","properties":{"code":"150404","name":"หนองแม่ไก่","parentCode":"1504"},"geometry":{"type":"Polygon","coordinates":[[[100.37276685000006,14.719815176000054],[100.35686755200004,14.727020293000066],[100.31852809800006,14.70047327800006],[100.27860955900007,14.697864851000077],[100.28075794000006,14.69039729900004],[100.30631808800007,14.680762342000037],[100.32729036600006,14.691285234000077],[100.35797749500006,14.693959818000053],[100.37476858500008,14.714072303000023],[100.37276685000006,14.719815176000054]]]}},{"type":"Feature","properties":{"code":"150306","name":"นรสิงห์","parentCode":"1503"},"geometry":{"type":"Polygon","coordinates":[[[100.45773997400005,14.517959890000043],[100.40438017200006,14.540037977000054],[100.40423821500008,14.53113767800005],[100.43018317700006,14.510270959000025],[100.45773997400005,14.517959890000043]]]}},{"type":"Feature","properties":{"code":"150408","name":"องครักษ์","parentCode":"1504"},"geometry":{"type":"Polygon","coordinates":[[[100.41475125800008,14.747663002000024],[100.40288109300008,14.759318689000054],[100.38158001400006,14.74300437900007],[100.37691694200004,14.72497813900003],[100.41301539900007,14.706939404000025],[100.41490276800005,14.727578633000064],[100.41475125800008,14.747663002000024]]]}},{"type":"Feature","properties":{"code":"150703","name":"อบทม","parentCode":"1507"},"geometry":{"type":"Polygon","coordinates":[[[100.26449221000007,14.590409217000058],[100.20737958300003,14.622818261000077],[100.19443972400006,14.620619301000033],[100.20685790700009,14.582482882000022],[100.20978521300003,14.57972327400006],[100.23455888100005,14.574114297000051],[100.26449221000007,14.590409217000058]]]}},{"type":"Feature","properties":{"code":"150302","name":"ป่าโมก","parentCode":"1503"},"geometry":{"type":"Polygon","coordinates":[[[100.45462525700003,14.47773630000006],[100.46037412500004,14.526627220000023],[100.45773997400005,14.517959890000043],[100.43018317700006,14.510270959000025],[100.45591279500007,14.467177295000056],[100.45814740500003,14.467335675000072],[100.45462525700003,14.47773630000006]]]}},{"type":"Feature","properties":{"code":"150104","name":"ป่างิ้ว","parentCode":"1501"},"geometry":{"type":"Polygon","coordinates":[[[100.43175677000005,14.626833240000053],[100.41969994800007,14.630261396000037],[100.40040100600004,14.62631066800003],[100.39624614500008,14.603203595000025],[100.40195073100006,14.597574119000058],[100.41477926600004,14.596722681000074],[100.43649170000003,14.620779225000035],[100.43175677000005,14.626833240000053]]]}},{"type":"Feature","properties":{"code":"150601","name":"ไผ่จำศิล","parentCode":"1506"},"geometry":{"type":"Polygon","coordinates":[[[100.35769353300009,14.618182142000023],[100.35472353200004,14.617577829000027],[100.34916572100008,14.582858287000022],[100.35724900400004,14.569107552000048],[100.37307031300008,14.56898873700004],[100.38147682800007,14.604918763000057],[100.35769353300009,14.618182142000023]]]}},{"type":"Feature","properties":{"code":"150603","name":"ไผ่ดำพัฒนา","parentCode":"1506"},"geometry":{"type":"Polygon","coordinates":[[[100.38735265700006,14.557989118000023],[100.37888839100003,14.562743548000071],[100.37333122600006,14.533777955000062],[100.38381973200006,14.508236282000041],[100.39953357300004,14.507346748000032],[100.40423821500008,14.53113767800005],[100.40438017200006,14.540037977000054],[100.40438532500008,14.54311335500006],[100.38735265700006,14.557989118000023]]]}},{"type":"Feature","properties":{"code":"150610","name":"ไผ่วง","parentCode":"1506"},"geometry":{"type":"Polygon","coordinates":[[[100.27076799700006,14.528186916000038],[100.25809068400008,14.530191138000077],[100.22497681700008,14.508499166000036],[100.23562238500006,14.480306373000076],[100.25314556100005,14.48286126100004],[100.26736462600007,14.490082957000027],[100.27076799700006,14.528186916000038]]]}},{"type":"Feature","properties":{"code":"150704","name":"โพธิ์ม่วงพันธ์","parentCode":"1507"},"geometry":{"type":"Polygon","coordinates":[[[100.28466866300005,14.581148202000065],[100.26449221000007,14.590409217000058],[100.23455888100005,14.574114297000051],[100.24854670400003,14.540637247000063],[100.27127562700008,14.567919264000068],[100.28466866300005,14.581148202000065]]]}},{"type":"Feature","properties":{"code":"150407","name":"โพธิ์รังนก","parentCode":"1504"},"geometry":{"type":"Polygon","coordinates":[[[100.40040100600004,14.62631066800003],[100.39712602500003,14.62695091300003],[100.37805908100006,14.622551936000036],[100.35925625700008,14.621676944000058],[100.35769353300009,14.618182142000023],[100.38147682800007,14.604918763000057],[100.39624614500008,14.603203595000025],[100.40040100600004,14.62631066800003]]]}},{"type":"Feature","properties":{"code":"150111","name":"โพสะ","parentCode":"1501"},"geometry":{"type":"Polygon","coordinates":[[[100.45879578000006,14.582157745000075],[100.44960060700004,14.585744258000034],[100.44932426800005,14.576357109000071],[100.44486352500007,14.558082334000062],[100.46037412500004,14.526627220000023],[100.46712887200005,14.532463298000039],[100.46593355600004,14.534671695000043],[100.47008264300007,14.56756792300007],[100.45879578000006,14.582157745000075]]]}},{"type":"Feature","properties":{"code":"150308","name":"โผงเผง","parentCode":"1503"},"geometry":{"type":"Polygon","coordinates":[[[100.46741694500008,14.442293309000036],[100.45814740500003,14.467335675000072],[100.45591279500007,14.467177295000056],[100.41968938400004,14.463318352000044],[100.42020840100008,14.447148438000056],[100.44856402700003,14.442177197000035],[100.46741694500008,14.442293309000036]]]}},{"type":"Feature","properties":{"code":"150405","name":"รำมะสัก","parentCode":"1504"},"geometry":{"type":"Polygon","coordinates":[[[100.21521830900008,14.724372712000047],[100.21473031200009,14.701244182000039],[100.24264875200004,14.652946421000024],[100.26964919000005,14.663112893000061],[100.28075794000006,14.69039729900004],[100.27860955900007,14.697864851000077],[100.27037049500007,14.70967679100005],[100.21521830900008,14.724372712000047]]]}},{"type":"Feature","properties":{"code":"150702","name":"ราษฎรพัฒนา","parentCode":"1507"},"geometry":{"type":"Polygon","coordinates":[[[100.28839956600007,14.633117758000026],[100.27519687900008,14.641761504000044],[100.26606749600006,14.618841776000068],[100.29171577000005,14.590790454000057],[100.31803699100004,14.613658815000065],[100.28839956600007,14.633117758000026]]]}},{"type":"Feature","properties":{"code":"150205","name":"ราชสถิตย์","parentCode":"1502"},"geometry":{"type":"Polygon","coordinates":[[[100.45193638900008,14.690478171000052],[100.43204907300009,14.685661766000067],[100.42633886500005,14.676045995000038],[100.43807998000005,14.65871708900005],[100.46605516900007,14.659803057000033],[100.46245359900007,14.669406063000054],[100.46187338500005,14.675179832000026],[100.45193638900008,14.690478171000052]]]}},{"type":"Feature","properties":{"code":"150304","name":"โรงช้าง","parentCode":"1503"},"geometry":{"type":"Polygon","coordinates":[[[100.49110118800007,14.48746884600007],[100.46481765700008,14.507389140000043],[100.45526857700008,14.478085431000068],[100.49381430400007,14.468588373000046],[100.49110118800007,14.48746884600007]]]}},{"type":"Feature","properties":{"code":"150303","name":"สายทอง","parentCode":"1503"},"geometry":{"type":"Polygon","coordinates":[[[100.49234545300004,14.532342630000073],[100.46593355600004,14.534671695000043],[100.46712887200005,14.532463298000039],[100.46481765700008,14.507389140000043],[100.49110118800007,14.48746884600007],[100.50014695500005,14.502362953000045],[100.49639149400008,14.507660496000028],[100.49234545300004,14.532342630000073]]]}},{"type":"Feature","properties":{"code":"150103","name":"ศาลาแดง","parentCode":"1501"},"geometry":{"type":"Polygon","coordinates":[[[100.45400029700005,14.594289409000055],[100.43649170000003,14.620779225000035],[100.41477926600004,14.596722681000074],[100.41348829300006,14.585859489000029],[100.43882229800005,14.584606405000045],[100.44627355400007,14.588132420000022],[100.45400029700005,14.594289409000055]]]}},{"type":"Feature","properties":{"code":"150413","name":"สามง่าม","parentCode":"1504"},"geometry":{"type":"Polygon","coordinates":[[[100.39712602500003,14.62695091300003],[100.39673147100007,14.655848828000046],[100.37954739700007,14.649438281000073],[100.37805908100006,14.622551936000036],[100.39712602500003,14.62695091300003]]]}},{"type":"Feature","properties":{"code":"150701","name":"สามโก้","parentCode":"1507"},"geometry":{"type":"Polygon","coordinates":[[[100.26606749600006,14.618841776000068],[100.21387225400008,14.638269920000027],[100.20737958300003,14.622818261000077],[100.26449221000007,14.590409217000058],[100.28466866300005,14.581148202000065],[100.29171577000005,14.590790454000057],[100.26606749600006,14.618841776000068]]]}},{"type":"Feature","properties":{"code":"150602","name":"ศาลเจ้าโรงทอง","parentCode":"1506"},"geometry":{"type":"Polygon","coordinates":[[[100.35472353200004,14.617577829000027],[100.33066531800006,14.610170996000022],[100.32340166000006,14.574053177000053],[100.34916572100008,14.582858287000022],[100.35472353200004,14.617577829000027]]]}},{"type":"Feature","properties":{"code":"150604","name":"สาวร้องไห้","parentCode":"1506"},"geometry":{"type":"Polygon","coordinates":[[[100.23455888100005,14.574114297000051],[100.20978521300003,14.57972327400006],[100.19711133600003,14.555511256000045],[100.20773728200004,14.522816381000041],[100.22497681700008,14.508499166000036],[100.25809068400008,14.530191138000077],[100.24854670400003,14.540637247000063],[100.23455888100005,14.574114297000051]]]}},{"type":"Feature","properties":{"code":"150501","name":"แสวงหา","parentCode":"1505"},"geometry":{"type":"Polygon","coordinates":[[[100.27381358900004,14.797657161000075],[100.27279619400008,14.798976519000064],[100.29121048800005,14.745413616000064],[100.30762139100005,14.740308321000043],[100.34409071900006,14.736240114000054],[100.34913869300004,14.749353768000049],[100.31337348400007,14.789486495000062],[100.27381358900004,14.797657161000075]]]}},{"type":"Feature","properties":{"code":"150505","name":"สีบัวทอง","parentCode":"1505"},"geometry":{"type":"Polygon","coordinates":[[[100.27247882900008,14.799474363000058],[100.24186854500005,14.79806626900006],[100.22643316800009,14.795045493000032],[100.20541775900006,14.770696972000053],[100.20547012900005,14.749391737000053],[100.27277728400009,14.74362624400004],[100.29121048800005,14.745413616000064],[100.27279619400008,14.798976519000064],[100.27247882900008,14.799474363000058]]]}},{"type":"Feature","properties":{"code":"150502","name":"ศรีพราน","parentCode":"1505"},"geometry":{"type":"Polygon","coordinates":[[[100.34409071900006,14.736240114000054],[100.30762139100005,14.740308321000043],[100.31852809800006,14.70047327800006],[100.35686755200004,14.727020293000066],[100.34409071900006,14.736240114000054]]]}},{"type":"Feature","properties":{"code":"150611","name":"สี่ร้อย","parentCode":"1506"},"geometry":{"type":"Polygon","coordinates":[[[100.37307031300008,14.56898873700004],[100.35724900400004,14.569107552000048],[100.35418278000009,14.547427596000034],[100.36417535900006,14.526258637000069],[100.37333122600006,14.533777955000062],[100.37888839100003,14.562743548000071],[100.37307031300008,14.56898873700004]]]}},{"type":"Feature","properties":{"code":"150106","name":"ตลาดกรวด","parentCode":"1501"},"geometry":{"type":"Polygon","coordinates":[[[100.48385685400007,14.624553339000045],[100.46039099700005,14.630042954000032],[100.46087452800003,14.594147691000046],[100.46293515400004,14.590360213000054],[100.46595040300008,14.59168930800007],[100.47277856300008,14.598106178000023],[100.48385685400007,14.624553339000045]]]}},{"type":"Feature","properties":{"code":"150101","name":"ตลาดหลวง","parentCode":"1501"},"geometry":{"type":"Polygon","coordinates":[[[100.45879578000006,14.582157745000075],[100.46595040300008,14.59168930800007],[100.46293515400004,14.590360213000054],[100.44960060700004,14.585744258000034],[100.45879578000006,14.582157745000075]]]}},{"type":"Feature","properties":{"code":"150615","name":"ตลาดใหม่","parentCode":"1506"},"geometry":{"type":"Polygon","coordinates":[[[100.33324244700003,14.546172393000063],[100.30958707200006,14.554865618000065],[100.30238196600004,14.53476855100007],[100.31002295200005,14.52275293300005],[100.33324244700003,14.546172393000063]]]}},{"type":"Feature","properties":{"code":"150605","name":"ท่าช้าง","parentCode":"1506"},"geometry":{"type":"Polygon","coordinates":[[[100.34916572100008,14.582858287000022],[100.32340166000006,14.574053177000053],[100.30376148800008,14.56510065200007],[100.30958707200006,14.554865618000065],[100.33324244700003,14.546172393000063],[100.35418278000009,14.547427596000034],[100.35724900400004,14.569107552000048],[100.34916572100008,14.582858287000022]]]}},{"type":"Feature","properties":{"code":"150412","name":"ทางพระ","parentCode":"1504"},"geometry":{"type":"Polygon","coordinates":[[[100.35797749500006,14.693959818000053],[100.32729036600006,14.691285234000077],[100.36974986700005,14.662527989000068],[100.35797749500006,14.693959818000053]]]}},{"type":"Feature","properties":{"code":"150204","name":"เทวราช","parentCode":"1502"},"geometry":{"type":"Polygon","coordinates":[[[100.46605516900007,14.659803057000033],[100.43807998000005,14.65871708900005],[100.43175677000005,14.626833240000053],[100.46039099700005,14.630042954000032],[100.46074348000008,14.641733160000058],[100.46605516900007,14.659803057000033]]]}},{"type":"Feature","properties":{"code":"150209","name":"ตรีณรงค์","parentCode":"1502"},"geometry":{"type":"Polygon","coordinates":[[[100.50341379100007,14.669919633000063],[100.50402733400006,14.685420902000033],[100.49540784200008,14.700517950000062],[100.48657723700006,14.699679495000055],[100.49797341700008,14.691152468000041],[100.47865824200005,14.671746596000048],[100.50341379100007,14.669919633000063]]]}},{"type":"Feature","properties":{"code":"150504","name":"วังน้ำเย็น","parentCode":"1505"},"geometry":{"type":"Polygon","coordinates":[[[100.27277728400009,14.74362624400004],[100.20547012900005,14.749391737000053],[100.21521830900008,14.724372712000047],[100.27037049500007,14.70967679100005],[100.27277728400009,14.74362624400004]]]}},{"type":"Feature","properties":{"code":"150114","name":"ย่านซื่อ","parentCode":"1501"},"geometry":{"type":"Polygon","coordinates":[[[100.46039099700005,14.630042954000032],[100.43175677000005,14.626833240000053],[100.43649170000003,14.620779225000035],[100.45400029700005,14.594289409000055],[100.46087452800003,14.594147691000046],[100.46039099700005,14.630042954000032]]]}},{"type":"Feature","properties":{"code":"150410","name":"ยางช้าย","parentCode":"1504"},"geometry":{"type":"Polygon","coordinates":[[[100.30631808800007,14.680762342000037],[100.28075794000006,14.69039729900004],[100.26964919000005,14.663112893000061],[100.27519687900008,14.641761504000044],[100.28839956600007,14.633117758000026],[100.32400661900004,14.661423994000074],[100.30631808800007,14.680762342000037]]]}},{"type":"Feature","properties":{"code":"150606","name":"ยี่ล้น","parentCode":"1506"},"geometry":{"type":"Polygon","coordinates":[[[100.33066531800006,14.610170996000022],[100.31803699100004,14.613658815000065],[100.29171577000005,14.590790454000057],[100.28466866300005,14.581148202000065],[100.27127562700008,14.567919264000068],[100.30376148800008,14.56510065200007],[100.32340166000006,14.574053177000053],[100.33066531800006,14.610170996000022]]]}}]}