{"type":"FeatureCollection","features":[{"type":"Feature","properties":{"code":"170206","name":"บ้านจ่า","parentCode":"1702"},"geometry":{"type":"Polygon","coordinates":[[[100.31073676500006,14.830651232000037],[100.28425140200005,14.88728979800004],[100.26144486500004,14.872002182000074],[100.26254484000003,14.869130403000042],[100.27056833200004,14.826850836000062],[100.31073676500006,14.830651232000037]]]}},{"type":"Feature","properties":{"code":"170404","name":"บ้านหม้อ","parentCode":"1704"},"geometry":{"type":"Polygon","coordinates":[[[100.47225453800007,14.76859534700003],[100.44352188000005,14.769041508000043],[100.43358619000009,14.727916963000041],[100.45794010500003,14.721096421000027],[100.48809338800004,14.74813398300006],[100.47225453800007,14.76859534700003]]]}},{"type":"Feature","properties":{"code":"170405","name":"บ้านแป้ง","parentCode":"1704"},"geometry":{"type":"Polygon","coordinates":[[[100.46421327800005,14.820561605000023],[100.44085237000007,14.819791311000074],[100.45174651400004,14.798925645000054],[100.46821928600008,14.798215829000071],[100.48262596100005,14.81130984400005],[100.46421327800005,14.820561605000023]]]}},{"type":"Feature","properties":{"code":"170108","name":"บางกระบือ","parentCode":"1701"},"geometry":{"type":"Polygon","coordinates":[[[100.37268164800008,14.91970744400004],[100.36743171600006,14.943493129000046],[100.34157055100007,14.937216233000072],[100.33591904300005,14.913977699000043],[100.35011461900007,14.883113341000069],[100.39056977400008,14.90038344100003],[100.37268164800008,14.91970744400004]]]}},{"type":"Feature","properties":{"code":"170102","name":"บางมัญ","parentCode":"1701"},"geometry":{"type":"Polygon","coordinates":[[[100.42128379900004,14.92997256700005],[100.41987203800005,14.932776207000074],[100.37268164800008,14.91970744400004],[100.39056977400008,14.90038344100003],[100.39511792600007,14.897083144000021],[100.41107679800007,14.885240061000047],[100.42679392700006,14.888316705000022],[100.42453674600006,14.898431856000059],[100.42200090200004,14.922429691000048],[100.42128379900004,14.92997256700005]]]}},{"type":"Feature","properties":{"code":"170403","name":"บางน้ำเชี่ยว","parentCode":"1704"},"geometry":{"type":"Polygon","coordinates":[[[100.47225453800007,14.76859534700003],[100.46821928600008,14.798215829000071],[100.45174651400004,14.798925645000054],[100.43748171900006,14.780975983000076],[100.44352188000005,14.769041508000043],[100.47225453800007,14.76859534700003]]]}},{"type":"Feature","properties":{"code":"170101","name":"บางพุทรา","parentCode":"1701"},"geometry":{"type":"Polygon","coordinates":[[[100.41107679800007,14.885240061000047],[100.39511792600007,14.897083144000021],[100.41090152500004,14.877261184000076],[100.41107679800007,14.885240061000047]]]}},{"type":"Feature","properties":{"code":"170302","name":"บางระจัน","parentCode":"1703"},"geometry":{"type":"Polygon","coordinates":[[[100.33467699600004,14.812909234000074],[100.27381358900004,14.797657161000075],[100.31337348400007,14.789486495000062],[100.34886868900008,14.77950241800005],[100.36562373700008,14.789747612000042],[100.33467699600004,14.812909234000074]]]}},{"type":"Feature","properties":{"code":"170107","name":"จักรสีห์","parentCode":"1701"},"geometry":{"type":"Polygon","coordinates":[[[100.41878114700006,14.835993203000044],[100.38688749800008,14.864929496000059],[100.39305713400006,14.816935558000068],[100.40839723500005,14.810212152000076],[100.41878114700006,14.835993203000044]]]}},{"type":"Feature","properties":{"code":"170605","name":"ชีน้ำร้าย","parentCode":"1706"},"geometry":{"type":"Polygon","coordinates":[[[100.36479272100007,15.091384173000051],[100.35152437900007,15.118409770000028],[100.33926726600004,15.108137575000057],[100.29117182100003,15.076797831000022],[100.29357123700004,15.064535337000052],[100.31350283700004,15.049573810000027],[100.35589007200008,15.08289515100006],[100.36479272100007,15.091384173000051]]]}},{"type":"Feature","properties":{"code":"170203","name":"เชิงกลัด","parentCode":"1702"},"geometry":{"type":"Polygon","coordinates":[[[100.25903484800006,14.943857930000036],[100.24556986500005,14.945903466000061],[100.25469269000007,14.887989129000061],[100.26144486500004,14.872002182000074],[100.28425140200005,14.88728979800004],[100.29787402800008,14.901815887000055],[100.25903484800006,14.943857930000036]]]}},{"type":"Feature","properties":{"code":"170406","name":"หัวป่า","parentCode":"1704"},"geometry":{"type":"Polygon","coordinates":[[[100.43645480900005,14.822889470000064],[100.42881814000003,14.847508259000051],[100.41878114700006,14.835993203000044],[100.40839723500005,14.810212152000076],[100.41585027400004,14.803581631000043],[100.43645480900005,14.822889470000064]]]}},{"type":"Feature","properties":{"code":"170105","name":"หัวไผ่","parentCode":"1701"},"geometry":{"type":"Polygon","coordinates":[[[100.44729843900006,14.996797488000027],[100.44688555300007,15.003178427000023],[100.42173834600004,14.996577843000068],[100.40700155200005,14.981875643000024],[100.40566223500008,14.964638217000072],[100.41987203800005,14.932776207000074],[100.42128379900004,14.92997256700005],[100.44917075400008,14.942712291000078],[100.44729843900006,14.996797488000027]]]}},{"type":"Feature","properties":{"code":"170609","name":"ห้วยชัน","parentCode":"1706"},"geometry":{"type":"Polygon","coordinates":[[[100.31033160800007,15.014173206000066],[100.25543961800008,15.04628748600004],[100.24078880900004,15.038723615000038],[100.28618807900006,14.992899654000041],[100.28845836900007,14.956346628000063],[100.29111914200007,14.955720884000073],[100.32103912700006,14.988699955000072],[100.31033160800007,15.014173206000066]]]}},{"type":"Feature","properties":{"code":"170601","name":"อินทร์บุรี","parentCode":"1706"},"geometry":{"type":"Polygon","coordinates":[[[100.35003208300009,15.010981651000066],[100.32545272000004,15.031025987000078],[100.31033160800007,15.014173206000066],[100.32103912700006,14.988699955000072],[100.33801313000004,14.984626253000044],[100.35569990800008,15.003910403000077],[100.35003208300009,15.010981651000066]]]}},{"type":"Feature","properties":{"code":"170305","name":"คอทราย","parentCode":"1703"},"geometry":{"type":"Polygon","coordinates":[[[100.33467699600004,14.812909234000074],[100.32180868500006,14.844631631000027],[100.31073676500006,14.830651232000037],[100.27056833200004,14.826850836000062],[100.27247882900008,14.799474363000058],[100.27279619400008,14.798976519000064],[100.27381358900004,14.797657161000075],[100.33467699600004,14.812909234000074]]]}},{"type":"Feature","properties":{"code":"170205","name":"แม่ลา","parentCode":"1702"},"geometry":{"type":"Polygon","coordinates":[[[100.34157055100007,14.937216233000072],[100.29111914200007,14.955720884000073],[100.32098305400007,14.918436173000032],[100.33591904300005,14.913977699000043],[100.34157055100007,14.937216233000072]]]}},{"type":"Feature","properties":{"code":"170202","name":"ไม้ดัด","parentCode":"1702"},"geometry":{"type":"Polygon","coordinates":[[[100.30468379900003,14.901221587000066],[100.29787402800008,14.901815887000055],[100.28425140200005,14.88728979800004],[100.31073676500006,14.830651232000037],[100.32180868500006,14.844631631000027],[100.36518982700005,14.86376652100006],[100.30468379900003,14.901221587000066]]]}},{"type":"Feature","properties":{"code":"170104","name":"ม่วงหมู่","parentCode":"1701"},"geometry":{"type":"Polygon","coordinates":[[[100.42679392700006,14.888316705000022],[100.41107679800007,14.885240061000047],[100.41090152500004,14.877261184000076],[100.43076922800009,14.850547207000034],[100.45431854700007,14.857026374000043],[100.42679392700006,14.888316705000022]]]}},{"type":"Feature","properties":{"code":"170607","name":"น้ำตาล","parentCode":"1706"},"geometry":{"type":"Polygon","coordinates":[[[100.40700155200005,14.981875643000024],[100.35569990800008,15.003910403000077],[100.33801313000004,14.984626253000044],[100.36573684100006,14.951527095000074],[100.40566223500008,14.964638217000072],[100.40700155200005,14.981875643000024]]]}},{"type":"Feature","properties":{"code":"170604","name":"งิ้วราย","parentCode":"1706"},"geometry":{"type":"Polygon","coordinates":[[[100.42173834600004,14.996577843000068],[100.41581392800003,15.016981074000057],[100.36007460800005,15.013780895000025],[100.35003208300009,15.010981651000066],[100.35569990800008,15.003910403000077],[100.40700155200005,14.981875643000024],[100.42173834600004,14.996577843000068]]]}},{"type":"Feature","properties":{"code":"170306","name":"หนองกระทุ่ม","parentCode":"1703"},"geometry":{"type":"Polygon","coordinates":[[[100.24003341100007,14.838628313000072],[100.21542735900005,14.839860029000022],[100.20934454000007,14.826097576000052],[100.22643316800009,14.795045493000032],[100.24186854500005,14.79806626900006],[100.24003341100007,14.838628313000072]]]}},{"type":"Feature","properties":{"code":"170207","name":"พักทัน","parentCode":"1702"},"geometry":{"type":"Polygon","coordinates":[[[100.20606852900005,14.953465662000042],[100.20269512300007,14.953456120000055],[100.18690015500005,14.907694073000073],[100.22211570400003,14.908399922000058],[100.25469269000007,14.887989129000061],[100.24556986500005,14.945903466000061],[100.20606852900005,14.953465662000042]]]}},{"type":"Feature","properties":{"code":"170504","name":"พิกุลทอง","parentCode":"1705"},"geometry":{"type":"Polygon","coordinates":[[[100.41022629200006,14.792671237000036],[100.40032562000005,14.789304492000042],[100.40288109300008,14.759318689000054],[100.41475125800008,14.747663002000024],[100.42440743200007,14.781257013000072],[100.41022629200006,14.792671237000036]]]}},{"type":"Feature","properties":{"code":"170610","name":"โพธิ์ชัย","parentCode":"1706"},"geometry":{"type":"Polygon","coordinates":[[[100.44671152400008,15.055237117000047],[100.42748741400004,15.061086905000025],[100.42443028700006,15.051634568000054],[100.41581392800003,15.016981074000057],[100.42173834600004,14.996577843000068],[100.44688555300007,15.003178427000023],[100.44671152400008,15.055237117000047]]]}},{"type":"Feature","properties":{"code":"170204","name":"โพชนไก่","parentCode":"1702"},"geometry":{"type":"Polygon","coordinates":[[[100.29111914200007,14.955720884000073],[100.28845836900007,14.956346628000063],[100.26320009600005,14.949859738000043],[100.25903484800006,14.943857930000036],[100.29787402800008,14.901815887000055],[100.30468379900003,14.901221587000066],[100.32098305400007,14.918436173000032],[100.29111914200007,14.955720884000073]]]}},{"type":"Feature","properties":{"code":"170502","name":"โพประจักษ์","parentCode":"1705"},"geometry":{"type":"Polygon","coordinates":[[[100.39684804900008,14.795769637000035],[100.37664105400006,14.801204575000042],[100.36562373700008,14.789747612000042],[100.34886868900008,14.77950241800005],[100.36496881900007,14.762648665000029],[100.39684804900008,14.795769637000035]]]}},{"type":"Feature","properties":{"code":"170303","name":"โพสังโฆ","parentCode":"1703"},"geometry":{"type":"Polygon","coordinates":[[[100.36611933200004,14.862779438000075],[100.36518982700005,14.86376652100006],[100.32180868500006,14.844631631000027],[100.33467699600004,14.812909234000074],[100.36562373700008,14.789747612000042],[100.37664105400006,14.801204575000042],[100.37201523100003,14.805715058000033],[100.36611933200004,14.862779438000075]]]}},{"type":"Feature","properties":{"code":"170301","name":"โพทะเล","parentCode":"1703"},"geometry":{"type":"Polygon","coordinates":[[[100.27056833200004,14.826850836000062],[100.26254484000003,14.869130403000042],[100.24003341100007,14.838628313000072],[100.24186854500005,14.79806626900006],[100.27247882900008,14.799474363000058],[100.27056833200004,14.826850836000062]]]}},{"type":"Feature","properties":{"code":"170103","name":"โพกรวม","parentCode":"1701"},"geometry":{"type":"Polygon","coordinates":[[[100.41987203800005,14.932776207000074],[100.40566223500008,14.964638217000072],[100.36573684100006,14.951527095000074],[100.36743171600006,14.943493129000046],[100.37268164800008,14.91970744400004],[100.41987203800005,14.932776207000074]]]}},{"type":"Feature","properties":{"code":"170401","name":"พระงาม","parentCode":"1704"},"geometry":{"type":"Polygon","coordinates":[[[100.43748171900006,14.780975983000076],[100.42440743200007,14.781257013000072],[100.41475125800008,14.747663002000024],[100.41490276800005,14.727578633000064],[100.41960507100003,14.726725673000033],[100.43358619000009,14.727916963000041],[100.44352188000005,14.769041508000043],[100.43748171900006,14.780975983000076]]]}},{"type":"Feature","properties":{"code":"170402","name":"พรหมบุรี","parentCode":"1704"},"geometry":{"type":"Polygon","coordinates":[[[100.46483601500006,14.82168917000007],[100.45431854700007,14.857026374000043],[100.43076922800009,14.850547207000034],[100.42881814000003,14.847508259000051],[100.43645480900005,14.822889470000064],[100.44085237000007,14.819791311000074],[100.46421327800005,14.820561605000023],[100.46483601500006,14.82168917000007]]]}},{"type":"Feature","properties":{"code":"170602","name":"ประศุก","parentCode":"1706"},"geometry":{"type":"Polygon","coordinates":[[[100.29357123700004,15.064535337000052],[100.25958723600007,15.058910965000052],[100.25543961800008,15.04628748600004],[100.31033160800007,15.014173206000066],[100.32545272000004,15.031025987000078],[100.31350283700004,15.049573810000027],[100.29357123700004,15.064535337000052]]]}},{"type":"Feature","properties":{"code":"170407","name":"โรงช้าง","parentCode":"1704"},"geometry":{"type":"Polygon","coordinates":[[[100.44085237000007,14.819791311000074],[100.43645480900005,14.822889470000064],[100.41585027400004,14.803581631000043],[100.41022629200006,14.792671237000036],[100.42440743200007,14.781257013000072],[100.43748171900006,14.780975983000076],[100.45174651400004,14.798925645000054],[100.44085237000007,14.819791311000074]]]}},{"type":"Feature","properties":{"code":"170208","name":"สระแจง","parentCode":"1702"},"geometry":{"type":"Polygon","coordinates":[[[100.25469269000007,14.887989129000061],[100.22211570400003,14.908399922000058],[100.20683522400009,14.896411749000038],[100.21542735900005,14.839860029000022],[100.24003341100007,14.838628313000072],[100.26254484000003,14.869130403000042],[100.26144486500004,14.872002182000074],[100.25469269000007,14.887989129000061]]]}},{"type":"Feature","properties":{"code":"170201","name":"สิงห์","parentCode":"1702"},"geometry":{"type":"Polygon","coordinates":[[[100.33591904300005,14.913977699000043],[100.32098305400007,14.918436173000032],[100.30468379900003,14.901221587000066],[100.36518982700005,14.86376652100006],[100.36611933200004,14.862779438000075],[100.36743094300004,14.87112860600007],[100.35011461900007,14.883113341000069],[100.33591904300005,14.913977699000043]]]}},{"type":"Feature","properties":{"code":"170304","name":"ท่าข้าม","parentCode":"1703"},"geometry":{"type":"Polygon","coordinates":[[[100.38688749800008,14.864929496000059],[100.36743094300004,14.87112860600007],[100.36611933200004,14.862779438000075],[100.37201523100003,14.805715058000033],[100.39305713400006,14.816935558000068],[100.38688749800008,14.864929496000059]]]}},{"type":"Feature","properties":{"code":"170606","name":"ท่างาม","parentCode":"1706"},"geometry":{"type":"Polygon","coordinates":[[[100.35589007200008,15.08289515100006],[100.31350283700004,15.049573810000027],[100.32545272000004,15.031025987000078],[100.35003208300009,15.010981651000066],[100.36007460800005,15.013780895000025],[100.35589007200008,15.08289515100006]]]}},{"type":"Feature","properties":{"code":"170603","name":"ทับยา","parentCode":"1706"},"geometry":{"type":"Polygon","coordinates":[[[100.34157055100007,14.937216233000072],[100.36743171600006,14.943493129000046],[100.36573684100006,14.951527095000074],[100.33801313000004,14.984626253000044],[100.32103912700006,14.988699955000072],[100.29111914200007,14.955720884000073],[100.34157055100007,14.937216233000072]]]}},{"type":"Feature","properties":{"code":"170501","name":"ถอนสมอ","parentCode":"1705"},"geometry":{"type":"Polygon","coordinates":[[[100.40288109300008,14.759318689000054],[100.40032562000005,14.789304492000042],[100.39684804900008,14.795769637000035],[100.36496881900007,14.762648665000029],[100.38158001400006,14.74300437900007],[100.40288109300008,14.759318689000054]]]}},{"type":"Feature","properties":{"code":"170608","name":"ทองเอน","parentCode":"1706"},"geometry":{"type":"Polygon","coordinates":[[[100.42443028700006,15.051634568000054],[100.36479272100007,15.091384173000051],[100.35589007200008,15.08289515100006],[100.36007460800005,15.013780895000025],[100.41581392800003,15.016981074000057],[100.42443028700006,15.051634568000054]]]}},{"type":"Feature","properties":{"code":"170106","name":"ต้นโพธิ์","parentCode":"1701"},"geometry":{"type":"Polygon","coordinates":[[[100.41090152500004,14.877261184000076],[100.39511792600007,14.897083144000021],[100.39056977400008,14.90038344100003],[100.35011461900007,14.883113341000069],[100.36743094300004,14.87112860600007],[100.38688749800008,14.864929496000059],[100.41878114700006,14.835993203000044],[100.42881814000003,14.847508259000051],[100.43076922800009,14.850547207000034],[100.41090152500004,14.877261184000076]]]}},{"type":"Feature","properties":{"code":"170503","name":"วิหารขาว","parentCode":"1705"},"geometry":{"type":"Polygon","coordinates":[[[100.40839723500005,14.810212152000076],[100.39305713400006,14.816935558000068],[100.37201523100003,14.805715058000033],[100.37664105400006,14.801204575000042],[100.39684804900008,14.795769637000035],[100.40032562000005,14.789304492000042],[100.41022629200006,14.792671237000036],[100.41585027400004,14.803581631000043],[100.40839723500005,14.810212152000076]]]}}]}