{"type":"FeatureCollection","features":[{"type":"Feature","properties":{"code":"180602","name":"บ้านเชี่ยน","parentCode":"1806"},"geometry":{"type":"Polygon","coordinates":[[[100.02165566400004,14.965803745000073],[99.94667235800006,14.988196779000077],[99.96740824800008,14.946934619000046],[99.95172454400006,14.909854185000029],[100.00540574400009,14.908008556000027],[100.04173330800006,14.914929855000025],[100.04500594900009,14.930073373000027],[100.03738267900007,14.956852402000038],[100.02165566400004,14.965803745000073]]]}},{"type":"Feature","properties":{"code":"180102","name":"บ้านกล้วย","parentCode":"1801"},"geometry":{"type":"Polygon","coordinates":[[[100.17617439000009,15.160507438000025],[100.17708450000003,15.223126518000072],[100.17629709800008,15.22514693900007],[100.11795796900009,15.200288253000053],[100.12014086300007,15.185875592000059],[100.13002682800004,15.189242443000069],[100.12547657000005,15.171569676000047],[100.14487024900006,15.165905469000052],[100.16686696800008,15.153797836000024],[100.17617439000009,15.160507438000025]]]}},{"type":"Feature","properties":{"code":"180505","name":"บางขุด","parentCode":"1805"},"geometry":{"type":"Polygon","coordinates":[[[100.20269512300007,14.953456120000055],[100.20606852900005,14.953465662000042],[100.23150719100005,14.985921817000076],[100.20375440300006,15.035712541000066],[100.17741743100004,15.019085060000066],[100.16412472900004,14.965037561000031],[100.18672684600006,14.957972652000024],[100.20269512300007,14.953456120000055]]]}},{"type":"Feature","properties":{"code":"180406","name":"บางหลวง","parentCode":"1804"},"geometry":{"type":"Polygon","coordinates":[[[100.19628193800008,15.117594132000022],[100.22489677600004,15.174415732000057],[100.17617439000009,15.160507438000025],[100.16686696800008,15.153797836000024],[100.18500127300007,15.117765904000066],[100.19628193800008,15.117594132000022]]]}},{"type":"Feature","properties":{"code":"180307","name":"บ่อแร่","parentCode":"1803"},"geometry":{"type":"Polygon","coordinates":[[[99.97105942100006,15.298831391000022],[99.95859957800008,15.306093347000058],[99.92248217400004,15.29811096700007],[99.94045720300005,15.238746633000062],[99.99112309300006,15.287490584000068],[99.97105942100006,15.298831391000022]]]}},{"type":"Feature","properties":{"code":"180104","name":"ชัยนาท","parentCode":"1801"},"geometry":{"type":"Polygon","coordinates":[[[100.16686696800008,15.153797836000024],[100.14487024900006,15.165905469000052],[100.12234178300008,15.116316781000023],[100.11814141200006,15.101197976000037],[100.13935566600009,15.101596216000075],[100.17662992600003,15.106898203000071],[100.18500127300007,15.117765904000066],[100.16686696800008,15.153797836000024]]]}},{"type":"Feature","properties":{"code":"180609","name":"เด่นใหญ่","parentCode":"1806"},"geometry":{"type":"Polygon","coordinates":[[[99.87494774700008,15.018005188000075],[99.94270033800007,14.988733620000062],[99.98968950900007,14.990912796000032],[99.95450820300005,15.068187842000043],[99.92561024500009,15.07832989700006],[99.89879188100008,15.061295856000072],[99.92923165900004,15.033121133000066],[99.87494774700008,15.018005188000075]]]}},{"type":"Feature","properties":{"code":"180507","name":"ดอนกำ","parentCode":"1805"},"geometry":{"type":"Polygon","coordinates":[[[100.26320009600005,14.949859738000043],[100.23150719100005,14.985921817000076],[100.20606852900005,14.953465662000042],[100.24556986500005,14.945903466000061],[100.25903484800006,14.943857930000036],[100.26320009600005,14.949859738000043]]]}},{"type":"Feature","properties":{"code":"180506","name":"ดงคอน","parentCode":"1805"},"geometry":{"type":"Polygon","coordinates":[[[100.17741743100004,15.019085060000066],[100.15645320200008,15.03367376600005],[100.08714198800004,14.994360541000049],[100.08709981500004,14.955579406000027],[100.12713645800005,14.926406472000053],[100.12632472500007,14.922981841000023],[100.18672684600006,14.957972652000024],[100.16412472900004,14.965037561000031],[100.17741743100004,15.019085060000066]]]}},{"type":"Feature","properties":{"code":"180205","name":"หางน้ำสาคร","parentCode":"1802"},"geometry":{"type":"Polygon","coordinates":[[[100.20257878700005,15.294651380000062],[100.18363032100007,15.340204764000077],[100.17620736000003,15.305022392000069],[100.12624329400006,15.304568910000057],[100.10831153400005,15.27434155700007],[100.15301897200004,15.24562338100003],[100.16312504900009,15.244778433000022],[100.17236473800006,15.246045522000031],[100.20257878700005,15.294651380000062]]]}},{"type":"Feature","properties":{"code":"180601","name":"หันคา","parentCode":"1806"},"geometry":{"type":"Polygon","coordinates":[[[99.99975662300005,15.058290382000052],[99.95450820300005,15.068187842000043],[99.98968950900007,14.990912796000032],[99.94270033800007,14.988733620000062],[99.94667235800006,14.988196779000077],[100.02165566400004,14.965803745000073],[100.04138313400006,15.036235066000074],[99.99975662300005,15.058290382000052]]]}},{"type":"Feature","properties":{"code":"180407","name":"หาดอาษา","parentCode":"1804"},"geometry":{"type":"Polygon","coordinates":[[[100.27419940600004,15.209949291000044],[100.22653313200004,15.173867978000033],[100.26246392000007,15.119040662000032],[100.28551617200009,15.140664765000054],[100.29744018300005,15.182307439000056],[100.29361736800007,15.207693696000035],[100.27419940600004,15.209949291000044]]]}},{"type":"Feature","properties":{"code":"180106","name":"หาดท่าเสา","parentCode":"1801"},"geometry":{"type":"Polygon","coordinates":[[[100.10730216300004,15.20223240100006],[100.06305828400008,15.25757789000005],[100.05407838400004,15.183634948000076],[100.05473560900003,15.179067248000024],[100.08578824000006,15.167131247000043],[100.10730216300004,15.20223240100006]]]}},{"type":"Feature","properties":{"code":"180503","name":"ห้วยกรด","parentCode":"1805"},"geometry":{"type":"Polygon","coordinates":[[[100.19628193800008,15.117594132000022],[100.18500127300007,15.117765904000066],[100.17662992600003,15.106898203000071],[100.20198932000005,15.074624196000059],[100.22888143800009,15.099467229000027],[100.19628193800008,15.117594132000022]]]}},{"type":"Feature","properties":{"code":"180508","name":"ห้วยกรดพัฒนา","parentCode":"1805"},"geometry":{"type":"Polygon","coordinates":[[[100.24338089700007,15.095311842000058],[100.22888143800009,15.099467229000027],[100.20198932000005,15.074624196000059],[100.22985599800006,15.049090791000026],[100.24078880900004,15.038723615000038],[100.25543961800008,15.04628748600004],[100.25958723600007,15.058910965000052],[100.24338089700007,15.095311842000058]]]}},{"type":"Feature","properties":{"code":"180607","name":"ห้วยงู","parentCode":"1806"},"geometry":{"type":"Polygon","coordinates":[[[100.03838083800008,15.139357134000022],[100.02472542900006,15.148409726000068],[100.00568342400004,15.093069698000022],[100.03098353700005,15.10486067000005],[100.06186200900004,15.04955523500007],[100.08494874900003,15.04470806300003],[100.07249663100004,15.088817240000026],[100.03838083800008,15.139357134000022]]]}},{"type":"Feature","properties":{"code":"180802","name":"กะบกเตี้ย","parentCode":"1808"},"geometry":{"type":"Polygon","coordinates":[[[99.84155033300004,15.04642396500003],[99.77166536700008,15.140612779000037],[99.79078508700007,15.10028369400004],[99.76902172600006,15.022537237000051],[99.72051022800008,14.976898125000048],[99.72343709200004,14.973880035000036],[99.84590462600005,15.006600693000053],[99.84155033300004,15.04642396500003]]]}},{"type":"Feature","properties":{"code":"180403","name":"เขาแก้ว","parentCode":"1804"},"geometry":{"type":"Polygon","coordinates":[[[100.33982985100005,15.150622756000075],[100.29744018300005,15.182307439000056],[100.28551617200009,15.140664765000054],[100.33926726600004,15.108137575000057],[100.35152437900007,15.118409770000028],[100.33982985100005,15.150622756000075]]]}},{"type":"Feature","properties":{"code":"180105","name":"เขาท่าพระ","parentCode":"1801"},"geometry":{"type":"Polygon","coordinates":[[[100.17629709800008,15.22514693900007],[100.16312504900009,15.244778433000022],[100.15301897200004,15.24562338100003],[100.11239249300007,15.20283610100006],[100.11795796900009,15.200288253000053],[100.17629709800008,15.22514693900007]]]}},{"type":"Feature","properties":{"code":"180201","name":"คุ้งสำเภา","parentCode":"1802"},"geometry":{"type":"Polygon","coordinates":[[[100.12624329400006,15.304568910000057],[100.08192264600007,15.320782941000061],[100.05606914800006,15.268930625000053],[100.10831153400005,15.27434155700007],[100.12624329400006,15.304568910000057]]]}},{"type":"Feature","properties":{"code":"180704","name":"กุดจอก","parentCode":"1807"},"geometry":{"type":"Polygon","coordinates":[[[99.92248217400004,15.29811096700007],[99.88346901000006,15.287064611000062],[99.88747788300009,15.247009018000028],[99.85163992600008,15.236540873000024],[99.91050170800008,15.214861302000031],[99.94045720300005,15.238746633000062],[99.92248217400004,15.29811096700007]]]}},{"type":"Feature","properties":{"code":"180302","name":"มะขามเฒ่า","parentCode":"1803"},"geometry":{"type":"Polygon","coordinates":[[[100.05816397900008,15.26366521600005],[100.04766332100007,15.264885097000047],[100.03581469500006,15.263106390000075],[100.02589592100009,15.259743363000041],[100.02091479700005,15.213599098000032],[100.05407838400004,15.183634948000076],[100.06305828400008,15.25757789000005],[100.05816397900008,15.26366521600005]]]}},{"type":"Feature","properties":{"code":"180101","name":"ในเมือง","parentCode":"1801"},"geometry":{"type":"Polygon","coordinates":[[[100.12547657000005,15.171569676000047],[100.13002682800004,15.189242443000069],[100.12014086300007,15.185875592000059],[100.12547657000005,15.171569676000047]]]}},{"type":"Feature","properties":{"code":"180109","name":"นางลือ","parentCode":"1801"},"geometry":{"type":"Polygon","coordinates":[[[100.08578824000006,15.167131247000043],[100.05473560900003,15.179067248000024],[100.03838083800008,15.139357134000022],[100.07249663100004,15.088817240000026],[100.11814141200006,15.101197976000037],[100.12234178300008,15.116316781000023],[100.08578824000006,15.167131247000043]]]}},{"type":"Feature","properties":{"code":"180801","name":"เนินขาม","parentCode":"1808"},"geometry":{"type":"Polygon","coordinates":[[[99.87494774700008,15.018005188000075],[99.84155033300004,15.04642396500003],[99.84590462600005,15.006600693000053],[99.86889895600007,14.925932044000035],[99.91960596500007,14.912859639000033],[99.95172454400006,14.909854185000029],[99.96740824800008,14.946934619000046],[99.94667235800006,14.988196779000077],[99.94270033800007,14.988733620000062],[99.87494774700008,15.018005188000075]]]}},{"type":"Feature","properties":{"code":"180304","name":"หนองบัว","parentCode":"1803"},"geometry":{"type":"Polygon","coordinates":[[[100.03722899900004,15.292283610000027],[99.97105942100006,15.298831391000022],[99.99112309300006,15.287490584000068],[100.02589592100009,15.259743363000041],[100.03581469500006,15.263106390000075],[100.04598765200006,15.268929387000071],[100.03722899900004,15.292283610000027]]]}},{"type":"Feature","properties":{"code":"180306","name":"หนองขุ่น","parentCode":"1803"},"geometry":{"type":"Polygon","coordinates":[[[100.02589592100009,15.259743363000041],[99.99112309300006,15.287490584000068],[99.94045720300005,15.238746633000062],[99.91050170800008,15.214861302000031],[99.89654644500007,15.199335663000056],[99.98491748900005,15.20838889600003],[100.02091479700005,15.213599098000032],[100.02589592100009,15.259743363000041]]]}},{"type":"Feature","properties":{"code":"180701","name":"หนองมะโมง","parentCode":"1807"},"geometry":{"type":"Polygon","coordinates":[[[99.87873757800008,15.289627106000069],[99.83940529800009,15.242768082000055],[99.73354226200007,15.241265659000078],[99.73232004900007,15.208689132000075],[99.74798953400006,15.188673736000055],[99.79326061500007,15.193443547000072],[99.85163992600008,15.236540873000024],[99.88747788300009,15.247009018000028],[99.88346901000006,15.287064611000062],[99.87873757800008,15.289627106000069]]]}},{"type":"Feature","properties":{"code":"180303","name":"หนองน้อย","parentCode":"1803"},"geometry":{"type":"Polygon","coordinates":[[[100.05407838400004,15.183634948000076],[100.02091479700005,15.213599098000032],[99.98491748900005,15.20838889600003],[99.97156992200007,15.153556767000055],[100.02472542900006,15.148409726000068],[100.03838083800008,15.139357134000022],[100.05473560900003,15.179067248000024],[100.05407838400004,15.183634948000076]]]}},{"type":"Feature","properties":{"code":"180606","name":"หนองแซง","parentCode":"1806"},"geometry":{"type":"Polygon","coordinates":[[[100.02472542900006,15.148409726000068],[99.97156992200007,15.153556767000055],[99.94294135700005,15.134675770000058],[99.81358450400006,15.143784158000074],[99.86467100300007,15.12688259600003],[99.92561024500009,15.07832989700006],[99.95450820300005,15.068187842000043],[99.99975662300005,15.058290382000052],[100.00568342400004,15.093069698000022],[100.02472542900006,15.148409726000068]]]}},{"type":"Feature","properties":{"code":"180405","name":"โพนางดำออก","parentCode":"1804"},"geometry":{"type":"Polygon","coordinates":[[[100.33926726600004,15.108137575000057],[100.28551617200009,15.140664765000054],[100.26246392000007,15.119040662000032],[100.26503322800005,15.114889701000038],[100.29117182100003,15.076797831000022],[100.33926726600004,15.108137575000057]]]}},{"type":"Feature","properties":{"code":"180404","name":"โพนางดำตก","parentCode":"1804"},"geometry":{"type":"Polygon","coordinates":[[[100.29117182100003,15.076797831000022],[100.26503322800005,15.114889701000038],[100.24338089700007,15.095311842000058],[100.25958723600007,15.058910965000052],[100.29357123700004,15.064535337000052],[100.29117182100003,15.076797831000022]]]}},{"type":"Feature","properties":{"code":"180504","name":"โพงาม","parentCode":"1805"},"geometry":{"type":"Polygon","coordinates":[[[100.22985599800006,15.049090791000026],[100.20107718500009,15.03792362200005],[100.20375440300006,15.035712541000066],[100.23150719100005,14.985921817000076],[100.26320009600005,14.949859738000043],[100.28845836900007,14.956346628000063],[100.28618807900006,14.992899654000041],[100.24078880900004,15.038723615000038],[100.22985599800006,15.049090791000026]]]}},{"type":"Feature","properties":{"code":"180501","name":"แพรกศรีราชา","parentCode":"1805"},"geometry":{"type":"Polygon","coordinates":[[[100.11814141200006,15.101197976000037],[100.07249663100004,15.088817240000026],[100.08494874900003,15.04470806300003],[100.08714198800004,14.994360541000049],[100.15645320200008,15.03367376600005],[100.17741743100004,15.019085060000066],[100.20375440300006,15.035712541000066],[100.20107718500009,15.03792362200005],[100.16288206400009,15.050469522000071],[100.13935566600009,15.101596216000075],[100.11814141200006,15.101197976000037]]]}},{"type":"Feature","properties":{"code":"180605","name":"ไพรนกยูง","parentCode":"1806"},"geometry":{"type":"Polygon","coordinates":[[[99.92561024500009,15.07832989700006],[99.86467100300007,15.12688259600003],[99.81358450400006,15.143784158000074],[99.80863163900005,15.142324220000035],[99.77166536700008,15.140612779000037],[99.84155033300004,15.04642396500003],[99.87494774700008,15.018005188000075],[99.92923165900004,15.033121133000066],[99.89879188100008,15.061295856000072],[99.92561024500009,15.07832989700006]]]}},{"type":"Feature","properties":{"code":"180206","name":"ไร่พัฒนา","parentCode":"1802"},"geometry":{"type":"Polygon","coordinates":[[[100.21784782000003,15.363384734000022],[100.19296180600008,15.374716350000028],[100.18323269600006,15.345041259000027],[100.18363032100007,15.340204764000077],[100.20257878700005,15.294651380000062],[100.25389511900005,15.291054693000035],[100.26408518600005,15.325615287000062],[100.26196558000004,15.334644967000031],[100.21784782000003,15.363384734000022]]]}},{"type":"Feature","properties":{"code":"180611","name":"สามง่ามท่าโบสถ์","parentCode":"1806"},"geometry":{"type":"Polygon","coordinates":[[[100.06186200900004,15.04955523500007],[100.03098353700005,15.10486067000005],[100.00568342400004,15.093069698000022],[99.99975662300005,15.058290382000052],[100.04138313400006,15.036235066000074],[100.06186200900004,15.04955523500007]]]}},{"type":"Feature","properties":{"code":"180703","name":"สะพานหิน","parentCode":"1807"},"geometry":{"type":"Polygon","coordinates":[[[99.91050170800008,15.214861302000031],[99.85163992600008,15.236540873000024],[99.79326061500007,15.193443547000072],[99.74798953400006,15.188673736000055],[99.76291492300004,15.149064649000024],[99.77166536700008,15.140612779000037],[99.80863163900005,15.142324220000035],[99.80971038000007,15.160519745000045],[99.88652461000004,15.175834859000076],[99.89654644500007,15.199335663000056],[99.91050170800008,15.214861302000031]]]}},{"type":"Feature","properties":{"code":"180401","name":"สรรพยา","parentCode":"1804"},"geometry":{"type":"Polygon","coordinates":[[[100.22653313200004,15.173867978000033],[100.22489677600004,15.174415732000057],[100.19628193800008,15.117594132000022],[100.22888143800009,15.099467229000027],[100.24338089700007,15.095311842000058],[100.26503322800005,15.114889701000038],[100.26246392000007,15.119040662000032],[100.22653313200004,15.173867978000033]]]}},{"type":"Feature","properties":{"code":"180203","name":"ศิลาดาน","parentCode":"1802"},"geometry":{"type":"Polygon","coordinates":[[[100.17816717800008,15.341825794000044],[100.09976102600007,15.373459464000064],[100.08596093500006,15.378894280000054],[100.10141569500007,15.341737303000059],[100.17816717800008,15.341825794000044]]]}},{"type":"Feature","properties":{"code":"180108","name":"เสือโฮก","parentCode":"1801"},"geometry":{"type":"Polygon","coordinates":[[[100.26503365900004,15.268409418000033],[100.17236473800006,15.246045522000031],[100.16312504900009,15.244778433000022],[100.17629709800008,15.22514693900007],[100.17708450000003,15.223126518000072],[100.24962235400005,15.230285064000043],[100.27419940600004,15.209949291000044],[100.29361736800007,15.207693696000035],[100.27597933500005,15.241911255000048],[100.26503365900004,15.268409418000033]]]}},{"type":"Feature","properties":{"code":"180803","name":"สุขเดือนห้า","parentCode":"1808"},"geometry":{"type":"Polygon","coordinates":[[[99.86889895600007,14.925932044000035],[99.84590462600005,15.006600693000053],[99.72343709200004,14.973880035000036],[99.72377013800008,14.962032211000064],[99.73173369100004,14.962623385000029],[99.83145926900005,14.93499780600007],[99.86889895600007,14.925932044000035]]]}},{"type":"Feature","properties":{"code":"180402","name":"ตลุก","parentCode":"1804"},"geometry":{"type":"Polygon","coordinates":[[[100.27419940600004,15.209949291000044],[100.24962235400005,15.230285064000043],[100.17708450000003,15.223126518000072],[100.17617439000009,15.160507438000025],[100.22489677600004,15.174415732000057],[100.22653313200004,15.173867978000033],[100.27419940600004,15.209949291000044]]]}},{"type":"Feature","properties":{"code":"180103","name":"ท่าชัย","parentCode":"1801"},"geometry":{"type":"Polygon","coordinates":[[[100.11795796900009,15.200288253000053],[100.11239249300007,15.20283610100006],[100.10730216300004,15.20223240100006],[100.08578824000006,15.167131247000043],[100.12234178300008,15.116316781000023],[100.14487024900006,15.165905469000052],[100.12547657000005,15.171569676000047],[100.12014086300007,15.185875592000059],[100.11795796900009,15.200288253000053]]]}},{"type":"Feature","properties":{"code":"180204","name":"ท่าฉนวน","parentCode":"1802"},"geometry":{"type":"Polygon","coordinates":[[[100.10186987000009,15.417357425000034],[100.09976102600007,15.373459464000064],[100.17816717800008,15.341825794000044],[100.18323269600006,15.345041259000027],[100.19296180600008,15.374716350000028],[100.12960189500006,15.40534214400003],[100.12481534800008,15.412408173000074],[100.10186987000009,15.417357425000034]]]}},{"type":"Feature","properties":{"code":"180107","name":"ธรรมามูล","parentCode":"1801"},"geometry":{"type":"Polygon","coordinates":[[[100.15301897200004,15.24562338100003],[100.10831153400005,15.27434155700007],[100.05606914800006,15.268930625000053],[100.05816397900008,15.26366521600005],[100.06305828400008,15.25757789000005],[100.10730216300004,15.20223240100006],[100.11239249300007,15.20283610100006],[100.15301897200004,15.24562338100003]]]}},{"type":"Feature","properties":{"code":"180502","name":"เที่ยงแท้","parentCode":"1805"},"geometry":{"type":"Polygon","coordinates":[[[100.17662992600003,15.106898203000071],[100.13935566600009,15.101596216000075],[100.16288206400009,15.050469522000071],[100.20107718500009,15.03792362200005],[100.22985599800006,15.049090791000026],[100.20198932000005,15.074624196000059],[100.17662992600003,15.106898203000071]]]}},{"type":"Feature","properties":{"code":"180207","name":"อู่ตะเภา","parentCode":"1802"},"geometry":{"type":"Polygon","coordinates":[[[100.25389511900005,15.291054693000035],[100.20257878700005,15.294651380000062],[100.17236473800006,15.246045522000031],[100.26503365900004,15.268409418000033],[100.25389511900005,15.291054693000035]]]}},{"type":"Feature","properties":{"code":"180608","name":"วังไก่เถื่อน","parentCode":"1806"},"geometry":{"type":"Polygon","coordinates":[[[100.08494874900003,15.04470806300003],[100.06186200900004,15.04955523500007],[100.04138313400006,15.036235066000074],[100.02165566400004,14.965803745000073],[100.03738267900007,14.956852402000038],[100.08709981500004,14.955579406000027],[100.08714198800004,14.994360541000049],[100.08494874900003,15.04470806300003]]]}},{"type":"Feature","properties":{"code":"180311","name":"วังหมัน","parentCode":"1803"},"geometry":{"type":"Polygon","coordinates":[[[99.98491748900005,15.20838889600003],[99.89654644500007,15.199335663000056],[99.88652461000004,15.175834859000076],[99.80971038000007,15.160519745000045],[99.80863163900005,15.142324220000035],[99.81358450400006,15.143784158000074],[99.94294135700005,15.134675770000058],[99.97156992200007,15.153556767000055],[99.98491748900005,15.20838889600003]]]}},{"type":"Feature","properties":{"code":"180702","name":"วังตะเคียน","parentCode":"1807"},"geometry":{"type":"Polygon","coordinates":[[[99.82766342600007,15.312010581000038],[99.78416137300007,15.317721014000028],[99.75732189900003,15.311856927000065],[99.72727105900003,15.249636508000037],[99.73354226200007,15.241265659000078],[99.83940529800009,15.242768082000055],[99.87873757800008,15.289627106000069],[99.87181485800005,15.304944541000054],[99.82766342600007,15.312010581000038]]]}},{"type":"Feature","properties":{"code":"180202","name":"วัดโคก","parentCode":"1802"},"geometry":{"type":"Polygon","coordinates":[[[100.18363032100007,15.340204764000077],[100.18323269600006,15.345041259000027],[100.17816717800008,15.341825794000044],[100.10141569500007,15.341737303000059],[100.08192264600007,15.320782941000061],[100.12624329400006,15.304568910000057],[100.17620736000003,15.305022392000069],[100.18363032100007,15.340204764000077]]]}},{"type":"Feature","properties":{"code":"180301","name":"วัดสิงห์","parentCode":"1803"},"geometry":{"type":"Polygon","coordinates":[[[100.04766332100007,15.264885097000047],[100.04598765200006,15.268929387000071],[100.03581469500006,15.263106390000075],[100.04766332100007,15.264885097000047]]]}}]}