{"type":"FeatureCollection","features":[{"type":"Feature","properties":{"code":"191302","name":"บ้านแก้ง","parentCode":"1913"},"geometry":{"type":"Polygon","coordinates":[[[100.94325181900007,14.622938144000045],[100.94113281700004,14.62559264600003],[100.93406052400007,14.621938881000062],[100.92859033700006,14.572600312000077],[100.94543719600006,14.555352417000051],[100.96203611400006,14.566053897000074],[100.96199858000006,14.56981707500006],[100.94325181900007,14.622938144000045]]]}},{"type":"Feature","properties":{"code":"190608","name":"บ้านครัว","parentCode":"1906"},"geometry":{"type":"Polygon","coordinates":[[[100.76477355000009,14.60434469200004],[100.75883242100008,14.599162959000068],[100.75706910900004,14.569021530000043],[100.76276504400005,14.56850518300007],[100.78270467300007,14.567032528000027],[100.79631022000007,14.586237107000045],[100.79787667900007,14.592948499000045],[100.76477355000009,14.60434469200004]]]}},{"type":"Feature","properties":{"code":"190802","name":"บ้านกลับ","parentCode":"1908"},"geometry":{"type":"Polygon","coordinates":[[[100.71219121200005,14.761875834000023],[100.67025437500007,14.739611883000066],[100.65130188700005,14.710297985000068],[100.65701483400005,14.704447517000062],[100.67926262700007,14.697364911000022],[100.70808190000008,14.744962620000024],[100.71717159100007,14.753852750000021],[100.72453262900007,14.760059856000055],[100.71219121200005,14.761875834000023]]]}},{"type":"Feature","properties":{"code":"190402","name":"บ้านลำ","parentCode":"1904"},"geometry":{"type":"Polygon","coordinates":[[[100.99146773800004,14.418643470000063],[100.93926327900004,14.433992139000054],[100.94506005700003,14.411819071000025],[100.93208517900007,14.352718546000062],[100.93081986200008,14.345799150000062],[100.98678067700007,14.351129499000024],[100.99146773800004,14.418643470000063]]]}},{"type":"Feature","properties":{"code":"190703","name":"บ้านหลวง","parentCode":"1907"},"geometry":{"type":"Polygon","coordinates":[[[100.60049789100003,14.597497241000042],[100.57681425300007,14.60494699800006],[100.57530143500009,14.595919925000032],[100.60168059200004,14.555627078000043],[100.60184496400007,14.554215713000076],[100.62220608600006,14.562426945000027],[100.63417156800006,14.578441414000054],[100.60049789100003,14.597497241000042]]]}},{"type":"Feature","properties":{"code":"190601","name":"บ้านหมอ","parentCode":"1906"},"geometry":{"type":"Polygon","coordinates":[[[100.74983236600008,14.632459417000064],[100.69870207900004,14.631253582000056],[100.69842301200003,14.60923314300004],[100.70804294100009,14.605184907000023],[100.74155986100004,14.613357551000036],[100.74983236600008,14.632459417000064]]]}},{"type":"Feature","properties":{"code":"190208","name":"บ้านป่า","parentCode":"1902"},"geometry":{"type":"Polygon","coordinates":[[[101.05389380100007,14.660985568000058],[101.02517645300009,14.665113937000058],[101.01971202500005,14.639209072000028],[101.01125235600006,14.607073855000067],[101.00850981100007,14.59101554700004],[101.01111203600004,14.582860754000023],[101.02195186400007,14.566450212000063],[101.05389380100007,14.660985568000058]]]}},{"type":"Feature","properties":{"code":"190804","name":"บ้านโปร่ง","parentCode":"1908"},"geometry":{"type":"Polygon","coordinates":[[[100.71406982100007,14.70952347900004],[100.70808190000008,14.744962620000024],[100.67926262700007,14.697364911000022],[100.71406982100007,14.70952347900004]]]}},{"type":"Feature","properties":{"code":"190207","name":"บ้านธาตุ","parentCode":"1902"},"geometry":{"type":"Polygon","coordinates":[[[101.01971202500005,14.639209072000028],[100.98352851400006,14.648767130000067],[101.01125235600006,14.607073855000067],[101.01971202500005,14.639209072000028]]]}},{"type":"Feature","properties":{"code":"191002","name":"บ้านยาง","parentCode":"1910"},"geometry":{"type":"Polygon","coordinates":[[[100.84644529400003,14.597506618000068],[100.81577151400006,14.600692583000068],[100.80367198800008,14.599761973000057],[100.79787667900007,14.592948499000045],[100.79631022000007,14.586237107000045],[100.79417963900005,14.561023087000024],[100.82012852400004,14.562727776000031],[100.82864757000004,14.562673654000037],[100.84644529400003,14.597506618000068]]]}},{"type":"Feature","properties":{"code":"190602","name":"บางโขมด","parentCode":"1906"},"geometry":{"type":"Polygon","coordinates":[[[100.74155986100004,14.613357551000036],[100.70804294100009,14.605184907000023],[100.68267539300007,14.583799354000064],[100.71244889800005,14.574940291000075],[100.73141840300008,14.569388824000043],[100.75706910900004,14.569021530000043],[100.75883242100008,14.599162959000068],[100.74155986100004,14.613357551000036]]]}},{"type":"Feature","properties":{"code":"190306","name":"บัวลอย","parentCode":"1903"},"geometry":{"type":"Polygon","coordinates":[[[100.84920859100004,14.457599783000035],[100.84518218900007,14.459408770000039],[100.82945150400008,14.433677811000052],[100.82585846500007,14.402401498000074],[100.82761951600008,14.385243008000032],[100.83804045500005,14.381549008000036],[100.85952459200007,14.409105633000024],[100.84920859100004,14.457599783000035]]]}},{"type":"Feature","properties":{"code":"190210","name":"ชะอม","parentCode":"1902"},"geometry":{"type":"Polygon","coordinates":[[[101.21068336100006,14.416360004000069],[101.16091253800005,14.479140597000026],[101.09849333300008,14.454164787000025],[101.05711169400007,14.414333602000056],[101.12840645500006,14.382230254000035],[101.15977743400003,14.346596308000073],[101.16572385300003,14.34237577700003],[101.21006418900004,14.371997684000064],[101.21068336100006,14.416360004000069]]]}},{"type":"Feature","properties":{"code":"190213","name":"ชำผักแพว","parentCode":"1902"},"geometry":{"type":"Polygon","coordinates":[[[101.16198305200004,14.555326196000067],[101.13229918600007,14.572027096000056],[101.03414366400006,14.548940372000061],[101.02137993600007,14.526082617000043],[101.04446845400008,14.47204658100003],[101.05346656600005,14.509823248000032],[101.10813357100005,14.513959774000057],[101.17258706100006,14.490058181000052],[101.14239520300004,14.537226516000032],[101.16198305200004,14.555326196000067]]]}},{"type":"Feature","properties":{"code":"190406","name":"เจริญธรรม","parentCode":"1904"},"geometry":{"type":"Polygon","coordinates":[[[101.00021307100008,14.417760420000036],[100.99146773800004,14.418643470000063],[100.98678067700007,14.351129499000024],[101.00191722900007,14.351362548000054],[101.03306398400008,14.413879504000022],[101.00021307100008,14.417760420000036]]]}},{"type":"Feature","properties":{"code":"190105","name":"ดาวเรือง","parentCode":"1901"},"geometry":{"type":"Polygon","coordinates":[[[100.91094708400004,14.556783654000071],[100.90845491100004,14.578067063000049],[100.88839484100004,14.565531920000069],[100.88565981600004,14.554996685000049],[100.88791107700007,14.549004319000062],[100.91094708400004,14.556783654000071]]]}},{"type":"Feature","properties":{"code":"190701","name":"ดอนพุด","parentCode":"1907"},"geometry":{"type":"Polygon","coordinates":[[[100.64330375500003,14.598261586000035],[100.61701346300003,14.609815109000067],[100.60049789100003,14.597497241000042],[100.63417156800006,14.578441414000054],[100.64330375500003,14.598261586000035]]]}},{"type":"Feature","properties":{"code":"190803","name":"ดอนทอง","parentCode":"1908"},"geometry":{"type":"Polygon","coordinates":[[[100.67926262700007,14.697364911000022],[100.65701483400005,14.704447517000062],[100.63053203300007,14.649993705000043],[100.64088281500005,14.635877160000064],[100.67893386600008,14.661406876000058],[100.67930600300008,14.67327031800005],[100.67926262700007,14.697364911000022]]]}},{"type":"Feature","properties":{"code":"190704","name":"ดงตะงาว","parentCode":"1907"},"geometry":{"type":"Polygon","coordinates":[[[100.61435057100005,14.647072172000037],[100.60228489700006,14.655050733000053],[100.59097002800007,14.641781540000068],[100.58373611000007,14.630155161000062],[100.58198596700004,14.62440686900004],[100.57681425300007,14.60494699800006],[100.60049789100003,14.597497241000042],[100.61701346300003,14.609815109000067],[100.61435057100005,14.647072172000037]]]}},{"type":"Feature","properties":{"code":"190206","name":"หินซ้อน","parentCode":"1902"},"geometry":{"type":"Polygon","coordinates":[[[101.06098292100006,14.759725925000055],[101.02388084700004,14.809935740000071],[100.99186363100006,14.740451140000062],[101.07244646200007,14.70607424800005],[101.07543917700008,14.730676333000076],[101.06098292100006,14.759725925000055]]]}},{"type":"Feature","properties":{"code":"190605","name":"หรเทพ","parentCode":"1906"},"geometry":{"type":"Polygon","coordinates":[[[100.69870207900004,14.631253582000056],[100.67893386600008,14.661406876000058],[100.64088281500005,14.635877160000064],[100.66006783900008,14.621949375000042],[100.69842301200003,14.60923314300004],[100.69870207900004,14.631253582000056]]]}},{"type":"Feature","properties":{"code":"191003","name":"หัวปลวก","parentCode":"1910"},"geometry":{"type":"Polygon","coordinates":[[[100.86995883100008,14.641452479000066],[100.85887061600005,14.665544643000032],[100.84693193200007,14.651290914000072],[100.81577151400006,14.600692583000068],[100.84644529400003,14.597506618000068],[100.85833815100005,14.612634207000042],[100.86740886600006,14.623126205000062],[100.86995883100008,14.641452479000066]]]}},{"type":"Feature","properties":{"code":"191305","name":"ห้วยบง","parentCode":"1913"},"geometry":{"type":"Polygon","coordinates":[[[100.89315363700007,14.620120253000039],[100.86995883100008,14.641452479000066],[100.86740886600006,14.623126205000062],[100.86606480100005,14.617211191000024],[100.88282500200006,14.59626557300004],[100.88839484100004,14.565531920000069],[100.90845491100004,14.578067063000049],[100.91249859300007,14.593032939000068],[100.89315363700007,14.620120253000039]]]}},{"type":"Feature","properties":{"code":"190204","name":"ห้วยแห้ง","parentCode":"1902"},"geometry":{"type":"Polygon","coordinates":[[[101.02137993600007,14.526082617000043],[100.99553059500005,14.541378696000038],[100.98099432400005,14.53301996700003],[100.98998765300007,14.487982677000048],[100.96189447600005,14.489310098000033],[101.00021307100008,14.417760420000036],[101.03306398400008,14.413879504000022],[101.04049131200009,14.413304253000035],[101.04446845400008,14.47204658100003],[101.02137993600007,14.526082617000043]]]}},{"type":"Feature","properties":{"code":"190309","name":"ห้วยขมิ้น","parentCode":"1903"},"geometry":{"type":"Polygon","coordinates":[[[100.87805763000006,14.445379941000056],[100.87227150400008,14.445451410000032],[100.86690339900008,14.431235207000043],[100.86344380700007,14.37447916900004],[100.89345889200007,14.392012085000033],[100.89286339400007,14.431866548000073],[100.87805763000006,14.445379941000056]]]}},{"type":"Feature","properties":{"code":"190907","name":"ห้วยป่าหวาย","parentCode":"1909"},"geometry":{"type":"Polygon","coordinates":[[[100.80014416200004,14.659120743000074],[100.78097355600005,14.652064004000067],[100.78225563600006,14.647132290000059],[100.80367198800008,14.599761973000057],[100.81577151400006,14.600692583000068],[100.84693193200007,14.651290914000072],[100.80014416200004,14.659120743000074]]]}},{"type":"Feature","properties":{"code":"190310","name":"ห้วยทราย","parentCode":"1903"},"geometry":{"type":"Polygon","coordinates":[[[100.93926327900004,14.433992139000054],[100.89286339400007,14.431866548000073],[100.89345889200007,14.392012085000033],[100.89871194500006,14.397692285000062],[100.94506005700003,14.411819071000025],[100.93926327900004,14.433992139000054]]]}},{"type":"Feature","properties":{"code":"190201","name":"แก่งคอย","parentCode":"1902"},"geometry":{"type":"Polygon","coordinates":[[[101.00850981100007,14.59101554700004],[100.99114428600006,14.597187463000068],[101.01111203600004,14.582860754000023],[101.00850981100007,14.59101554700004]]]}},{"type":"Feature","properties":{"code":"190506","name":"ไก่เส่า","parentCode":"1905"},"geometry":{"type":"Polygon","coordinates":[[[100.79313994300009,14.53252241000007],[100.77865228600007,14.530733977000068],[100.76667767200007,14.524473000000057],[100.78823254800005,14.493189519000055],[100.80876555600008,14.50611938700007],[100.81895173900006,14.512527600000055],[100.80763326700009,14.525108640000042],[100.79313994300009,14.53252241000007]]]}},{"type":"Feature","properties":{"code":"191202","name":"คำพราน","parentCode":"1912"},"geometry":{"type":"Polygon","coordinates":[[[101.09316950700008,14.849549942000067],[101.07269499400007,14.791189473000031],[101.18000043400008,14.790135745000043],[101.19644099400006,14.807360962000075],[101.09316950700008,14.849549942000067]]]}},{"type":"Feature","properties":{"code":"190509","name":"เขาดิน","parentCode":"1905"},"geometry":{"type":"Polygon","coordinates":[[[100.85126017400006,14.506184806000022],[100.82779121800007,14.499995161000072],[100.83022886700007,14.492191466000065],[100.84700338900006,14.477400468000042],[100.85126017400006,14.506184806000022]]]}},{"type":"Feature","properties":{"code":"191301","name":"เขาดินพัฒนา","parentCode":"1913"},"geometry":{"type":"Polygon","coordinates":[[[100.94918954600007,14.655945417000055],[100.89315363700007,14.620120253000039],[100.91249859300007,14.593032939000068],[100.93406052400007,14.621938881000062],[100.94113281700004,14.62559264600003],[100.94918954600007,14.655945417000055]]]}},{"type":"Feature","properties":{"code":"190906","name":"เขาวง","parentCode":"1909"},"geometry":{"type":"Polygon","coordinates":[[[100.84456443400006,14.705630690000078],[100.81438188200008,14.708111606000045],[100.80014416200004,14.659120743000074],[100.84693193200007,14.651290914000072],[100.85887061600005,14.665544643000032],[100.85898807100006,14.674770249000062],[100.84456443400006,14.705630690000078]]]}},{"type":"Feature","properties":{"code":"190403","name":"คลองเรือ","parentCode":"1904"},"geometry":{"type":"Polygon","coordinates":[[[101.05328758500008,14.412313636000022],[101.04049131200009,14.413304253000035],[101.03306398400008,14.413879504000022],[101.00191722900007,14.351362548000054],[101.00070721600008,14.341182462000063],[101.01851677300004,14.314817918000074],[101.05511473400009,14.35896875700007],[101.05328758500008,14.412313636000022]]]}},{"type":"Feature","properties":{"code":"190507","name":"โคกสะอาด","parentCode":"1905"},"geometry":{"type":"Polygon","coordinates":[[[100.82170752600007,14.464546098000028],[100.79327466900008,14.473688515000049],[100.79281306600006,14.470963569000048],[100.78528928400004,14.441076812000063],[100.79005727500004,14.442335084000035],[100.82334293500008,14.439200867000068],[100.82170752600007,14.464546098000028]]]}},{"type":"Feature","properties":{"code":"190107","name":"โคกสว่าง","parentCode":"1901"},"geometry":{"type":"Polygon","coordinates":[[[100.89505949200009,14.525398078000023],[100.88157090400006,14.524054971000055],[100.86155735200003,14.522141000000033],[100.87214699800006,14.495545565000043],[100.89735390100009,14.496036529000037],[100.90837714300005,14.504717037000034],[100.89505949200009,14.525398078000023]]]}},{"type":"Feature","properties":{"code":"190304","name":"โคกตูม","parentCode":"1903"},"geometry":{"type":"Polygon","coordinates":[[[100.80642023200005,14.41158632400004],[100.79005727500004,14.442335084000035],[100.78528928400004,14.441076812000063],[100.77236061700006,14.434628474000021],[100.76739455200004,14.431013576000055],[100.75940667200007,14.413143052000066],[100.78225807600006,14.406150177000029],[100.80642023200005,14.41158632400004]]]}},{"type":"Feature","properties":{"code":"190305","name":"โคกแย้","parentCode":"1903"},"geometry":{"type":"Polygon","coordinates":[[[100.94506005700003,14.411819071000025],[100.89871194500006,14.397692285000062],[100.90226179000007,14.36696936900006],[100.93208517900007,14.352718546000062],[100.94506005700003,14.411819071000025]]]}},{"type":"Feature","properties":{"code":"190606","name":"โคกใหญ่","parentCode":"1906"},"geometry":{"type":"Polygon","coordinates":[[[100.69842301200003,14.60923314300004],[100.66006783900008,14.621949375000042],[100.64745492300005,14.610237921000078],[100.65478812500004,14.606372118000024],[100.68267539300007,14.583799354000064],[100.70804294100009,14.605184907000023],[100.69842301200003,14.60923314300004]]]}},{"type":"Feature","properties":{"code":"190303","name":"คชสิทธิ์","parentCode":"1903"},"geometry":{"type":"Polygon","coordinates":[[[100.82585846500007,14.402401498000074],[100.80642023200005,14.41158632400004],[100.78225807600006,14.406150177000029],[100.78788282800008,14.379695881000032],[100.82761951600008,14.385243008000032],[100.82585846500007,14.402401498000074]]]}},{"type":"Feature","properties":{"code":"190902","name":"ขุนโขลน","parentCode":"1909"},"geometry":{"type":"Polygon","coordinates":[[[100.80722569000005,14.732463487000075],[100.78267914800006,14.708622905000027],[100.81438188200008,14.708111606000045],[100.84456443400006,14.705630690000078],[100.84827732500008,14.713803727000027],[100.81506665500007,14.727617844000065],[100.80722569000005,14.732463487000075]]]}},{"type":"Feature","properties":{"code":"190302","name":"กุ่มหัก","parentCode":"1903"},"geometry":{"type":"Polygon","coordinates":[[[100.88154190700004,14.320264317000067],[100.85180570300008,14.336983988000043],[100.83577966500008,14.293870384000058],[100.89110673000005,14.308532026000023],[100.88154190700004,14.320264317000067]]]}},{"type":"Feature","properties":{"code":"190112","name":"กุดนกเปล้า","parentCode":"1901"},"geometry":{"type":"Polygon","coordinates":[[[100.98099432400005,14.53301996700003],[100.95957572700007,14.53334056600005],[100.95201394400004,14.529639724000049],[100.93826368900005,14.485718674000054],[100.96189447600005,14.489310098000033],[100.98998765300007,14.487982677000048],[100.98099432400005,14.53301996700003]]]}},{"type":"Feature","properties":{"code":"191107","name":"ลำพญากลาง","parentCode":"1911"},"geometry":{"type":"Polygon","coordinates":[[[101.44856781000004,14.902157604000024],[101.43098711900006,14.97027304200003],[101.33941510700004,14.93312981300005],[101.29047957900008,14.899938062000047],[101.30259843900006,14.852525757000024],[101.36809988300007,14.80556914500005],[101.45015668300005,14.857215820000022],[101.44856781000004,14.902157604000024]]]}},{"type":"Feature","properties":{"code":"191105","name":"ลำสมพุง","parentCode":"1911"},"geometry":{"type":"Polygon","coordinates":[[[101.40022633700005,15.073792757000035],[101.36307893800006,15.046971339000038],[101.33157233100007,14.982754885000077],[101.32866760700006,14.96500601100007],[101.33941510700004,14.93312981300005],[101.43098711900006,14.97027304200003],[101.40022633700005,15.073792757000035]]]}},{"type":"Feature","properties":{"code":"191102","name":"มิตรภาพ","parentCode":"1911"},"geometry":{"type":"Polygon","coordinates":[[[101.20406246200008,14.650291909000032],[101.12503487700008,14.654700652000031],[101.13674420600006,14.588317848000031],[101.16198305200004,14.555326196000067],[101.14239520300004,14.537226516000032],[101.17258706100006,14.490058181000052],[101.24283172200006,14.471104316000037],[101.18144376700008,14.547400271000072],[101.21581990800007,14.590527120000047],[101.20406246200008,14.650291909000032]]]}},{"type":"Feature","properties":{"code":"191101","name":"มวกเหล็ก","parentCode":"1911"},"geometry":{"type":"Polygon","coordinates":[[[101.19813731900007,14.755787127000076],[101.18000043400008,14.790135745000043],[101.11390839600006,14.699853913000027],[101.07543917700008,14.730676333000076],[101.07244646200007,14.70607424800005],[101.10955670300007,14.658543746000078],[101.12503487700008,14.654700652000031],[101.20406246200008,14.650291909000032],[101.18508478800004,14.721791573000075],[101.19813731900007,14.755787127000076]]]}},{"type":"Feature","properties":{"code":"191009","name":"ม่วงงาม","parentCode":"1910"},"geometry":{"type":"Polygon","coordinates":[[[100.82012852400004,14.562727776000031],[100.79417963900005,14.561023087000024],[100.79313994300009,14.53252241000007],[100.80763326700009,14.525108640000042],[100.82012852400004,14.562727776000031]]]}},{"type":"Feature","properties":{"code":"190508","name":"ม่วงหวาน","parentCode":"1905"},"geometry":{"type":"Polygon","coordinates":[[[100.84700338900006,14.477400468000042],[100.83022886700007,14.492191466000065],[100.82170752600007,14.464546098000028],[100.82334293500008,14.439200867000068],[100.82945150400008,14.433677811000052],[100.84518218900007,14.459408770000039],[100.84700338900006,14.477400468000042]]]}},{"type":"Feature","properties":{"code":"191011","name":"เมืองเก่า","parentCode":"1910"},"geometry":{"type":"Polygon","coordinates":[[[100.83893518500008,14.556224099000076],[100.82864757000004,14.562673654000037],[100.82012852400004,14.562727776000031],[100.80763326700009,14.525108640000042],[100.81895173900006,14.512527600000055],[100.84056259700009,14.520077471000036],[100.84348858900006,14.551399533000051],[100.83893518500008,14.556224099000076]]]}},{"type":"Feature","properties":{"code":"190106","name":"นาโฉง","parentCode":"1901"},"geometry":{"type":"Polygon","coordinates":[[[100.88157090400006,14.524054971000055],[100.89505949200009,14.525398078000023],[100.88791107700007,14.549004319000062],[100.88565981600004,14.554996685000049],[100.87810715900008,14.549976968000067],[100.88157090400006,14.524054971000055]]]}},{"type":"Feature","properties":{"code":"191306","name":"หน้าพระลาน","parentCode":"1913"},"geometry":{"type":"Polygon","coordinates":[[[100.85898807100006,14.674770249000062],[100.93505900400004,14.695492386000069],[100.95947452200005,14.743768713000065],[100.94363481200008,14.741983173000051],[100.88042632200006,14.737981297000033],[100.84827732500008,14.713803727000027],[100.84456443400006,14.705630690000078],[100.85898807100006,14.674770249000062]]]}},{"type":"Feature","properties":{"code":"190904","name":"นายาว","parentCode":"1909"},"geometry":{"type":"Polygon","coordinates":[[[100.79398913300008,14.791430503000072],[100.76665615400003,14.796589375000053],[100.72453262900007,14.760059856000055],[100.71717159100007,14.753852750000021],[100.76244131300007,14.740181891000077],[100.76568517600003,14.750276491000022],[100.79398913300008,14.791430503000072]]]}},{"type":"Feature","properties":{"code":"191004","name":"งิ้วงาม","parentCode":"1910"},"geometry":{"type":"Polygon","coordinates":[[[100.85338848900005,14.570765707000078],[100.85833815100005,14.612634207000042],[100.84644529400003,14.597506618000068],[100.82864757000004,14.562673654000037],[100.83893518500008,14.556224099000076],[100.85338848900005,14.570765707000078]]]}},{"type":"Feature","properties":{"code":"190609","name":"หนองบัว","parentCode":"1906"},"geometry":{"type":"Polygon","coordinates":[[[100.80367198800008,14.599761973000057],[100.78225563600006,14.647132290000059],[100.76477355000009,14.60434469200004],[100.79787667900007,14.592948499000045],[100.80367198800008,14.599761973000057]]]}},{"type":"Feature","properties":{"code":"190313","name":"หนองจิก","parentCode":"1903"},"geometry":{"type":"Polygon","coordinates":[[[100.86639417400005,14.454833707000034],[100.84920859100004,14.457599783000035],[100.85952459200007,14.409105633000024],[100.86690339900008,14.431235207000043],[100.87227150400008,14.445451410000032],[100.86639417400005,14.454833707000034]]]}},{"type":"Feature","properties":{"code":"190314","name":"หนองจรเข้","parentCode":"1903"},"geometry":{"type":"Polygon","coordinates":[[[100.90226179000007,14.36696936900006],[100.88053780000007,14.342815750000057],[100.88154190700004,14.320264317000067],[100.89110673000005,14.308532026000023],[100.90671989600008,14.299511805000066],[100.93150514800004,14.32771989400004],[100.93081986200008,14.345799150000062],[100.93208517900007,14.352718546000062],[100.90226179000007,14.36696936900006]]]}},{"type":"Feature","properties":{"code":"190801","name":"หนองโดน","parentCode":"1908"},"geometry":{"type":"Polygon","coordinates":[[[100.75877802800005,14.680221477000032],[100.71406982100007,14.70952347900004],[100.67926262700007,14.697364911000022],[100.67930600300008,14.67327031800005],[100.72574488400005,14.653972320000037],[100.74823524900006,14.657101436000062],[100.75877802800005,14.680221477000032]]]}},{"type":"Feature","properties":{"code":"190503","name":"หนองหัวโพ","parentCode":"1905"},"geometry":{"type":"Polygon","coordinates":[[[100.82779121800007,14.499995161000072],[100.81524242800003,14.50150489300006],[100.79327466900008,14.473688515000049],[100.82170752600007,14.464546098000028],[100.83022886700007,14.492191466000065],[100.82779121800007,14.499995161000072]]]}},{"type":"Feature","properties":{"code":"190909","name":"หนองแก","parentCode":"1909"},"geometry":{"type":"Polygon","coordinates":[[[100.76244131300007,14.740181891000077],[100.71717159100007,14.753852750000021],[100.70808190000008,14.744962620000024],[100.71406982100007,14.70952347900004],[100.75877802800005,14.680221477000032],[100.77742963600008,14.710097680000047],[100.76244131300007,14.740181891000077]]]}},{"type":"Feature","properties":{"code":"190301","name":"หนองแค","parentCode":"1903"},"geometry":{"type":"Polygon","coordinates":[[[100.88053780000007,14.342815750000057],[100.84970885400008,14.345331784000052],[100.85180570300008,14.336983988000043],[100.88154190700004,14.320264317000067],[100.88053780000007,14.342815750000057]]]}},{"type":"Feature","properties":{"code":"190312","name":"หนองแขม","parentCode":"1903"},"geometry":{"type":"Polygon","coordinates":[[[100.81714406300006,14.341898770000057],[100.78371649900004,14.35004940600004],[100.77550453200007,14.318618553000022],[100.77982672300004,14.320584630000042],[100.81542556900007,14.326521008000043],[100.81714406300006,14.341898770000057]]]}},{"type":"Feature","properties":{"code":"190311","name":"หนองไข่น้ำ","parentCode":"1903"},"geometry":{"type":"Polygon","coordinates":[[[100.90226179000007,14.36696936900006],[100.89871194500006,14.397692285000062],[100.89345889200007,14.392012085000033],[100.86344380700007,14.37447916900004],[100.84969130700006,14.348468624000077],[100.84970885400008,14.345331784000052],[100.88053780000007,14.342815750000057],[100.90226179000007,14.36696936900006]]]}},{"type":"Feature","properties":{"code":"190502","name":"หนองควายโซ","parentCode":"1905"},"geometry":{"type":"Polygon","coordinates":[[[100.81524242800003,14.50150489300006],[100.80876555600008,14.50611938700007],[100.78823254800005,14.493189519000055],[100.77301225700006,14.483671318000063],[100.77309745000008,14.480580341000064],[100.79281306600006,14.470963569000048],[100.79327466900008,14.473688515000049],[100.81524242800003,14.50150489300006]]]}},{"type":"Feature","properties":{"code":"190505","name":"หนองกบ","parentCode":"1905"},"geometry":{"type":"Polygon","coordinates":[[[100.79281306600006,14.470963569000048],[100.77309745000008,14.480580341000064],[100.77236061700006,14.434628474000021],[100.78528928400004,14.441076812000063],[100.79281306600006,14.470963569000048]]]}},{"type":"Feature","properties":{"code":"190401","name":"หนองหมู","parentCode":"1904"},"geometry":{"type":"Polygon","coordinates":[[[100.95544820000003,14.308751330000064],[100.93150514800004,14.32771989400004],[100.90671989600008,14.299511805000066],[100.89154523600007,14.27595109400005],[100.89158842100005,14.243650193000065],[100.95111814600006,14.271684207000021],[100.97842444100007,14.290643552000063],[100.95544820000003,14.308751330000064]]]}},{"type":"Feature","properties":{"code":"190315","name":"หนองนาก","parentCode":"1903"},"geometry":{"type":"Polygon","coordinates":[[[100.93926327900004,14.433992139000054],[100.91748659000007,14.462299462000033],[100.87805763000006,14.445379941000056],[100.89286339400007,14.431866548000073],[100.93926327900004,14.433992139000054]]]}},{"type":"Feature","properties":{"code":"190108","name":"หนองโน","parentCode":"1901"},"geometry":{"type":"Polygon","coordinates":[[[100.86155735200003,14.522141000000033],[100.85911898900008,14.521888568000065],[100.85014877500004,14.521002504000023],[100.85126017400006,14.506184806000022],[100.84700338900006,14.477400468000042],[100.84518218900007,14.459408770000039],[100.84920859100004,14.457599783000035],[100.86639417400005,14.454833707000034],[100.87214699800006,14.495545565000043],[100.86155735200003,14.522141000000033]]]}},{"type":"Feature","properties":{"code":"190111","name":"หนองปลาไหล","parentCode":"1901"},"geometry":{"type":"Polygon","coordinates":[[[101.00021307100008,14.417760420000036],[100.96189447600005,14.489310098000033],[100.93826368900005,14.485718674000054],[100.92051767700008,14.472953247000078],[100.91748659000007,14.462299462000033],[100.93926327900004,14.433992139000054],[100.99146773800004,14.418643470000063],[101.00021307100008,14.417760420000036]]]}},{"type":"Feature","properties":{"code":"190316","name":"หนองปลาหมอ","parentCode":"1903"},"geometry":{"type":"Polygon","coordinates":[[[100.86344380700007,14.37447916900004],[100.86690339900008,14.431235207000043],[100.85952459200007,14.409105633000024],[100.83804045500005,14.381549008000036],[100.84319514900005,14.352203346000067],[100.84969130700006,14.348468624000077],[100.86344380700007,14.37447916900004]]]}},{"type":"Feature","properties":{"code":"190317","name":"หนองปลิง","parentCode":"1903"},"geometry":{"type":"Polygon","coordinates":[[[100.82761951600008,14.385243008000032],[100.78788282800008,14.379695881000032],[100.78677699600007,14.370244253000067],[100.78371649900004,14.35004940600004],[100.81714406300006,14.341898770000057],[100.84319514900005,14.352203346000067],[100.83804045500005,14.381549008000036],[100.82761951600008,14.385243008000032]]]}},{"type":"Feature","properties":{"code":"190318","name":"หนองโรง","parentCode":"1903"},"geometry":{"type":"Polygon","coordinates":[[[100.90671989600008,14.299511805000066],[100.89110673000005,14.308532026000023],[100.83577966500008,14.293870384000058],[100.82313544300007,14.286127098000065],[100.82309349500008,14.276092371000061],[100.82149886400003,14.242746399000055],[100.84586794900008,14.254258483000058],[100.89154523600007,14.27595109400005],[100.90671989600008,14.299511805000066]]]}},{"type":"Feature","properties":{"code":"190501","name":"หนองแซง","parentCode":"1905"},"geometry":{"type":"Polygon","coordinates":[[[100.78823254800005,14.493189519000055],[100.76667767200007,14.524473000000057],[100.76430784600007,14.494022060000077],[100.77301225700006,14.483671318000063],[100.78823254800005,14.493189519000055]]]}},{"type":"Feature","properties":{"code":"190504","name":"หนองสีดา","parentCode":"1905"},"geometry":{"type":"Polygon","coordinates":[[[100.85126017400006,14.506184806000022],[100.85014877500004,14.521002504000023],[100.84056259700009,14.520077471000036],[100.81895173900006,14.512527600000055],[100.80876555600008,14.50611938700007],[100.81524242800003,14.50150489300006],[100.82779121800007,14.499995161000072],[100.85126017400006,14.506184806000022]]]}},{"type":"Feature","properties":{"code":"190405","name":"หนองสรวง","parentCode":"1904"},"geometry":{"type":"Polygon","coordinates":[[[100.98678067700007,14.351129499000024],[100.93081986200008,14.345799150000062],[100.93150514800004,14.32771989400004],[100.95544820000003,14.308751330000064],[101.00070721600008,14.341182462000063],[101.00191722900007,14.351362548000054],[100.98678067700007,14.351129499000024]]]}},{"type":"Feature","properties":{"code":"191104","name":"หนองย่างเสือ","parentCode":"1911"},"geometry":{"type":"Polygon","coordinates":[[[101.30259843900006,14.852525757000024],[101.22563162800009,14.844236128000034],[101.19644099400006,14.807360962000075],[101.18000043400008,14.790135745000043],[101.19813731900007,14.755787127000076],[101.25043960800008,14.732098568000026],[101.26704332600008,14.728659439000069],[101.29859261000007,14.73715760600004],[101.36809988300007,14.80556914500005],[101.30259843900006,14.852525757000024]]]}},{"type":"Feature","properties":{"code":"190109","name":"หนองยาว","parentCode":"1901"},"geometry":{"type":"Polygon","coordinates":[[[100.92051767700008,14.472953247000078],[100.89735390100009,14.496036529000037],[100.87214699800006,14.495545565000043],[100.86639417400005,14.454833707000034],[100.87227150400008,14.445451410000032],[100.87805763000006,14.445379941000056],[100.91748659000007,14.462299462000033],[100.92051767700008,14.472953247000078]]]}},{"type":"Feature","properties":{"code":"190110","name":"ปากข้าวสาร","parentCode":"1901"},"geometry":{"type":"Polygon","coordinates":[[[100.93826368900005,14.485718674000054],[100.95201394400004,14.529639724000049],[100.94951542900009,14.53132918800003],[100.90837714300005,14.504717037000034],[100.89735390100009,14.496036529000037],[100.92051767700008,14.472953247000078],[100.93826368900005,14.485718674000054]]]}},{"type":"Feature","properties":{"code":"190101","name":"ปากเพรียว","parentCode":"1901"},"geometry":{"type":"Polygon","coordinates":[[[100.94951542900009,14.53132918800003],[100.92477049200005,14.560973645000047],[100.91094708400004,14.556783654000071],[100.88791107700007,14.549004319000062],[100.89505949200009,14.525398078000023],[100.90837714300005,14.504717037000034],[100.94951542900009,14.53132918800003]]]}},{"type":"Feature","properties":{"code":"190607","name":"ไผ่ขวาง","parentCode":"1906"},"geometry":{"type":"Polygon","coordinates":[[[100.65478812500004,14.606372118000024],[100.64745492300005,14.610237921000078],[100.64330375500003,14.598261586000035],[100.63417156800006,14.578441414000054],[100.62220608600006,14.562426945000027],[100.66893233400003,14.55697445900006],[100.65478812500004,14.606372118000024]]]}},{"type":"Feature","properties":{"code":"190702","name":"ไผ่หลิ่ว","parentCode":"1907"},"geometry":{"type":"Polygon","coordinates":[[[100.63053203300007,14.649993705000043],[100.61435057100005,14.647072172000037],[100.61701346300003,14.609815109000067],[100.64330375500003,14.598261586000035],[100.64745492300005,14.610237921000078],[100.66006783900008,14.621949375000042],[100.64088281500005,14.635877160000064],[100.63053203300007,14.649993705000043]]]}},{"type":"Feature","properties":{"code":"190307","name":"ไผ่ต่ำ","parentCode":"1903"},"geometry":{"type":"Polygon","coordinates":[[[100.84319514900005,14.352203346000067],[100.81714406300006,14.341898770000057],[100.81542556900007,14.326521008000043],[100.82313544300007,14.286127098000065],[100.83577966500008,14.293870384000058],[100.85180570300008,14.336983988000043],[100.84970885400008,14.345331784000052],[100.84969130700006,14.348468624000077],[100.84319514900005,14.352203346000067]]]}},{"type":"Feature","properties":{"code":"190308","name":"โพนทอง","parentCode":"1903"},"geometry":{"type":"Polygon","coordinates":[[[100.82334293500008,14.439200867000068],[100.79005727500004,14.442335084000035],[100.80642023200005,14.41158632400004],[100.82585846500007,14.402401498000074],[100.82945150400008,14.433677811000052],[100.82334293500008,14.439200867000068]]]}},{"type":"Feature","properties":{"code":"190901","name":"พระพุทธบาท","parentCode":"1909"},"geometry":{"type":"Polygon","coordinates":[[[100.80722569000005,14.732463487000075],[100.76568517600003,14.750276491000022],[100.76244131300007,14.740181891000077],[100.77742963600008,14.710097680000047],[100.78267914800006,14.708622905000027],[100.80722569000005,14.732463487000075]]]}},{"type":"Feature","properties":{"code":"191008","name":"พระยาทด","parentCode":"1910"},"geometry":{"type":"Polygon","coordinates":[[[100.88282500200006,14.59626557300004],[100.86606480100005,14.617211191000024],[100.86795537300009,14.557220209000036],[100.87455959200008,14.549745643000051],[100.88282500200006,14.59626557300004]]]}},{"type":"Feature","properties":{"code":"191304","name":"พุแค","parentCode":"1913"},"geometry":{"type":"Polygon","coordinates":[[[100.93505900400004,14.695492386000069],[100.85898807100006,14.674770249000062],[100.85887061600005,14.665544643000032],[100.86995883100008,14.641452479000066],[100.89315363700007,14.620120253000039],[100.94918954600007,14.655945417000055],[100.93505900400004,14.695492386000069]]]}},{"type":"Feature","properties":{"code":"190905","name":"พุคำจาน","parentCode":"1909"},"geometry":{"type":"Polygon","coordinates":[[[100.94363481200008,14.741983173000051],[100.85219171500006,14.786909606000052],[100.81506665500007,14.727617844000065],[100.84827732500008,14.713803727000027],[100.88042632200006,14.737981297000033],[100.94363481200008,14.741983173000051]]]}},{"type":"Feature","properties":{"code":"190908","name":"พุกร่าง","parentCode":"1909"},"geometry":{"type":"Polygon","coordinates":[[[100.81438188200008,14.708111606000045],[100.78267914800006,14.708622905000027],[100.77742963600008,14.710097680000047],[100.75877802800005,14.680221477000032],[100.74823524900006,14.657101436000062],[100.78097355600005,14.652064004000067],[100.80014416200004,14.659120743000074],[100.81438188200008,14.708111606000045]]]}},{"type":"Feature","properties":{"code":"191303","name":"ผึ้งรวง","parentCode":"1913"},"geometry":{"type":"Polygon","coordinates":[[[100.92859033700006,14.572600312000077],[100.93406052400007,14.621938881000062],[100.91249859300007,14.593032939000068],[100.90845491100004,14.578067063000049],[100.91094708400004,14.556783654000071],[100.92477049200005,14.560973645000047],[100.92859033700006,14.572600312000077]]]}},{"type":"Feature","properties":{"code":"191010","name":"เริงราง","parentCode":"1910"},"geometry":{"type":"Polygon","coordinates":[[[100.79417963900005,14.561023087000024],[100.79631022000007,14.586237107000045],[100.78270467300007,14.567032528000027],[100.77865228600007,14.530733977000068],[100.79313994300009,14.53252241000007],[100.79417963900005,14.561023087000024]]]}},{"type":"Feature","properties":{"code":"191005","name":"ศาลารีไทย","parentCode":"1910"},"geometry":{"type":"Polygon","coordinates":[[[100.85338848900005,14.570765707000078],[100.83893518500008,14.556224099000076],[100.84348858900006,14.551399533000051],[100.85652743800006,14.556221146000041],[100.85338848900005,14.570765707000078]]]}},{"type":"Feature","properties":{"code":"191201","name":"แสลงพัน","parentCode":"1912"},"geometry":{"type":"Polygon","coordinates":[[[101.18000043400008,14.790135745000043],[101.07269499400007,14.791189473000031],[101.06098292100006,14.759725925000055],[101.07543917700008,14.730676333000076],[101.11390839600006,14.699853913000027],[101.18000043400008,14.790135745000043]]]}},{"type":"Feature","properties":{"code":"190603","name":"สร่างโศก","parentCode":"1906"},"geometry":{"type":"Polygon","coordinates":[[[100.74823524900006,14.657101436000062],[100.72574488400005,14.653972320000037],[100.74983236600008,14.632459417000064],[100.74155986100004,14.613357551000036],[100.75883242100008,14.599162959000068],[100.76477355000009,14.60434469200004],[100.78225563600006,14.647132290000059],[100.78097355600005,14.652064004000067],[100.74823524900006,14.657101436000062]]]}},{"type":"Feature","properties":{"code":"191001","name":"เสาไห้","parentCode":"1910"},"geometry":{"type":"Polygon","coordinates":[[[100.85911898900008,14.521888568000065],[100.85652743800006,14.556221146000041],[100.84348858900006,14.551399533000051],[100.84056259700009,14.520077471000036],[100.85014877500004,14.521002504000023],[100.85911898900008,14.521888568000065]]]}},{"type":"Feature","properties":{"code":"191109","name":"ซับสนุ่น","parentCode":"1911"},"geometry":{"type":"Polygon","coordinates":[[[101.32866760700006,14.96500601100007],[101.25776458200005,14.912489447000041],[101.21931341200008,14.919249235000052],[101.22563162800009,14.844236128000034],[101.30259843900006,14.852525757000024],[101.29047957900008,14.899938062000047],[101.33941510700004,14.93312981300005],[101.32866760700006,14.96500601100007]]]}},{"type":"Feature","properties":{"code":"190211","name":"สองคอน","parentCode":"1902"},"geometry":{"type":"Polygon","coordinates":[[[100.96164919800003,14.693103821000022],[100.93505900400004,14.695492386000069],[100.94918954600007,14.655945417000055],[100.94113281700004,14.62559264600003],[100.94325181900007,14.622938144000045],[100.96485489000008,14.588561753000022],[100.99114428600006,14.597187463000068],[101.00850981100007,14.59101554700004],[101.01125235600006,14.607073855000067],[100.98352851400006,14.648767130000067],[100.96164919800003,14.693103821000022]]]}},{"type":"Feature","properties":{"code":"191012","name":"สวนดอกไม้","parentCode":"1910"},"geometry":{"type":"Polygon","coordinates":[[[100.87455959200008,14.549745643000051],[100.86795537300009,14.557220209000036],[100.85652743800006,14.556221146000041],[100.85911898900008,14.521888568000065],[100.86155735200003,14.522141000000033],[100.88157090400006,14.524054971000055],[100.87810715900008,14.549976968000067],[100.87455959200008,14.549745643000051]]]}},{"type":"Feature","properties":{"code":"190114","name":"ตะกุด","parentCode":"1901"},"geometry":{"type":"Polygon","coordinates":[[[100.94543719600006,14.555352417000051],[100.92859033700006,14.572600312000077],[100.92477049200005,14.560973645000047],[100.94951542900009,14.53132918800003],[100.95201394400004,14.529639724000049],[100.95957572700007,14.53334056600005],[100.94543719600006,14.555352417000051]]]}},{"type":"Feature","properties":{"code":"190604","name":"ตลาดน้อย","parentCode":"1906"},"geometry":{"type":"Polygon","coordinates":[[[100.72574488400005,14.653972320000037],[100.67930600300008,14.67327031800005],[100.67893386600008,14.661406876000058],[100.69870207900004,14.631253582000056],[100.74983236600008,14.632459417000064],[100.72574488400005,14.653972320000037]]]}},{"type":"Feature","properties":{"code":"190113","name":"ตลิ่งชัน","parentCode":"1901"},"geometry":{"type":"Polygon","coordinates":[[[100.99553059500005,14.541378696000038],[100.96203611400006,14.566053897000074],[100.94543719600006,14.555352417000051],[100.95957572700007,14.53334056600005],[100.98099432400005,14.53301996700003],[100.99553059500005,14.541378696000038]]]}},{"type":"Feature","properties":{"code":"190203","name":"ตาลเดี่ยว","parentCode":"1902"},"geometry":{"type":"Polygon","coordinates":[[[100.99114428600006,14.597187463000068],[100.96485489000008,14.588561753000022],[100.96199858000006,14.56981707500006],[100.96203611400006,14.566053897000074],[100.99553059500005,14.541378696000038],[101.02137993600007,14.526082617000043],[101.03414366400006,14.548940372000061],[101.02195186400007,14.566450212000063],[101.01111203600004,14.582860754000023],[100.99114428600006,14.597187463000068]]]}},{"type":"Feature","properties":{"code":"190212","name":"เตาปูน","parentCode":"1902"},"geometry":{"type":"Polygon","coordinates":[[[100.96485489000008,14.588561753000022],[100.94325181900007,14.622938144000045],[100.96199858000006,14.56981707500006],[100.96485489000008,14.588561753000022]]]}},{"type":"Feature","properties":{"code":"191007","name":"ท่าช้าง","parentCode":"1910"},"geometry":{"type":"Polygon","coordinates":[[[100.86740886600006,14.623126205000062],[100.85833815100005,14.612634207000042],[100.85338848900005,14.570765707000078],[100.85652743800006,14.556221146000041],[100.86795537300009,14.557220209000036],[100.86606480100005,14.617211191000024],[100.86740886600006,14.623126205000062]]]}},{"type":"Feature","properties":{"code":"190205","name":"ท่าคล้อ","parentCode":"1902"},"geometry":{"type":"Polygon","coordinates":[[[100.99186363100006,14.740451140000062],[100.96627103200007,14.75151646300003],[100.95947452200005,14.743768713000065],[100.93505900400004,14.695492386000069],[100.96164919800003,14.693103821000022],[101.02517645300009,14.665113937000058],[101.05389380100007,14.660985568000058],[101.10955670300007,14.658543746000078],[101.07244646200007,14.70607424800005],[100.99186363100006,14.740451140000062]]]}},{"type":"Feature","properties":{"code":"190215","name":"ท่ามะปราง","parentCode":"1902"},"geometry":{"type":"Polygon","coordinates":[[[101.17258706100006,14.490058181000052],[101.10813357100005,14.513959774000057],[101.05346656600005,14.509823248000032],[101.04446845400008,14.47204658100003],[101.04049131200009,14.413304253000035],[101.05328758500008,14.412313636000022],[101.05711169400007,14.414333602000056],[101.09849333300008,14.454164787000025],[101.16091253800005,14.479140597000026],[101.21068336100006,14.416360004000069],[101.24283172200006,14.471104316000037],[101.17258706100006,14.490058181000052]]]}},{"type":"Feature","properties":{"code":"190209","name":"ท่าตูม","parentCode":"1902"},"geometry":{"type":"Polygon","coordinates":[[[101.02517645300009,14.665113937000058],[100.96164919800003,14.693103821000022],[100.98352851400006,14.648767130000067],[101.01971202500005,14.639209072000028],[101.02517645300009,14.665113937000058]]]}},{"type":"Feature","properties":{"code":"190903","name":"ธารเกษม","parentCode":"1909"},"geometry":{"type":"Polygon","coordinates":[[[100.84812840500007,14.797201615000063],[100.79398913300008,14.791430503000072],[100.76568517600003,14.750276491000022],[100.80722569000005,14.732463487000075],[100.81506665500007,14.727617844000065],[100.85219171500006,14.786909606000052],[100.84812840500007,14.797201615000063]]]}},{"type":"Feature","properties":{"code":"190202","name":"ทับกวาง","parentCode":"1902"},"geometry":{"type":"Polygon","coordinates":[[[101.10955670300007,14.658543746000078],[101.05389380100007,14.660985568000058],[101.02195186400007,14.566450212000063],[101.03414366400006,14.548940372000061],[101.13229918600007,14.572027096000056],[101.16198305200004,14.555326196000067],[101.13674420600006,14.588317848000031],[101.12503487700008,14.654700652000031],[101.10955670300007,14.658543746000078]]]}},{"type":"Feature","properties":{"code":"191006","name":"ต้นตาล","parentCode":"1910"},"geometry":{"type":"Polygon","coordinates":[[[100.88839484100004,14.565531920000069],[100.88282500200006,14.59626557300004],[100.87455959200008,14.549745643000051],[100.87810715900008,14.549976968000067],[100.88565981600004,14.554996685000049],[100.88839484100004,14.565531920000069]]]}},{"type":"Feature","properties":{"code":"191203","name":"วังม่วง","parentCode":"1912"},"geometry":{"type":"Polygon","coordinates":[[[101.21931341200008,14.919249235000052],[101.18262827800004,14.916346630000078],[101.09076946400006,14.899829323000063],[101.08485507900008,14.890718330000027],[101.09316950700008,14.849549942000067],[101.19644099400006,14.807360962000075],[101.22563162800009,14.844236128000034],[101.21931341200008,14.919249235000052]]]}},{"type":"Feature","properties":{"code":"190404","name":"วิหารแดง","parentCode":"1904"},"geometry":{"type":"Polygon","coordinates":[[[101.00070721600008,14.341182462000063],[100.95544820000003,14.308751330000064],[100.97842444100007,14.290643552000063],[101.01851677300004,14.314817918000074],[101.00070721600008,14.341182462000063]]]}}]}