{"type":"FeatureCollection","features":[{"type":"Feature","properties":{"code":"200117","name":"อ่างศิลา","parentCode":"2001"},"geometry":{"type":"Polygon","coordinates":[[[100.93143598800003,13.339440498000044],[100.91825298900005,13.315745029000027],[100.91850389600006,13.313417629000071],[100.93996722500003,13.316313126000068],[100.93143598800003,13.339440498000044]]]}},{"type":"Feature","properties":{"code":"200201","name":"บ้านบึง","parentCode":"2002"},"geometry":{"type":"Polygon","coordinates":[[[101.14716055600007,13.33517766500006],[101.11753171500004,13.345214368000029],[101.08514627900007,13.33022959300007],[101.06415642700006,13.285002465000048],[101.05211351500009,13.269368701000076],[101.05724609500004,13.259105746000046],[101.13637304800005,13.286688222000066],[101.14716055600007,13.33517766500006]]]}},{"type":"Feature","properties":{"code":"200618","name":"บ้านช้าง","parentCode":"2006"},"geometry":{"type":"Polygon","coordinates":[[[101.20041916400004,13.46649513500006],[101.18157808000007,13.460151960000076],[101.18033956000005,13.440002745000072],[101.18103184400007,13.437740175000044],[101.19076937300008,13.423959960000047],[101.21342243800007,13.426396930000067],[101.22300076700009,13.440077601000041],[101.21145110200007,13.464215075000027],[101.20041916400004,13.46649513500006]]]}},{"type":"Feature","properties":{"code":"200507","name":"บ้านเก่า","parentCode":"2005"},"geometry":{"type":"Polygon","coordinates":[[[101.07142389200004,13.463616623000064],[101.01340283800005,13.461949004000076],[101.00850430600008,13.460414069000024],[101.01594337400007,13.442931552000061],[101.07725166400007,13.444709769000042],[101.07142389200004,13.463616623000064]]]}},{"type":"Feature","properties":{"code":"200103","name":"บ้านโขด","parentCode":"2001"},"geometry":{"type":"Polygon","coordinates":[[[100.98798831000005,13.37766453200004],[100.98227649000006,13.377692789000037],[100.97720062700006,13.37214877100007],[100.99301685600005,13.373719651000044],[100.98798831000005,13.37766453200004]]]}},{"type":"Feature","properties":{"code":"200114","name":"บ้านปึก","parentCode":"2001"},"geometry":{"type":"Polygon","coordinates":[[[100.93749487900004,13.293985338000027],[100.93996722500003,13.316313126000068],[100.91850389600006,13.313417629000071],[100.93749487900004,13.293985338000027]]]}},{"type":"Feature","properties":{"code":"200604","name":"บ้านเซิด","parentCode":"2006"},"geometry":{"type":"Polygon","coordinates":[[[101.15123556000003,13.45531479400006],[101.12531574500008,13.45184393900007],[101.14025799900008,13.436488661000055],[101.15360944500009,13.42803690200003],[101.15589672700008,13.433907181000052],[101.15123556000003,13.45531479400006]]]}},{"type":"Feature","properties":{"code":"200105","name":"บ้านสวน","parentCode":"2001"},"geometry":{"type":"Polygon","coordinates":[[[101.01550000500004,13.366928825000059],[100.99771576700005,13.389218104000065],[100.98798831000005,13.37766453200004],[100.99301685600005,13.373719651000044],[100.99270651100005,13.370778001000076],[100.97550793500005,13.358226478000063],[100.96392202800007,13.349945303000027],[100.97401782700007,13.340580455000065],[100.98826605000005,13.332727031000047],[101.01447305300007,13.337092724000058],[101.01550000500004,13.366928825000059]]]}},{"type":"Feature","properties":{"code":"200511","name":"บางหัก","parentCode":"2005"},"geometry":{"type":"Polygon","coordinates":[[[101.08321564100004,13.552377300000046],[101.04066039300005,13.551108637000027],[101.05507445500007,13.542545793000045],[101.07097545000005,13.530782865000049],[101.08321564100004,13.552377300000046]]]}},{"type":"Feature","properties":{"code":"200401","name":"บางละมุง","parentCode":"2004"},"geometry":{"type":"Polygon","coordinates":[[[100.95413844000007,13.046750032000034],[100.95202465400007,13.084661397000048],[100.94167647000006,13.08060245400003],[100.91829483600009,13.039442592000057],[100.92591234100007,13.002011669000069],[100.93425188300006,12.995451431000049],[100.94006824500008,13.003651973000046],[100.95413844000007,13.046750032000034]]]}},{"type":"Feature","properties":{"code":"200509","name":"บางนาง","parentCode":"2005"},"geometry":{"type":"Polygon","coordinates":[[[101.07189881100004,13.503415075000078],[101.04832725400007,13.507595025000057],[101.01340283800005,13.461949004000076],[101.07142389200004,13.463616623000064],[101.08408725400005,13.478520783000022],[101.08085377500004,13.498770870000044],[101.07189881100004,13.503415075000078]]]}},{"type":"Feature","properties":{"code":"200707","name":"บางพระ","parentCode":"2007"},"geometry":{"type":"Polygon","coordinates":[[[101.02333598800004,13.281836700000042],[100.98981463400008,13.270495442000026],[100.93484992800006,13.23906789800003],[100.93135215300003,13.238444350000066],[100.92888131100005,13.183694136000042],[100.93267373900005,13.183223382000051],[101.01607913300006,13.171391541000048],[101.07223844200007,13.16362754100004],[101.08257148400008,13.190420093000057],[101.05724609500004,13.259105746000046],[101.05211351500009,13.269368701000076],[101.02333598800004,13.281836700000042]]]}},{"type":"Feature","properties":{"code":"200101","name":"บางปลาสร้อย","parentCode":"2001"},"geometry":{"type":"Polygon","coordinates":[[[100.97550793500005,13.358226478000063],[100.99270651100005,13.370778001000076],[100.97663760200004,13.37034396200005],[100.97550793500005,13.358226478000063]]]}},{"type":"Feature","properties":{"code":"200111","name":"บางทราย","parentCode":"2001"},"geometry":{"type":"Polygon","coordinates":[[[100.99754795900009,13.395931620000056],[100.98260829100008,13.39909592500004],[100.98227649000006,13.377692789000037],[100.98798831000005,13.37766453200004],[100.99771576700005,13.389218104000065],[100.99754795900009,13.395931620000056]]]}},{"type":"Feature","properties":{"code":"200904","name":"บางเสร่","parentCode":"2009"},"geometry":{"type":"Polygon","coordinates":[[[100.96221020800004,12.738175238000053],[100.90229098500004,12.776357821000033],[100.83972185500005,12.750795639000046],[100.83631741500005,12.72925443400004],[100.88689522700008,12.74450213800003],[100.91938803300008,12.712041075000059],[100.96221020800004,12.738175238000053]]]}},{"type":"Feature","properties":{"code":"201003","name":"บ่อกวางทอง","parentCode":"2010"},"geometry":{"type":"Polygon","coordinates":[[[101.34368589300004,13.331996380000021],[101.28082290600008,13.348302700000033],[101.26677474600007,13.313830061000033],[101.31788196400004,13.282152832000065],[101.33581509600003,13.264694125000062],[101.34368589300004,13.331996380000021]]]}},{"type":"Feature","properties":{"code":"201001","name":"บ่อทอง","parentCode":"2010"},"geometry":{"type":"Polygon","coordinates":[[[101.43744831200007,13.303578489000074],[101.41709720100005,13.283318393000059],[101.44839026600005,13.224476640000034],[101.40903101900005,13.18039781400006],[101.43722023700008,13.148573915000043],[101.49552499800006,13.153136391000032],[101.54680297500005,13.07251800000006],[101.57810664400006,13.109208266000053],[101.60437695500008,13.134444529000064],[101.62371561600008,13.145461348000026],[101.59064227200008,13.146343888000047],[101.53101816200007,13.265980917000036],[101.43744831200007,13.303578489000074]]]}},{"type":"Feature","properties":{"code":"200708","name":"บ่อวิน","parentCode":"2007"},"geometry":{"type":"Polygon","coordinates":[[[101.11249854500005,13.094218067000043],[101.06049717200005,13.10362684100005],[101.02576714600008,13.045807510000031],[101.03928967700006,13.026426210000068],[101.08279373800008,13.004156126000055],[101.09459844900005,13.03385296700003],[101.13477690600007,13.016529442000035],[101.17450224400005,13.019972788000075],[101.18821434700004,13.03965011400004],[101.13877794300004,13.046657673000027],[101.11249854500005,13.094218067000043]]]}},{"type":"Feature","properties":{"code":"200704","name":"บึง","parentCode":"2007"},"geometry":{"type":"Polygon","coordinates":[[[101.06049717200005,13.10362684100005],[101.04565113000007,13.118714280000063],[100.95202465400007,13.084661397000048],[100.95413844000007,13.046750032000034],[101.03928967700006,13.026426210000068],[101.02576714600008,13.045807510000031],[101.06049717200005,13.10362684100005]]]}},{"type":"Feature","properties":{"code":"200109","name":"ดอนหัวฬ่อ","parentCode":"2001"},"geometry":{"type":"Polygon","coordinates":[[[101.07725166400007,13.444709769000042],[101.01594337400007,13.442931552000061],[101.02286407500009,13.424356112000055],[101.02937053400007,13.417252199000075],[101.05719615700008,13.40558057100003],[101.07317370700008,13.439758785000038],[101.07725166400007,13.444709769000042]]]}},{"type":"Feature","properties":{"code":"200304","name":"ห้างสูง","parentCode":"2003"},"geometry":{"type":"Polygon","coordinates":[[[101.33581509600003,13.264694125000062],[101.31788196400004,13.282152832000065],[101.29894921200008,13.211669653000058],[101.28182765300005,13.177942632000054],[101.33122006500008,13.148416688000054],[101.32345700400003,13.198226740000052],[101.36847943400005,13.23297737300004],[101.33581509600003,13.264694125000062]]]}},{"type":"Feature","properties":{"code":"200610","name":"หัวถนน","parentCode":"2006"},"geometry":{"type":"Polygon","coordinates":[[[101.29473969100007,13.531144834000031],[101.18545261100007,13.547168983000063],[101.18216499900007,13.527626926000039],[101.17251221000004,13.50870975600003],[101.18770289800005,13.511108332000049],[101.29422871200006,13.527772780000078],[101.29473969100007,13.531144834000031]]]}},{"type":"Feature","properties":{"code":"200115","name":"ห้วยกะปิ","parentCode":"2001"},"geometry":{"type":"Polygon","coordinates":[[[100.98826605000005,13.332727031000047],[100.97401782700007,13.340580455000065],[100.94008626700008,13.287795644000028],[100.96012362700009,13.27750519500006],[100.98693727300008,13.291280137000058],[100.98826605000005,13.332727031000047]]]}},{"type":"Feature","properties":{"code":"200406","name":"ห้วยใหญ่","parentCode":"2004"},"geometry":{"type":"Polygon","coordinates":[[[101.06646328900007,12.865591671000061],[100.97057497500003,12.89283004400005],[100.91095786900007,12.866413243000068],[100.92669041000005,12.801953843000035],[100.98188365700008,12.757679161000056],[101.01197620000005,12.767614373000072],[101.05001184200006,12.815118239000071],[101.06646328900007,12.865591671000061]]]}},{"type":"Feature","properties":{"code":"201005","name":"เกษตรสุวรรณ","parentCode":"2010"},"geometry":{"type":"Polygon","coordinates":[[[101.54730617200005,13.386258334000047],[101.47265274400007,13.348668857000064],[101.43744831200007,13.303578489000074],[101.53101816200007,13.265980917000036],[101.60318963100008,13.270085648000077],[101.62139001400004,13.297676616000047],[101.56441158900009,13.331364399000051],[101.54730617200005,13.386258334000047]]]}},{"type":"Feature","properties":{"code":"200706","name":"เขาคันทรง","parentCode":"2007"},"geometry":{"type":"Polygon","coordinates":[[[101.21979780700008,13.092171929000074],[101.14988735100007,13.137251418000062],[101.11395391400004,13.180568699000048],[101.08972045100006,13.139813937000042],[101.11249854500005,13.094218067000043],[101.13877794300004,13.046657673000027],[101.18821434700004,13.03965011400004],[101.17966752800004,13.084593700000028],[101.21953094300005,13.077617260000068],[101.21979780700008,13.092171929000074]]]}},{"type":"Feature","properties":{"code":"200405","name":"เขาไม้แก้ว","parentCode":"2004"},"geometry":{"type":"Polygon","coordinates":[[[101.09072795800006,12.995937479000077],[101.03929401200008,12.999158580000028],[101.01903659100009,12.976058650000027],[101.00715662000005,12.925231431000043],[101.07856226200005,12.894727379000074],[101.07912889200009,12.907295856000076],[101.08816921300007,12.920569181000076],[101.09072795800006,12.995937479000077]]]}},{"type":"Feature","properties":{"code":"200305","name":"เขาซก","parentCode":"2003"},"geometry":{"type":"Polygon","coordinates":[[[101.41400909500004,13.119583520000049],[101.39722138200005,13.080531199000063],[101.33932217800003,13.10546458400006],[101.32471891300008,13.08435793700005],[101.39409159900003,13.024810699000057],[101.46435492100005,13.042269221000026],[101.52230967600008,13.077008602000035],[101.50680032100007,13.100147626000023],[101.45901556200005,13.077952949000064],[101.41400909500004,13.119583520000049]]]}},{"type":"Feature","properties":{"code":"200202","name":"คลองกิ่ว","parentCode":"2002"},"geometry":{"type":"Polygon","coordinates":[[[101.16621724400005,13.259569386000067],[101.13637304800005,13.286688222000066],[101.05724609500004,13.259105746000046],[101.08257148400008,13.190420093000057],[101.11395391400004,13.180568699000048],[101.14988735100007,13.137251418000062],[101.21979780700008,13.092171929000074],[101.25592899500003,13.094008766000059],[101.25028400900004,13.165815696000038],[101.18679231600004,13.247025466000025],[101.16621724400005,13.259569386000067]]]}},{"type":"Feature","properties":{"code":"200302","name":"คลองพลู","parentCode":"2003"},"geometry":{"type":"Polygon","coordinates":[[[101.54680297500005,13.07251800000006],[101.49552499800006,13.153136391000032],[101.43722023700008,13.148573915000043],[101.41400909500004,13.119583520000049],[101.45901556200005,13.077952949000064],[101.50680032100007,13.100147626000023],[101.52230967600008,13.077008602000035],[101.54568577100008,13.071409343000028],[101.54680297500005,13.07251800000006]]]}},{"type":"Feature","properties":{"code":"200112","name":"คลองตำหรุ","parentCode":"2001"},"geometry":{"type":"Polygon","coordinates":[[[101.00850430600008,13.460414069000024],[100.97405203600005,13.473375905000069],[100.96301593000004,13.460827564000056],[100.97613438100007,13.414135870000052],[101.02286407500009,13.424356112000055],[101.01594337400007,13.442931552000061],[101.00850430600008,13.460414069000024]]]}},{"type":"Feature","properties":{"code":"200506","name":"โคกขี้หนอน","parentCode":"2005"},"geometry":{"type":"Polygon","coordinates":[[[101.11846537100007,13.564885523000044],[101.09967793200008,13.556979467000076],[101.09773850500005,13.532822792000047],[101.10379023200005,13.510367504000044],[101.13188054000005,13.552360616000044],[101.11846537100007,13.564885523000044]]]}},{"type":"Feature","properties":{"code":"200620","name":"โคกเพลาะ","parentCode":"2006"},"geometry":{"type":"Polygon","coordinates":[[[101.16962000200004,13.535653041000046],[101.13188054000005,13.552360616000044],[101.10379023200005,13.510367504000044],[101.11618217400007,13.493383898000047],[101.14603041300006,13.527774196000053],[101.16962000200004,13.535653041000046]]]}},{"type":"Feature","properties":{"code":"201101","name":"เกาะจันทร์","parentCode":"2011"},"geometry":{"type":"Polygon","coordinates":[[[101.48993617900004,13.444633272000033],[101.46673691500007,13.42810485700005],[101.36691785300007,13.463661057000024],[101.32162545300008,13.433360316000062],[101.31121650300008,13.404472962000057],[101.35024294900006,13.370947435000062],[101.34581841800008,13.340270694000026],[101.37055961300007,13.347258683000064],[101.41467622000005,13.372052358000076],[101.47265274400007,13.348668857000064],[101.54730617200005,13.386258334000047],[101.53164480500004,13.427034741000057],[101.48993617900004,13.444633272000033]]]}},{"type":"Feature","properties":{"code":"200510","name":"เกาะลอย","parentCode":"2005"},"geometry":{"type":"Polygon","coordinates":[[[101.07189881100004,13.503415075000078],[101.08085377500004,13.498770870000044],[101.09773850500005,13.532822792000047],[101.09967793200008,13.556979467000076],[101.09181972700009,13.555234977000055],[101.08321564100004,13.552377300000046],[101.07097545000005,13.530782865000049],[101.07189881100004,13.503415075000078]]]}},{"type":"Feature","properties":{"code":"200609","name":"กุฎโง้ง","parentCode":"2006"},"geometry":{"type":"Polygon","coordinates":[[[101.17334268100007,13.46014881700006],[101.15123556000003,13.45531479400006],[101.15589672700008,13.433907181000052],[101.18103184400007,13.437740175000044],[101.18033956000005,13.440002745000072],[101.17399025600008,13.457776061000061],[101.17334268100007,13.46014881700006]]]}},{"type":"Feature","properties":{"code":"200102","name":"มะขามหย่ง","parentCode":"2001"},"geometry":{"type":"Polygon","coordinates":[[[100.99301685600005,13.373719651000044],[100.97720062700006,13.37214877100007],[100.97663760200004,13.37034396200005],[100.99270651100005,13.370778001000076],[100.99301685600005,13.373719651000044]]]}},{"type":"Feature","properties":{"code":"200203","name":"มาบไผ่","parentCode":"2002"},"geometry":{"type":"Polygon","coordinates":[[[101.09959465300005,13.378879263000044],[101.06412104800006,13.390018184000041],[101.06676553600005,13.366139016000034],[101.08514627900007,13.33022959300007],[101.11753171500004,13.345214368000029],[101.12099150900008,13.36077805900004],[101.09959465300005,13.378879263000044]]]}},{"type":"Feature","properties":{"code":"200503","name":"มาบโป่ง","parentCode":"2005"},"geometry":{"type":"Polygon","coordinates":[[[101.12531574500008,13.45184393900007],[101.09611461600008,13.454403205000062],[101.10986928500006,13.424573745000032],[101.12634124500005,13.390380245000074],[101.14025799900008,13.436488661000055],[101.12531574500008,13.45184393900007]]]}},{"type":"Feature","properties":{"code":"200606","name":"หมอนนาง","parentCode":"2006"},"geometry":{"type":"Polygon","coordinates":[[[101.21342243800007,13.426396930000067],[101.19076937300008,13.423959960000047],[101.19452790200006,13.41230388100007],[101.19983565200005,13.359404468000037],[101.19903682100005,13.350636456000075],[101.26677474600007,13.313830061000033],[101.28082290600008,13.348302700000033],[101.26649503500005,13.371640944000035],[101.21342243800007,13.426396930000067]]]}},{"type":"Feature","properties":{"code":"200113","name":"เหมือง","parentCode":"2001"},"geometry":{"type":"Polygon","coordinates":[[[100.98693727300008,13.291280137000058],[100.96012362700009,13.27750519500006],[100.93484992800006,13.23906789800003],[100.98981463400008,13.270495442000026],[100.98693727300008,13.291280137000058]]]}},{"type":"Feature","properties":{"code":"200902","name":"นาจอมเทียน","parentCode":"2009"},"geometry":{"type":"Polygon","coordinates":[[[100.91095786900007,12.866413243000068],[100.89329245000005,12.86464188900004],[100.91337411300003,12.807199031000039],[100.90229098500004,12.776357821000033],[100.96221020800004,12.738175238000053],[100.98188365700008,12.757679161000056],[100.92669041000005,12.801953843000035],[100.91095786900007,12.866413243000068]]]}},{"type":"Feature","properties":{"code":"200408","name":"นาเกลือ","parentCode":"2004"},"geometry":{"type":"Polygon","coordinates":[[[100.93425188300006,12.995451431000049],[100.92591234100007,13.002011669000069],[100.88435514300005,12.942791975000034],[100.92062902100008,12.96914963100005],[100.93425188300006,12.995451431000049]]]}},{"type":"Feature","properties":{"code":"200622","name":"นามะตูม","parentCode":"2006"},"geometry":{"type":"Polygon","coordinates":[[[101.18103184400007,13.437740175000044],[101.15589672700008,13.433907181000052],[101.15360944500009,13.42803690200003],[101.17454991000005,13.408135419000075],[101.19452790200006,13.41230388100007],[101.19076937300008,13.423959960000047],[101.18103184400007,13.437740175000044]]]}},{"type":"Feature","properties":{"code":"200107","name":"นาป่า","parentCode":"2001"},"geometry":{"type":"Polygon","coordinates":[[[101.05719615700008,13.40558057100003],[101.02937053400007,13.417252199000075],[100.99754795900009,13.395931620000056],[100.99771576700005,13.389218104000065],[101.01550000500004,13.366928825000059],[101.04455454000004,13.36258616200007],[101.05052340100008,13.35772154500006],[101.05844284800008,13.393427780000025],[101.05719615700008,13.40558057100003]]]}},{"type":"Feature","properties":{"code":"200602","name":"หน้าพระธาตุ","parentCode":"2006"},"geometry":{"type":"Polygon","coordinates":[[[101.16857971300004,13.479390890000047],[101.13232495700004,13.485898150000025],[101.12469506800005,13.480239580000045],[101.12531574500008,13.45184393900007],[101.15123556000003,13.45531479400006],[101.17334268100007,13.46014881700006],[101.16857971300004,13.479390890000047]]]}},{"type":"Feature","properties":{"code":"200508","name":"หน้าประดู่","parentCode":"2005"},"geometry":{"type":"Polygon","coordinates":[[[101.09773850500005,13.532822792000047],[101.08085377500004,13.498770870000044],[101.08408725400005,13.478520783000022],[101.12469506800005,13.480239580000045],[101.13232495700004,13.485898150000025],[101.11618217400007,13.493383898000047],[101.10379023200005,13.510367504000044],[101.09773850500005,13.532822792000047]]]}},{"type":"Feature","properties":{"code":"200605","name":"นาเริก","parentCode":"2006"},"geometry":{"type":"Polygon","coordinates":[[[101.28297382900007,13.430632610000032],[101.22300076700009,13.440077601000041],[101.21342243800007,13.426396930000067],[101.26649503500005,13.371640944000035],[101.28297382900007,13.430632610000032]]]}},{"type":"Feature","properties":{"code":"200617","name":"นาวังหิน","parentCode":"2006"},"geometry":{"type":"Polygon","coordinates":[[[101.30407706900007,13.440850229000034],[101.28433154400005,13.466072108000049],[101.21145110200007,13.464215075000027],[101.22300076700009,13.440077601000041],[101.28297382900007,13.430632610000032],[101.30407706900007,13.440850229000034]]]}},{"type":"Feature","properties":{"code":"200205","name":"หนองบอนแดง","parentCode":"2002"},"geometry":{"type":"Polygon","coordinates":[[[101.19983565200005,13.359404468000037],[101.16860758900003,13.371030967000024],[101.13565825500007,13.376050168000063],[101.12099150900008,13.36077805900004],[101.11753171500004,13.345214368000029],[101.14716055600007,13.33517766500006],[101.18095140000008,13.326550242000053],[101.19903682100005,13.350636456000075],[101.19983565200005,13.359404468000037]]]}},{"type":"Feature","properties":{"code":"200206","name":"หนองชาก","parentCode":"2002"},"geometry":{"type":"Polygon","coordinates":[[[101.18095140000008,13.326550242000053],[101.14716055600007,13.33517766500006],[101.13637304800005,13.286688222000066],[101.16621724400005,13.259569386000067],[101.20619107300007,13.28529887700006],[101.18095140000008,13.326550242000053]]]}},{"type":"Feature","properties":{"code":"200616","name":"หนองเหียง","parentCode":"2006"},"geometry":{"type":"Polygon","coordinates":[[[101.32244657400008,13.499533447000033],[101.31379515500004,13.509181565000063],[101.20314022200006,13.501151074000063],[101.20041916400004,13.46649513500006],[101.21145110200007,13.464215075000027],[101.28433154400005,13.466072108000049],[101.30407706900007,13.440850229000034],[101.32162545300008,13.433360316000062],[101.36691785300007,13.463661057000024],[101.32244657400008,13.499533447000033]]]}},{"type":"Feature","properties":{"code":"200505","name":"หนองหงษ์","parentCode":"2005"},"geometry":{"type":"Polygon","coordinates":[[[101.12634124500005,13.390380245000074],[101.10986928500006,13.424573745000032],[101.09497588000005,13.407106974000044],[101.09959465300005,13.378879263000044],[101.12099150900008,13.36077805900004],[101.13565825500007,13.376050168000063],[101.12634124500005,13.390380245000074]]]}},{"type":"Feature","properties":{"code":"200207","name":"หนองอิรุณ","parentCode":"2002"},"geometry":{"type":"Polygon","coordinates":[[[101.26677474600007,13.313830061000033],[101.19903682100005,13.350636456000075],[101.18095140000008,13.326550242000053],[101.20619107300007,13.28529887700006],[101.16621724400005,13.259569386000067],[101.18679231600004,13.247025466000025],[101.24568240200006,13.25069570200003],[101.29894921200008,13.211669653000058],[101.31788196400004,13.282152832000065],[101.26677474600007,13.313830061000033]]]}},{"type":"Feature","properties":{"code":"200504","name":"หนองกะขะ","parentCode":"2005"},"geometry":{"type":"Polygon","coordinates":[[[101.10986928500006,13.424573745000032],[101.09611461600008,13.454403205000062],[101.07725166400007,13.444709769000042],[101.07317370700008,13.439758785000038],[101.09497588000005,13.407106974000044],[101.10986928500006,13.424573745000032]]]}},{"type":"Feature","properties":{"code":"200705","name":"หนองขาม","parentCode":"2007"},"geometry":{"type":"Polygon","coordinates":[[[101.11395391400004,13.180568699000048],[101.08257148400008,13.190420093000057],[101.07223844200007,13.16362754100004],[101.01607913300006,13.171391541000048],[100.99886637900005,13.131088816000045],[100.96828871900004,13.143704252000077],[100.95730035100007,13.101959400000055],[100.94167647000006,13.08060245400003],[100.95202465400007,13.084661397000048],[101.04565113000007,13.118714280000063],[101.06049717200005,13.10362684100005],[101.11249854500005,13.094218067000043],[101.08972045100006,13.139813937000042],[101.11395391400004,13.180568699000048]]]}},{"type":"Feature","properties":{"code":"200108","name":"หนองข้างคอก","parentCode":"2001"},"geometry":{"type":"Polygon","coordinates":[[[101.01447305300007,13.337092724000058],[100.98826605000005,13.332727031000047],[100.98693727300008,13.291280137000058],[100.98981463400008,13.270495442000026],[101.02333598800004,13.281836700000042],[101.01447305300007,13.337092724000058]]]}},{"type":"Feature","properties":{"code":"200614","name":"หนองขยาด","parentCode":"2006"},"geometry":{"type":"Polygon","coordinates":[[[101.15360944500009,13.42803690200003],[101.14025799900008,13.436488661000055],[101.12634124500005,13.390380245000074],[101.13565825500007,13.376050168000063],[101.16860758900003,13.371030967000024],[101.17454991000005,13.408135419000075],[101.15360944500009,13.42803690200003]]]}},{"type":"Feature","properties":{"code":"200110","name":"หนองไม้แดง","parentCode":"2001"},"geometry":{"type":"Polygon","coordinates":[[[101.02937053400007,13.417252199000075],[101.02286407500009,13.424356112000055],[100.97613438100007,13.414135870000052],[100.98260829100008,13.39909592500004],[100.99754795900009,13.395931620000056],[101.02937053400007,13.417252199000075]]]}},{"type":"Feature","properties":{"code":"200208","name":"หนองไผ่แก้ว","parentCode":"2002"},"geometry":{"type":"Polygon","coordinates":[[[101.29894921200008,13.211669653000058],[101.24568240200006,13.25069570200003],[101.18679231600004,13.247025466000025],[101.25028400900004,13.165815696000038],[101.28182765300005,13.177942632000054],[101.29894921200008,13.211669653000058]]]}},{"type":"Feature","properties":{"code":"200403","name":"หนองปลาไหล","parentCode":"2004"},"geometry":{"type":"Polygon","coordinates":[[[101.01903659100009,12.976058650000027],[100.98921415600006,13.008215656000061],[100.94006824500008,13.003651973000046],[100.93425188300006,12.995451431000049],[100.92062902100008,12.96914963100005],[100.96277626800008,12.952960306000023],[101.01903659100009,12.976058650000027]]]}},{"type":"Feature","properties":{"code":"200402","name":"หนองปรือ","parentCode":"2004"},"geometry":{"type":"Polygon","coordinates":[[[100.96277626800008,12.952960306000023],[100.92062902100008,12.96914963100005],[100.88435514300005,12.942791975000034],[100.85586721900006,12.909983853000028],[100.89329245000005,12.86464188900004],[100.91095786900007,12.866413243000068],[100.97057497500003,12.89283004400005],[100.96277626800008,12.952960306000023]]]}},{"type":"Feature","properties":{"code":"200613","name":"หนองปรือ","parentCode":"2006"},"geometry":{"type":"Polygon","coordinates":[[[101.29422871200006,13.527772780000078],[101.18770289800005,13.511108332000049],[101.20314022200006,13.501151074000063],[101.31379515500004,13.509181565000063],[101.29422871200006,13.527772780000078]]]}},{"type":"Feature","properties":{"code":"200106","name":"หนองรี","parentCode":"2001"},"geometry":{"type":"Polygon","coordinates":[[[101.04455454000004,13.36258616200007],[101.01550000500004,13.366928825000059],[101.01447305300007,13.337092724000058],[101.02333598800004,13.281836700000042],[101.05211351500009,13.269368701000076],[101.06415642700006,13.285002465000048],[101.04455454000004,13.36258616200007]]]}},{"type":"Feature","properties":{"code":"200204","name":"หนองซ้ำซาก","parentCode":"2002"},"geometry":{"type":"Polygon","coordinates":[[[101.08514627900007,13.33022959300007],[101.06676553600005,13.366139016000034],[101.05052340100008,13.35772154500006],[101.04455454000004,13.36258616200007],[101.06415642700006,13.285002465000048],[101.08514627900007,13.33022959300007]]]}},{"type":"Feature","properties":{"code":"200303","name":"หนองเสือช้าง","parentCode":"2003"},"geometry":{"type":"Polygon","coordinates":[[[101.28182765300005,13.177942632000054],[101.25028400900004,13.165815696000038],[101.25592899500003,13.094008766000059],[101.21979780700008,13.092171929000074],[101.21953094300005,13.077617260000068],[101.28899955700007,13.05888750400004],[101.32471891300008,13.08435793700005],[101.33932217800003,13.10546458400006],[101.33122006500008,13.148416688000054],[101.28182765300005,13.177942632000054]]]}},{"type":"Feature","properties":{"code":"200502","name":"หนองตำลึง","parentCode":"2005"},"geometry":{"type":"Polygon","coordinates":[[[101.09497588000005,13.407106974000044],[101.07317370700008,13.439758785000038],[101.05719615700008,13.40558057100003],[101.05844284800008,13.393427780000025],[101.06412104800006,13.390018184000041],[101.09959465300005,13.378879263000044],[101.09497588000005,13.407106974000044]]]}},{"type":"Feature","properties":{"code":"200301","name":"หนองใหญ่","parentCode":"2003"},"geometry":{"type":"Polygon","coordinates":[[[101.40903101900005,13.18039781400006],[101.36847943400005,13.23297737300004],[101.32345700400003,13.198226740000052],[101.33122006500008,13.148416688000054],[101.33932217800003,13.10546458400006],[101.39722138200005,13.080531199000063],[101.41400909500004,13.119583520000049],[101.43722023700008,13.148573915000043],[101.40903101900005,13.18039781400006]]]}},{"type":"Feature","properties":{"code":"200501","name":"พานทอง","parentCode":"2005"},"geometry":{"type":"Polygon","coordinates":[[[101.12469506800005,13.480239580000045],[101.08408725400005,13.478520783000022],[101.07142389200004,13.463616623000064],[101.07725166400007,13.444709769000042],[101.09611461600008,13.454403205000062],[101.12531574500008,13.45184393900007],[101.12469506800005,13.480239580000045]]]}},{"type":"Feature","properties":{"code":"200601","name":"พนัสนิคม","parentCode":"2006"},"geometry":{"type":"Polygon","coordinates":[[[101.18033956000005,13.440002745000072],[101.18157808000007,13.460151960000076],[101.17399025600008,13.457776061000061],[101.18033956000005,13.440002745000072]]]}},{"type":"Feature","properties":{"code":"200903","name":"พลูตาหลวง","parentCode":"2009"},"geometry":{"type":"Polygon","coordinates":[[[101.01197620000005,12.767614373000072],[100.98188365700008,12.757679161000056],[100.96221020800004,12.738175238000053],[100.91938803300008,12.712041075000059],[100.95313399600008,12.644848464000063],[100.96330057800009,12.629107194000028],[100.99225785100003,12.656245697000031],[100.98445505300003,12.69286988600004],[101.01197620000005,12.767614373000072]]]}},{"type":"Feature","properties":{"code":"201006","name":"พลวงทอง","parentCode":"2010"},"geometry":{"type":"Polygon","coordinates":[[[101.62139001400004,13.297676616000047],[101.60318963100008,13.270085648000077],[101.53101816200007,13.265980917000036],[101.59064227200008,13.146343888000047],[101.62371561600008,13.145461348000026],[101.64826369700006,13.163488681000047],[101.69577208800007,13.14659670900005],[101.71713777700006,13.182213531000059],[101.66897069500004,13.271695505000025],[101.62139001400004,13.297676616000047]]]}},{"type":"Feature","properties":{"code":"200404","name":"โป่ง","parentCode":"2004"},"geometry":{"type":"Polygon","coordinates":[[[101.01903659100009,12.976058650000027],[100.96277626800008,12.952960306000023],[100.97057497500003,12.89283004400005],[101.06646328900007,12.865591671000061],[101.07856226200005,12.894727379000074],[101.00715662000005,12.925231431000043],[101.01903659100009,12.976058650000027]]]}},{"type":"Feature","properties":{"code":"200621","name":"ไร่หลักทอง","parentCode":"2006"},"geometry":{"type":"Polygon","coordinates":[[[101.18770289800005,13.511108332000049],[101.17251221000004,13.50870975600003],[101.16634034200007,13.488393145000032],[101.16857971300004,13.479390890000047],[101.17334268100007,13.46014881700006],[101.17399025600008,13.457776061000061],[101.18157808000007,13.460151960000076],[101.20041916400004,13.46649513500006],[101.20314022200006,13.501151074000063],[101.18770289800005,13.511108332000049]]]}},{"type":"Feature","properties":{"code":"200607","name":"สระสี่เหลี่ยม","parentCode":"2006"},"geometry":{"type":"Polygon","coordinates":[[[101.24611993000008,13.569914478000044],[101.19507716400005,13.585103617000073],[101.18545261100007,13.547168983000063],[101.29473969100007,13.531144834000031],[101.24611993000008,13.569914478000044]]]}},{"type":"Feature","properties":{"code":"200104","name":"แสนสุข","parentCode":"2001"},"geometry":{"type":"Polygon","coordinates":[[[100.91825298900005,13.315745029000027],[100.89751534900006,13.302439332000063],[100.93135215300003,13.238444350000066],[100.93484992800006,13.23906789800003],[100.96012362700009,13.27750519500006],[100.94008626700008,13.287795644000028],[100.93749487900004,13.293985338000027],[100.91850389600006,13.313417629000071],[100.91825298900005,13.315745029000027]]]}},{"type":"Feature","properties":{"code":"200905","name":"แสมสาร","parentCode":"2009"},"geometry":{"type":"Polygon","coordinates":[[[100.91361553600007,12.624827526000047],[100.94504014700004,12.599234915000068],[100.96330057800009,12.629107194000028],[100.95313399600008,12.644848464000063],[100.91361553600007,12.624827526000047]]]}},{"type":"Feature","properties":{"code":"200116","name":"เสม็ด","parentCode":"2001"},"geometry":{"type":"Polygon","coordinates":[[[100.97401782700007,13.340580455000065],[100.96392202800007,13.349945303000027],[100.93143598800003,13.339440498000044],[100.93996722500003,13.316313126000068],[100.93749487900004,13.293985338000027],[100.94008626700008,13.287795644000028],[100.97401782700007,13.340580455000065]]]}},{"type":"Feature","properties":{"code":"200118","name":"สำนักบก","parentCode":"2001"},"geometry":{"type":"Polygon","coordinates":[[[101.06412104800006,13.390018184000041],[101.05844284800008,13.393427780000025],[101.05052340100008,13.35772154500006],[101.06676553600005,13.366139016000034],[101.06412104800006,13.390018184000041]]]}},{"type":"Feature","properties":{"code":"200901","name":"สัตหีบ","parentCode":"2009"},"geometry":{"type":"MultiPolygon","coordinates":[[[[100.77558717400007,12.720286413000053],[100.77656042800004,12.675222765000058],[100.80596409500004,12.695744540000021],[100.77558717400007,12.720286413000053]]],[[[100.91938803300008,12.712041075000059],[100.88689522700008,12.74450213800003],[100.83631741500005,12.72925443400004],[100.85269140800006,12.64836277300003],[100.91197827000008,12.660942636000073],[100.91361553600007,12.624827526000047],[100.95313399600008,12.644848464000063],[100.91938803300008,12.712041075000059]]]]}},{"type":"Feature","properties":{"code":"200701","name":"ศรีราชา","parentCode":"2007"},"geometry":{"type":"Polygon","coordinates":[[[100.91525700300008,13.160133440000038],[100.93267373900005,13.183223382000051],[100.92888131100005,13.183694136000042],[100.91525700300008,13.160133440000038]]]}},{"type":"Feature","properties":{"code":"200702","name":"สุรศักดิ์","parentCode":"2007"},"geometry":{"type":"Polygon","coordinates":[[[101.01607913300006,13.171391541000048],[100.93267373900005,13.183223382000051],[100.91525700300008,13.160133440000038],[100.89878498100006,13.135691616000031],[100.95730035100007,13.101959400000055],[100.96828871900004,13.143704252000077],[100.99886637900005,13.131088816000045],[101.01607913300006,13.171391541000048]]]}},{"type":"Feature","properties":{"code":"200407","name":"ตะเคียนเตี้ย","parentCode":"2004"},"geometry":{"type":"Polygon","coordinates":[[[101.03928967700006,13.026426210000068],[100.95413844000007,13.046750032000034],[100.94006824500008,13.003651973000046],[100.98921415600006,13.008215656000061],[101.01903659100009,12.976058650000027],[101.03929401200008,12.999158580000028],[101.09072795800006,12.995937479000077],[101.08279373800008,13.004156126000055],[101.03928967700006,13.026426210000068]]]}},{"type":"Feature","properties":{"code":"201102","name":"ท่าบุญมี","parentCode":"2011"},"geometry":{"type":"Polygon","coordinates":[[[101.32162545300008,13.433360316000062],[101.30407706900007,13.440850229000034],[101.28297382900007,13.430632610000032],[101.26649503500005,13.371640944000035],[101.28082290600008,13.348302700000033],[101.34368589300004,13.331996380000021],[101.34581841800008,13.340270694000026],[101.35024294900006,13.370947435000062],[101.31121650300008,13.404472962000057],[101.32162545300008,13.433360316000062]]]}},{"type":"Feature","properties":{"code":"200611","name":"ท่าข้าม","parentCode":"2006"},"geometry":{"type":"Polygon","coordinates":[[[101.17219372600005,13.585216742000057],[101.12930677500003,13.569477068000026],[101.11846537100007,13.564885523000044],[101.13188054000005,13.552360616000044],[101.16962000200004,13.535653041000046],[101.18216499900007,13.527626926000039],[101.18545261100007,13.547168983000063],[101.19507716400005,13.585103617000073],[101.17219372600005,13.585216742000057]]]}},{"type":"Feature","properties":{"code":"200801","name":"ท่าเทววงษ์","parentCode":"2008"},"geometry":{"type":"Polygon","coordinates":[[[100.80820242400006,13.178916456000024],[100.80938765100007,13.125110997000036],[100.81978541100005,13.138664687000073],[100.80820242400006,13.178916456000024]]]}},{"type":"Feature","properties":{"code":"201004","name":"ธาตุทอง","parentCode":"2010"},"geometry":{"type":"Polygon","coordinates":[[[101.41709720100005,13.283318393000059],[101.37055961300007,13.347258683000064],[101.34581841800008,13.340270694000026],[101.34368589300004,13.331996380000021],[101.33581509600003,13.264694125000062],[101.36847943400005,13.23297737300004],[101.40903101900005,13.18039781400006],[101.44839026600005,13.224476640000034],[101.41709720100005,13.283318393000059]]]}},{"type":"Feature","properties":{"code":"200615","name":"ทุ่งขวาง","parentCode":"2006"},"geometry":{"type":"Polygon","coordinates":[[[101.19452790200006,13.41230388100007],[101.17454991000005,13.408135419000075],[101.16860758900003,13.371030967000024],[101.19983565200005,13.359404468000037],[101.19452790200006,13.41230388100007]]]}},{"type":"Feature","properties":{"code":"200703","name":"ทุ่งสุขลา","parentCode":"2007"},"geometry":{"type":"Polygon","coordinates":[[[100.95730035100007,13.101959400000055],[100.89878498100006,13.135691616000031],[100.87187041200008,13.077116830000023],[100.91829483600009,13.039442592000057],[100.94167647000006,13.08060245400003],[100.95730035100007,13.101959400000055]]]}},{"type":"Feature","properties":{"code":"200608","name":"วัดโบสถ์","parentCode":"2006"},"geometry":{"type":"Polygon","coordinates":[[[101.16634034200007,13.488393145000032],[101.14603041300006,13.527774196000053],[101.11618217400007,13.493383898000047],[101.13232495700004,13.485898150000025],[101.16857971300004,13.479390890000047],[101.16634034200007,13.488393145000032]]]}},{"type":"Feature","properties":{"code":"200603","name":"วัดหลวง","parentCode":"2006"},"geometry":{"type":"Polygon","coordinates":[[[101.18216499900007,13.527626926000039],[101.16962000200004,13.535653041000046],[101.14603041300006,13.527774196000053],[101.16634034200007,13.488393145000032],[101.17251221000004,13.50870975600003],[101.18216499900007,13.527626926000039]]]}},{"type":"Feature","properties":{"code":"201002","name":"วัดสุวรรณ","parentCode":"2010"},"geometry":{"type":"Polygon","coordinates":[[[101.47265274400007,13.348668857000064],[101.41467622000005,13.372052358000076],[101.37055961300007,13.347258683000064],[101.41709720100005,13.283318393000059],[101.43744831200007,13.303578489000074],[101.47265274400007,13.348668857000064]]]}}]}