{"type":"FeatureCollection","features":[{"type":"Feature","properties":{"code":"210203","name":"บ้านฉาง","parentCode":"2102"},"geometry":{"type":"Polygon","coordinates":[[[101.09415460400004,12.804274004000035],[101.09221000500008,12.805102154000053],[101.04579502400009,12.735960730000045],[101.06390185100008,12.674149899000042],[101.09742720300005,12.678038595000032],[101.09660750700004,12.696973749000051],[101.09415460400004,12.804274004000035]]]}},{"type":"Feature","properties":{"code":"210501","name":"บ้านค่าย","parentCode":"2105"},"geometry":{"type":"Polygon","coordinates":[[[101.32804218600006,12.797183707000045],[101.29420940100005,12.797500273000026],[101.28822310400005,12.75535188300006],[101.29184187800007,12.745338417000028],[101.31067252200006,12.759941723000054],[101.32804218600006,12.797183707000045]]]}},{"type":"Feature","properties":{"code":"210107","name":"บ้านแลง","parentCode":"2101"},"geometry":{"type":"Polygon","coordinates":[[[101.41712272900008,12.703471311000044],[101.41872652600006,12.736806406000028],[101.32232342900005,12.696122648000028],[101.32503860300005,12.688441780000062],[101.41712272900008,12.703471311000044]]]}},{"type":"Feature","properties":{"code":"210308","name":"บ้านนา","parentCode":"2103"},"geometry":{"type":"Polygon","coordinates":[[[101.70659440400004,12.87006115500003],[101.68478249200007,12.899297147000027],[101.64443122600005,12.879752189000044],[101.65398670100006,12.827192761000049],[101.68385035000006,12.78985775800004],[101.70412995400005,12.864532075000056],[101.70659440400004,12.87006115500003]]]}},{"type":"Feature","properties":{"code":"210505","name":"บางบุตร","parentCode":"2105"},"geometry":{"type":"Polygon","coordinates":[[[101.44770576700006,12.89787943400006],[101.39686894300007,12.90527045600004],[101.39341234300008,12.87739743000003],[101.30224463900004,12.83308247900004],[101.29420940100005,12.797500273000026],[101.32804218600006,12.797183707000045],[101.41398649700005,12.80596676700003],[101.43270166200006,12.862803700000029],[101.46099827300009,12.861749992000057],[101.48163779900005,12.867564241000025],[101.48886392200006,12.885013395000044],[101.44770576700006,12.89787943400006]]]}},{"type":"Feature","properties":{"code":"210507","name":"ชากบก","parentCode":"2105"},"geometry":{"type":"Polygon","coordinates":[[[101.46099827300009,12.861749992000057],[101.43270166200006,12.862803700000029],[101.41398649700005,12.80596676700003],[101.32804218600006,12.797183707000045],[101.31067252200006,12.759941723000054],[101.36344787700006,12.762070039000037],[101.40050329000007,12.768469885000059],[101.45118029900004,12.829565123000066],[101.46099827300009,12.861749992000057]]]}},{"type":"Feature","properties":{"code":"210303","name":"ชากโดน","parentCode":"2103"},"geometry":{"type":"Polygon","coordinates":[[[101.59037867300003,12.732970801000022],[101.56038716800003,12.697343128000057],[101.59190226600003,12.677756918000057],[101.65692329100006,12.686643447000051],[101.60428304100009,12.724139595000054],[101.59037867300003,12.732970801000022]]]}},{"type":"Feature","properties":{"code":"210306","name":"ชากพง","parentCode":"2103"},"geometry":{"type":"Polygon","coordinates":[[[101.56038716800003,12.697343128000057],[101.53028340200007,12.72029073300007],[101.51825484700004,12.670251617000076],[101.51170888500008,12.63136757500007],[101.55635003200007,12.627315666000072],[101.59355210700005,12.653531392000048],[101.59190226600003,12.677756918000057],[101.56038716800003,12.697343128000057]]]}},{"type":"Feature","properties":{"code":"210703","name":"ชำฆ้อ","parentCode":"2107"},"geometry":{"type":"Polygon","coordinates":[[[101.66549081400007,12.987948455000037],[101.59090519500006,13.01031899700007],[101.56852229600008,12.978845657000022],[101.61180439000003,12.981717566000043],[101.60751724800008,12.917888618000063],[101.64443122600005,12.879752189000044],[101.68478249200007,12.899297147000027],[101.70659440400004,12.87006115500003],[101.69589296000004,12.930341140000053],[101.66549081400007,12.987948455000037]]]}},{"type":"Feature","properties":{"code":"210102","name":"เชิงเนิน","parentCode":"2101"},"geometry":{"type":"Polygon","coordinates":[[[101.31365537500005,12.697865145000037],[101.27872521800003,12.721165841000072],[101.26574032700006,12.699606146000065],[101.26892431200008,12.694210167000051],[101.24790620100003,12.675908672000048],[101.27191116500006,12.671078790000024],[101.27093659400003,12.685852021000073],[101.28763251700008,12.67763035300004],[101.28066435200009,12.667685702000028],[101.28768959900003,12.653734108000037],[101.31038820300006,12.644533409000076],[101.32503860300005,12.688441780000062],[101.32232342900005,12.696122648000028],[101.31365537500005,12.697865145000037]]]}},{"type":"Feature","properties":{"code":"210402","name":"ชุมแสง","parentCode":"2104"},"geometry":{"type":"Polygon","coordinates":[[[101.59090519500006,13.01031899700007],[101.59776782500006,13.057106953000073],[101.57810664400006,13.109208266000053],[101.54680297500005,13.07251800000006],[101.54568577100008,13.071409343000028],[101.56187724700004,13.011392470000033],[101.46892706000006,12.944055959000025],[101.49247373900005,12.936273905000064],[101.44770576700006,12.89787943400006],[101.48886392200006,12.885013395000044],[101.53840042800005,12.938776480000058],[101.58338697900007,12.919972100000052],[101.56852229600008,12.978845657000022],[101.59090519500006,13.01031899700007]]]}},{"type":"Feature","properties":{"code":"210113","name":"ห้วยโป่ง","parentCode":"2101"},"geometry":{"type":"Polygon","coordinates":[[[101.12818768600005,12.810346929000048],[101.09415460400004,12.804274004000035],[101.09660750700004,12.696973749000051],[101.12432321900008,12.697209066000028],[101.16321964300005,12.758829656000046],[101.14310040700008,12.803810895000026],[101.12818768600005,12.810346929000048]]]}},{"type":"Feature","properties":{"code":"210702","name":"ห้วยทับมอญ","parentCode":"2107"},"geometry":{"type":"Polygon","coordinates":[[[101.69577208800007,13.14659670900005],[101.64826369700006,13.163488681000047],[101.62371561600008,13.145461348000026],[101.60437695500008,13.134444529000064],[101.63387756300006,13.108032640000033],[101.63881657400003,13.030430369000044],[101.66549081400007,12.987948455000037],[101.69589296000004,12.930341140000053],[101.73884233100006,12.959068308000042],[101.75769839300006,13.049373984000056],[101.72462258000007,13.030058515000064],[101.68471780500005,13.122722318000058],[101.69577208800007,13.14659670900005]]]}},{"type":"Feature","properties":{"code":"210317","name":"ห้วยยาง","parentCode":"2103"},"geometry":{"type":"Polygon","coordinates":[[[101.61802435300007,12.741672688000051],[101.53403281800007,12.823434427000052],[101.50704830400008,12.830230662000076],[101.50734145000007,12.80693343300004],[101.59037867300003,12.732970801000022],[101.60428304100009,12.724139595000054],[101.61802435300007,12.741672688000051]]]}},{"type":"Feature","properties":{"code":"210110","name":"กะเฉด","parentCode":"2101"},"geometry":{"type":"Polygon","coordinates":[[[101.50282973700007,12.862866544000042],[101.48163779900005,12.867564241000025],[101.46099827300009,12.861749992000057],[101.45118029900004,12.829565123000066],[101.48701971400004,12.770182474000023],[101.49071562800003,12.691051319000053],[101.51825484700004,12.670251617000076],[101.53028340200007,12.72029073300007],[101.50734145000007,12.80693343300004],[101.50704830400008,12.830230662000076],[101.50614350200004,12.848644683000032],[101.50282973700007,12.862866544000042]]]}},{"type":"Feature","properties":{"code":"210704","name":"เขาน้อย","parentCode":"2107"},"geometry":{"type":"Polygon","coordinates":[[[101.60437695500008,13.134444529000064],[101.57810664400006,13.109208266000053],[101.59776782500006,13.057106953000073],[101.59090519500006,13.01031899700007],[101.66549081400007,12.987948455000037],[101.63881657400003,13.030430369000044],[101.63387756300006,13.108032640000033],[101.60437695500008,13.134444529000064]]]}},{"type":"Feature","properties":{"code":"210311","name":"คลองปูน","parentCode":"2103"},"geometry":{"type":"Polygon","coordinates":[[[101.76505541800009,12.763773122000032],[101.75388255400009,12.78681872900006],[101.71940465400007,12.776559502000055],[101.70643358000007,12.736351705000061],[101.72324313700005,12.705117758000029],[101.74458333400008,12.706944690000057],[101.76505541800009,12.763773122000032]]]}},{"type":"Feature","properties":{"code":"210106","name":"แกลง","parentCode":"2101"},"geometry":{"type":"Polygon","coordinates":[[[101.49071562800003,12.691051319000053],[101.41712272900008,12.703471311000044],[101.41753015900008,12.668782446000023],[101.44735506200004,12.630088620000038],[101.51170888500008,12.63136757500007],[101.51825484700004,12.670251617000076],[101.49071562800003,12.691051319000053]]]}},{"type":"Feature","properties":{"code":"210310","name":"กองดิน","parentCode":"2103"},"geometry":{"type":"Polygon","coordinates":[[[101.82867456200006,12.83601886300005],[101.80987500700007,12.88486354500003],[101.78605856100006,12.877008808000028],[101.75388255400009,12.78681872900006],[101.76505541800009,12.763773122000032],[101.79887906100004,12.746758981000028],[101.81945665500007,12.753871159000028],[101.82867456200006,12.83601886300005]]]}},{"type":"Feature","properties":{"code":"210305","name":"กร่ำ","parentCode":"2103"},"geometry":{"type":"Polygon","coordinates":[[[101.65692329100006,12.686643447000051],[101.59190226600003,12.677756918000057],[101.59355210700005,12.653531392000048],[101.64585009000007,12.642343019000066],[101.66798468200005,12.679410787000052],[101.65692329100006,12.686643447000051]]]}},{"type":"Feature","properties":{"code":"210307","name":"กระแสบน","parentCode":"2103"},"geometry":{"type":"Polygon","coordinates":[[[101.64443122600005,12.879752189000044],[101.60751724800008,12.917888618000063],[101.61180439000003,12.981717566000043],[101.56852229600008,12.978845657000022],[101.58338697900007,12.919972100000052],[101.59795480100007,12.882103632000053],[101.58578617300009,12.840029223000045],[101.65398670100006,12.827192761000049],[101.64443122600005,12.879752189000044]]]}},{"type":"Feature","properties":{"code":"210603","name":"ละหาร","parentCode":"2106"},"geometry":{"type":"Polygon","coordinates":[[[101.35876163200004,12.963933798000028],[101.36869680200004,12.986791244000074],[101.26365486300006,13.030383412000049],[101.25318559300007,12.999388229000033],[101.28514226600004,12.976095820000069],[101.28493895700007,12.927120931000047],[101.29171260400005,12.914146303000052],[101.35876163200004,12.963933798000028]]]}},{"type":"Feature","properties":{"code":"210604","name":"แม่น้ำคู้","parentCode":"2106"},"geometry":{"type":"Polygon","coordinates":[[[101.28493895700007,12.927120931000047],[101.23845200900007,12.954062929000031],[101.15162230500005,12.930779447000077],[101.17886178100008,12.886958435000054],[101.22395117900004,12.86375711200003],[101.29718090100005,12.897274264000032],[101.29171260400005,12.914146303000052],[101.28493895700007,12.927120931000047]]]}},{"type":"Feature","properties":{"code":"210804","name":"มะขามคู่","parentCode":"2108"},"geometry":{"type":"Polygon","coordinates":[[[101.15595606900007,12.857310811000048],[101.07912889200009,12.907295856000076],[101.07856226200005,12.894727379000074],[101.06646328900007,12.865591671000061],[101.05001184200006,12.815118239000071],[101.09221000500008,12.805102154000053],[101.09415460400004,12.804274004000035],[101.12818768600005,12.810346929000048],[101.15595606900007,12.857310811000048]]]}},{"type":"Feature","properties":{"code":"210802","name":"มาบข่า","parentCode":"2108"},"geometry":{"type":"Polygon","coordinates":[[[101.20849431000005,12.813457523000068],[101.17080875200008,12.827451585000063],[101.14310040700008,12.803810895000026],[101.16321964300005,12.758829656000046],[101.19591848000005,12.748639986000057],[101.22824581800006,12.747388496000042],[101.23756228000008,12.751239393000048],[101.22593473700005,12.793339003000028],[101.20849431000005,12.813457523000068]]]}},{"type":"Feature","properties":{"code":"210605","name":"มาบยางพร","parentCode":"2106"},"geometry":{"type":"Polygon","coordinates":[[[101.13477690600007,13.016529442000035],[101.09459844900005,13.03385296700003],[101.08279373800008,13.004156126000055],[101.09072795800006,12.995937479000077],[101.08816921300007,12.920569181000076],[101.15162230500005,12.930779447000077],[101.23845200900007,12.954062929000031],[101.19932131300004,12.954396040000063],[101.13477690600007,13.016529442000035]]]}},{"type":"Feature","properties":{"code":"210114","name":"มาบตาพุด","parentCode":"2101"},"geometry":{"type":"Polygon","coordinates":[[[101.19591848000005,12.748639986000057],[101.16321964300005,12.758829656000046],[101.12432321900008,12.697209066000028],[101.09660750700004,12.696973749000051],[101.09742720300005,12.678038595000032],[101.17982891700007,12.669228519000058],[101.18355729400008,12.721429026000067],[101.19591848000005,12.748639986000057]]]}},{"type":"Feature","properties":{"code":"210108","name":"นาตาขวัญ","parentCode":"2101"},"geometry":{"type":"Polygon","coordinates":[[[101.40050329000007,12.768469885000059],[101.36344787700006,12.762070039000037],[101.31365537500005,12.697865145000037],[101.32232342900005,12.696122648000028],[101.41872652600006,12.736806406000028],[101.40050329000007,12.768469885000059]]]}},{"type":"Feature","properties":{"code":"210112","name":"น้ำคอก","parentCode":"2101"},"geometry":{"type":"Polygon","coordinates":[[[101.28112004800005,12.730420146000029],[101.23756228000008,12.751239393000048],[101.22824581800006,12.747388496000042],[101.26574032700006,12.699606146000065],[101.27872521800003,12.721165841000072],[101.28112004800005,12.730420146000029]]]}},{"type":"Feature","properties":{"code":"210701","name":"น้ำเป็น","parentCode":"2107"},"geometry":{"type":"Polygon","coordinates":[[[101.77395932000007,12.951764745000048],[101.73884233100006,12.959068308000042],[101.69589296000004,12.930341140000053],[101.70659440400004,12.87006115500003],[101.70412995400005,12.864532075000056],[101.73903266300005,12.833330571000033],[101.78605856100006,12.877008808000028],[101.80987500700007,12.88486354500003],[101.77395932000007,12.951764745000048]]]}},{"type":"Feature","properties":{"code":"210801","name":"นิคมพัฒนา","parentCode":"2108"},"geometry":{"type":"Polygon","coordinates":[[[101.17886178100008,12.886958435000054],[101.15595606900007,12.857310811000048],[101.12818768600005,12.810346929000048],[101.14310040700008,12.803810895000026],[101.17080875200008,12.827451585000063],[101.20849431000005,12.813457523000068],[101.22395117900004,12.86375711200003],[101.17886178100008,12.886958435000054]]]}},{"type":"Feature","properties":{"code":"210304","name":"เนินฆ้อ","parentCode":"2103"},"geometry":{"type":"Polygon","coordinates":[[[101.66508135800007,12.723930101000064],[101.61802435300007,12.741672688000051],[101.60428304100009,12.724139595000054],[101.65692329100006,12.686643447000051],[101.66798468200005,12.679410787000052],[101.69593087600003,12.695115686000065],[101.68266252000006,12.722570571000063],[101.66508135800007,12.723930101000064]]]}},{"type":"Feature","properties":{"code":"210109","name":"เนินพระ","parentCode":"2101"},"geometry":{"type":"Polygon","coordinates":[[[101.26892431200008,12.694210167000051],[101.21500882900006,12.686908725000023],[101.18355729400008,12.721429026000067],[101.17982891700007,12.669228519000058],[101.23652357200007,12.664648752000062],[101.24790620100003,12.675908672000048],[101.26892431200008,12.694210167000051]]]}},{"type":"Feature","properties":{"code":"210506","name":"หนองบัว","parentCode":"2105"},"geometry":{"type":"Polygon","coordinates":[[[101.41593846100005,12.96896208000004],[101.38776257200004,12.928596803000062],[101.35876163200004,12.963933798000028],[101.29171260400005,12.914146303000052],[101.29718090100005,12.897274264000032],[101.30224463900004,12.83308247900004],[101.39341234300008,12.87739743000003],[101.39686894300007,12.90527045600004],[101.44770576700006,12.89787943400006],[101.49247373900005,12.936273905000064],[101.46892706000006,12.944055959000025],[101.41593846100005,12.96896208000004]]]}},{"type":"Feature","properties":{"code":"210502","name":"หนองละลอก","parentCode":"2105"},"geometry":{"type":"Polygon","coordinates":[[[101.30224463900004,12.83308247900004],[101.29718090100005,12.897274264000032],[101.22395117900004,12.86375711200003],[101.20849431000005,12.813457523000068],[101.22593473700005,12.793339003000028],[101.28822310400005,12.75535188300006],[101.29420940100005,12.797500273000026],[101.30224463900004,12.83308247900004]]]}},{"type":"Feature","properties":{"code":"210606","name":"หนองไร่","parentCode":"2106"},"geometry":{"type":"Polygon","coordinates":[[[101.39409159900003,13.024810699000057],[101.32471891300008,13.08435793700005],[101.28899955700007,13.05888750400004],[101.26365486300006,13.030383412000049],[101.36869680200004,12.986791244000074],[101.35876163200004,12.963933798000028],[101.38776257200004,12.928596803000062],[101.41593846100005,12.96896208000004],[101.39409159900003,13.024810699000057]]]}},{"type":"Feature","properties":{"code":"210503","name":"หนองตะพาน","parentCode":"2105"},"geometry":{"type":"Polygon","coordinates":[[[101.28822310400005,12.75535188300006],[101.22593473700005,12.793339003000028],[101.23756228000008,12.751239393000048],[101.28112004800005,12.730420146000029],[101.29184187800007,12.745338417000028],[101.28822310400005,12.75535188300006]]]}},{"type":"Feature","properties":{"code":"210403","name":"ป่ายุบใน","parentCode":"2104"},"geometry":{"type":"Polygon","coordinates":[[[101.54568577100008,13.071409343000028],[101.52230967600008,13.077008602000035],[101.46435492100005,13.042269221000026],[101.39409159900003,13.024810699000057],[101.41593846100005,12.96896208000004],[101.46892706000006,12.944055959000025],[101.56187724700004,13.011392470000033],[101.54568577100008,13.071409343000028]]]}},{"type":"Feature","properties":{"code":"210104","name":"ปากน้ำ","parentCode":"2101"},"geometry":{"type":"Polygon","coordinates":[[[101.27191116500006,12.671078790000024],[101.24790620100003,12.675908672000048],[101.23652357200007,12.664648752000062],[101.28768959900003,12.653734108000037],[101.28066435200009,12.667685702000028],[101.27191116500006,12.671078790000024]]]}},{"type":"Feature","properties":{"code":"210313","name":"ปากน้ำกระแส","parentCode":"2103"},"geometry":{"type":"Polygon","coordinates":[[[101.70643358000007,12.736351705000061],[101.69099946800009,12.741037764000055],[101.68266252000006,12.722570571000063],[101.69593087600003,12.695115686000065],[101.72324313700005,12.705117758000029],[101.70643358000007,12.736351705000061]]]}},{"type":"Feature","properties":{"code":"210803","name":"พนานิคม","parentCode":"2108"},"geometry":{"type":"Polygon","coordinates":[[[101.15162230500005,12.930779447000077],[101.08816921300007,12.920569181000076],[101.07912889200009,12.907295856000076],[101.15595606900007,12.857310811000048],[101.17886178100008,12.886958435000054],[101.15162230500005,12.930779447000077]]]}},{"type":"Feature","properties":{"code":"210312","name":"พังราด","parentCode":"2103"},"geometry":{"type":"Polygon","coordinates":[[[101.79887906100004,12.746758981000028],[101.76505541800009,12.763773122000032],[101.74458333400008,12.706944690000057],[101.78435838500008,12.69319157600006],[101.80104944100003,12.744229481000048],[101.79887906100004,12.746758981000028]]]}},{"type":"Feature","properties":{"code":"210105","name":"เพ","parentCode":"2101"},"geometry":{"type":"Polygon","coordinates":[[[101.41753015900008,12.668782446000023],[101.38254892600008,12.612208903000067],[101.42117883400005,12.590163683000071],[101.44735506200004,12.630088620000038],[101.41753015900008,12.668782446000023]]]}},{"type":"Feature","properties":{"code":"210202","name":"พลา","parentCode":"2102"},"geometry":{"type":"Polygon","coordinates":[[[101.06390185100008,12.674149899000042],[101.04579502400009,12.735960730000045],[100.98445505300003,12.69286988600004],[100.99225785100003,12.656245697000031],[101.06390185100008,12.674149899000042]]]}},{"type":"Feature","properties":{"code":"210404","name":"พลงตาเอี่ยม","parentCode":"2104"},"geometry":{"type":"Polygon","coordinates":[[[101.58338697900007,12.919972100000052],[101.53840042800005,12.938776480000058],[101.48886392200006,12.885013395000044],[101.48163779900005,12.867564241000025],[101.50282973700007,12.862866544000042],[101.53882871500008,12.886529886000062],[101.59795480100007,12.882103632000053],[101.58338697900007,12.919972100000052]]]}},{"type":"Feature","properties":{"code":"210601","name":"ปลวกแดง","parentCode":"2106"},"geometry":{"type":"Polygon","coordinates":[[[101.17450224400005,13.019972788000075],[101.13477690600007,13.016529442000035],[101.19932131300004,12.954396040000063],[101.23845200900007,12.954062929000031],[101.28493895700007,12.927120931000047],[101.28514226600004,12.976095820000069],[101.25318559300007,12.999388229000033],[101.17450224400005,13.019972788000075]]]}},{"type":"Feature","properties":{"code":"210201","name":"สำนักท้อน","parentCode":"2102"},"geometry":{"type":"Polygon","coordinates":[[[101.09221000500008,12.805102154000053],[101.05001184200006,12.815118239000071],[101.01197620000005,12.767614373000072],[100.98445505300003,12.69286988600004],[101.04579502400009,12.735960730000045],[101.09221000500008,12.805102154000053]]]}},{"type":"Feature","properties":{"code":"210115","name":"สำนักทอง","parentCode":"2101"},"geometry":{"type":"Polygon","coordinates":[[[101.45118029900004,12.829565123000066],[101.40050329000007,12.768469885000059],[101.41872652600006,12.736806406000028],[101.41712272900008,12.703471311000044],[101.49071562800003,12.691051319000053],[101.48701971400004,12.770182474000023],[101.45118029900004,12.829565123000066]]]}},{"type":"Feature","properties":{"code":"210318","name":"สองสลึง","parentCode":"2103"},"geometry":{"type":"Polygon","coordinates":[[[101.59037867300003,12.732970801000022],[101.50734145000007,12.80693343300004],[101.53028340200007,12.72029073300007],[101.56038716800003,12.697343128000057],[101.59037867300003,12.732970801000022]]]}},{"type":"Feature","properties":{"code":"210504","name":"ตาขัน","parentCode":"2105"},"geometry":{"type":"Polygon","coordinates":[[[101.36344787700006,12.762070039000037],[101.31067252200006,12.759941723000054],[101.29184187800007,12.745338417000028],[101.28112004800005,12.730420146000029],[101.27872521800003,12.721165841000072],[101.31365537500005,12.697865145000037],[101.36344787700006,12.762070039000037]]]}},{"type":"Feature","properties":{"code":"210602","name":"ตาสิทธิ์","parentCode":"2106"},"geometry":{"type":"Polygon","coordinates":[[[101.21953094300005,13.077617260000068],[101.17966752800004,13.084593700000028],[101.18821434700004,13.03965011400004],[101.17450224400005,13.019972788000075],[101.25318559300007,12.999388229000033],[101.26365486300006,13.030383412000049],[101.28899955700007,13.05888750400004],[101.21953094300005,13.077617260000068]]]}},{"type":"Feature","properties":{"code":"210103","name":"ตะพง","parentCode":"2101"},"geometry":{"type":"Polygon","coordinates":[[[101.41753015900008,12.668782446000023],[101.41712272900008,12.703471311000044],[101.32503860300005,12.688441780000062],[101.31038820300006,12.644533409000076],[101.38254892600008,12.612208903000067],[101.41753015900008,12.668782446000023]]]}},{"type":"Feature","properties":{"code":"210101","name":"ท่าประดู่","parentCode":"2101"},"geometry":{"type":"Polygon","coordinates":[[[101.28066435200009,12.667685702000028],[101.28763251700008,12.67763035300004],[101.27093659400003,12.685852021000073],[101.27191116500006,12.671078790000024],[101.28066435200009,12.667685702000028]]]}},{"type":"Feature","properties":{"code":"210301","name":"ทางเกวียน","parentCode":"2103"},"geometry":{"type":"Polygon","coordinates":[[[101.58578617300009,12.840029223000045],[101.55186400100007,12.831123848000061],[101.60906358000005,12.800461734000066],[101.66508135800007,12.723930101000064],[101.68266252000006,12.722570571000063],[101.69099946800009,12.741037764000055],[101.68385035000006,12.78985775800004],[101.65398670100006,12.827192761000049],[101.58578617300009,12.840029223000045]]]}},{"type":"Feature","properties":{"code":"210111","name":"ทับมา","parentCode":"2101"},"geometry":{"type":"Polygon","coordinates":[[[101.22824581800006,12.747388496000042],[101.19591848000005,12.748639986000057],[101.18355729400008,12.721429026000067],[101.21500882900006,12.686908725000023],[101.26892431200008,12.694210167000051],[101.26574032700006,12.699606146000065],[101.22824581800006,12.747388496000042]]]}},{"type":"Feature","properties":{"code":"210309","name":"ทุ่งควายกิน","parentCode":"2103"},"geometry":{"type":"Polygon","coordinates":[[[101.75388255400009,12.78681872900006],[101.78605856100006,12.877008808000028],[101.73903266300005,12.833330571000033],[101.70412995400005,12.864532075000056],[101.68385035000006,12.78985775800004],[101.69099946800009,12.741037764000055],[101.70643358000007,12.736351705000061],[101.71940465400007,12.776559502000055],[101.75388255400009,12.78681872900006]]]}},{"type":"Feature","properties":{"code":"210401","name":"วังจันทร์","parentCode":"2104"},"geometry":{"type":"Polygon","coordinates":[[[101.59795480100007,12.882103632000053],[101.53882871500008,12.886529886000062],[101.50282973700007,12.862866544000042],[101.50614350200004,12.848644683000032],[101.55186400100007,12.831123848000061],[101.58578617300009,12.840029223000045],[101.59795480100007,12.882103632000053]]]}},{"type":"Feature","properties":{"code":"210302","name":"วังหว้า","parentCode":"2103"},"geometry":{"type":"Polygon","coordinates":[[[101.55186400100007,12.831123848000061],[101.50614350200004,12.848644683000032],[101.50704830400008,12.830230662000076],[101.53403281800007,12.823434427000052],[101.61802435300007,12.741672688000051],[101.66508135800007,12.723930101000064],[101.60906358000005,12.800461734000066],[101.55186400100007,12.831123848000061]]]}}]}