{"type":"FeatureCollection","features":[{"type":"Feature","properties":{"code":"220508","name":"อ่างคีรี","parentCode":"2205"},"geometry":{"type":"Polygon","coordinates":[[[102.26043134300005,12.638786417000063],[102.22529701900004,12.687691546000053],[102.18663891000006,12.624489530000062],[102.21097147800003,12.590446107000048],[102.26043134300005,12.638786417000063]]]}},{"type":"Feature","properties":{"code":"220205","name":"บางชัน","parentCode":"2202"},"geometry":{"type":"Polygon","coordinates":[[[102.24713707300003,12.420600850000028],[102.22185314800004,12.420249870000077],[102.20597308800006,12.375436828000034],[102.20046300000007,12.357889122000074],[102.25776175800007,12.29291971300006],[102.28594096000006,12.299069017000022],[102.34781414000008,12.350615839000056],[102.34471918100007,12.363260600000046],[102.30337298600006,12.393359608000026],[102.26595998600004,12.374421558000051],[102.24713707300003,12.420600850000028]]]}},{"type":"Feature","properties":{"code":"220108","name":"บางกะจะ","parentCode":"2201"},"geometry":{"type":"Polygon","coordinates":[[[102.07848699000004,12.588933994000058],[102.06642739900008,12.604598193000072],[102.05041178500005,12.59349153200003],[102.02822404300008,12.565874008000037],[102.02265748600007,12.544784438000022],[102.06356228900006,12.533485534000022],[102.07770029000005,12.53614181100005],[102.08161415100005,12.583268652000072],[102.07848699000004,12.588933994000058]]]}},{"type":"Feature","properties":{"code":"220607","name":"บางกะไชย","parentCode":"2206"},"geometry":{"type":"Polygon","coordinates":[[[102.02265748600007,12.544784438000022],[101.97608790800007,12.542884662000063],[102.05879018500008,12.481651833000058],[102.06566676900007,12.512988130000053],[102.07107591700009,12.524708045000068],[102.06356228900006,12.533485534000022],[102.02265748600007,12.544784438000022]]]}},{"type":"Feature","properties":{"code":"220606","name":"บางสระเก้า","parentCode":"2206"},"geometry":{"type":"Polygon","coordinates":[[[102.11725628500005,12.51943194300003],[102.07107591700009,12.524708045000068],[102.06566676900007,12.512988130000053],[102.10177916500004,12.49227890900005],[102.11725628500005,12.51943194300003]]]}},{"type":"Feature","properties":{"code":"220202","name":"บ่อ","parentCode":"2202"},"geometry":{"type":"Polygon","coordinates":[[[102.33328714900006,12.497531059000039],[102.31711410400004,12.509856201000048],[102.27894127200005,12.459579554000072],[102.24713707300003,12.420600850000028],[102.26595998600004,12.374421558000051],[102.30337298600006,12.393359608000026],[102.34471918100007,12.363260600000046],[102.37177469300008,12.389910273000055],[102.32942148200004,12.44087938000007],[102.33328714900006,12.497531059000039]]]}},{"type":"Feature","properties":{"code":"220304","name":"บ่อพุ","parentCode":"2203"},"geometry":{"type":"Polygon","coordinates":[[[102.04384857800005,12.60030990100006],[102.03570845700006,12.610568878000038],[102.01293132800004,12.589204981000023],[102.01171553400007,12.582502195000075],[102.04384857800005,12.60030990100006]]]}},{"type":"Feature","properties":{"code":"220212","name":"บ่อเวฬุ","parentCode":"2202"},"geometry":{"type":"Polygon","coordinates":[[[102.46422919800006,12.760714805000077],[102.37807018700005,12.761085323000032],[102.37542251600007,12.791699531000063],[102.32752518400008,12.813725560000023],[102.32143570700003,12.808970637000073],[102.31422589100004,12.75655481800004],[102.33204187600006,12.714930065000033],[102.27618756600003,12.711974014000077],[102.28784535200003,12.675753507000024],[102.29612259700008,12.68956951000007],[102.39172527700003,12.630811968000046],[102.38940523300005,12.645337882000035],[102.38528671300008,12.67949346000006],[102.44112632600007,12.73671330600007],[102.49116729900004,12.757238753000024],[102.46422919800006,12.760714805000077]]]}},{"type":"Feature","properties":{"code":"221001","name":"ชากไทย","parentCode":"2210"},"geometry":{"type":"Polygon","coordinates":[[[102.12916645700005,12.77833640600005],[102.02056009600005,12.86277117700007],[102.01015241700009,12.85429453100005],[102.04064455400004,12.792255270000055],[102.08140244200007,12.781553189000022],[102.08429728200008,12.737574601000063],[102.10142394200005,12.735566198000072],[102.10836571900006,12.742755222000028],[102.12916645700005,12.77833640600005]]]}},{"type":"Feature","properties":{"code":"220506","name":"ฉมัน","parentCode":"2205"},"geometry":{"type":"Polygon","coordinates":[[[102.24015097300008,12.862461363000023],[102.23352120800007,12.885152235000021],[102.19432552200004,12.835568207000051],[102.18464817300008,12.812649282000052],[102.20105721000004,12.740523736000057],[102.21015378400006,12.727460436000058],[102.23645045400008,12.762541592000048],[102.25339666900004,12.83847135600007],[102.24015097300008,12.862461363000023]]]}},{"type":"Feature","properties":{"code":"220905","name":"ช้างข้าม","parentCode":"2209"},"geometry":{"type":"Polygon","coordinates":[[[101.84612801100008,12.725628069000038],[101.80104944100003,12.744229481000048],[101.78435838500008,12.69319157600006],[101.84173022800007,12.661133523000046],[101.84612801100008,12.725628069000038]]]}},{"type":"Feature","properties":{"code":"221005","name":"จันทเขลม","parentCode":"2210"},"geometry":{"type":"Polygon","coordinates":[[[102.15354052700008,13.12875931700006],[102.12837473900004,13.19761399500004],[102.07501588800005,13.187920507000058],[102.04824868800006,13.160104903000047],[102.05510850100006,13.105213698000057],[102.01195908400007,13.068463278000024],[102.00227886600004,12.989339565000023],[102.05472602400005,12.965021361000026],[102.12138343900006,12.979453482000054],[102.17316290400004,13.010735131000047],[102.15479292100008,13.06089789400005],[102.15354052700008,13.12875931700006]]]}},{"type":"Feature","properties":{"code":"220107","name":"จันทนิมิต","parentCode":"2201"},"geometry":{"type":"Polygon","coordinates":[[[102.13472077400007,12.633688558000074],[102.11438003000006,12.613984130000063],[102.11310104400008,12.603590129000054],[102.11087155800004,12.59207040900003],[102.12450251200005,12.589265941000065],[102.12616441000006,12.601240738000058],[102.13472077400007,12.633688558000074]]]}},{"type":"Feature","properties":{"code":"220801","name":"แก่งหางแมว","parentCode":"2208"},"geometry":{"type":"Polygon","coordinates":[[[101.97677979300005,12.985283410000022],[101.96840613500007,13.005155389000038],[101.86087088300008,13.046895753000058],[101.85883591900006,12.974831876000053],[101.89337976800005,12.956049551000035],[101.86086042500006,12.911826486000052],[101.90927834300004,12.926401080000062],[101.95942988200005,12.904196224000032],[101.97677979300005,12.985283410000022]]]}},{"type":"Feature","properties":{"code":"220312","name":"โขมง","parentCode":"2203"},"geometry":{"type":"Polygon","coordinates":[[[101.95537226300007,12.654684791000022],[101.94361178700007,12.657410006000077],[101.91717361300005,12.62257482700005],[101.93582549100006,12.588362326000038],[101.95937032200004,12.615654401000029],[101.96104506700004,12.644065788000034],[101.95537226300007,12.654684791000022]]]}},{"type":"Feature","properties":{"code":"220307","name":"เขาบายศรี","parentCode":"2203"},"geometry":{"type":"Polygon","coordinates":[[[102.08429728200008,12.737574601000063],[102.08140244200007,12.781553189000022],[102.04064455400004,12.792255270000055],[102.01767066300005,12.78416747600005],[102.03563276400007,12.686288524000076],[101.99233910800007,12.653970530000038],[102.02050996900005,12.636550116000024],[102.06814186200006,12.700062799000023],[102.08429728200008,12.737574601000063]]]}},{"type":"Feature","properties":{"code":"220324","name":"เขาแก้ว","parentCode":"2203"},"geometry":{"type":"Polygon","coordinates":[[[101.95942988200005,12.904196224000032],[101.90927834300004,12.926401080000062],[101.86086042500006,12.911826486000052],[101.89431147700009,12.86150837100007],[101.90580113500005,12.791223013000035],[101.93088254700007,12.762497119000045],[101.93154070200006,12.811244745000067],[101.99631616400006,12.865606567000043],[102.01015241700009,12.85429453100005],[102.02056009600005,12.86277117700007],[102.02132704900004,12.866654040000071],[102.02364926300004,12.870648328000073],[102.00279189200006,12.920047215000068],[101.95942988200005,12.904196224000032]]]}},{"type":"Feature","properties":{"code":"220805","name":"เขาวงกต","parentCode":"2208"},"geometry":{"type":"Polygon","coordinates":[[[101.79632460800008,12.953020668000022],[101.77395932000007,12.951764745000048],[101.80987500700007,12.88486354500003],[101.82867456200006,12.83601886300005],[101.87243351500007,12.837618761000044],[101.85185192900008,12.920417685000075],[101.79632460800008,12.953020668000022]]]}},{"type":"Feature","properties":{"code":"220306","name":"เขาวัว","parentCode":"2203"},"geometry":{"type":"Polygon","coordinates":[[[102.06814186200006,12.700062799000023],[102.02050996900005,12.636550116000024],[102.02941015600004,12.626742813000021],[102.03575105000004,12.621029443000054],[102.07409100800004,12.640209262000042],[102.07989447500006,12.67577844300007],[102.06814186200006,12.700062799000023]]]}},{"type":"Feature","properties":{"code":"220314","name":"คลองขุด","parentCode":"2203"},"geometry":{"type":"Polygon","coordinates":[[[101.93582549100006,12.588362326000038],[101.91717361300005,12.62257482700005],[101.91062104300005,12.62052460600006],[101.89759855700004,12.601834993000068],[101.88424594600008,12.580362027000035],[101.94785956800007,12.53801603200003],[101.93582549100006,12.588362326000038]]]}},{"type":"Feature","properties":{"code":"220605","name":"คลองน้ำเค็ม","parentCode":"2206"},"geometry":{"type":"Polygon","coordinates":[[[102.13880771700008,12.511015823000037],[102.12717566500004,12.53011136300006],[102.11725628500005,12.51943194300003],[102.10177916500004,12.49227890900005],[102.13713059700007,12.482803082000032],[102.13880771700008,12.511015823000037]]]}},{"type":"Feature","properties":{"code":"220103","name":"คลองนารายณ์","parentCode":"2201"},"geometry":{"type":"Polygon","coordinates":[[[102.20903416000004,12.566824626000027],[102.12616441000006,12.601240738000058],[102.12450251200005,12.589265941000065],[102.13119560700005,12.563985990000049],[102.13801889900009,12.556034585000077],[102.20598577600003,12.551096732000076],[102.20903416000004,12.566824626000027]]]}},{"type":"Feature","properties":{"code":"221004","name":"คลองพลู","parentCode":"2210"},"geometry":{"type":"Polygon","coordinates":[[[102.17316290400004,13.010735131000047],[102.12138343900006,12.979453482000054],[102.05472602400005,12.965021361000026],[102.00227886600004,12.989339565000023],[101.97677979300005,12.985283410000022],[101.95942988200005,12.904196224000032],[102.00279189200006,12.920047215000068],[102.02364926300004,12.870648328000073],[102.04874850200008,12.88520623200003],[102.07972282700007,12.96207501300006],[102.18170028700007,12.958324978000064],[102.17316290400004,13.010735131000047]]]}},{"type":"Feature","properties":{"code":"220410","name":"คลองใหญ่","parentCode":"2204"},"geometry":{"type":"Polygon","coordinates":[[[102.48733370700006,12.981829084000026],[102.42744529600009,12.994897618000039],[102.41760948900009,12.911502785000039],[102.45187631600004,12.843939481000064],[102.46422919800006,12.760714805000077],[102.49116729900004,12.757238753000024],[102.50762102800007,12.752436102000047],[102.53270305000007,12.76706736400007],[102.52961608900006,12.817816852000021],[102.49790828200008,12.859562092000033],[102.51057163300004,12.895654007000076],[102.48733370700006,12.981829084000026]]]}},{"type":"Feature","properties":{"code":"220201","name":"ขลุง","parentCode":"2202"},"geometry":{"type":"Polygon","coordinates":[[[102.23172150200008,12.459317687000066],[102.22355564200006,12.46605943700007],[102.22315956400007,12.444030646000044],[102.23172150200008,12.459317687000066]]]}},{"type":"Feature","properties":{"code":"220802","name":"ขุนซ่อง","parentCode":"2208"},"geometry":{"type":"Polygon","coordinates":[[[102.02829049400003,13.236708263000025],[102.03281523200008,13.28643435600003],[101.98890313500004,13.333254906000036],[101.95584415200005,13.299742554000034],[101.90521249200003,13.287680016000024],[101.87165194700003,13.223234971000068],[101.87691303100007,13.10324673200006],[101.86087088300008,13.046895753000058],[101.96840613500007,13.005155389000038],[101.97677979300005,12.985283410000022],[102.00227886600004,12.989339565000023],[102.01195908400007,13.068463278000024],[102.05510850100006,13.105213698000057],[102.04824868800006,13.160104903000047],[102.02829049400003,13.236708263000025]]]}},{"type":"Feature","properties":{"code":"220104","name":"เกาะขวาง","parentCode":"2201"},"geometry":{"type":"Polygon","coordinates":[[[102.11087155800004,12.59207040900003],[102.08161415100005,12.583268652000072],[102.07770029000005,12.53614181100005],[102.13119560700005,12.563985990000049],[102.12450251200005,12.589265941000065],[102.11087155800004,12.59207040900003]]]}},{"type":"Feature","properties":{"code":"220602","name":"เกาะเปริด","parentCode":"2206"},"geometry":{"type":"Polygon","coordinates":[[[102.20597308800006,12.375436828000034],[102.14095746000004,12.436957052000025],[102.12203854900008,12.42566953100004],[102.20046300000007,12.357889122000074],[102.20597308800006,12.375436828000034]]]}},{"type":"Feature","properties":{"code":"220105","name":"คมบาง","parentCode":"2201"},"geometry":{"type":"Polygon","coordinates":[[[102.20598577600003,12.551096732000076],[102.13801889900009,12.556034585000077],[102.12717566500004,12.53011136300006],[102.13880771700008,12.511015823000037],[102.18505767800008,12.519467504000033],[102.19902841200008,12.523311380000052],[102.20598577600003,12.551096732000076]]]}},{"type":"Feature","properties":{"code":"220903","name":"กระแจะ","parentCode":"2209"},"geometry":{"type":"Polygon","coordinates":[[[101.86344543700005,12.642226578000077],[101.88039184200005,12.73971232200006],[101.84612801100008,12.725628069000038],[101.84173022800007,12.661133523000046],[101.86344543700005,12.642226578000077]]]}},{"type":"Feature","properties":{"code":"220203","name":"เกวียนหัก","parentCode":"2202"},"geometry":{"type":"Polygon","coordinates":[[[102.22355564200006,12.46605943700007],[102.19902841200008,12.523311380000052],[102.16938041500003,12.456182708000028],[102.21736871200005,12.438340625000023],[102.22315956400007,12.444030646000044],[102.22355564200006,12.46605943700007]]]}},{"type":"Feature","properties":{"code":"220501","name":"มะขาม","parentCode":"2205"},"geometry":{"type":"Polygon","coordinates":[[[102.20105721000004,12.740523736000057],[102.18285836400008,12.716992792000042],[102.15338184500007,12.637002615000029],[102.18663891000006,12.624489530000062],[102.22529701900004,12.687691546000053],[102.21015378400006,12.727460436000058],[102.20105721000004,12.740523736000057]]]}},{"type":"Feature","properties":{"code":"220208","name":"มาบไพ","parentCode":"2202"},"geometry":{"type":"Polygon","coordinates":[[[102.27725137500005,12.639937450000048],[102.26043134300005,12.638786417000063],[102.21097147800003,12.590446107000048],[102.20903416000004,12.566824626000027],[102.23616012400004,12.56579907300005],[102.28900171800007,12.574385586000062],[102.29632843900004,12.602598102000059],[102.27725137500005,12.639937450000048]]]}},{"type":"Feature","properties":{"code":"220901","name":"นายายอาม","parentCode":"2209"},"geometry":{"type":"Polygon","coordinates":[[[101.87243351500007,12.837618761000044],[101.82867456200006,12.83601886300005],[101.81945665500007,12.753871159000028],[101.79887906100004,12.746758981000028],[101.80104944100003,12.744229481000048],[101.84612801100008,12.725628069000038],[101.88039184200005,12.73971232200006],[101.89052221200006,12.737764973000026],[101.89238605000008,12.73903094600007],[101.87243351500007,12.837618761000044]]]}},{"type":"Feature","properties":{"code":"220110","name":"หนองบัว","parentCode":"2201"},"geometry":{"type":"Polygon","coordinates":[[[102.13119560700005,12.563985990000049],[102.07770029000005,12.53614181100005],[102.06356228900006,12.533485534000022],[102.07107591700009,12.524708045000068],[102.11725628500005,12.51943194300003],[102.12717566500004,12.53011136300006],[102.13801889900009,12.556034585000077],[102.13119560700005,12.563985990000049]]]}},{"type":"Feature","properties":{"code":"220603","name":"หนองชิ่ม","parentCode":"2206"},"geometry":{"type":"Polygon","coordinates":[[[102.14991464400003,12.480767164000042],[102.14166618400009,12.480601643000057],[102.14095746000004,12.436957052000025],[102.20597308800006,12.375436828000034],[102.22185314800004,12.420249870000077],[102.21736871200005,12.438340625000023],[102.16938041500003,12.456182708000028],[102.14991464400003,12.480767164000042]]]}},{"type":"Feature","properties":{"code":"220404","name":"หนองตาคง","parentCode":"2204"},"geometry":{"type":"Polygon","coordinates":[[[102.39998370300003,13.15912927900007],[102.33177070400006,13.124634054000069],[102.36258117600005,13.069126632000064],[102.33910144000004,13.050946941000063],[102.32085049000005,13.005788949000078],[102.41085749600006,13.02391644200003],[102.42803100900005,12.996951155000033],[102.43388460200003,13.028750699000057],[102.40530321500006,13.11103584500006],[102.41707876000004,13.122676323000064],[102.39998370300003,13.15912927900007]]]}},{"type":"Feature","properties":{"code":"220601","name":"ปากน้ำแหลมสิงห์","parentCode":"2206"},"geometry":{"type":"Polygon","coordinates":[[[102.10177916500004,12.49227890900005],[102.06566676900007,12.512988130000053],[102.05879018500008,12.481651833000058],[102.12203854900008,12.42566953100004],[102.14095746000004,12.436957052000025],[102.14166618400009,12.480601643000057],[102.13713059700007,12.482803082000032],[102.10177916500004,12.49227890900005]]]}},{"type":"Feature","properties":{"code":"220701","name":"ปะตง","parentCode":"2207"},"geometry":{"type":"Polygon","coordinates":[[[102.26890161900008,13.231888981000054],[102.12837473900004,13.19761399500004],[102.15354052700008,13.12875931700006],[102.22595572300008,13.120826520000037],[102.25425018300007,13.17619064400003],[102.26890161900008,13.231888981000054]]]}},{"type":"Feature","properties":{"code":"220503","name":"ปัถวี","parentCode":"2205"},"geometry":{"type":"Polygon","coordinates":[[[102.32143570700003,12.808970637000073],[102.24015097300008,12.862461363000023],[102.25339666900004,12.83847135600007],[102.23645045400008,12.762541592000048],[102.21015378400006,12.727460436000058],[102.22529701900004,12.687691546000053],[102.26043134300005,12.638786417000063],[102.27725137500005,12.639937450000048],[102.28784535200003,12.675753507000024],[102.27618756600003,12.711974014000077],[102.33204187600006,12.714930065000033],[102.31422589100004,12.75655481800004],[102.32143570700003,12.808970637000073]]]}},{"type":"Feature","properties":{"code":"220804","name":"พวา","parentCode":"2208"},"geometry":{"type":"Polygon","coordinates":[[[101.87165194700003,13.223234971000068],[101.85430657600006,13.254139838000071],[101.77328831600005,13.184747092000066],[101.71713777700006,13.182213531000059],[101.69577208800007,13.14659670900005],[101.68471780500005,13.122722318000058],[101.72462258000007,13.030058515000064],[101.75769839300006,13.049373984000056],[101.73884233100006,12.959068308000042],[101.77395932000007,12.951764745000048],[101.79632460800008,12.953020668000022],[101.79268701600006,13.000289813000052],[101.86087088300008,13.046895753000058],[101.87691303100007,13.10324673200006],[101.87165194700003,13.223234971000068]]]}},{"type":"Feature","properties":{"code":"220111","name":"พลับพลา","parentCode":"2201"},"geometry":{"type":"Polygon","coordinates":[[[102.15338184500007,12.637002615000029],[102.13472077400007,12.633688558000074],[102.12616441000006,12.601240738000058],[102.20903416000004,12.566824626000027],[102.21097147800003,12.590446107000048],[102.18663891000006,12.624489530000062],[102.15338184500007,12.637002615000029]]]}},{"type":"Feature","properties":{"code":"220604","name":"พลิ้ว","parentCode":"2206"},"geometry":{"type":"Polygon","coordinates":[[[102.18505767800008,12.519467504000033],[102.13880771700008,12.511015823000037],[102.13713059700007,12.482803082000032],[102.14166618400009,12.480601643000057],[102.14991464400003,12.480767164000042],[102.18505767800008,12.519467504000033]]]}},{"type":"Feature","properties":{"code":"220305","name":"พลอยแหวน","parentCode":"2203"},"geometry":{"type":"Polygon","coordinates":[[[102.07409100800004,12.640209262000042],[102.03575105000004,12.621029443000054],[102.03570845700006,12.610568878000038],[102.04384857800005,12.60030990100006],[102.05041178500005,12.59349153200003],[102.06642739900008,12.604598193000072],[102.07409100800004,12.640209262000042]]]}},{"type":"Feature","properties":{"code":"221002","name":"พลวง","parentCode":"2210"},"geometry":{"type":"Polygon","coordinates":[[[102.19432552200004,12.835568207000051],[102.13683053100004,12.858447220000073],[102.08963181500008,12.848605100000043],[102.06545498200006,12.873233324000068],[102.02132704900004,12.866654040000071],[102.02056009600005,12.86277117700007],[102.12916645700005,12.77833640600005],[102.18464817300008,12.812649282000052],[102.19432552200004,12.835568207000051]]]}},{"type":"Feature","properties":{"code":"220402","name":"โป่งน้ำร้อน","parentCode":"2204"},"geometry":{"type":"Polygon","coordinates":[[[102.42803100900005,12.996951155000033],[102.41085749600006,13.02391644200003],[102.32085049000005,13.005788949000078],[102.30114524200008,12.914056391000031],[102.32752518400008,12.813725560000023],[102.37542251600007,12.791699531000063],[102.37807018700005,12.761085323000032],[102.46422919800006,12.760714805000077],[102.45187631600004,12.843939481000064],[102.41760948900009,12.911502785000039],[102.42744529600009,12.994897618000039],[102.42803100900005,12.996951155000033]]]}},{"type":"Feature","properties":{"code":"220311","name":"รำพัน","parentCode":"2203"},"geometry":{"type":"Polygon","coordinates":[[[101.94361178700007,12.657410006000077],[101.90021492600005,12.71300707000006],[101.88972124000009,12.678700629000048],[101.91062104300005,12.62052460600006],[101.91717361300005,12.62257482700005],[101.94361178700007,12.657410006000077]]]}},{"type":"Feature","properties":{"code":"220704","name":"ทรายขาว","parentCode":"2207"},"geometry":{"type":"Polygon","coordinates":[[[102.29072445300005,13.173611339000047],[102.25425018300007,13.17619064400003],[102.22595572300008,13.120826520000037],[102.15354052700008,13.12875931700006],[102.15479292100008,13.06089789400005],[102.23667630900007,13.039185275000023],[102.33910144000004,13.050946941000063],[102.36258117600005,13.069126632000064],[102.33177070400006,13.124634054000069],[102.28368092000005,13.136089753000022],[102.29072445300005,13.173611339000047]]]}},{"type":"Feature","properties":{"code":"220109","name":"แสลง","parentCode":"2201"},"geometry":{"type":"Polygon","coordinates":[[[102.10142394200005,12.735566198000072],[102.08429728200008,12.737574601000063],[102.06814186200006,12.700062799000023],[102.07989447500006,12.67577844300007],[102.13343708500008,12.640461470000048],[102.14798707000006,12.659804192000024],[102.10142394200005,12.735566198000072]]]}},{"type":"Feature","properties":{"code":"220803","name":"สามพี่น้อง","parentCode":"2208"},"geometry":{"type":"Polygon","coordinates":[[[101.86087088300008,13.046895753000058],[101.79268701600006,13.000289813000052],[101.79632460800008,12.953020668000022],[101.85185192900008,12.920417685000075],[101.86086042500006,12.911826486000052],[101.89337976800005,12.956049551000035],[101.85883591900006,12.974831876000053],[101.86087088300008,13.046895753000058]]]}},{"type":"Feature","properties":{"code":"220904","name":"สนามไชย","parentCode":"2209"},"geometry":{"type":"Polygon","coordinates":[[[101.89052221200006,12.737764973000026],[101.88039184200005,12.73971232200006],[101.86344543700005,12.642226578000077],[101.89759855700004,12.601834993000068],[101.91062104300005,12.62052460600006],[101.88972124000009,12.678700629000048],[101.90021492600005,12.71300707000006],[101.89052221200006,12.737764973000026]]]}},{"type":"Feature","properties":{"code":"220705","name":"สะตอน","parentCode":"2207"},"geometry":{"type":"Polygon","coordinates":[[[102.39388397400006,13.195589864000056],[102.29072445300005,13.173611339000047],[102.28368092000005,13.136089753000022],[102.33177070400006,13.124634054000069],[102.39998370300003,13.15912927900007],[102.39388397400006,13.195589864000056]]]}},{"type":"Feature","properties":{"code":"220303","name":"สีพยา","parentCode":"2203"},"geometry":{"type":"Polygon","coordinates":[[[102.02822404300008,12.565874008000037],[102.05041178500005,12.59349153200003],[102.04384857800005,12.60030990100006],[102.01171553400007,12.582502195000075],[102.02822404300008,12.565874008000037]]]}},{"type":"Feature","properties":{"code":"220308","name":"สองพี่น้อง","parentCode":"2203"},"geometry":{"type":"Polygon","coordinates":[[[101.99233910800007,12.653970530000038],[102.03563276400007,12.686288524000076],[102.01767066300005,12.78416747600005],[101.99297431300005,12.783236548000048],[101.99392162900006,12.725315138000042],[101.95223912800009,12.693093883000074],[101.95537226300007,12.654684791000022],[101.96104506700004,12.644065788000034],[101.99233910800007,12.653970530000038]]]}},{"type":"Feature","properties":{"code":"220207","name":"ซึ้ง","parentCode":"2202"},"geometry":{"type":"Polygon","coordinates":[[[102.29610557400008,12.518012043000056],[102.19902841200008,12.523311380000052],[102.22355564200006,12.46605943700007],[102.23172150200008,12.459317687000066],[102.27894127200005,12.459579554000072],[102.31711410400004,12.509856201000048],[102.29610557400008,12.518012043000056]]]}},{"type":"Feature","properties":{"code":"220313","name":"ตะกาดเง้า","parentCode":"2203"},"geometry":{"type":"Polygon","coordinates":[[[102.00350476000006,12.613019099000041],[101.95937032200004,12.615654401000029],[101.93582549100006,12.588362326000038],[101.94785956800007,12.53801603200003],[101.97608790800007,12.542884662000063],[102.02265748600007,12.544784438000022],[102.02822404300008,12.565874008000037],[102.01171553400007,12.582502195000075],[102.01293132800004,12.589204981000023],[102.00350476000006,12.613019099000041]]]}},{"type":"Feature","properties":{"code":"221003","name":"ตะเคียนทอง","parentCode":"2210"},"geometry":{"type":"Polygon","coordinates":[[[102.18170028700007,12.958324978000064],[102.07972282700007,12.96207501300006],[102.04874850200008,12.88520623200003],[102.02364926300004,12.870648328000073],[102.02132704900004,12.866654040000071],[102.06545498200006,12.873233324000068],[102.08963181500008,12.848605100000043],[102.13683053100004,12.858447220000073],[102.19432552200004,12.835568207000051],[102.23352120800007,12.885152235000021],[102.18170028700007,12.958324978000064]]]}},{"type":"Feature","properties":{"code":"220101","name":"ตลาด","parentCode":"2201"},"geometry":{"type":"Polygon","coordinates":[[[102.11310104400008,12.603590129000054],[102.09659844500004,12.599292571000035],[102.07848699000004,12.588933994000058],[102.08161415100005,12.583268652000072],[102.11087155800004,12.59207040900003],[102.11310104400008,12.603590129000054]]]}},{"type":"Feature","properties":{"code":"220204","name":"ตะปอน","parentCode":"2202"},"geometry":{"type":"Polygon","coordinates":[[[102.16938041500003,12.456182708000028],[102.19902841200008,12.523311380000052],[102.18505767800008,12.519467504000033],[102.14991464400003,12.480767164000042],[102.16938041500003,12.456182708000028]]]}},{"type":"Feature","properties":{"code":"220106","name":"ท่าช้าง","parentCode":"2201"},"geometry":{"type":"Polygon","coordinates":[[[102.13343708500008,12.640461470000048],[102.07989447500006,12.67577844300007],[102.07409100800004,12.640209262000042],[102.06642739900008,12.604598193000072],[102.07848699000004,12.588933994000058],[102.09659844500004,12.599292571000035],[102.11438003000006,12.613984130000063],[102.13472077400007,12.633688558000074],[102.13343708500008,12.640461470000048]]]}},{"type":"Feature","properties":{"code":"220502","name":"ท่าหลวง","parentCode":"2205"},"geometry":{"type":"Polygon","coordinates":[[[102.18285836400008,12.716992792000042],[102.10836571900006,12.742755222000028],[102.10142394200005,12.735566198000072],[102.14798707000006,12.659804192000024],[102.13343708500008,12.640461470000048],[102.13472077400007,12.633688558000074],[102.15338184500007,12.637002615000029],[102.18285836400008,12.716992792000042]]]}},{"type":"Feature","properties":{"code":"220301","name":"ท่าใหม่","parentCode":"2203"},"geometry":{"type":"Polygon","coordinates":[[[101.99233910800007,12.653970530000038],[101.96104506700004,12.644065788000034],[101.95937032200004,12.615654401000029],[102.00350476000006,12.613019099000041],[102.02941015600004,12.626742813000021],[102.02050996900005,12.636550116000024],[101.99233910800007,12.653970530000038]]]}},{"type":"Feature","properties":{"code":"220703","name":"ทับช้าง","parentCode":"2207"},"geometry":{"type":"Polygon","coordinates":[[[102.16524586000008,13.324091698000075],[102.13142311900003,13.336088321000034],[102.10344996800006,13.261590357000046],[102.02829049400003,13.236708263000025],[102.04824868800006,13.160104903000047],[102.07501588800005,13.187920507000058],[102.12837473900004,13.19761399500004],[102.26890161900008,13.231888981000054],[102.29112771800004,13.30007125000003],[102.28377653500007,13.303635412000062],[102.24480464600003,13.285576967000054],[102.18865892300005,13.293062450000036],[102.16524586000008,13.324091698000075]]]}},{"type":"Feature","properties":{"code":"220401","name":"ทับไทร","parentCode":"2204"},"geometry":{"type":"Polygon","coordinates":[[[102.33910144000004,13.050946941000063],[102.23667630900007,13.039185275000023],[102.15479292100008,13.06089789400005],[102.17316290400004,13.010735131000047],[102.18170028700007,12.958324978000064],[102.23352120800007,12.885152235000021],[102.24015097300008,12.862461363000023],[102.32143570700003,12.808970637000073],[102.32752518400008,12.813725560000023],[102.30114524200008,12.914056391000031],[102.32085049000005,13.005788949000078],[102.33910144000004,13.050946941000063]]]}},{"type":"Feature","properties":{"code":"220409","name":"เทพนิมิต","parentCode":"2204"},"geometry":{"type":"Polygon","coordinates":[[[102.41707876000004,13.122676323000064],[102.40530321500006,13.11103584500006],[102.43388460200003,13.028750699000057],[102.42803100900005,12.996951155000033],[102.42744529600009,12.994897618000039],[102.48733370700006,12.981829084000026],[102.49431446100004,13.013603476000071],[102.45902057900008,13.082966014000021],[102.41707876000004,13.122676323000064]]]}},{"type":"Feature","properties":{"code":"220309","name":"ทุ่งเบญจา","parentCode":"2203"},"geometry":{"type":"Polygon","coordinates":[[[102.01015241700009,12.85429453100005],[101.99631616400006,12.865606567000043],[101.93154070200006,12.811244745000067],[101.93088254700007,12.762497119000045],[101.95610288600005,12.72255615000006],[101.95223912800009,12.693093883000074],[101.99392162900006,12.725315138000042],[101.99297431300005,12.783236548000048],[102.01767066300005,12.78416747600005],[102.04064455400004,12.792255270000055],[102.01015241700009,12.85429453100005]]]}},{"type":"Feature","properties":{"code":"220702","name":"ทุ่งขนาน","parentCode":"2207"},"geometry":{"type":"Polygon","coordinates":[[[102.35357461600006,13.298943492000035],[102.29112771800004,13.30007125000003],[102.26890161900008,13.231888981000054],[102.25425018300007,13.17619064400003],[102.29072445300005,13.173611339000047],[102.39388397400006,13.195589864000056],[102.35357461600006,13.298943492000035]]]}},{"type":"Feature","properties":{"code":"220211","name":"ตกพรม","parentCode":"2202"},"geometry":{"type":"Polygon","coordinates":[[[102.39172527700003,12.630811968000046],[102.29612259700008,12.68956951000007],[102.28784535200003,12.675753507000024],[102.27725137500005,12.639937450000048],[102.29632843900004,12.602598102000059],[102.34508852600004,12.585864643000036],[102.38859452600008,12.57908339900007],[102.42360148700004,12.573173189000045],[102.39172527700003,12.630811968000046]]]}},{"type":"Feature","properties":{"code":"220210","name":"ตรอกนอง","parentCode":"2202"},"geometry":{"type":"Polygon","coordinates":[[[102.23616012400004,12.56579907300005],[102.20903416000004,12.566824626000027],[102.20598577600003,12.551096732000076],[102.19902841200008,12.523311380000052],[102.29610557400008,12.518012043000056],[102.28599136000008,12.559670169000071],[102.23616012400004,12.56579907300005]]]}},{"type":"Feature","properties":{"code":"220206","name":"วันยาว","parentCode":"2202"},"geometry":{"type":"Polygon","coordinates":[[[102.24713707300003,12.420600850000028],[102.27894127200005,12.459579554000072],[102.23172150200008,12.459317687000066],[102.22315956400007,12.444030646000044],[102.21736871200005,12.438340625000023],[102.22185314800004,12.420249870000077],[102.24713707300003,12.420600850000028]]]}},{"type":"Feature","properties":{"code":"220906","name":"วังใหม่","parentCode":"2209"},"geometry":{"type":"Polygon","coordinates":[[[101.86086042500006,12.911826486000052],[101.85185192900008,12.920417685000075],[101.87243351500007,12.837618761000044],[101.89238605000008,12.73903094600007],[101.95610288600005,12.72255615000006],[101.93088254700007,12.762497119000045],[101.90580113500005,12.791223013000035],[101.89431147700009,12.86150837100007],[101.86086042500006,12.911826486000052]]]}},{"type":"Feature","properties":{"code":"220504","name":"วังแซ้ม","parentCode":"2205"},"geometry":{"type":"Polygon","coordinates":[[[102.20105721000004,12.740523736000057],[102.18464817300008,12.812649282000052],[102.12916645700005,12.77833640600005],[102.10836571900006,12.742755222000028],[102.18285836400008,12.716992792000042],[102.20105721000004,12.740523736000057]]]}},{"type":"Feature","properties":{"code":"220209","name":"วังสรรพรส","parentCode":"2202"},"geometry":{"type":"Polygon","coordinates":[[[102.34508852600004,12.585864643000036],[102.29632843900004,12.602598102000059],[102.28900171800007,12.574385586000062],[102.23616012400004,12.56579907300005],[102.28599136000008,12.559670169000071],[102.29610557400008,12.518012043000056],[102.31711410400004,12.509856201000048],[102.33328714900006,12.497531059000039],[102.30507654600007,12.556464629000061],[102.34508852600004,12.585864643000036]]]}},{"type":"Feature","properties":{"code":"220902","name":"วังโตนด","parentCode":"2209"},"geometry":{"type":"Polygon","coordinates":[[[101.95610288600005,12.72255615000006],[101.89238605000008,12.73903094600007],[101.89052221200006,12.737764973000026],[101.90021492600005,12.71300707000006],[101.94361178700007,12.657410006000077],[101.95537226300007,12.654684791000022],[101.95223912800009,12.693093883000074],[101.95610288600005,12.72255615000006]]]}},{"type":"Feature","properties":{"code":"220102","name":"วัดใหม่","parentCode":"2201"},"geometry":{"type":"Polygon","coordinates":[[[102.11438003000006,12.613984130000063],[102.09659844500004,12.599292571000035],[102.11310104400008,12.603590129000054],[102.11438003000006,12.613984130000063]]]}},{"type":"Feature","properties":{"code":"220302","name":"ยายร้า","parentCode":"2203"},"geometry":{"type":"Polygon","coordinates":[[[102.03575105000004,12.621029443000054],[102.02941015600004,12.626742813000021],[102.00350476000006,12.613019099000041],[102.01293132800004,12.589204981000023],[102.03570845700006,12.610568878000038],[102.03575105000004,12.621029443000054]]]}}]}