{"type":"FeatureCollection","features":[{"type":"Feature","properties":{"code":"230106","name":"อ่าวใหญ่","parentCode":"2301"},"geometry":{"type":"Polygon","coordinates":[[[102.56087272600007,12.108873484000071],[102.53103049500004,12.114278093000053],[102.54764378400006,12.058718912000074],[102.58920149100004,12.053712700000062],[102.56087272600007,12.108873484000071]]]}},{"type":"Feature","properties":{"code":"230101","name":"บางพระ","parentCode":"2301"},"geometry":{"type":"Polygon","coordinates":[[[102.51374078200007,12.238069477000067],[102.52938999700007,12.252664320000065],[102.50533259900004,12.24765599400007],[102.51374078200007,12.238069477000067]]]}},{"type":"Feature","properties":{"code":"230503","name":"บางปิด","parentCode":"2305"},"geometry":{"type":"Polygon","coordinates":[[[102.28594096000006,12.299069017000022],[102.25776175800007,12.29291971300006],[102.28621786500008,12.23998057800003],[102.28567370700006,12.197081111000045],[102.31102253900008,12.195868966000035],[102.35879310500007,12.263476051000055],[102.31152254200003,12.25875297500005],[102.28594096000006,12.299069017000022]]]}},{"type":"Feature","properties":{"code":"230401","name":"บ่อพลอย","parentCode":"2304"},"geometry":{"type":"Polygon","coordinates":[[[102.64708245800006,12.605827073000057],[102.56757938000004,12.658200675000046],[102.51953595400005,12.663219428000048],[102.50509292700008,12.561630610000066],[102.46963942600007,12.549713090000068],[102.48059582200005,12.49891117900006],[102.48310562100005,12.49332492700006],[102.50634604700008,12.515256696000051],[102.55179524400006,12.540958661000047],[102.58941854100004,12.589829248000058],[102.64708245800006,12.605827073000057]]]}},{"type":"Feature","properties":{"code":"230113","name":"ชำราก","parentCode":"2301"},"geometry":{"type":"Polygon","coordinates":[[[102.71831947500004,12.244926188000022],[102.61181380000005,12.200828705000049],[102.64530007800005,12.15877534200007],[102.71134966800008,12.151209231000053],[102.71831947500004,12.244926188000022]]]}},{"type":"Feature","properties":{"code":"230402","name":"ช้างทูน","parentCode":"2304"},"geometry":{"type":"Polygon","coordinates":[[[102.51953595400005,12.663219428000048],[102.50220391600004,12.701142401000027],[102.42114470300004,12.614687830000037],[102.46963942600007,12.549713090000068],[102.50509292700008,12.561630610000066],[102.51953595400005,12.663219428000048]]]}},{"type":"Feature","properties":{"code":"230403","name":"ด่านชุมพล","parentCode":"2304"},"geometry":{"type":"Polygon","coordinates":[[[102.69636231200008,12.51994194100007],[102.63825194900005,12.524177678000058],[102.60144074600004,12.498971208000057],[102.55209170200004,12.502192790000038],[102.55172808200007,12.466569153000023],[102.60194466600007,12.443151434000072],[102.61086366000006,12.404852222000045],[102.65415128100005,12.396802950000051],[102.70575596000003,12.39507278700006],[102.77834746100007,12.436211358000037],[102.69636231200008,12.51994194100007]]]}},{"type":"Feature","properties":{"code":"230203","name":"หาดเล็ก","parentCode":"2302"},"geometry":{"type":"Polygon","coordinates":[[[102.89073155900007,11.754818569000065],[102.90686093800008,11.712272125000027],[102.90701157900008,11.758701779000035],[102.89073155900007,11.754818569000065]]]}},{"type":"Feature","properties":{"code":"230108","name":"ห้วยแร้ง","parentCode":"2301"},"geometry":{"type":"Polygon","coordinates":[[[102.65415128100005,12.396802950000051],[102.61086366000006,12.404852222000045],[102.60194466600007,12.443151434000072],[102.55172808200007,12.466569153000023],[102.52211436300007,12.427045571000065],[102.49440449600007,12.343586266000045],[102.50042840000003,12.325225471000067],[102.52147954100008,12.293596621000063],[102.55521374200003,12.340550521000068],[102.61905183900006,12.364008023000054],[102.65415128100005,12.396802950000051]]]}},{"type":"Feature","properties":{"code":"230105","name":"ห้วงน้ำขาว","parentCode":"2301"},"geometry":{"type":"Polygon","coordinates":[[[102.55454800900009,12.162273843000037],[102.51581996000004,12.164976379000052],[102.47390934500004,12.161518540000031],[102.53103049500004,12.114278093000053],[102.56087272600007,12.108873484000071],[102.55454800900009,12.162273843000037]]]}},{"type":"Feature","properties":{"code":"230301","name":"เขาสมิง","parentCode":"2303"},"geometry":{"type":"Polygon","coordinates":[[[102.49440449600007,12.343586266000045],[102.43842341000004,12.35671602900004],[102.43211629800004,12.413424497000051],[102.39830060600008,12.360372620000021],[102.39469883300006,12.306448905000025],[102.40419161500006,12.296107567000035],[102.46413375700007,12.298300854000047],[102.50042840000003,12.325225471000067],[102.49440449600007,12.343586266000045]]]}},{"type":"Feature","properties":{"code":"230201","name":"คลองใหญ่","parentCode":"2302"},"geometry":{"type":"Polygon","coordinates":[[[102.90701157900008,11.758701779000035],[102.84473086000008,11.84558779400004],[102.83631923500008,11.83103298800006],[102.89073155900007,11.754818569000065],[102.90701157900008,11.758701779000035]]]}},{"type":"Feature","properties":{"code":"230507","name":"คลองใหญ่","parentCode":"2305"},"geometry":{"type":"Polygon","coordinates":[[[102.39844149400005,12.271967768000025],[102.35879310500007,12.263476051000055],[102.31102253900008,12.195868966000035],[102.28567370700006,12.197081111000045],[102.38421332700005,12.181564107000042],[102.40772605700005,12.21783373900007],[102.40790202600004,12.242464470000073],[102.40711856000007,12.270208592000074],[102.39844149400005,12.271967768000025]]]}},{"type":"Feature","properties":{"code":"230701","name":"เกาะช้าง","parentCode":"2307"},"geometry":{"type":"Polygon","coordinates":[[[102.38699696900005,12.047611790000076],[102.35571187200009,12.108395469000072],[102.32120491000006,12.136265625000021],[102.25329567700004,12.135494495000046],[102.29420168100006,12.042878138000049],[102.29403496600008,12.002886613000044],[102.31992422800005,12.033454794000022],[102.38699696900005,12.047611790000076]]]}},{"type":"Feature","properties":{"code":"230702","name":"เกาะช้างใต้","parentCode":"2307"},"geometry":{"type":"Polygon","coordinates":[[[102.38699696900005,12.047611790000076],[102.31992422800005,12.033454794000022],[102.29403496600008,12.002886613000044],[102.31124745000005,11.96561458900004],[102.37763796800004,11.964585206000038],[102.38203602400006,12.000543385000071],[102.42996797800004,11.959820602000036],[102.44660629100008,11.976261495000074],[102.38699696900005,12.047611790000076]]]}},{"type":"Feature","properties":{"code":"230602","name":"เกาะกูด","parentCode":"2306"},"geometry":{"type":"Polygon","coordinates":[[[102.55521934500007,11.760885851000069],[102.52426887900003,11.657160532000034],[102.52683747100008,11.60414044600003],[102.59401353300007,11.563002815000061],[102.60844206600007,11.689084360000038],[102.55521934500007,11.760885851000069]]]}},{"type":"Feature","properties":{"code":"230601","name":"เกาะหมาก","parentCode":"2306"},"geometry":{"type":"Polygon","coordinates":[[[102.47203962100008,11.839622017000067],[102.48699801600009,11.789841884000055],[102.51170509800005,11.826557225000045],[102.47203962100008,11.839622017000067]]]}},{"type":"Feature","properties":{"code":"230114","name":"แหลมกลัด","parentCode":"2301"},"geometry":{"type":"Polygon","coordinates":[[[102.71134966800008,12.151209231000053],[102.64530007800005,12.15877534200007],[102.62477031100008,12.151434996000035],[102.75379018600006,12.042019550000077],[102.76839988600005,11.98373057200007],[102.78238548700006,11.984979630000055],[102.77080398000004,12.074109968000073],[102.71134966800008,12.151209231000053]]]}},{"type":"Feature","properties":{"code":"230501","name":"แหลมงอบ","parentCode":"2305"},"geometry":{"type":"Polygon","coordinates":[[[102.40772605700005,12.21783373900007],[102.38421332700005,12.181564107000042],[102.46520694200007,12.164637705000075],[102.40772605700005,12.21783373900007]]]}},{"type":"Feature","properties":{"code":"230202","name":"ไม้รูด","parentCode":"2302"},"geometry":{"type":"Polygon","coordinates":[[[102.84473086000008,11.84558779400004],[102.78238548700006,11.984979630000055],[102.76839988600005,11.98373057200007],[102.77654078100005,11.908088985000063],[102.83631923500008,11.83103298800006],[102.84473086000008,11.84558779400004]]]}},{"type":"Feature","properties":{"code":"230502","name":"น้ำเชี่ยว","parentCode":"2305"},"geometry":{"type":"Polygon","coordinates":[[[102.47221483800007,12.164422066000043],[102.45885022700008,12.21004173600005],[102.40790202600004,12.242464470000073],[102.40772605700005,12.21783373900007],[102.46520694200007,12.164637705000075],[102.47221483800007,12.164422066000043]]]}},{"type":"Feature","properties":{"code":"230109","name":"เนินทราย","parentCode":"2301"},"geometry":{"type":"Polygon","coordinates":[[[102.61905183900006,12.364008023000054],[102.55521374200003,12.340550521000068],[102.52147954100008,12.293596621000063],[102.55711422000007,12.20812762600002],[102.56152041900003,12.197570509000059],[102.57645152200007,12.203200447000029],[102.57085324500008,12.274495670000022],[102.61905183900006,12.364008023000054]]]}},{"type":"Feature","properties":{"code":"230404","name":"หนองบอน","parentCode":"2304"},"geometry":{"type":"Polygon","coordinates":[[[102.50762102800007,12.752436102000047],[102.49116729900004,12.757238753000024],[102.44112632600007,12.73671330600007],[102.38528671300008,12.67949346000006],[102.38940523300005,12.645337882000035],[102.42114470300004,12.614687830000037],[102.50220391600004,12.701142401000027],[102.50762102800007,12.752436102000047]]]}},{"type":"Feature","properties":{"code":"230104","name":"หนองคันทรง","parentCode":"2301"},"geometry":{"type":"Polygon","coordinates":[[[102.55711422000007,12.20812762600002],[102.53176997700007,12.226550093000071],[102.51114896200005,12.179763715000036],[102.51581996000004,12.164976379000052],[102.55454800900009,12.162273843000037],[102.56152041900003,12.197570509000059],[102.55711422000007,12.20812762600002]]]}},{"type":"Feature","properties":{"code":"230102","name":"หนองเสม็ด","parentCode":"2301"},"geometry":{"type":"Polygon","coordinates":[[[102.50533259900004,12.24765599400007],[102.47391641500008,12.228439207000065],[102.51114896200005,12.179763715000036],[102.53176997700007,12.226550093000071],[102.51374078200007,12.238069477000067],[102.50533259900004,12.24765599400007]]]}},{"type":"Feature","properties":{"code":"230103","name":"หนองโสน","parentCode":"2301"},"geometry":{"type":"Polygon","coordinates":[[[102.47391641500008,12.228439207000065],[102.40711856000007,12.270208592000074],[102.40790202600004,12.242464470000073],[102.45885022700008,12.21004173600005],[102.47221483800007,12.164422066000043],[102.47390934500004,12.161518540000031],[102.51581996000004,12.164976379000052],[102.51114896200005,12.179763715000036],[102.47391641500008,12.228439207000065]]]}},{"type":"Feature","properties":{"code":"230405","name":"นนทรีย์","parentCode":"2304"},"geometry":{"type":"Polygon","coordinates":[[[102.69636231200008,12.51994194100007],[102.64708245800006,12.605827073000057],[102.58941854100004,12.589829248000058],[102.55179524400006,12.540958661000047],[102.50634604700008,12.515256696000051],[102.55209170200004,12.502192790000038],[102.60144074600004,12.498971208000057],[102.63825194900005,12.524177678000058],[102.69636231200008,12.51994194100007]]]}},{"type":"Feature","properties":{"code":"230306","name":"ประณีต","parentCode":"2303"},"geometry":{"type":"Polygon","coordinates":[[[102.38859452600008,12.57908339900007],[102.34508852600004,12.585864643000036],[102.30507654600007,12.556464629000061],[102.33328714900006,12.497531059000039],[102.32942148200004,12.44087938000007],[102.38977274100006,12.466484428000058],[102.40536674100008,12.503554669000039],[102.38859452600008,12.57908339900007]]]}},{"type":"Feature","properties":{"code":"230302","name":"แสนตุ้ง","parentCode":"2303"},"geometry":{"type":"Polygon","coordinates":[[[102.43607566100007,12.419370419000074],[102.38977274100006,12.466484428000058],[102.32942148200004,12.44087938000007],[102.37177469300008,12.389910273000055],[102.34471918100007,12.363260600000046],[102.34781414000008,12.350615839000056],[102.39469883300006,12.306448905000025],[102.39830060600008,12.360372620000021],[102.43211629800004,12.413424497000051],[102.43607566100007,12.419370419000074]]]}},{"type":"Feature","properties":{"code":"230305","name":"สะตอ","parentCode":"2303"},"geometry":{"type":"Polygon","coordinates":[[[102.42114470300004,12.614687830000037],[102.38940523300005,12.645337882000035],[102.39172527700003,12.630811968000046],[102.42360148700004,12.573173189000045],[102.38859452600008,12.57908339900007],[102.40536674100008,12.503554669000039],[102.48059582200005,12.49891117900006],[102.46963942600007,12.549713090000068],[102.42114470300004,12.614687830000037]]]}},{"type":"Feature","properties":{"code":"230112","name":"ตะกาง","parentCode":"2301"},"geometry":{"type":"Polygon","coordinates":[[[102.72580716800007,12.295309580000037],[102.63814458100006,12.27574086900006],[102.61381821400005,12.253599210000061],[102.59307385500006,12.209445710000068],[102.61181380000005,12.200828705000049],[102.71831947500004,12.244926188000022],[102.72580716800007,12.295309580000037]]]}},{"type":"Feature","properties":{"code":"230111","name":"ท่ากุ่ม","parentCode":"2301"},"geometry":{"type":"Polygon","coordinates":[[[102.72580716800007,12.295309580000037],[102.72617545400004,12.364192703000072],[102.78760074000007,12.410923031000038],[102.77834746100007,12.436211358000037],[102.70575596000003,12.39507278700006],[102.65415128100005,12.396802950000051],[102.61905183900006,12.364008023000054],[102.57085324500008,12.274495670000022],[102.61381821400005,12.253599210000061],[102.63814458100006,12.27574086900006],[102.72580716800007,12.295309580000037]]]}},{"type":"Feature","properties":{"code":"230110","name":"ท่าพริก","parentCode":"2301"},"geometry":{"type":"Polygon","coordinates":[[[102.61381821400005,12.253599210000061],[102.57085324500008,12.274495670000022],[102.57645152200007,12.203200447000029],[102.59307385500006,12.209445710000068],[102.61381821400005,12.253599210000061]]]}},{"type":"Feature","properties":{"code":"230304","name":"ท่าโสม","parentCode":"2303"},"geometry":{"type":"Polygon","coordinates":[[[102.39469883300006,12.306448905000025],[102.34781414000008,12.350615839000056],[102.28594096000006,12.299069017000022],[102.31152254200003,12.25875297500005],[102.35879310500007,12.263476051000055],[102.39844149400005,12.271967768000025],[102.40419161500006,12.296107567000035],[102.39469883300006,12.306448905000025]]]}},{"type":"Feature","properties":{"code":"230307","name":"เทพนิมิต","parentCode":"2303"},"geometry":{"type":"Polygon","coordinates":[[[102.48059582200005,12.49891117900006],[102.40536674100008,12.503554669000039],[102.38977274100006,12.466484428000058],[102.43607566100007,12.419370419000074],[102.43844657400007,12.421082504000026],[102.48077247800006,12.456472377000068],[102.48310562100005,12.49332492700006],[102.48059582200005,12.49891117900006]]]}},{"type":"Feature","properties":{"code":"230308","name":"ทุ่งนนทรี","parentCode":"2303"},"geometry":{"type":"Polygon","coordinates":[[[102.52211436300007,12.427045571000065],[102.46204059800004,12.407101656000066],[102.43844657400007,12.421082504000026],[102.43607566100007,12.419370419000074],[102.43211629800004,12.413424497000051],[102.43842341000004,12.35671602900004],[102.49440449600007,12.343586266000045],[102.52211436300007,12.427045571000065]]]}},{"type":"Feature","properties":{"code":"230107","name":"วังกระแจะ","parentCode":"2301"},"geometry":{"type":"Polygon","coordinates":[[[102.50042840000003,12.325225471000067],[102.46413375700007,12.298300854000047],[102.40419161500006,12.296107567000035],[102.39844149400005,12.271967768000025],[102.40711856000007,12.270208592000074],[102.47391641500008,12.228439207000065],[102.50533259900004,12.24765599400007],[102.52938999700007,12.252664320000065],[102.51374078200007,12.238069477000067],[102.53176997700007,12.226550093000071],[102.55711422000007,12.20812762600002],[102.52147954100008,12.293596621000063],[102.50042840000003,12.325225471000067]]]}},{"type":"Feature","properties":{"code":"230303","name":"วังตะเคียน","parentCode":"2303"},"geometry":{"type":"Polygon","coordinates":[[[102.55209170200004,12.502192790000038],[102.50634604700008,12.515256696000051],[102.48310562100005,12.49332492700006],[102.48077247800006,12.456472377000068],[102.43844657400007,12.421082504000026],[102.46204059800004,12.407101656000066],[102.52211436300007,12.427045571000065],[102.55172808200007,12.466569153000023],[102.55209170200004,12.502192790000038]]]}}]}