{"type":"FeatureCollection","features":[{"type":"Feature","properties":{"code":"240103","name":"บ้านใหม่","parentCode":"2401"},"geometry":{"type":"Polygon","coordinates":[[[101.11123466400005,13.706468551000057],[101.10233426700006,13.71539063800003],[101.08868868700006,13.708250360000022],[101.09140437400004,13.696606900000063],[101.10961731000003,13.699716814000055],[101.11123466400005,13.706468551000057]]]}},{"type":"Feature","properties":{"code":"240501","name":"บ้านโพธิ์","parentCode":"2405"},"geometry":{"type":"Polygon","coordinates":[[[101.09012156300008,13.604310833000056],[101.07619092100003,13.602932735000024],[101.07028146000005,13.584476362000032],[101.08250858000008,13.572144005000041],[101.09263661400007,13.602520106000043],[101.09012156300008,13.604310833000056]]]}},{"type":"Feature","properties":{"code":"240602","name":"บ้านซ่อง","parentCode":"2406"},"geometry":{"type":"Polygon","coordinates":[[[101.38088706800005,13.849410072000069],[101.37492879100006,13.852716010000051],[101.36553239400007,13.781127729000048],[101.37181243500004,13.775446370000054],[101.39689762900008,13.768557169000076],[101.42225775100007,13.757564456000068],[101.43881499800005,13.826829795000037],[101.39624805300008,13.84194801800004],[101.38088706800005,13.849410072000069]]]}},{"type":"Feature","properties":{"code":"240108","name":"บางแก้ว","parentCode":"2401"},"geometry":{"type":"Polygon","coordinates":[[[101.11463626700004,13.779493499000068],[101.07753195800007,13.762109425000062],[101.10233426700006,13.71539063800003],[101.11123466400005,13.706468551000057],[101.13903898700005,13.693609580000043],[101.14408267700009,13.709271898000054],[101.12712800400004,13.73916396900006],[101.11463626700004,13.779493499000068]]]}},{"type":"Feature","properties":{"code":"240114","name":"บางกะไห","parentCode":"2401"},"geometry":{"type":"Polygon","coordinates":[[[101.03218165400006,13.66767559300007],[101.01850302900004,13.691725423000037],[100.97059031000003,13.682301504000066],[100.98299055400008,13.667476951000026],[101.01087695900009,13.650361144000044],[101.03218165400006,13.66767559300007]]]}},{"type":"Feature","properties":{"code":"240701","name":"บางคา","parentCode":"2407"},"geometry":{"type":"Polygon","coordinates":[[[101.31009943400005,13.788944747000073],[101.24758148100005,13.825478176000047],[101.25181779300004,13.76946480600003],[101.31350198000007,13.749751252000067],[101.31675165500008,13.759546016000058],[101.31009943400005,13.788944747000073]]]}},{"type":"Feature","properties":{"code":"240302","name":"บางขนาก","parentCode":"2403"},"geometry":{"type":"Polygon","coordinates":[[[101.13994792100004,13.879452953000055],[101.10337841500007,13.886205389000054],[101.06997377600004,13.859891594000032],[101.10322199200004,13.834847454000055],[101.14962118700004,13.851626734000035],[101.13994792100004,13.879452953000055]]]}},{"type":"Feature","properties":{"code":"240201","name":"บางคล้า","parentCode":"2402"},"geometry":{"type":"Polygon","coordinates":[[[101.22073984000008,13.721540181000023],[101.20924745200006,13.740485584000055],[101.19238935400006,13.723711871000035],[101.22073984000008,13.721540181000023]]]}},{"type":"Feature","properties":{"code":"240109","name":"บางขวัญ","parentCode":"2401"},"geometry":{"type":"Polygon","coordinates":[[[101.07753195800007,13.762109425000062],[101.06388581400006,13.797103776000029],[101.03398029800007,13.778914310000062],[101.03944360200006,13.772770256000058],[101.07198821000009,13.755638069000042],[101.08670315600006,13.708206949000044],[101.08868868700006,13.708250360000022],[101.10233426700006,13.71539063800003],[101.07753195800007,13.762109425000062]]]}},{"type":"Feature","properties":{"code":"240406","name":"บางเกลือ","parentCode":"2404"},"geometry":{"type":"Polygon","coordinates":[[[100.93221211100007,13.533766928000034],[100.92632301900005,13.51170830500007],[100.96161051300004,13.515890909000063],[100.93221211100007,13.533766928000034]]]}},{"type":"Feature","properties":{"code":"240208","name":"บางกระเจ็ด","parentCode":"2402"},"geometry":{"type":"Polygon","coordinates":[[[101.24988214000007,13.856896741000071],[101.24969343200007,13.866048281000076],[101.24022240000005,13.879966164000052],[101.22075816500006,13.886261715000046],[101.16194798100008,13.853080839000029],[101.17294036300007,13.821041281000078],[101.18193379700006,13.81349625300004],[101.24988214000007,13.856896741000071]]]}},{"type":"Feature","properties":{"code":"240512","name":"บางกรูด","parentCode":"2405"},"geometry":{"type":"Polygon","coordinates":[[[101.09200204600006,13.635399591000066],[101.07508737500007,13.641608531000031],[101.04266764100004,13.640901262000057],[101.05201487900007,13.628523982000047],[101.06370972600007,13.624367535000033],[101.09200204600006,13.635399591000066]]]}},{"type":"Feature","properties":{"code":"241103","name":"บางเล่า","parentCode":"2411"},"geometry":{"type":"Polygon","coordinates":[[[101.15222228400006,13.74001383500007],[101.12712800400004,13.73916396900006],[101.14408267700009,13.709271898000054],[101.15819101600005,13.69518154800005],[101.16875018000007,13.712826190000044],[101.15222228400006,13.74001383500007]]]}},{"type":"Feature","properties":{"code":"240301","name":"บางน้ำเปรี้ยว","parentCode":"2403"},"geometry":{"type":"Polygon","coordinates":[[[101.04937128800003,13.855493486000057],[100.97920884000007,13.845559213000058],[100.97603529600008,13.845962993000057],[100.95348299700004,13.815902204000054],[100.99513164300004,13.800009162000038],[101.00554160900003,13.792868992000024],[101.04937128800003,13.855493486000057]]]}},{"type":"Feature","properties":{"code":"240401","name":"บางปะกง","parentCode":"2404"},"geometry":{"type":"Polygon","coordinates":[[[101.00064027700006,13.527826599000036],[100.98743895900009,13.527575089000038],[100.97030316000007,13.519706550000024],[100.96161051300004,13.515890909000063],[100.92632301900005,13.51170830500007],[100.92024045900007,13.498456500000032],[100.93004838800005,13.46329963900007],[100.96301593000004,13.460827564000056],[100.97405203600005,13.473375905000069],[101.02009324100004,13.505769667000038],[101.00064027700006,13.527826599000036]]]}},{"type":"Feature","properties":{"code":"240106","name":"บางไผ่","parentCode":"2401"},"geometry":{"type":"Polygon","coordinates":[[[101.10961731000003,13.699716814000055],[101.09140437400004,13.696606900000063],[101.08928818300006,13.687480434000065],[101.10941217600003,13.665811141000063],[101.13036718500007,13.653042946000028],[101.13679510400004,13.65245621500003],[101.14254045600006,13.652419775000055],[101.14113273100008,13.661594803000071],[101.14187746000005,13.670531345000029],[101.10961731000003,13.699716814000055]]]}},{"type":"Feature","properties":{"code":"240113","name":"บางพระ","parentCode":"2401"},"geometry":{"type":"Polygon","coordinates":[[[101.06450911700006,13.668295858000022],[101.03218165400006,13.66767559300007],[101.01087695900009,13.650361144000044],[101.01283043100005,13.648351303000027],[101.04266764100004,13.640901262000057],[101.07508737500007,13.641608531000031],[101.07958080800006,13.652838176000046],[101.06450911700006,13.668295858000022]]]}},{"type":"Feature","properties":{"code":"240405","name":"บางผึ้ง","parentCode":"2404"},"geometry":{"type":"Polygon","coordinates":[[[101.07097545000005,13.530782865000049],[101.05507445500007,13.542545793000045],[101.03172693200008,13.509632802000056],[101.04832725400007,13.507595025000057],[101.07189881100004,13.503415075000078],[101.07097545000005,13.530782865000049]]]}},{"type":"Feature","properties":{"code":"241104","name":"บางโรง","parentCode":"2411"},"geometry":{"type":"Polygon","coordinates":[[[101.16194798100008,13.853080839000029],[101.14962118700004,13.851626734000035],[101.10322199200004,13.834847454000055],[101.11793296900004,13.794025692000048],[101.12876426400004,13.796960400000046],[101.17294036300007,13.821041281000078],[101.16194798100008,13.853080839000029]]]}},{"type":"Feature","properties":{"code":"240404","name":"บางสมัคร","parentCode":"2404"},"geometry":{"type":"Polygon","coordinates":[[[100.97030316000007,13.519706550000024],[100.94095010600006,13.582152324000049],[100.92190197100007,13.581872267000051],[100.93221211100007,13.533766928000034],[100.96161051300004,13.515890909000063],[100.97030316000007,13.519706550000024]]]}},{"type":"Feature","properties":{"code":"240511","name":"บางซ่อน","parentCode":"2405"},"geometry":{"type":"Polygon","coordinates":[[[101.08305230300004,13.56333148400006],[101.04096821300004,13.567947712000034],[101.02231918000007,13.56252967100005],[101.02447080400003,13.551476786000023],[101.04066039300005,13.551108637000027],[101.08321564100004,13.552377300000046],[101.09181972700009,13.555234977000055],[101.08305230300004,13.56333148400006]]]}},{"type":"Feature","properties":{"code":"240204","name":"บางสวน","parentCode":"2402"},"geometry":{"type":"Polygon","coordinates":[[[101.19693891900005,13.698633920000077],[101.18078470100005,13.71492558400007],[101.16875018000007,13.712826190000044],[101.15819101600005,13.69518154800005],[101.17256753900006,13.68030660900007],[101.19693891900005,13.698633920000077]]]}},{"type":"Feature","properties":{"code":"241105","name":"บางตลาด","parentCode":"2411"},"geometry":{"type":"Polygon","coordinates":[[[101.17021175000008,13.756121877000055],[101.15540593500003,13.757193709000035],[101.15222228400006,13.74001383500007],[101.16875018000007,13.712826190000044],[101.18078470100005,13.71492558400007],[101.19238935400006,13.723711871000035],[101.20924745200006,13.740485584000055],[101.17021175000008,13.756121877000055]]]}},{"type":"Feature","properties":{"code":"240105","name":"บางตีนเป็ด","parentCode":"2401"},"geometry":{"type":"Polygon","coordinates":[[[101.08928818300006,13.687480434000065],[101.06547404100007,13.670603466000046],[101.06450911700006,13.668295858000022],[101.07958080800006,13.652838176000046],[101.10941217600003,13.665811141000063],[101.08928818300006,13.687480434000065]]]}},{"type":"Feature","properties":{"code":"240119","name":"บางเตย","parentCode":"2401"},"geometry":{"type":"Polygon","coordinates":[[[100.99757896200003,13.730461843000057],[100.96220080400008,13.73384579900005],[100.95551926100006,13.704555594000055],[100.97059031000003,13.682301504000066],[101.01850302900004,13.691725423000037],[101.02654720200007,13.69987819000005],[100.99757896200003,13.730461843000057]]]}},{"type":"Feature","properties":{"code":"240403","name":"บางวัว","parentCode":"2404"},"geometry":{"type":"Polygon","coordinates":[[[100.98112172600008,13.578486884000029],[100.96014754500004,13.615643142000067],[100.94095010600006,13.582152324000049],[100.97030316000007,13.519706550000024],[100.98743895900009,13.527575089000038],[100.98112172600008,13.578486884000029]]]}},{"type":"Feature","properties":{"code":"240305","name":"บึงน้ำรักษ์","parentCode":"2403"},"geometry":{"type":"Polygon","coordinates":[[[100.93610005100004,13.854047133000051],[100.94707255200007,13.965765658000066],[100.91421818800006,13.961278383000035],[100.91398311800003,13.946490894000021],[100.90797124700003,13.896959773000049],[100.90468588500005,13.849982157000056],[100.93610005100004,13.854047133000051]]]}},{"type":"Feature","properties":{"code":"240308","name":"ดอนฉิมพลี","parentCode":"2403"},"geometry":{"type":"Polygon","coordinates":[[[100.99347217900004,13.970674360000032],[100.95932128100009,13.967453848000048],[100.94707255200007,13.965765658000066],[100.93610005100004,13.854047133000051],[100.97603529600008,13.845962993000057],[100.97920884000007,13.845559213000058],[100.98378620500006,13.888797583000041],[100.98768105500005,13.915923802000066],[100.99347217900004,13.970674360000032]]]}},{"type":"Feature","properties":{"code":"240306","name":"ดอนเกาะกา","parentCode":"2403"},"geometry":{"type":"Polygon","coordinates":[[[101.08154685100004,13.975257895000027],[100.99347217900004,13.970674360000032],[100.98768105500005,13.915923802000066],[101.09363913600004,13.924437939000029],[101.10489716600006,13.974144210000077],[101.08154685100004,13.975257895000027]]]}},{"type":"Feature","properties":{"code":"240506","name":"ดอนทราย","parentCode":"2405"},"geometry":{"type":"Polygon","coordinates":[[[101.13679510400004,13.65245621500003],[101.13036718500007,13.653042946000028],[101.10403393300004,13.635936663000052],[101.11500414200003,13.607261423000068],[101.14616705000009,13.624780610000073],[101.13679510400004,13.65245621500003]]]}},{"type":"Feature","properties":{"code":"240703","name":"ดงน้อย","parentCode":"2407"},"geometry":{"type":"Polygon","coordinates":[[[101.31096718500004,13.873093439000058],[101.24969343200007,13.866048281000076],[101.24988214000007,13.856896741000071],[101.24758148100005,13.825478176000047],[101.31009943400005,13.788944747000073],[101.31565930300007,13.801211447000071],[101.33618988900008,13.861118066000074],[101.31096718500004,13.873093439000058]]]}},{"type":"Feature","properties":{"code":"240411","name":"หอมศีล","parentCode":"2404"},"geometry":{"type":"Polygon","coordinates":[[[100.93221211100007,13.533766928000034],[100.92190197100007,13.581872267000051],[100.91393576900003,13.576741274000028],[100.89005663200004,13.564609813000061],[100.87926438000005,13.546735721000061],[100.87744661000005,13.539942293000024],[100.92024045900007,13.498456500000032],[100.92632301900005,13.51170830500007],[100.93221211100007,13.533766928000034]]]}},{"type":"Feature","properties":{"code":"240214","name":"หัวไทร","parentCode":"2402"},"geometry":{"type":"Polygon","coordinates":[[[101.18193379700006,13.81349625300004],[101.19406020400004,13.756396748000043],[101.24782372100003,13.760417245000042],[101.25181779300004,13.76946480600003],[101.24758148100005,13.825478176000047],[101.24988214000007,13.856896741000071],[101.18193379700006,13.81349625300004]]]}},{"type":"Feature","properties":{"code":"240903","name":"หัวสำโรง","parentCode":"2409"},"geometry":{"type":"Polygon","coordinates":[[[101.28187443000007,13.664424945000064],[101.26949409200006,13.674595160000024],[101.24890183500008,13.65535354800005],[101.26269199000006,13.626506578000033],[101.39334112200004,13.57123602400003],[101.39574319900004,13.609282667000059],[101.28187443000007,13.664424945000064]]]}},{"type":"Feature","properties":{"code":"240412","name":"เขาดิน","parentCode":"2404"},"geometry":{"type":"Polygon","coordinates":[[[101.02447080400003,13.551476786000023],[101.00064027700006,13.527826599000036],[101.02009324100004,13.505769667000038],[101.03172693200008,13.509632802000056],[101.05507445500007,13.542545793000045],[101.04066039300005,13.551108637000027],[101.02447080400003,13.551476786000023]]]}},{"type":"Feature","properties":{"code":"240608","name":"เขาหินซ้อน","parentCode":"2406"},"geometry":{"type":"Polygon","coordinates":[[[101.53891094800008,13.785488290000046],[101.43881499800005,13.826829795000037],[101.42225775100007,13.757564456000068],[101.44466129000006,13.690972917000067],[101.52583934000006,13.674565800000039],[101.51939539800009,13.701101795000056],[101.57485576600004,13.72504008900006],[101.59132403100006,13.736729442000069],[101.54951290500009,13.793896063000034],[101.53891094800008,13.785488290000046]]]}},{"type":"Feature","properties":{"code":"240504","name":"คลองบ้านโพธิ์","parentCode":"2405"},"geometry":{"type":"Polygon","coordinates":[[[101.07028146000005,13.584476362000032],[101.04094238200008,13.596698091000064],[101.03070846800006,13.582863651000025],[101.04096821300004,13.567947712000034],[101.08305230300004,13.56333148400006],[101.08250858000008,13.572144005000041],[101.07028146000005,13.584476362000032]]]}},{"type":"Feature","properties":{"code":"240107","name":"คลองจุกกระเฌอ","parentCode":"2401"},"geometry":{"type":"Polygon","coordinates":[[[101.13903898700005,13.693609580000043],[101.11123466400005,13.706468551000057],[101.10961731000003,13.699716814000055],[101.14187746000005,13.670531345000029],[101.13903898700005,13.693609580000043]]]}},{"type":"Feature","properties":{"code":"241102","name":"คลองเขื่อน","parentCode":"2411"},"geometry":{"type":"Polygon","coordinates":[[[101.18193379700006,13.81349625300004],[101.17294036300007,13.821041281000078],[101.12876426400004,13.796960400000046],[101.15540593500003,13.757193709000035],[101.17021175000008,13.756121877000055],[101.19406020400004,13.756396748000043],[101.18193379700006,13.81349625300004]]]}},{"type":"Feature","properties":{"code":"240503","name":"คลองขุด","parentCode":"2405"},"geometry":{"type":"Polygon","coordinates":[[[101.14254045600006,13.652419775000055],[101.13679510400004,13.65245621500003],[101.14616705000009,13.624780610000073],[101.18071748000006,13.598506794000059],[101.21523553400004,13.613558743000056],[101.21287997100006,13.61628544000007],[101.14254045600006,13.652419775000055]]]}},{"type":"Feature","properties":{"code":"240118","name":"คลองหลวงแพ่ง","parentCode":"2401"},"geometry":{"type":"Polygon","coordinates":[[[100.93085189000004,13.804404244000068],[100.90744512700007,13.786442987000044],[100.87883300700008,13.737877175000051],[100.86076681300005,13.696903409000072],[100.86802712500008,13.693765024000072],[100.95115807400003,13.788500055000043],[100.93085189000004,13.804404244000068]]]}},{"type":"Feature","properties":{"code":"240104","name":"คลองนา","parentCode":"2401"},"geometry":{"type":"Polygon","coordinates":[[[101.13036718500007,13.653042946000028],[101.10941217600003,13.665811141000063],[101.07958080800006,13.652838176000046],[101.07508737500007,13.641608531000031],[101.09200204600006,13.635399591000066],[101.10019911800003,13.632266049000066],[101.10403393300004,13.635936663000052],[101.13036718500007,13.653042946000028]]]}},{"type":"Feature","properties":{"code":"240110","name":"คลองนครเนื่องเขต","parentCode":"2401"},"geometry":{"type":"Polygon","coordinates":[[[101.00554160900003,13.792868992000024],[100.99513164300004,13.800009162000038],[100.97563918200007,13.77051947900003],[101.00422532600004,13.737493824000069],[101.02723571900003,13.74595408600004],[101.03944360200006,13.772770256000058],[101.03398029800007,13.778914310000062],[101.00554160900003,13.792868992000024]]]}},{"type":"Feature","properties":{"code":"240505","name":"คลองประเวศ","parentCode":"2405"},"geometry":{"type":"Polygon","coordinates":[[[101.04266764100004,13.640901262000057],[101.01283043100005,13.648351303000027],[100.99546763500007,13.630378066000048],[101.00193534000005,13.619326915000045],[101.03780473100005,13.614635923000037],[101.05201487900007,13.628523982000047],[101.04266764100004,13.640901262000057]]]}},{"type":"Feature","properties":{"code":"240116","name":"คลองเปรง","parentCode":"2401"},"geometry":{"type":"Polygon","coordinates":[[[100.96220080400008,13.73384579900005],[100.95403115000005,13.756369836000033],[100.88843158600008,13.686099011000067],[100.91805437300007,13.67548110100006],[100.93755046400008,13.668675565000058],[100.95551926100006,13.704555594000055],[100.96220080400008,13.73384579900005]]]}},{"type":"Feature","properties":{"code":"241002","name":"คลองตะเกรา","parentCode":"2410"},"geometry":{"type":"Polygon","coordinates":[[[101.93807532700004,13.45084218900007],[101.86318658400006,13.400981482000077],[101.81156530600003,13.40090491500007],[101.67684152000004,13.428067488000067],[101.67740033600006,13.396263732000023],[101.53700868400006,13.498721731000046],[101.49334841900009,13.449408190000042],[101.48993617900004,13.444633272000033],[101.53164480500004,13.427034741000057],[101.54730617200005,13.386258334000047],[101.56441158900009,13.331364399000051],[101.62139001400004,13.297676616000047],[101.66897069500004,13.271695505000025],[101.71713777700006,13.182213531000059],[101.77328831600005,13.184747092000066],[101.85430657600006,13.254139838000071],[101.87165194700003,13.223234971000068],[101.90521249200003,13.287680016000024],[101.95584415200005,13.299742554000034],[101.98890313500004,13.333254906000036],[101.98993275500004,13.352635983000027],[101.95198809600004,13.432540079000034],[101.93807532700004,13.45084218900007]]]}},{"type":"Feature","properties":{"code":"240117","name":"คลองอุดมชลจร","parentCode":"2401"},"geometry":{"type":"Polygon","coordinates":[[[100.88843158600008,13.686099011000067],[100.95403115000005,13.756369836000033],[100.97158481600007,13.77350537600006],[100.95115807400003,13.788500055000043],[100.86802712500008,13.693765024000072],[100.88843158600008,13.686099011000067]]]}},{"type":"Feature","properties":{"code":"240801","name":"คู้ยายหมี","parentCode":"2408"},"geometry":{"type":"Polygon","coordinates":[[[101.52583934000006,13.674565800000039],[101.44466129000006,13.690972917000067],[101.42354604500008,13.657116975000065],[101.46102019400007,13.603656301000058],[101.50456124100003,13.604944652000029],[101.55288867500008,13.547240421000026],[101.58117429000004,13.574157453000055],[101.52583934000006,13.674565800000039]]]}},{"type":"Feature","properties":{"code":"240601","name":"เกาะขนุน","parentCode":"2406"},"geometry":{"type":"Polygon","coordinates":[[[101.42225775100007,13.757564456000068],[101.39689762900008,13.768557169000076],[101.36531541800008,13.739984633000063],[101.35736770400007,13.673496428000021],[101.39947937400007,13.619171884000025],[101.42354604500008,13.657116975000065],[101.44466129000006,13.690972917000067],[101.42225775100007,13.757564456000068]]]}},{"type":"Feature","properties":{"code":"240502","name":"เกาะไร่","parentCode":"2405"},"geometry":{"type":"Polygon","coordinates":[[[100.97059031000003,13.682301504000066],[100.95551926100006,13.704555594000055],[100.93755046400008,13.668675565000058],[100.95582065100007,13.66237977000003],[100.98299055400008,13.667476951000026],[100.97059031000003,13.682301504000066]]]}},{"type":"Feature","properties":{"code":"241101","name":"ก้อนแก้ว","parentCode":"2411"},"geometry":{"type":"Polygon","coordinates":[[[101.12876426400004,13.796960400000046],[101.11793296900004,13.794025692000048],[101.11463626700004,13.779493499000068],[101.12712800400004,13.73916396900006],[101.15222228400006,13.74001383500007],[101.15540593500003,13.757193709000035],[101.12876426400004,13.796960400000046]]]}},{"type":"Feature","properties":{"code":"240513","name":"แหลมประดู่","parentCode":"2405"},"geometry":{"type":"Polygon","coordinates":[[[101.23452699400008,13.603444999000033],[101.21523553400004,13.613558743000056],[101.18071748000006,13.598506794000059],[101.17219372600005,13.585216742000057],[101.19507716400005,13.585103617000073],[101.24611993000008,13.569914478000044],[101.23452699400008,13.603444999000033]]]}},{"type":"Feature","properties":{"code":"240514","name":"ลาดขวาง","parentCode":"2405"},"geometry":{"type":"Polygon","coordinates":[[[101.03780473100005,13.614635923000037],[101.00193534000005,13.619326915000045],[101.00914359700005,13.601548132000062],[101.03070846800006,13.582863651000025],[101.04094238200008,13.596698091000064],[101.03780473100005,13.614635923000037]]]}},{"type":"Feature","properties":{"code":"240805","name":"ลาดกระทิง","parentCode":"2408"},"geometry":{"type":"Polygon","coordinates":[[[101.42354604500008,13.657116975000065],[101.39947937400007,13.619171884000025],[101.39574319900004,13.609282667000059],[101.39334112200004,13.57123602400003],[101.39596915300007,13.553977824000071],[101.44920804700007,13.516710411000076],[101.44900154100009,13.47223372600007],[101.49334841900009,13.449408190000042],[101.53700868400006,13.498721731000046],[101.55288867500008,13.547240421000026],[101.50456124100003,13.604944652000029],[101.46102019400007,13.603656301000058],[101.42354604500008,13.657116975000065]]]}},{"type":"Feature","properties":{"code":"240304","name":"หมอนทอง","parentCode":"2403"},"geometry":{"type":"Polygon","coordinates":[[[101.10168608400005,13.897263752000072],[100.98378620500006,13.888797583000041],[100.97920884000007,13.845559213000058],[101.04937128800003,13.855493486000057],[101.06997377600004,13.859891594000032],[101.10337841500007,13.886205389000054],[101.10168608400005,13.897263752000072]]]}},{"type":"Feature","properties":{"code":"240604","name":"เมืองเก่า","parentCode":"2406"},"geometry":{"type":"Polygon","coordinates":[[[101.34758994200007,13.743794612000045],[101.31675165500008,13.759546016000058],[101.31350198000007,13.749751252000067],[101.29266827700008,13.698225879000063],[101.33719039500005,13.704815991000032],[101.34758994200007,13.743794612000045]]]}},{"type":"Feature","properties":{"code":"240702","name":"เมืองใหม่","parentCode":"2407"},"geometry":{"type":"Polygon","coordinates":[[[101.31350198000007,13.749751252000067],[101.25181779300004,13.76946480600003],[101.24782372100003,13.760417245000042],[101.24267695800006,13.719925982000063],[101.26949409200006,13.674595160000024],[101.28187443000007,13.664424945000064],[101.29266827700008,13.698225879000063],[101.31350198000007,13.749751252000067]]]}},{"type":"Feature","properties":{"code":"240101","name":"หน้าเมือง","parentCode":"2401"},"geometry":{"type":"Polygon","coordinates":[[[101.09140437400004,13.696606900000063],[101.08868868700006,13.708250360000022],[101.08670315600006,13.708206949000044],[101.06655558000006,13.701104126000075],[101.05030320500003,13.696877629000028],[101.06547404100007,13.670603466000046],[101.08928818300006,13.687480434000065],[101.09140437400004,13.696606900000063]]]}},{"type":"Feature","properties":{"code":"240115","name":"หนามแดง","parentCode":"2401"},"geometry":{"type":"Polygon","coordinates":[[[100.97563918200007,13.77051947900003],[100.97158481600007,13.77350537600006],[100.95403115000005,13.756369836000033],[100.96220080400008,13.73384579900005],[100.99757896200003,13.730461843000057],[101.00422532600004,13.737493824000069],[100.97563918200007,13.77051947900003]]]}},{"type":"Feature","properties":{"code":"240510","name":"หนองบัว","parentCode":"2405"},"geometry":{"type":"Polygon","coordinates":[[[101.11500414200003,13.607261423000068],[101.10403393300004,13.635936663000052],[101.10019911800003,13.632266049000066],[101.09012156300008,13.604310833000056],[101.09263661400007,13.602520106000043],[101.11578881900004,13.605202728000052],[101.11500414200003,13.607261423000068]]]}},{"type":"Feature","properties":{"code":"240408","name":"หนองจอก","parentCode":"2404"},"geometry":{"type":"Polygon","coordinates":[[[100.99546763500007,13.630378066000048],[100.96702151600005,13.626940880000063],[100.96014754500004,13.615643142000067],[100.98112172600008,13.578486884000029],[101.01671745400006,13.56663267600004],[101.00914359700005,13.601548132000062],[101.00193534000005,13.619326915000045],[100.99546763500007,13.630378066000048]]]}},{"type":"Feature","properties":{"code":"240904","name":"หนองไม้แก่น","parentCode":"2409"},"geometry":{"type":"Polygon","coordinates":[[[101.49334841900009,13.449408190000042],[101.44900154100009,13.47223372600007],[101.44920804700007,13.516710411000076],[101.39596915300007,13.553977824000071],[101.37688906300008,13.540816515000074],[101.32244657400008,13.499533447000033],[101.36691785300007,13.463661057000024],[101.46673691500007,13.42810485700005],[101.48993617900004,13.444633272000033],[101.49334841900009,13.449408190000042]]]}},{"type":"Feature","properties":{"code":"240607","name":"หนองแหน","parentCode":"2406"},"geometry":{"type":"Polygon","coordinates":[[[101.35736770400007,13.673496428000021],[101.33719039500005,13.704815991000032],[101.29266827700008,13.698225879000063],[101.28187443000007,13.664424945000064],[101.39574319900004,13.609282667000059],[101.39947937400007,13.619171884000025],[101.35736770400007,13.673496428000021]]]}},{"type":"Feature","properties":{"code":"240509","name":"หนองตีนนก","parentCode":"2405"},"geometry":{"type":"Polygon","coordinates":[[[101.12930677500003,13.569477068000026],[101.11578881900004,13.605202728000052],[101.09263661400007,13.602520106000043],[101.08250858000008,13.572144005000041],[101.08305230300004,13.56333148400006],[101.09181972700009,13.555234977000055],[101.09967793200008,13.556979467000076],[101.11846537100007,13.564885523000044],[101.12930677500003,13.569477068000026]]]}},{"type":"Feature","properties":{"code":"240605","name":"หนองยาว","parentCode":"2406"},"geometry":{"type":"Polygon","coordinates":[[[101.37492879100006,13.852716010000051],[101.33618988900008,13.861118066000074],[101.31565930300007,13.801211447000071],[101.36553239400007,13.781127729000048],[101.37492879100006,13.852716010000051]]]}},{"type":"Feature","properties":{"code":"240209","name":"ปากน้ำ","parentCode":"2402"},"geometry":{"type":"Polygon","coordinates":[[[101.24782372100003,13.760417245000042],[101.19406020400004,13.756396748000043],[101.17021175000008,13.756121877000055],[101.20924745200006,13.740485584000055],[101.22073984000008,13.721540181000023],[101.24267695800006,13.719925982000063],[101.24782372100003,13.760417245000042]]]}},{"type":"Feature","properties":{"code":"240603","name":"พนมสารคาม","parentCode":"2406"},"geometry":{"type":"Polygon","coordinates":[[[101.36553239400007,13.781127729000048],[101.31565930300007,13.801211447000071],[101.31009943400005,13.788944747000073],[101.31675165500008,13.759546016000058],[101.34758994200007,13.743794612000045],[101.37181243500004,13.775446370000054],[101.36553239400007,13.781127729000048]]]}},{"type":"Feature","properties":{"code":"240409","name":"พิมพา","parentCode":"2404"},"geometry":{"type":"Polygon","coordinates":[[[100.96702151600005,13.626940880000063],[100.96097103400007,13.636038575000043],[100.90713986500003,13.592049031000045],[100.91393576900003,13.576741274000028],[100.92190197100007,13.581872267000051],[100.94095010600006,13.582152324000049],[100.96014754500004,13.615643142000067],[100.96702151600005,13.626940880000063]]]}},{"type":"Feature","properties":{"code":"240310","name":"โพรงอากาศ","parentCode":"2403"},"geometry":{"type":"Polygon","coordinates":[[[101.10322199200004,13.834847454000055],[101.06997377600004,13.859891594000032],[101.04937128800003,13.855493486000057],[101.00554160900003,13.792868992000024],[101.03398029800007,13.778914310000062],[101.06388581400006,13.797103776000029],[101.07753195800007,13.762109425000062],[101.11463626700004,13.779493499000068],[101.11793296900004,13.794025692000048],[101.10322199200004,13.834847454000055]]]}},{"type":"Feature","properties":{"code":"240901","name":"แปลงยาว","parentCode":"2409"},"geometry":{"type":"Polygon","coordinates":[[[101.23699766000004,13.666075293000063],[101.22325806500004,13.652744357000074],[101.21287997100006,13.61628544000007],[101.21523553400004,13.613558743000056],[101.23452699400008,13.603444999000033],[101.31570221000004,13.585199055000032],[101.37688906300008,13.540816515000074],[101.39596915300007,13.553977824000071],[101.39334112200004,13.57123602400003],[101.26269199000006,13.626506578000033],[101.24890183500008,13.65535354800005],[101.23699766000004,13.666075293000063]]]}},{"type":"Feature","properties":{"code":"240516","name":"แสนภูดาษ","parentCode":"2405"},"geometry":{"type":"Polygon","coordinates":[[[101.00914359700005,13.601548132000062],[101.01671745400006,13.56663267600004],[101.02231918000007,13.56252967100005],[101.04096821300004,13.567947712000034],[101.03070846800006,13.582863651000025],[101.00914359700005,13.601548132000062]]]}},{"type":"Feature","properties":{"code":"240309","name":"ศาลาแดง","parentCode":"2403"},"geometry":{"type":"Polygon","coordinates":[[[100.93610005100004,13.854047133000051],[100.90468588500005,13.849982157000056],[100.90420464800007,13.848422871000025],[100.93085189000004,13.804404244000068],[100.95115807400003,13.788500055000043],[100.97158481600007,13.77350537600006],[100.97563918200007,13.77051947900003],[100.99513164300004,13.800009162000038],[100.95348299700004,13.815902204000054],[100.97603529600008,13.845962993000057],[100.93610005100004,13.854047133000051]]]}},{"type":"Feature","properties":{"code":"240212","name":"เสม็ดเหนือ","parentCode":"2402"},"geometry":{"type":"Polygon","coordinates":[[[101.23699766000004,13.666075293000063],[101.19693891900005,13.698633920000077],[101.17256753900006,13.68030660900007],[101.17044306900004,13.66707967900004],[101.22325806500004,13.652744357000074],[101.23699766000004,13.666075293000063]]]}},{"type":"Feature","properties":{"code":"240213","name":"เสม็ดใต้","parentCode":"2402"},"geometry":{"type":"Polygon","coordinates":[[[101.17044306900004,13.66707967900004],[101.14113273100008,13.661594803000071],[101.14254045600006,13.652419775000055],[101.21287997100006,13.61628544000007],[101.22325806500004,13.652744357000074],[101.17044306900004,13.66707967900004]]]}},{"type":"Feature","properties":{"code":"240515","name":"สนามจันทร์","parentCode":"2405"},"geometry":{"type":"Polygon","coordinates":[[[101.06370972600007,13.624367535000033],[101.05201487900007,13.628523982000047],[101.03780473100005,13.614635923000037],[101.04094238200008,13.596698091000064],[101.07028146000005,13.584476362000032],[101.07619092100003,13.602932735000024],[101.06370972600007,13.624367535000033]]]}},{"type":"Feature","properties":{"code":"240211","name":"สาวชะโงก","parentCode":"2402"},"geometry":{"type":"Polygon","coordinates":[[[101.15819101600005,13.69518154800005],[101.14408267700009,13.709271898000054],[101.13903898700005,13.693609580000043],[101.14187746000005,13.670531345000029],[101.14113273100008,13.661594803000071],[101.17044306900004,13.66707967900004],[101.17256753900006,13.68030660900007],[101.15819101600005,13.69518154800005]]]}},{"type":"Feature","properties":{"code":"240303","name":"สิงโตทอง","parentCode":"2403"},"geometry":{"type":"Polygon","coordinates":[[[101.09363913600004,13.924437939000029],[100.98768105500005,13.915923802000066],[100.98378620500006,13.888797583000041],[101.10168608400005,13.897263752000072],[101.09363913600004,13.924437939000029]]]}},{"type":"Feature","properties":{"code":"240517","name":"สิบเอ็ดศอก","parentCode":"2405"},"geometry":{"type":"Polygon","coordinates":[[[101.18071748000006,13.598506794000059],[101.14616705000009,13.624780610000073],[101.11500414200003,13.607261423000068],[101.11578881900004,13.605202728000052],[101.12930677500003,13.569477068000026],[101.17219372600005,13.585216742000057],[101.18071748000006,13.598506794000059]]]}},{"type":"Feature","properties":{"code":"240407","name":"สองคลอง","parentCode":"2404"},"geometry":{"type":"Polygon","coordinates":[[[100.93004838800005,13.46329963900007],[100.92024045900007,13.498456500000032],[100.87744661000005,13.539942293000024],[100.84839130800003,13.478420328000027],[100.93004838800005,13.46329963900007]]]}},{"type":"Feature","properties":{"code":"240112","name":"โสธร","parentCode":"2401"},"geometry":{"type":"Polygon","coordinates":[[[101.06547404100007,13.670603466000046],[101.05030320500003,13.696877629000028],[101.02654720200007,13.69987819000005],[101.01850302900004,13.691725423000037],[101.03218165400006,13.66767559300007],[101.06450911700006,13.668295858000022],[101.06547404100007,13.670603466000046]]]}},{"type":"Feature","properties":{"code":"240102","name":"ท่าไข่","parentCode":"2401"},"geometry":{"type":"Polygon","coordinates":[[[101.08670315600006,13.708206949000044],[101.07198821000009,13.755638069000042],[101.03944360200006,13.772770256000058],[101.02723571900003,13.74595408600004],[101.06655558000006,13.701104126000075],[101.08670315600006,13.708206949000044]]]}},{"type":"Feature","properties":{"code":"240410","name":"ท่าข้าม","parentCode":"2404"},"geometry":{"type":"Polygon","coordinates":[[[101.03172693200008,13.509632802000056],[101.02009324100004,13.505769667000038],[100.97405203600005,13.473375905000069],[101.00850430600008,13.460414069000024],[101.01340283800005,13.461949004000076],[101.04832725400007,13.507595025000057],[101.03172693200008,13.509632802000056]]]}},{"type":"Feature","properties":{"code":"240802","name":"ท่ากระดาน","parentCode":"2408"},"geometry":{"type":"Polygon","coordinates":[[[101.88818743400009,13.586541065000063],[101.84550345300005,13.585914521000063],[101.75232597700005,13.622474698000076],[101.75709495200005,13.650265742000045],[101.69412289500008,13.657108917000073],[101.63873096600008,13.699308019000057],[101.57485576600004,13.72504008900006],[101.51939539800009,13.701101795000056],[101.52583934000006,13.674565800000039],[101.58117429000004,13.574157453000055],[101.62077447700005,13.549665848000075],[101.62421612300005,13.599967984000045],[101.74737971000008,13.555391701000076],[101.85441134400008,13.482747891000031],[101.88917250000009,13.500513622000028],[101.90704765300006,13.571071395000047],[101.91507152300005,13.585596376000069],[101.88818743400009,13.586541065000063]]]}},{"type":"Feature","properties":{"code":"240508","name":"ท่าพลับ","parentCode":"2405"},"geometry":{"type":"Polygon","coordinates":[[[101.10019911800003,13.632266049000066],[101.09200204600006,13.635399591000066],[101.06370972600007,13.624367535000033],[101.07619092100003,13.602932735000024],[101.09012156300008,13.604310833000056],[101.10019911800003,13.632266049000066]]]}},{"type":"Feature","properties":{"code":"240402","name":"ท่าสะอ้าน","parentCode":"2404"},"geometry":{"type":"Polygon","coordinates":[[[101.01671745400006,13.56663267600004],[100.98112172600008,13.578486884000029],[100.98743895900009,13.527575089000038],[101.00064027700006,13.527826599000036],[101.02447080400003,13.551476786000023],[101.02231918000007,13.56252967100005],[101.01671745400006,13.56663267600004]]]}},{"type":"Feature","properties":{"code":"241001","name":"ท่าตะเกียบ","parentCode":"2410"},"geometry":{"type":"Polygon","coordinates":[[[101.88917250000009,13.500513622000028],[101.85441134400008,13.482747891000031],[101.74737971000008,13.555391701000076],[101.62421612300005,13.599967984000045],[101.62077447700005,13.549665848000075],[101.58117429000004,13.574157453000055],[101.55288867500008,13.547240421000026],[101.53700868400006,13.498721731000046],[101.67740033600006,13.396263732000023],[101.67684152000004,13.428067488000067],[101.81156530600003,13.40090491500007],[101.86318658400006,13.400981482000077],[101.93807532700004,13.45084218900007],[101.93717280700008,13.47798655500003],[101.89377360600008,13.47157345000005],[101.88917250000009,13.500513622000028]]]}},{"type":"Feature","properties":{"code":"240606","name":"ท่าถ่าน","parentCode":"2406"},"geometry":{"type":"Polygon","coordinates":[[[101.39689762900008,13.768557169000076],[101.37181243500004,13.775446370000054],[101.34758994200007,13.743794612000045],[101.33719039500005,13.704815991000032],[101.35736770400007,13.673496428000021],[101.36531541800008,13.739984633000063],[101.39689762900008,13.768557169000076]]]}},{"type":"Feature","properties":{"code":"240210","name":"ท่าทองหลาง","parentCode":"2402"},"geometry":{"type":"Polygon","coordinates":[[[101.23699766000004,13.666075293000063],[101.24890183500008,13.65535354800005],[101.26949409200006,13.674595160000024],[101.24267695800006,13.719925982000063],[101.22073984000008,13.721540181000023],[101.19238935400006,13.723711871000035],[101.18078470100005,13.71492558400007],[101.19693891900005,13.698633920000077],[101.23699766000004,13.666075293000063]]]}},{"type":"Feature","properties":{"code":"240507","name":"เทพราช","parentCode":"2405"},"geometry":{"type":"Polygon","coordinates":[[[100.98299055400008,13.667476951000026],[100.95582065100007,13.66237977000003],[100.95298315200006,13.658603882000023],[100.96097103400007,13.636038575000043],[100.96702151600005,13.626940880000063],[100.99546763500007,13.630378066000048],[101.01283043100005,13.648351303000027],[101.01087695900009,13.650361144000044],[100.98299055400008,13.667476951000026]]]}},{"type":"Feature","properties":{"code":"240803","name":"ทุ่งพระยา","parentCode":"2408"},"geometry":{"type":"Polygon","coordinates":[[[101.82826435700008,13.705237237000063],[101.79350563000008,13.705072704000031],[101.75842343800008,13.772734377000063],[101.68711480700006,13.75762701800005],[101.63870967800005,13.747725074000073],[101.62054755300005,13.741119769000022],[101.59132403100006,13.736729442000069],[101.57485576600004,13.72504008900006],[101.63873096600008,13.699308019000057],[101.69412289500008,13.657108917000073],[101.75709495200005,13.650265742000045],[101.75232597700005,13.622474698000076],[101.84550345300005,13.585914521000063],[101.88818743400009,13.586541065000063],[101.85942048400005,13.635901769000043],[101.83196805300008,13.636139946000071],[101.82826435700008,13.705237237000063]]]}},{"type":"Feature","properties":{"code":"240111","name":"วังตะเคียน","parentCode":"2401"},"geometry":{"type":"Polygon","coordinates":[[[101.06655558000006,13.701104126000075],[101.02723571900003,13.74595408600004],[101.00422532600004,13.737493824000069],[100.99757896200003,13.730461843000057],[101.02654720200007,13.69987819000005],[101.05030320500003,13.696877629000028],[101.06655558000006,13.701104126000075]]]}},{"type":"Feature","properties":{"code":"240902","name":"วังเย็น","parentCode":"2409"},"geometry":{"type":"Polygon","coordinates":[[[101.37688906300008,13.540816515000074],[101.31570221000004,13.585199055000032],[101.23452699400008,13.603444999000033],[101.24611993000008,13.569914478000044],[101.29473969100007,13.531144834000031],[101.29422871200006,13.527772780000078],[101.31379515500004,13.509181565000063],[101.32244657400008,13.499533447000033],[101.37688906300008,13.540816515000074]]]}},{"type":"Feature","properties":{"code":"240307","name":"โยธะกา","parentCode":"2403"},"geometry":{"type":"Polygon","coordinates":[[[101.13780002200008,13.969887645000028],[101.10489716600006,13.974144210000077],[101.09363913600004,13.924437939000029],[101.10168608400005,13.897263752000072],[101.10337841500007,13.886205389000054],[101.13994792100004,13.879452953000055],[101.15713817800008,13.920062156000029],[101.14672311300006,13.962485664000042],[101.13780002200008,13.969887645000028]]]}}]}