{"type":"FeatureCollection","features":[{"type":"Feature","properties":{"code":"250703","name":"บ้านหอย","parentCode":"2507"},"geometry":{"type":"Polygon","coordinates":[[[101.55740883000004,14.03115478500007],[101.55638941800004,14.032470659000069],[101.52376099500003,13.995553856000072],[101.59558955100005,13.98663840000006],[101.59259891900007,14.010455672000035],[101.55740883000004,14.03115478500007]]]}},{"type":"Feature","properties":{"code":"250209","name":"บ้านนา","parentCode":"2502"},"geometry":{"type":"Polygon","coordinates":[[[101.88320966700007,14.04372223300004],[101.85941694100006,14.023826358000065],[101.81630958400007,14.040180021000026],[101.78838917300004,13.984689169000035],[101.89348391000004,13.955278595000038],[101.91146572600007,13.934727511000062],[101.92217627200006,13.937359093000055],[101.96164810000005,14.023251278000032],[101.88648018800006,14.019317477000072],[101.88320966700007,14.04372223300004]]]}},{"type":"Feature","properties":{"code":"250108","name":"บ้านพระ","parentCode":"2501"},"geometry":{"type":"Polygon","coordinates":[[[101.40744339700007,14.153040074000046],[101.36737919400008,14.142682217000072],[101.35029902300005,14.093681866000054],[101.36281823200005,14.079615581000041],[101.41191002200009,14.090253761000042],[101.40744339700007,14.153040074000046]]]}},{"type":"Feature","properties":{"code":"250601","name":"บ้านสร้าง","parentCode":"2506"},"geometry":{"type":"Polygon","coordinates":[[[101.26918510600007,14.061206436000077],[101.20289954200007,14.042886198000076],[101.19088362300005,14.014624844000025],[101.23973433800006,13.967081431000054],[101.24429539500005,13.964290772000027],[101.26918510600007,14.061206436000077]]]}},{"type":"Feature","properties":{"code":"250803","name":"บ้านทาม","parentCode":"2508"},"geometry":{"type":"Polygon","coordinates":[[[101.52376099500003,13.995553856000072],[101.50896793900006,13.998067758000047],[101.49535403600004,13.984629415000029],[101.52815564200006,13.96483289400004],[101.59474135800008,13.969829454000035],[101.61115771000004,13.97225521100006],[101.59558955100005,13.98663840000006],[101.52376099500003,13.995553856000072]]]}},{"type":"Feature","properties":{"code":"250106","name":"บางบริบูรณ์","parentCode":"2501"},"geometry":{"type":"Polygon","coordinates":[[[101.43218921000005,14.061852320000071],[101.38451406300004,14.06107227900003],[101.39117532100005,14.054126590000067],[101.45026107800004,14.003661261000047],[101.45366402900004,13.999877844000025],[101.46337748500008,14.00862022800004],[101.45250146700005,14.038729330000024],[101.43218921000005,14.061852320000071]]]}},{"type":"Feature","properties":{"code":"250104","name":"บางเดชะ","parentCode":"2501"},"geometry":{"type":"Polygon","coordinates":[[[101.37733069200004,14.028024970000047],[101.33656381300005,14.043587917000025],[101.30795493900007,14.002785808000056],[101.35162844200005,13.960307773000068],[101.38818672800005,13.958634761000042],[101.39254235100003,13.99862422700005],[101.37733069200004,14.028024970000047]]]}},{"type":"Feature","properties":{"code":"250608","name":"บางขาม","parentCode":"2506"},"geometry":{"type":"Polygon","coordinates":[[[101.30583924700005,13.884672286000068],[101.26248245800008,13.927285095000059],[101.24022240000005,13.879966164000052],[101.24969343200007,13.866048281000076],[101.31096718500004,13.873093439000058],[101.30583924700005,13.884672286000068]]]}},{"type":"Feature","properties":{"code":"250602","name":"บางกระเบา","parentCode":"2506"},"geometry":{"type":"Polygon","coordinates":[[[101.23973433800006,13.967081431000054],[101.19088362300005,14.014624844000025],[101.17330925900006,14.011505714000066],[101.16514878400005,14.001610149000044],[101.17860124500004,13.971267495000063],[101.23973433800006,13.967081431000054]]]}},{"type":"Feature","properties":{"code":"250805","name":"บางกุ้ง","parentCode":"2508"},"geometry":{"type":"Polygon","coordinates":[[[101.49296920000006,13.97491476700003],[101.45344438100005,13.990313005000075],[101.45286520900004,13.977162367000062],[101.45840408400005,13.95025141700006],[101.46520789100003,13.951523614000052],[101.48912658200004,13.958203593000064],[101.49296920000006,13.97491476700003]]]}},{"type":"Feature","properties":{"code":"250606","name":"บางพลวง","parentCode":"2506"},"geometry":{"type":"Polygon","coordinates":[[[101.27848321400006,14.05484004300007],[101.26918510600007,14.061206436000077],[101.24429539500005,13.964290772000027],[101.25199880500008,13.934642857000028],[101.25682107000006,13.934660076000057],[101.35162844200005,13.960307773000068],[101.30795493900007,14.002785808000056],[101.27848321400006,14.05484004300007]]]}},{"type":"Feature","properties":{"code":"250607","name":"บางปลาร้า","parentCode":"2506"},"geometry":{"type":"Polygon","coordinates":[[[101.34820364500007,13.92024288400006],[101.35162844200005,13.960307773000068],[101.25682107000006,13.934660076000057],[101.26248245800008,13.927285095000059],[101.30583924700005,13.884672286000068],[101.34820364500007,13.92024288400006]]]}},{"type":"Feature","properties":{"code":"250605","name":"บางแตน","parentCode":"2506"},"geometry":{"type":"Polygon","coordinates":[[[101.22075816500006,13.886261715000046],[101.15713817800008,13.920062156000029],[101.13994792100004,13.879452953000055],[101.14962118700004,13.851626734000035],[101.16194798100008,13.853080839000029],[101.22075816500006,13.886261715000046]]]}},{"type":"Feature","properties":{"code":"250603","name":"บางเตย","parentCode":"2506"},"geometry":{"type":"Polygon","coordinates":[[[101.16514878400005,14.001610149000044],[101.13780002200008,13.969887645000028],[101.14672311300006,13.962485664000042],[101.25199880500008,13.934642857000028],[101.24429539500005,13.964290772000027],[101.23973433800006,13.967081431000054],[101.17860124500004,13.971267495000063],[101.16514878400005,14.001610149000044]]]}},{"type":"Feature","properties":{"code":"250604","name":"บางยาง","parentCode":"2506"},"geometry":{"type":"Polygon","coordinates":[[[101.25199880500008,13.934642857000028],[101.14672311300006,13.962485664000042],[101.15713817800008,13.920062156000029],[101.22075816500006,13.886261715000046],[101.24022240000005,13.879966164000052],[101.26248245800008,13.927285095000059],[101.25682107000006,13.934660076000057],[101.25199880500008,13.934642857000028]]]}},{"type":"Feature","properties":{"code":"250210","name":"บ่อทอง","parentCode":"2502"},"geometry":{"type":"Polygon","coordinates":[[[101.91146572600007,13.934727511000062],[101.89348391000004,13.955278595000038],[101.78838917300004,13.984689169000035],[101.79479266300007,13.943028800000036],[101.82321957200008,13.914569794000045],[101.90561744300004,13.915107376000037],[101.91146572600007,13.934727511000062]]]}},{"type":"Feature","properties":{"code":"250707","name":"บุฝ้าย","parentCode":"2507"},"geometry":{"type":"Polygon","coordinates":[[[101.62278523200007,14.42772321800004],[101.58403176600007,14.440349884000057],[101.52296377700009,14.309870227000033],[101.51959859000004,14.266988350000076],[101.54666362200004,14.199207213000022],[101.53283429200008,14.153672065000023],[101.55357494400005,14.117486254000028],[101.59358638900005,14.159117302000027],[101.63678208400006,14.155271365000033],[101.67113328000005,14.190590868000072],[101.64896708500004,14.392524232000028],[101.62278523200007,14.42772321800004]]]}},{"type":"Feature","properties":{"code":"250306","name":"บุพราหมณ์","parentCode":"2503"},"geometry":{"type":"Polygon","coordinates":[[[101.91716364600006,14.332197686000029],[101.87660972500004,14.323127611000075],[101.83852297400006,14.352468843000054],[101.74857184100006,14.348843730000056],[101.74154679000009,14.308390174000067],[101.79459737300004,14.268055380000021],[101.84901117400005,14.256323404000057],[101.86920967400005,14.183401255000035],[101.91870989600005,14.16242339300004],[101.92762809000004,14.188286171000072],[101.97400008000005,14.171883766000064],[101.99641528500007,14.211314341000048],[101.96655498700005,14.227819210000064],[101.91716364600006,14.332197686000029]]]}},{"type":"Feature","properties":{"code":"250705","name":"ดงบัง","parentCode":"2507"},"geometry":{"type":"Polygon","coordinates":[[[101.65427938300007,14.107241612000053],[101.60562967600004,14.059557332000054],[101.57183434300003,14.072064199000067],[101.55740883000004,14.03115478500007],[101.59259891900007,14.010455672000035],[101.60868560500006,14.045863274000055],[101.65427938300007,14.107241612000053]]]}},{"type":"Feature","properties":{"code":"250111","name":"ดงขี้เหล็ก","parentCode":"2501"},"geometry":{"type":"Polygon","coordinates":[[[101.46906276400006,14.131041174000075],[101.43476187600004,14.198179764000031],[101.43509588500007,14.151333640000075],[101.40744339700007,14.153040074000046],[101.41191002200009,14.090253761000042],[101.43237177800006,14.064778501000035],[101.46906276400006,14.131041174000075]]]}},{"type":"Feature","properties":{"code":"250806","name":"ดงกระทงยาม","parentCode":"2508"},"geometry":{"type":"Polygon","coordinates":[[[101.40707333100005,13.992184552000026],[101.39254235100003,13.99862422700005],[101.38818672800005,13.958634761000042],[101.39830020800008,13.94860717000006],[101.43010854900007,13.943098039000063],[101.43302062900005,13.94442493400004],[101.45840408400005,13.95025141700006],[101.45286520900004,13.977162367000062],[101.40707333100005,13.992184552000026]]]}},{"type":"Feature","properties":{"code":"250107","name":"ดงพระราม","parentCode":"2501"},"geometry":{"type":"Polygon","coordinates":[[[101.43237177800006,14.064778501000035],[101.41191002200009,14.090253761000042],[101.36281823200005,14.079615581000041],[101.36529415800004,14.070985764000056],[101.38451406300004,14.06107227900003],[101.43218921000005,14.061852320000071],[101.43237177800006,14.064778501000035]]]}},{"type":"Feature","properties":{"code":"250207","name":"หาดนางแก้ว","parentCode":"2502"},"geometry":{"type":"Polygon","coordinates":[[[101.67069197300003,13.979995402000043],[101.61115771000004,13.97225521100006],[101.59474135800008,13.969829454000035],[101.60884598100006,13.922784829000022],[101.62609785000006,13.952772401000061],[101.68442524000005,13.950248955000063],[101.67069197300003,13.979995402000043]]]}},{"type":"Feature","properties":{"code":"250809","name":"หาดยาง","parentCode":"2508"},"geometry":{"type":"Polygon","coordinates":[[[101.45366402900004,13.999877844000025],[101.45026107800004,14.003661261000047],[101.40707333100005,13.992184552000026],[101.45286520900004,13.977162367000062],[101.45344438100005,13.990313005000075],[101.45366402900004,13.999877844000025]]]}},{"type":"Feature","properties":{"code":"250808","name":"หัวหว้า","parentCode":"2508"},"geometry":{"type":"Polygon","coordinates":[[[101.54951290500009,13.793896063000034],[101.53209730000003,13.878268727000034],[101.46520789100003,13.951523614000052],[101.45840408400005,13.95025141700006],[101.43302062900005,13.94442493400004],[101.42980007400007,13.903436437000039],[101.45766529200006,13.86853078200005],[101.49900513600005,13.844648272000029],[101.53891094800008,13.785488290000046],[101.54951290500009,13.793896063000034]]]}},{"type":"Feature","properties":{"code":"250201","name":"กบินทร์","parentCode":"2502"},"geometry":{"type":"Polygon","coordinates":[[[101.72428636900008,13.994139059000076],[101.70927102400003,14.021694229000047],[101.69650663500005,14.00078460800006],[101.67069197300003,13.979995402000043],[101.68442524000005,13.950248955000063],[101.70793592000007,13.865610480000043],[101.74467326800004,13.878367697000044],[101.74150143200006,13.965198873000077],[101.72428636900008,13.994139059000076]]]}},{"type":"Feature","properties":{"code":"250305","name":"แก่งดินสอ","parentCode":"2503"},"geometry":{"type":"Polygon","coordinates":[[[102.05846954600008,14.17697755200004],[102.03179876800004,14.198877711000023],[101.97152709400007,14.158315239000046],[101.94765632600007,14.10417142600005],[101.90670323500007,14.085851306000052],[101.88320966700007,14.04372223300004],[101.88648018800006,14.019317477000072],[101.96164810000005,14.023251278000032],[102.07526888500007,14.035061603000031],[102.11056621500006,14.042156306000038],[102.12626159100006,14.095803455000066],[102.09094815800006,14.092965144000061],[102.10620592600009,14.151759132000052],[102.05846954600008,14.17697755200004]]]}},{"type":"Feature","properties":{"code":"250706","name":"คำโตนด","parentCode":"2507"},"geometry":{"type":"Polygon","coordinates":[[[101.63678208400006,14.155271365000033],[101.59358638900005,14.159117302000027],[101.55357494400005,14.117486254000028],[101.53699118600008,14.084490618000075],[101.54977785200003,14.068853482000065],[101.57183434300003,14.072064199000067],[101.60562967600004,14.059557332000054],[101.65427938300007,14.107241612000053],[101.65928595000008,14.118486509000036],[101.63678208400006,14.155271365000033]]]}},{"type":"Feature","properties":{"code":"250213","name":"เขาไม้แก้ว","parentCode":"2502"},"geometry":{"type":"Polygon","coordinates":[[[101.82687228500004,13.779631211000037],[101.79969397400004,13.795935839000038],[101.81697035700006,13.836398184000075],[101.74467326800004,13.878367697000044],[101.70793592000007,13.865610480000043],[101.69416224300005,13.777437281000061],[101.68711480700006,13.75762701800005],[101.75842343800008,13.772734377000063],[101.79350563000008,13.705072704000031],[101.82826435700008,13.705237237000063],[101.87000976200005,13.782669701000032],[101.82687228500004,13.779631211000037]]]}},{"type":"Feature","properties":{"code":"250109","name":"โคกไม้ลาย","parentCode":"2501"},"geometry":{"type":"Polygon","coordinates":[[[101.33433984400006,14.15701920600003],[101.31424333700005,14.17130273400005],[101.30062884400007,14.159747043000039],[101.30323793100007,14.120417259000021],[101.33433984400006,14.15701920600003]]]}},{"type":"Feature","properties":{"code":"250901","name":"โคกปีบ","parentCode":"2509"},"geometry":{"type":"Polygon","coordinates":[[[101.45766529200006,13.86853078200005],[101.42980007400007,13.903436437000039],[101.43302062900005,13.94442493400004],[101.43010854900007,13.943098039000063],[101.39209537900007,13.90166044600005],[101.38370563600006,13.883141761000047],[101.38088706800005,13.849410072000069],[101.39624805300008,13.84194801800004],[101.45766529200006,13.86853078200005]]]}},{"type":"Feature","properties":{"code":"250902","name":"โคกไทย","parentCode":"2509"},"geometry":{"type":"Polygon","coordinates":[[[101.53891094800008,13.785488290000046],[101.49900513600005,13.844648272000029],[101.45766529200006,13.86853078200005],[101.39624805300008,13.84194801800004],[101.43881499800005,13.826829795000037],[101.53891094800008,13.785488290000046]]]}},{"type":"Feature","properties":{"code":"250903","name":"คู้ลำพัน","parentCode":"2509"},"geometry":{"type":"Polygon","coordinates":[[[101.43010854900007,13.943098039000063],[101.39830020800008,13.94860717000006],[101.39209537900007,13.90166044600005],[101.43010854900007,13.943098039000063]]]}},{"type":"Feature","properties":{"code":"250702","name":"เกาะลอย","parentCode":"2507"},"geometry":{"type":"Polygon","coordinates":[[[101.54834176400004,14.04528418800004],[101.48180013800004,14.039900423000063],[101.48669632400004,14.018477545000053],[101.50896793900006,13.998067758000047],[101.52376099500003,13.995553856000072],[101.55638941800004,14.032470659000069],[101.54834176400004,14.04528418800004]]]}},{"type":"Feature","properties":{"code":"250609","name":"กระทุ่มแพ้ว","parentCode":"2506"},"geometry":{"type":"Polygon","coordinates":[[[101.38370563600006,13.883141761000047],[101.34820364500007,13.92024288400006],[101.30583924700005,13.884672286000068],[101.31096718500004,13.873093439000058],[101.33618988900008,13.861118066000074],[101.37492879100006,13.852716010000051],[101.38088706800005,13.849410072000069],[101.38370563600006,13.883141761000047]]]}},{"type":"Feature","properties":{"code":"250810","name":"กรอกสมบูรณ์","parentCode":"2508"},"geometry":{"type":"Polygon","coordinates":[[[101.69416224300005,13.777437281000061],[101.62664023700006,13.810618791000024],[101.62621457200004,13.906134724000026],[101.56687655600007,13.88536319700006],[101.56121331300005,13.872822779000046],[101.64644619400008,13.77543298200004],[101.63870967800005,13.747725074000073],[101.68711480700006,13.75762701800005],[101.69416224300005,13.777437281000061]]]}},{"type":"Feature","properties":{"code":"250208","name":"ลาดตะเคียน","parentCode":"2502"},"geometry":{"type":"Polygon","coordinates":[[[101.68442524000005,13.950248955000063],[101.62609785000006,13.952772401000061],[101.60884598100006,13.922784829000022],[101.62621457200004,13.906134724000026],[101.62664023700006,13.810618791000024],[101.69416224300005,13.777437281000061],[101.70793592000007,13.865610480000043],[101.68442524000005,13.950248955000063]]]}},{"type":"Feature","properties":{"code":"250110","name":"ไม้เค็ด","parentCode":"2501"},"geometry":{"type":"Polygon","coordinates":[[[101.33433984400006,14.15701920600003],[101.30323793100007,14.120417259000021],[101.32123220600005,14.077255618000038],[101.35029902300005,14.093681866000054],[101.36737919400008,14.142682217000072],[101.33433984400006,14.15701920600003]]]}},{"type":"Feature","properties":{"code":"250202","name":"เมืองเก่า","parentCode":"2502"},"geometry":{"type":"Polygon","coordinates":[[[101.81630958400007,14.040180021000026],[101.77574485600007,14.048628430000065],[101.75826621300007,14.033260117000054],[101.72428636900008,13.994139059000076],[101.74150143200006,13.965198873000077],[101.79479266300007,13.943028800000036],[101.78838917300004,13.984689169000035],[101.81630958400007,14.040180021000026]]]}},{"type":"Feature","properties":{"code":"250301","name":"นาดี","parentCode":"2503"},"geometry":{"type":"Polygon","coordinates":[[[101.86920967400005,14.183401255000035],[101.84901117400005,14.256323404000057],[101.79459737300004,14.268055380000021],[101.74154679000009,14.308390174000067],[101.71197212700008,14.200388868000061],[101.73373350500003,14.153385282000045],[101.77374851000008,14.10582215900007],[101.80921373100006,14.09962107900003],[101.84028559900008,14.105443455000056],[101.86920967400005,14.183401255000035]]]}},{"type":"Feature","properties":{"code":"250212","name":"นาแขม","parentCode":"2502"},"geometry":{"type":"Polygon","coordinates":[[[101.74399093600005,14.088233191000029],[101.68337698700009,14.094920178000052],[101.70927102400003,14.021694229000047],[101.72428636900008,13.994139059000076],[101.75826621300007,14.033260117000054],[101.74399093600005,14.088233191000029]]]}},{"type":"Feature","properties":{"code":"250101","name":"หน้าเมือง","parentCode":"2501"},"geometry":{"type":"Polygon","coordinates":[[[101.38451406300004,14.06107227900003],[101.36529415800004,14.070985764000056],[101.37565229500007,14.044711294000024],[101.39117532100005,14.054126590000067],[101.38451406300004,14.06107227900003]]]}},{"type":"Feature","properties":{"code":"250112","name":"เนินหอม","parentCode":"2501"},"geometry":{"type":"Polygon","coordinates":[[[101.44086593500003,14.25509334800006],[101.38101100300008,14.272158044000037],[101.38646301900008,14.219516555000041],[101.33527369700005,14.186065210000038],[101.31424333700005,14.17130273400005],[101.33433984400006,14.15701920600003],[101.36737919400008,14.142682217000072],[101.40744339700007,14.153040074000046],[101.43509588500007,14.151333640000075],[101.43476187600004,14.198179764000031],[101.44086593500003,14.25509334800006]]]}},{"type":"Feature","properties":{"code":"250113","name":"โนนห้อม","parentCode":"2501"},"geometry":{"type":"Polygon","coordinates":[[[101.46906276400006,14.131041174000075],[101.43237177800006,14.064778501000035],[101.43218921000005,14.061852320000071],[101.45250146700005,14.038729330000024],[101.49074119000005,14.068598230000077],[101.46906276400006,14.131041174000075]]]}},{"type":"Feature","properties":{"code":"250708","name":"หนองแก้ว","parentCode":"2507"},"geometry":{"type":"Polygon","coordinates":[[[101.54666362200004,14.199207213000022],[101.51484316700004,14.177434035000033],[101.52187212000007,14.079747345000044],[101.53699118600008,14.084490618000075],[101.55357494400005,14.117486254000028],[101.53283429200008,14.153672065000023],[101.54666362200004,14.199207213000022]]]}},{"type":"Feature","properties":{"code":"250211","name":"หนองกี่","parentCode":"2502"},"geometry":{"type":"Polygon","coordinates":[[[101.90670323500007,14.085851306000052],[101.87989712600006,14.124856607000027],[101.84028559900008,14.105443455000056],[101.80921373100006,14.09962107900003],[101.77574485600007,14.048628430000065],[101.81630958400007,14.040180021000026],[101.85941694100006,14.023826358000065],[101.88320966700007,14.04372223300004],[101.90670323500007,14.085851306000052]]]}},{"type":"Feature","properties":{"code":"250807","name":"หนองโพรง","parentCode":"2508"},"geometry":{"type":"Polygon","coordinates":[[[101.62054755300005,13.741119769000022],[101.58887492300005,13.816990008000062],[101.48912658200004,13.958203593000064],[101.46520789100003,13.951523614000052],[101.53209730000003,13.878268727000034],[101.54951290500009,13.793896063000034],[101.59132403100006,13.736729442000069],[101.62054755300005,13.741119769000022]]]}},{"type":"Feature","properties":{"code":"250704","name":"หนองแสง","parentCode":"2507"},"geometry":{"type":"Polygon","coordinates":[[[101.57183434300003,14.072064199000067],[101.54977785200003,14.068853482000065],[101.54834176400004,14.04528418800004],[101.55638941800004,14.032470659000069],[101.55740883000004,14.03115478500007],[101.57183434300003,14.072064199000067]]]}},{"type":"Feature","properties":{"code":"250204","name":"นนทรี","parentCode":"2502"},"geometry":{"type":"Polygon","coordinates":[[[101.68337698700009,14.094920178000052],[101.65928595000008,14.118486509000036],[101.65427938300007,14.107241612000053],[101.60868560500006,14.045863274000055],[101.69650663500005,14.00078460800006],[101.70927102400003,14.021694229000047],[101.68337698700009,14.094920178000052]]]}},{"type":"Feature","properties":{"code":"250904","name":"ไผ่ชะเลือด","parentCode":"2509"},"geometry":{"type":"Polygon","coordinates":[[[101.39830020800008,13.94860717000006],[101.38818672800005,13.958634761000042],[101.35162844200005,13.960307773000068],[101.34820364500007,13.92024288400006],[101.38370563600006,13.883141761000047],[101.39209537900007,13.90166044600005],[101.39830020800008,13.94860717000006]]]}},{"type":"Feature","properties":{"code":"250709","name":"โพธิ์งาม","parentCode":"2507"},"geometry":{"type":"Polygon","coordinates":[[[101.58403176600007,14.440349884000057],[101.53974621800006,14.425162319000037],[101.48290830300004,14.462479889000065],[101.43691023400004,14.446279134000065],[101.43230425900003,14.389491131000057],[101.49620330900007,14.334109838000074],[101.50177978400006,14.269458128000053],[101.44086593500003,14.25509334800006],[101.43476187600004,14.198179764000031],[101.46906276400006,14.131041174000075],[101.49074119000005,14.068598230000077],[101.52187212000007,14.079747345000044],[101.51484316700004,14.177434035000033],[101.54666362200004,14.199207213000022],[101.51959859000004,14.266988350000076],[101.52296377700009,14.309870227000033],[101.58403176600007,14.440349884000057]]]}},{"type":"Feature","properties":{"code":"250701","name":"ประจันตคาม","parentCode":"2507"},"geometry":{"type":"Polygon","coordinates":[[[101.54977785200003,14.068853482000065],[101.53699118600008,14.084490618000075],[101.52187212000007,14.079747345000044],[101.49074119000005,14.068598230000077],[101.45250146700005,14.038729330000024],[101.46337748500008,14.00862022800004],[101.48669632400004,14.018477545000053],[101.48180013800004,14.039900423000063],[101.54834176400004,14.04528418800004],[101.54977785200003,14.068853482000065]]]}},{"type":"Feature","properties":{"code":"250102","name":"รอบเมือง","parentCode":"2501"},"geometry":{"type":"Polygon","coordinates":[[[101.36281823200005,14.079615581000041],[101.35029902300005,14.093681866000054],[101.32123220600005,14.077255618000038],[101.30976984700004,14.071258800000066],[101.33656381300005,14.043587917000025],[101.37733069200004,14.028024970000047],[101.37565229500007,14.044711294000024],[101.36529415800004,14.070985764000056],[101.36281823200005,14.079615581000041]]]}},{"type":"Feature","properties":{"code":"250302","name":"สำพันตา","parentCode":"2503"},"geometry":{"type":"Polygon","coordinates":[[[101.80921373100006,14.09962107900003],[101.77374851000008,14.10582215900007],[101.73373350500003,14.153385282000045],[101.74399093600005,14.088233191000029],[101.75826621300007,14.033260117000054],[101.77574485600007,14.048628430000065],[101.80921373100006,14.09962107900003]]]}},{"type":"Feature","properties":{"code":"250802","name":"สัมพันธ์","parentCode":"2508"},"geometry":{"type":"Polygon","coordinates":[[[101.48669632400004,14.018477545000053],[101.46337748500008,14.00862022800004],[101.45366402900004,13.999877844000025],[101.45344438100005,13.990313005000075],[101.49296920000006,13.97491476700003],[101.49535403600004,13.984629415000029],[101.50896793900006,13.998067758000047],[101.48669632400004,14.018477545000053]]]}},{"type":"Feature","properties":{"code":"250303","name":"สะพานหิน","parentCode":"2503"},"geometry":{"type":"Polygon","coordinates":[[[101.74154679000009,14.308390174000067],[101.64896708500004,14.392524232000028],[101.67113328000005,14.190590868000072],[101.63678208400006,14.155271365000033],[101.65928595000008,14.118486509000036],[101.68337698700009,14.094920178000052],[101.74399093600005,14.088233191000029],[101.73373350500003,14.153385282000045],[101.71197212700008,14.200388868000061],[101.74154679000009,14.308390174000067]]]}},{"type":"Feature","properties":{"code":"250801","name":"ศรีมหาโพธิ","parentCode":"2508"},"geometry":{"type":"Polygon","coordinates":[[[101.49535403600004,13.984629415000029],[101.49296920000006,13.97491476700003],[101.48912658200004,13.958203593000064],[101.58887492300005,13.816990008000062],[101.62054755300005,13.741119769000022],[101.63870967800005,13.747725074000073],[101.64644619400008,13.77543298200004],[101.56121331300005,13.872822779000046],[101.56687655600007,13.88536319700006],[101.53780111200007,13.909189256000047],[101.52815564200006,13.96483289400004],[101.49535403600004,13.984629415000029]]]}},{"type":"Feature","properties":{"code":"250105","name":"ท่างาม","parentCode":"2501"},"geometry":{"type":"Polygon","coordinates":[[[101.45026107800004,14.003661261000047],[101.39117532100005,14.054126590000067],[101.37565229500007,14.044711294000024],[101.37733069200004,14.028024970000047],[101.39254235100003,13.99862422700005],[101.40707333100005,13.992184552000026],[101.45026107800004,14.003661261000047]]]}},{"type":"Feature","properties":{"code":"250804","name":"ท่าตูม","parentCode":"2508"},"geometry":{"type":"Polygon","coordinates":[[[101.59474135800008,13.969829454000035],[101.52815564200006,13.96483289400004],[101.53780111200007,13.909189256000047],[101.56687655600007,13.88536319700006],[101.62621457200004,13.906134724000026],[101.60884598100006,13.922784829000022],[101.59474135800008,13.969829454000035]]]}},{"type":"Feature","properties":{"code":"250304","name":"ทุ่งโพธิ์","parentCode":"2503"},"geometry":{"type":"Polygon","coordinates":[[[101.99641528500007,14.211314341000048],[101.97400008000005,14.171883766000064],[101.92762809000004,14.188286171000072],[101.91870989600005,14.16242339300004],[101.86920967400005,14.183401255000035],[101.84028559900008,14.105443455000056],[101.87989712600006,14.124856607000027],[101.90670323500007,14.085851306000052],[101.94765632600007,14.10417142600005],[101.97152709400007,14.158315239000046],[102.03179876800004,14.198877711000023],[101.99641528500007,14.211314341000048]]]}},{"type":"Feature","properties":{"code":"250203","name":"วังดาล","parentCode":"2502"},"geometry":{"type":"Polygon","coordinates":[[[101.69650663500005,14.00078460800006],[101.60868560500006,14.045863274000055],[101.59259891900007,14.010455672000035],[101.59558955100005,13.98663840000006],[101.61115771000004,13.97225521100006],[101.67069197300003,13.979995402000043],[101.69650663500005,14.00078460800006]]]}},{"type":"Feature","properties":{"code":"250206","name":"วังตะเคียน","parentCode":"2502"},"geometry":{"type":"Polygon","coordinates":[[[101.90561744300004,13.915107376000037],[101.82321957200008,13.914569794000045],[101.80327997800003,13.885948872000029],[101.83064353800006,13.843191967000053],[101.82687228500004,13.779631211000037],[101.87000976200005,13.782669701000032],[101.92402526900008,13.81672549700005],[101.90561744300004,13.915107376000037]]]}},{"type":"Feature","properties":{"code":"250214","name":"วังท่าช้าง","parentCode":"2502"},"geometry":{"type":"Polygon","coordinates":[[[101.94113556700006,13.739279428000032],[101.94140870200005,13.811849936000044],[101.92402526900008,13.81672549700005],[101.87000976200005,13.782669701000032],[101.82826435700008,13.705237237000063],[101.83196805300008,13.636139946000071],[101.85942048400005,13.635901769000043],[101.88818743400009,13.586541065000063],[101.91507152300005,13.585596376000069],[101.93409884200008,13.610868807000031],[101.94288304500009,13.692339021000066],[101.94113556700006,13.739279428000032]]]}},{"type":"Feature","properties":{"code":"250103","name":"วัดโบสถ์","parentCode":"2501"},"geometry":{"type":"Polygon","coordinates":[[[101.33656381300005,14.043587917000025],[101.30976984700004,14.071258800000066],[101.29502144200006,14.06352987200006],[101.27848321400006,14.05484004300007],[101.30795493900007,14.002785808000056],[101.33656381300005,14.043587917000025]]]}},{"type":"Feature","properties":{"code":"250205","name":"ย่านรี","parentCode":"2502"},"geometry":{"type":"Polygon","coordinates":[[[101.79479266300007,13.943028800000036],[101.74150143200006,13.965198873000077],[101.74467326800004,13.878367697000044],[101.81697035700006,13.836398184000075],[101.79969397400004,13.795935839000038],[101.82687228500004,13.779631211000037],[101.83064353800006,13.843191967000053],[101.80327997800003,13.885948872000029],[101.82321957200008,13.914569794000045],[101.79479266300007,13.943028800000036]]]}}]}