{"type":"FeatureCollection","features":[{"type":"Feature","properties":{"code":"260304","name":"อาษา","parentCode":"2603"},"geometry":{"type":"Polygon","coordinates":[[[101.08648902800007,14.223892971000055],[101.00353243100005,14.233087238000053],[100.98372938400007,14.218444456000043],[100.99296411900008,14.206862788000024],[101.08648902800007,14.223892971000055]]]}},{"type":"Feature","properties":{"code":"260301","name":"บ้านนา","parentCode":"2603"},"geometry":{"type":"Polygon","coordinates":[[[101.09226922300007,14.279032037000036],[101.03236184200006,14.273613273000024],[101.01300284000007,14.252301558000056],[101.09590739900005,14.251249057000052],[101.10175367000005,14.267445569000074],[101.09226922300007,14.279032037000036]]]}},{"type":"Feature","properties":{"code":"260302","name":"บ้านพร้าว","parentCode":"2603"},"geometry":{"type":"Polygon","coordinates":[[[101.13996877500006,14.268141263000075],[101.10175367000005,14.267445569000074],[101.09590739900005,14.251249057000052],[101.08825026600005,14.225605453000071],[101.08886936300007,14.211118573000022],[101.11238166100009,14.202283752000028],[101.13358171400006,14.20943995400006],[101.13996877500006,14.268141263000075]]]}},{"type":"Feature","properties":{"code":"260303","name":"บ้านพริก","parentCode":"2603"},"geometry":{"type":"Polygon","coordinates":[[[101.06902761000003,14.33123174700006],[101.05511473400009,14.35896875700007],[101.01851677300004,14.314817918000074],[100.97842444100007,14.290643552000063],[100.95111814600006,14.271684207000021],[100.94643576800007,14.237134961000038],[100.98372938400007,14.218444456000043],[101.00353243100005,14.233087238000053],[101.01300284000007,14.252301558000056],[101.03236184200006,14.273613273000024],[101.06902761000003,14.33123174700006]]]}},{"type":"Feature","properties":{"code":"260103","name":"บ้านใหญ่","parentCode":"2601"},"geometry":{"type":"Polygon","coordinates":[[[101.24415007700009,14.215746326000044],[101.24432157300004,14.237161255000046],[101.20117109100005,14.22509257300004],[101.20040246600007,14.214641767000046],[101.20821781100005,14.208060911000075],[101.22070158800005,14.198507619000054],[101.23447736100007,14.184706169000037],[101.24127789500005,14.190866096000036],[101.24415007700009,14.215746326000044]]]}},{"type":"Feature","properties":{"code":"260408","name":"บางลูกเสือ","parentCode":"2604"},"geometry":{"type":"Polygon","coordinates":[[[101.07525318700004,13.987464524000075],[101.10201586700003,14.102719277000062],[101.09659778700006,14.109491829000035],[101.04489000900008,14.095063653000068],[101.03169931700006,14.075033525000038],[101.06598106000007,14.005204190000029],[101.07525318700004,13.987464524000075]]]}},{"type":"Feature","properties":{"code":"260306","name":"บางอ้อ","parentCode":"2603"},"geometry":{"type":"Polygon","coordinates":[[[101.08886936300007,14.211118573000022],[101.02918739800003,14.17863060600007],[101.06643623200006,14.147070692000057],[101.09633727100004,14.170783207000056],[101.11238166100009,14.202283752000028],[101.08886936300007,14.211118573000022]]]}},{"type":"Feature","properties":{"code":"260407","name":"บางปลากด","parentCode":"2604"},"geometry":{"type":"Polygon","coordinates":[[[100.99199616100003,14.206112405000056],[100.93862839100007,14.167344791000062],[100.91393621800006,14.209341899000037],[100.91379486000005,14.18082843700006],[100.91362505800004,14.135475867000025],[100.98451645200004,14.146830543000021],[101.02868490100008,14.178248436000047],[100.99199616100003,14.206112405000056]]]}},{"type":"Feature","properties":{"code":"260405","name":"บางสมบูรณ์","parentCode":"2604"},"geometry":{"type":"Polygon","coordinates":[[[101.17330925900006,14.011505714000066],[101.15178803100008,14.011582111000052],[101.11088505700008,14.091516023000054],[101.10201586700003,14.102719277000062],[101.07525318700004,13.987464524000075],[101.08154685100004,13.975257895000027],[101.10489716600006,13.974144210000077],[101.13780002200008,13.969887645000028],[101.16514878400005,14.001610149000044],[101.17330925900006,14.011505714000066]]]}},{"type":"Feature","properties":{"code":"260402","name":"บึงศาล","parentCode":"2604"},"geometry":{"type":"Polygon","coordinates":[[[100.95936498700007,14.011387293000041],[100.95950561900008,14.068711823000058],[100.95972624200004,14.10111467400003],[100.91475820200009,14.08397640800007],[100.91483620300005,14.068209147000061],[100.91446162200003,14.008405539000023],[100.91444602000007,14.006901563000042],[100.95936498700007,14.011387293000041]]]}},{"type":"Feature","properties":{"code":"260410","name":"ชุมพล","parentCode":"2604"},"geometry":{"type":"Polygon","coordinates":[[[100.95936498700007,14.011387293000041],[100.91444602000007,14.006901563000042],[100.91421818800006,13.961278383000035],[100.94707255200007,13.965765658000066],[100.95932128100009,13.967453848000048],[100.95934586000004,13.997021070000073],[100.95936498700007,14.011387293000041]]]}},{"type":"Feature","properties":{"code":"260106","name":"ดอนยอ","parentCode":"2601"},"geometry":{"type":"Polygon","coordinates":[[[101.14631986800003,14.156957310000053],[101.09633727100004,14.170783207000056],[101.06643623200006,14.147070692000057],[101.09659778700006,14.109491829000035],[101.10201586700003,14.102719277000062],[101.11088505700008,14.091516023000054],[101.12447172600008,14.112973429000021],[101.14631986800003,14.156957310000053]]]}},{"type":"Feature","properties":{"code":"260108","name":"ดงละคร","parentCode":"2601"},"geometry":{"type":"Polygon","coordinates":[[[101.19521478200005,14.161973225000054],[101.15536966600007,14.163255239000023],[101.14631986800003,14.156957310000053],[101.12447172600008,14.112973429000021],[101.18287260600005,14.095865193000066],[101.20785829000005,14.118916072000047],[101.19729693800008,14.150871261000077],[101.19521478200005,14.161973225000054]]]}},{"type":"Feature","properties":{"code":"260111","name":"หินตั้ง","parentCode":"2601"},"geometry":{"type":"Polygon","coordinates":[[[101.42220888000008,14.383705732000067],[101.35273402300004,14.45455568400007],[101.31776994200004,14.46992534900005],[101.30845748000007,14.306795909000073],[101.27278024500004,14.25203779900005],[101.29395757900005,14.235983736000037],[101.31402181300007,14.24453275600007],[101.34392684900007,14.27708382700007],[101.33518275600005,14.343719132000047],[101.42220888000008,14.383705732000067]]]}},{"type":"Feature","properties":{"code":"260309","name":"เขาเพิ่ม","parentCode":"2603"},"geometry":{"type":"Polygon","coordinates":[[[101.15977743400003,14.346596308000073],[101.12840645500006,14.382230254000035],[101.05711169400007,14.414333602000056],[101.05328758500008,14.412313636000022],[101.05511473400009,14.35896875700007],[101.06902761000003,14.33123174700006],[101.08601609900006,14.328138730000035],[101.15977743400003,14.346596308000073]]]}},{"type":"Feature","properties":{"code":"260112","name":"เขาพระ","parentCode":"2601"},"geometry":{"type":"Polygon","coordinates":[[[101.24432157300004,14.237161255000046],[101.24272075900006,14.310231263000048],[101.21006418900004,14.371997684000064],[101.16572385300003,14.34237577700003],[101.20079079600004,14.294151750000026],[101.20117109100005,14.22509257300004],[101.24432157300004,14.237161255000046]]]}},{"type":"Feature","properties":{"code":"260411","name":"คลองใหญ่","parentCode":"2604"},"geometry":{"type":"Polygon","coordinates":[[[101.00173456800007,14.124090141000067],[100.98451645200004,14.146830543000021],[100.91362505800004,14.135475867000025],[100.91413830700009,14.09962936200003],[100.91475820200009,14.08397640800007],[100.95972624200004,14.10111467400003],[100.95950561900008,14.068711823000058],[100.96863386900009,14.073110575000044],[101.00173456800007,14.124090141000067]]]}},{"type":"Feature","properties":{"code":"260204","name":"โคกกรวด","parentCode":"2602"},"geometry":{"type":"Polygon","coordinates":[[[101.32339216500009,14.190734035000048],[101.27917120000006,14.187045080000075],[101.29554950500005,14.165992629000073],[101.30062884400007,14.159747043000039],[101.31424333700005,14.17130273400005],[101.33527369700005,14.186065210000038],[101.32339216500009,14.190734035000048]]]}},{"type":"Feature","properties":{"code":"260202","name":"เกาะโพธิ์","parentCode":"2602"},"geometry":{"type":"Polygon","coordinates":[[[101.26062589000009,14.19141305200003],[101.24127789500005,14.190866096000036],[101.23447736100007,14.184706169000037],[101.19729693800008,14.150871261000077],[101.20785829000005,14.118916072000047],[101.24384808800005,14.121463403000064],[101.24651325800005,14.136721082000065],[101.26062589000009,14.19141305200003]]]}},{"type":"Feature","properties":{"code":"260201","name":"เกาะหวาย","parentCode":"2602"},"geometry":{"type":"Polygon","coordinates":[[[101.27878907800005,14.192785270000059],[101.26062589000009,14.19141305200003],[101.24651325800005,14.136721082000065],[101.29554950500005,14.165992629000073],[101.27917120000006,14.187045080000075],[101.27878907800005,14.192785270000059]]]}},{"type":"Feature","properties":{"code":"260207","name":"นาหินลาด","parentCode":"2602"},"geometry":{"type":"Polygon","coordinates":[[[101.43230425900003,14.389491131000057],[101.42220888000008,14.383705732000067],[101.33518275600005,14.343719132000047],[101.34392684900007,14.27708382700007],[101.31402181300007,14.24453275600007],[101.32339216500009,14.190734035000048],[101.33527369700005,14.186065210000038],[101.38646301900008,14.219516555000041],[101.38101100300008,14.272158044000037],[101.44086593500003,14.25509334800006],[101.50177978400006,14.269458128000053],[101.49620330900007,14.334109838000074],[101.43230425900003,14.389491131000057]]]}},{"type":"Feature","properties":{"code":"260101","name":"นครนายก","parentCode":"2601"},"geometry":{"type":"Polygon","coordinates":[[[101.22070158800005,14.198507619000054],[101.20821781100005,14.208060911000075],[101.20857734900005,14.201986283000053],[101.22070158800005,14.198507619000054]]]}},{"type":"Feature","properties":{"code":"260206","name":"หนองแสง","parentCode":"2602"},"geometry":{"type":"Polygon","coordinates":[[[101.32339216500009,14.190734035000048],[101.31402181300007,14.24453275600007],[101.29395757900005,14.235983736000037],[101.27878907800005,14.192785270000059],[101.27917120000006,14.187045080000075],[101.32339216500009,14.190734035000048]]]}},{"type":"Feature","properties":{"code":"260409","name":"องครักษ์","parentCode":"2604"},"geometry":{"type":"Polygon","coordinates":[[[101.04489000900008,14.095063653000068],[101.00173456800007,14.124090141000067],[100.96863386900009,14.073110575000044],[101.03169931700006,14.075033525000038],[101.04489000900008,14.095063653000068]]]}},{"type":"Feature","properties":{"code":"260308","name":"ป่าขะ","parentCode":"2603"},"geometry":{"type":"Polygon","coordinates":[[[101.08601609900006,14.328138730000035],[101.06902761000003,14.33123174700006],[101.03236184200006,14.273613273000024],[101.09226922300007,14.279032037000036],[101.08601609900006,14.328138730000035]]]}},{"type":"Feature","properties":{"code":"260203","name":"ปากพลี","parentCode":"2602"},"geometry":{"type":"Polygon","coordinates":[[[101.30062884400007,14.159747043000039],[101.29554950500005,14.165992629000073],[101.24651325800005,14.136721082000065],[101.24384808800005,14.121463403000064],[101.27593072800005,14.120799613000031],[101.29502144200006,14.06352987200006],[101.30976984700004,14.071258800000066],[101.32123220600005,14.077255618000038],[101.30323793100007,14.120417259000021],[101.30062884400007,14.159747043000039]]]}},{"type":"Feature","properties":{"code":"260307","name":"พิกุลออก","parentCode":"2603"},"geometry":{"type":"Polygon","coordinates":[[[101.09590739900005,14.251249057000052],[101.01300284000007,14.252301558000056],[101.00353243100005,14.233087238000053],[101.08648902800007,14.223892971000055],[101.08825026600005,14.225605453000071],[101.09590739900005,14.251249057000052]]]}},{"type":"Feature","properties":{"code":"260404","name":"โพธิ์แทน","parentCode":"2604"},"geometry":{"type":"Polygon","coordinates":[[[100.98372938400007,14.218444456000043],[100.94643576800007,14.237134961000038],[100.91393621800006,14.209341899000037],[100.93862839100007,14.167344791000062],[100.99199616100003,14.206112405000056],[100.99296411900008,14.206862788000024],[100.98372938400007,14.218444456000043]]]}},{"type":"Feature","properties":{"code":"260401","name":"พระอาจารย์","parentCode":"2604"},"geometry":{"type":"Polygon","coordinates":[[[101.07525318700004,13.987464524000075],[101.06598106000007,14.005204190000029],[100.95934586000004,13.997021070000073],[100.95932128100009,13.967453848000048],[100.99347217900004,13.970674360000032],[101.08154685100004,13.975257895000027],[101.07525318700004,13.987464524000075]]]}},{"type":"Feature","properties":{"code":"260113","name":"พรหมณี","parentCode":"2601"},"geometry":{"type":"Polygon","coordinates":[[[101.20117109100005,14.22509257300004],[101.20079079600004,14.294151750000026],[101.16572385300003,14.34237577700003],[101.13996877500006,14.268141263000075],[101.13358171400006,14.20943995400006],[101.14245014900007,14.202372024000056],[101.20040246600007,14.214641767000046],[101.20117109100005,14.22509257300004]]]}},{"type":"Feature","properties":{"code":"260406","name":"ทรายมูล","parentCode":"2604"},"geometry":{"type":"Polygon","coordinates":[[[101.06643623200006,14.147070692000057],[101.02918739800003,14.17863060600007],[101.02868490100008,14.178248436000047],[100.98451645200004,14.146830543000021],[101.00173456800007,14.124090141000067],[101.04489000900008,14.095063653000068],[101.09659778700006,14.109491829000035],[101.06643623200006,14.147070692000057]]]}},{"type":"Feature","properties":{"code":"260110","name":"สาริกา","parentCode":"2601"},"geometry":{"type":"Polygon","coordinates":[[[101.28368800300007,14.502587747000064],[101.24283172200006,14.471104316000037],[101.21068336100006,14.416360004000069],[101.21006418900004,14.371997684000064],[101.24272075900006,14.310231263000048],[101.24432157300004,14.237161255000046],[101.24415007700009,14.215746326000044],[101.27278024500004,14.25203779900005],[101.30845748000007,14.306795909000073],[101.31776994200004,14.46992534900005],[101.28368800300007,14.502587747000064]]]}},{"type":"Feature","properties":{"code":"260107","name":"ศรีจุฬา","parentCode":"2601"},"geometry":{"type":"Polygon","coordinates":[[[101.18287260600005,14.095865193000066],[101.12447172600008,14.112973429000021],[101.11088505700008,14.091516023000054],[101.15178803100008,14.011582111000052],[101.17330925900006,14.011505714000066],[101.19088362300005,14.014624844000025],[101.20289954200007,14.042886198000076],[101.18287260600005,14.095865193000066]]]}},{"type":"Feature","properties":{"code":"260310","name":"ศรีกะอาง","parentCode":"2603"},"geometry":{"type":"Polygon","coordinates":[[[101.15977743400003,14.346596308000073],[101.08601609900006,14.328138730000035],[101.09226922300007,14.279032037000036],[101.10175367000005,14.267445569000074],[101.13996877500006,14.268141263000075],[101.16572385300003,14.34237577700003],[101.15977743400003,14.346596308000073]]]}},{"type":"Feature","properties":{"code":"260109","name":"ศรีนาวา","parentCode":"2601"},"geometry":{"type":"Polygon","coordinates":[[[101.29395757900005,14.235983736000037],[101.27278024500004,14.25203779900005],[101.24415007700009,14.215746326000044],[101.24127789500005,14.190866096000036],[101.26062589000009,14.19141305200003],[101.27878907800005,14.192785270000059],[101.29395757900005,14.235983736000037]]]}},{"type":"Feature","properties":{"code":"260403","name":"ศีรษะกระบือ","parentCode":"2604"},"geometry":{"type":"Polygon","coordinates":[[[101.03169931700006,14.075033525000038],[100.96863386900009,14.073110575000044],[100.95950561900008,14.068711823000058],[100.95936498700007,14.011387293000041],[100.95934586000004,13.997021070000073],[101.06598106000007,14.005204190000029],[101.03169931700006,14.075033525000038]]]}},{"type":"Feature","properties":{"code":"260102","name":"ท่าช้าง","parentCode":"2601"},"geometry":{"type":"Polygon","coordinates":[[[101.20040246600007,14.214641767000046],[101.14245014900007,14.202372024000056],[101.15536966600007,14.163255239000023],[101.19521478200005,14.161973225000054],[101.20857734900005,14.201986283000053],[101.20821781100005,14.208060911000075],[101.20040246600007,14.214641767000046]]]}},{"type":"Feature","properties":{"code":"260205","name":"ท่าเรือ","parentCode":"2602"},"geometry":{"type":"Polygon","coordinates":[[[101.24384808800005,14.121463403000064],[101.20785829000005,14.118916072000047],[101.18287260600005,14.095865193000066],[101.20289954200007,14.042886198000076],[101.26918510600007,14.061206436000077],[101.27848321400006,14.05484004300007],[101.29502144200006,14.06352987200006],[101.27593072800005,14.120799613000031],[101.24384808800005,14.121463403000064]]]}},{"type":"Feature","properties":{"code":"260105","name":"ท่าทราย","parentCode":"2601"},"geometry":{"type":"Polygon","coordinates":[[[101.13358171400006,14.20943995400006],[101.11238166100009,14.202283752000028],[101.09633727100004,14.170783207000056],[101.14631986800003,14.156957310000053],[101.15536966600007,14.163255239000023],[101.14245014900007,14.202372024000056],[101.13358171400006,14.20943995400006]]]}},{"type":"Feature","properties":{"code":"260305","name":"ทองหลาง","parentCode":"2603"},"geometry":{"type":"Polygon","coordinates":[[[101.08648902800007,14.223892971000055],[100.99296411900008,14.206862788000024],[100.99199616100003,14.206112405000056],[101.02868490100008,14.178248436000047],[101.02918739800003,14.17863060600007],[101.08886936300007,14.211118573000022],[101.08825026600005,14.225605453000071],[101.08648902800007,14.223892971000055]]]}},{"type":"Feature","properties":{"code":"260104","name":"วังกระโจม","parentCode":"2601"},"geometry":{"type":"Polygon","coordinates":[[[101.22070158800005,14.198507619000054],[101.20857734900005,14.201986283000053],[101.19521478200005,14.161973225000054],[101.19729693800008,14.150871261000077],[101.23447736100007,14.184706169000037],[101.22070158800005,14.198507619000054]]]}}]}