{"type":"FeatureCollection","features":[{"type":"Feature","properties":{"code":"270601","name":"อรัญประเทศ","parentCode":"2706"},"geometry":{"type":"Polygon","coordinates":[[[102.51306409500006,13.689925257000027],[102.49622899800005,13.68817880000006],[102.50541931100008,13.674428965000061],[102.54912141800008,13.659968096000057],[102.55090919000008,13.663944643000036],[102.51306409500006,13.689925257000027]]]}},{"type":"Feature","properties":{"code":"270613","name":"บ้านด่าน","parentCode":"2706"},"geometry":{"type":"Polygon","coordinates":[[[102.48978390200006,13.770144302000062],[102.45888563400007,13.735480198000062],[102.41909128700007,13.70597093400005],[102.43965026300003,13.691456220000077],[102.47900450000009,13.729365319000067],[102.53514397000004,13.73297683900006],[102.54216505900007,13.755121764000023],[102.48978390200006,13.770144302000062]]]}},{"type":"Feature","properties":{"code":"270102","name":"บ้านแก้ง","parentCode":"2701"},"geometry":{"type":"Polygon","coordinates":[[[102.07526888500007,14.035061603000031],[101.96164810000005,14.023251278000032],[101.92217627200006,13.937359093000055],[101.98487389300004,13.903843061000032],[101.98808185100006,13.957927010000049],[102.07356918800008,14.00434505100003],[102.07526888500007,14.035061603000031]]]}},{"type":"Feature","properties":{"code":"270608","name":"บ้านใหม่หนองไทร","parentCode":"2706"},"geometry":{"type":"Polygon","coordinates":[[[102.53514397000004,13.73297683900006],[102.47900450000009,13.729365319000067],[102.43965026300003,13.691456220000077],[102.44091012200005,13.688417762000029],[102.45484542500009,13.673991843000067],[102.49622899800005,13.68817880000006],[102.51306409500006,13.689925257000027],[102.53514397000004,13.73297683900006]]]}},{"type":"Feature","properties":{"code":"270206","name":"เบญจขร","parentCode":"2702"},"geometry":{"type":"Polygon","coordinates":[[[102.32001483600004,13.583590301000072],[102.28914082900008,13.587895336000031],[102.24266297800006,13.547284782000077],[102.26922093800005,13.49245202800006],[102.30856246700006,13.503168649000031],[102.32001483600004,13.583590301000072]]]}},{"type":"Feature","properties":{"code":"270506","name":"ช่องกุ่ม","parentCode":"2705"},"geometry":{"type":"Polygon","coordinates":[[[102.43452948800007,14.154589859000055],[102.40715875700005,14.15529596600004],[102.40052010300008,14.14575945200005],[102.40573916800008,14.098336239000048],[102.43650375400006,14.056636419000029],[102.42382827100005,13.970433447000062],[102.40156112900007,13.923276500000043],[102.41751174900008,13.894829164000043],[102.44691849500003,13.867393425000046],[102.48496732300003,13.871285511000053],[102.48218286400004,13.990460006000035],[102.49645614700006,14.029952451000042],[102.44700128900007,14.125291358000027],[102.45357896800004,14.143333480000024],[102.43452948800007,14.154589859000055]]]}},{"type":"Feature","properties":{"code":"270612","name":"ฟากห้วย","parentCode":"2706"},"geometry":{"type":"Polygon","coordinates":[[[102.50541931100008,13.674428965000061],[102.49622899800005,13.68817880000006],[102.45484542500009,13.673991843000067],[102.43866745800005,13.642474247000052],[102.46795246200008,13.608810345000052],[102.46421497300008,13.596781839000073],[102.51581499300005,13.614722081000025],[102.50541931100008,13.674428965000061]]]}},{"type":"Feature","properties":{"code":"270603","name":"หันทราย","parentCode":"2706"},"geometry":{"type":"Polygon","coordinates":[[[102.48496732300003,13.871285511000053],[102.44691849500003,13.867393425000046],[102.40573401100005,13.827013597000075],[102.41390070200003,13.768702329000064],[102.42093155500004,13.75629768400006],[102.45888563400007,13.735480198000062],[102.48978390200006,13.770144302000062],[102.48559290400004,13.867909998000073],[102.48496732300003,13.871285511000053]]]}},{"type":"Feature","properties":{"code":"270511","name":"ห้วยโจด","parentCode":"2705"},"geometry":{"type":"Polygon","coordinates":[[[102.31878043000006,13.781810255000039],[102.24025154300006,13.78918384900004],[102.23485014300007,13.819734924000045],[102.17948928100009,13.792229537000026],[102.22571563000008,13.766676572000051],[102.22776653000005,13.725923751000039],[102.16893298200006,13.694071043000065],[102.20580854900004,13.674734217000037],[102.24480824900007,13.711665297000025],[102.31878043000006,13.781810255000039]]]}},{"type":"Feature","properties":{"code":"270701","name":"เขาฉกรรจ์","parentCode":"2707"},"geometry":{"type":"Polygon","coordinates":[[[102.08977356200006,13.758820857000046],[102.07590858800006,13.743334119000053],[102.07946579300005,13.644964316000028],[102.08414207600003,13.641634122000028],[102.12782795700008,13.661804198000027],[102.09175338900008,13.700830395000025],[102.08977356200006,13.758820857000046]]]}},{"type":"Feature","properties":{"code":"270704","name":"เขาสามสิบ","parentCode":"2707"},"geometry":{"type":"Polygon","coordinates":[[[102.12930450600004,13.736442588000045],[102.08811217400006,13.762793191000071],[102.08977356200006,13.758820857000046],[102.09175338900008,13.700830395000025],[102.12782795700008,13.661804198000027],[102.15305501700004,13.651773024000022],[102.15383838700006,13.68498233400004],[102.12930450600004,13.736442588000045]]]}},{"type":"Feature","properties":{"code":"270201","name":"คลองหาด","parentCode":"2702"},"geometry":{"type":"Polygon","coordinates":[[[102.30856246700006,13.503168649000031],[102.26922093800005,13.49245202800006],[102.23809278900006,13.472914286000048],[102.23498417800005,13.449845633000052],[102.27849291900009,13.436642212000038],[102.28465840300004,13.39730482400006],[102.35103847800008,13.372395091000044],[102.35899510400009,13.481447703000072],[102.30701802900006,13.476952557000061],[102.30856246700006,13.503168649000031]]]}},{"type":"Feature","properties":{"code":"270405","name":"คลองหินปูน","parentCode":"2704"},"geometry":{"type":"Polygon","coordinates":[[[102.15305501700004,13.651773024000022],[102.12782795700008,13.661804198000027],[102.08414207600003,13.641634122000028],[102.09007141600006,13.575645345000055],[102.12705692000009,13.546531338000023],[102.17934978000005,13.57435487600003],[102.15353060600006,13.612438908000058],[102.15305501700004,13.651773024000022]]]}},{"type":"Feature","properties":{"code":"270205","name":"คลองไก่เถื่อน","parentCode":"2702"},"geometry":{"type":"Polygon","coordinates":[[[102.35103847800008,13.372395091000044],[102.28465840300004,13.39730482400006],[102.24008404200003,13.346867245000055],[102.28377653500007,13.303635412000062],[102.29112771800004,13.30007125000003],[102.35357461600006,13.298943492000035],[102.35103847800008,13.372395091000044]]]}},{"type":"Feature","properties":{"code":"270604","name":"คลองน้ำใส","parentCode":"2706"},"geometry":{"type":"Polygon","coordinates":[[[102.57480663200005,13.602665140000056],[102.51581499300005,13.614722081000025],[102.46421497300008,13.596781839000073],[102.45926931400004,13.562843844000042],[102.53702942600006,13.56619747600007],[102.57480663200005,13.602665140000056]]]}},{"type":"Feature","properties":{"code":"270611","name":"คลองทับจันทร์","parentCode":"2706"},"geometry":{"type":"Polygon","coordinates":[[[102.41909128700007,13.70597093400005],[102.33526487200004,13.642002310000066],[102.33693025700006,13.62241031700006],[102.40968172000004,13.607957510000062],[102.41346150000004,13.685019221000061],[102.44091012200005,13.688417762000029],[102.43965026300003,13.691456220000077],[102.41909128700007,13.70597093400005]]]}},{"type":"Feature","properties":{"code":"270309","name":"โคคลาน","parentCode":"2703"},"geometry":{"type":"Polygon","coordinates":[[[102.71555401700004,14.009619129000043],[102.60386349700008,14.000685091000037],[102.58909874800008,13.979893494000066],[102.58167971800003,13.946299639000074],[102.67955810300003,13.92832190200005],[102.71555401700004,14.009619129000043]]]}},{"type":"Feature","properties":{"code":"270104","name":"โคกปี่ฆ้อง","parentCode":"2701"},"geometry":{"type":"Polygon","coordinates":[[[102.16478322900008,14.140548056000057],[102.10620592600009,14.151759132000052],[102.09094815800006,14.092965144000061],[102.12626159100006,14.095803455000066],[102.11056621500006,14.042156306000038],[102.07526888500007,14.035061603000031],[102.07356918800008,14.00434505100003],[101.98808185100006,13.957927010000049],[101.98487389300004,13.903843061000032],[102.02560359700004,13.869283997000025],[102.04796915400004,13.85031009100004],[102.09295911900006,13.889090612000075],[102.09782509900003,13.956543514000032],[102.16943988700007,14.012059806000025],[102.16478322900008,14.140548056000057]]]}},{"type":"Feature","properties":{"code":"270801","name":"โคกสูง","parentCode":"2708"},"geometry":{"type":"Polygon","coordinates":[[[102.75463638800005,13.844467924000071],[102.67887985000004,13.83403369000007],[102.62747688800005,13.846832625000047],[102.61906614600008,13.813452131000076],[102.67897965600008,13.799310313000035],[102.73476550600009,13.812257750000072],[102.75463638800005,13.844467924000071]]]}},{"type":"Feature","properties":{"code":"270602","name":"เมืองไผ่","parentCode":"2706"},"geometry":{"type":"Polygon","coordinates":[[[102.45484542500009,13.673991843000067],[102.44091012200005,13.688417762000029],[102.41346150000004,13.685019221000061],[102.40968172000004,13.607957510000062],[102.46795246200008,13.608810345000052],[102.43866745800005,13.642474247000052],[102.45484542500009,13.673991843000067]]]}},{"type":"Feature","properties":{"code":"270504","name":"โนนหมากเค็ง","parentCode":"2705"},"geometry":{"type":"Polygon","coordinates":[[[102.31184317400005,13.867495915000063],[102.23566951100008,13.85302875900004],[102.20802862300008,13.905618210000057],[102.16382800700006,13.84176960600007],[102.17948928100009,13.792229537000026],[102.23485014300007,13.819734924000045],[102.24025154300006,13.78918384900004],[102.31878043000006,13.781810255000039],[102.32862237900008,13.775264983000056],[102.36649712200006,13.830685244000051],[102.36109387000005,13.859727203000034],[102.31184317400005,13.867495915000063]]]}},{"type":"Feature","properties":{"code":"270804","name":"โนนหมากมุ่น","parentCode":"2708"},"geometry":{"type":"Polygon","coordinates":[[[102.73476550600009,13.812257750000072],[102.67897965600008,13.799310313000035],[102.61906614600008,13.813452131000076],[102.59329544900004,13.793049976000077],[102.65559819200007,13.736479140000029],[102.73082395600005,13.772077306000028],[102.73476550600009,13.812257750000072]]]}},{"type":"Feature","properties":{"code":"270111","name":"หนองบอน","parentCode":"2701"},"geometry":{"type":"Polygon","coordinates":[[[102.19537605800008,13.922300498000027],[102.12202325700008,13.88426247800004],[102.09295911900006,13.889090612000075],[102.04796915400004,13.85031009100004],[102.10102370900006,13.811744943000065],[102.16382800700006,13.84176960600007],[102.20802862300008,13.905618210000057],[102.19537605800008,13.922300498000027]]]}},{"type":"Feature","properties":{"code":"270509","name":"หนองหมากฝ้าย","parentCode":"2705"},"geometry":{"type":"Polygon","coordinates":[[[102.40052010300008,14.14575945200005],[102.35926664400006,14.165854786000068],[102.32595634700004,14.128397520000021],[102.31115552400007,14.02581576600005],[102.28571501500005,14.007811901000025],[102.30852579600008,13.999999861000049],[102.28030216200005,13.954509808000068],[102.31450077700003,13.886359398000025],[102.36845218400003,13.902687248000063],[102.40313469900008,13.871186670000043],[102.41751174900008,13.894829164000043],[102.40156112900007,13.923276500000043],[102.42382827100005,13.970433447000062],[102.43650375400006,14.056636419000029],[102.40573916800008,14.098336239000048],[102.40052010300008,14.14575945200005]]]}},{"type":"Feature","properties":{"code":"270802","name":"หนองม่วง","parentCode":"2708"},"geometry":{"type":"Polygon","coordinates":[[[102.62747688800005,13.846832625000047],[102.62017678200004,13.90948499500007],[102.58249693000005,13.94242007500003],[102.53279106000008,13.939703628000075],[102.53561054700003,13.853028958000039],[102.59329544900004,13.793049976000077],[102.61906614600008,13.813452131000076],[102.62747688800005,13.846832625000047]]]}},{"type":"Feature","properties":{"code":"270505","name":"หนองน้ำใส","parentCode":"2705"},"geometry":{"type":"Polygon","coordinates":[[[102.41751174900008,13.894829164000043],[102.40313469900008,13.871186670000043],[102.36845218400003,13.902687248000063],[102.31450077700003,13.886359398000025],[102.31184317400005,13.867495915000063],[102.36109387000005,13.859727203000034],[102.36649712200006,13.830685244000051],[102.40573401100005,13.827013597000075],[102.44691849500003,13.867393425000046],[102.41751174900008,13.894829164000043]]]}},{"type":"Feature","properties":{"code":"270610","name":"หนองสังข์","parentCode":"2706"},"geometry":{"type":"Polygon","coordinates":[[[102.53561054700003,13.853028958000039],[102.48559290400004,13.867909998000073],[102.48978390200006,13.770144302000062],[102.54216505900007,13.755121764000023],[102.59329544900004,13.793049976000077],[102.53561054700003,13.853028958000039]]]}},{"type":"Feature","properties":{"code":"270510","name":"หนองตะเคียนบอน","parentCode":"2705"},"geometry":{"type":"Polygon","coordinates":[[[102.31450077700003,13.886359398000025],[102.28030216200005,13.954509808000068],[102.30852579600008,13.999999861000049],[102.28571501500005,14.007811901000025],[102.24301798900007,13.947134193000068],[102.19537605800008,13.922300498000027],[102.20802862300008,13.905618210000057],[102.23566951100008,13.85302875900004],[102.31184317400005,13.867495915000063],[102.31450077700003,13.886359398000025]]]}},{"type":"Feature","properties":{"code":"270702","name":"หนองหว้า","parentCode":"2707"},"geometry":{"type":"Polygon","coordinates":[[[102.07590858800006,13.743334119000053],[102.04420877100006,13.744905463000066],[102.03369759300006,13.703145867000046],[101.99933249400004,13.714412160000052],[101.98520915700004,13.680415733000075],[101.94288304500009,13.692339021000066],[101.93409884200008,13.610868807000031],[101.91507152300005,13.585596376000069],[101.90704765300006,13.571071395000047],[101.95099261500008,13.553273838000052],[101.99663898300008,13.589274224000064],[102.00237169900004,13.621562878000077],[102.06491599700007,13.621856704000038],[102.07946579300005,13.644964316000028],[102.07590858800006,13.743334119000053]]]}},{"type":"Feature","properties":{"code":"270507","name":"หนองแวง","parentCode":"2705"},"geometry":{"type":"Polygon","coordinates":[[[102.40573401100005,13.827013597000075],[102.36649712200006,13.830685244000051],[102.32862237900008,13.775264983000056],[102.41390070200003,13.768702329000064],[102.40573401100005,13.827013597000075]]]}},{"type":"Feature","properties":{"code":"270803","name":"หนองแวง","parentCode":"2708"},"geometry":{"type":"Polygon","coordinates":[[[102.67955810300003,13.92832190200005],[102.58167971800003,13.946299639000074],[102.58249693000005,13.94242007500003],[102.62017678200004,13.90948499500007],[102.62747688800005,13.846832625000047],[102.67887985000004,13.83403369000007],[102.75463638800005,13.844467924000071],[102.76691925000006,13.856680745000062],[102.67955810300003,13.92832190200005]]]}},{"type":"Feature","properties":{"code":"270606","name":"ป่าไร่","parentCode":"2706"},"geometry":{"type":"Polygon","coordinates":[[[102.65559819200007,13.736479140000029],[102.59329544900004,13.793049976000077],[102.54216505900007,13.755121764000023],[102.53514397000004,13.73297683900006],[102.51306409500006,13.689925257000027],[102.55090919000008,13.663944643000036],[102.56950220000004,13.69111874500004],[102.65559819200007,13.736479140000029]]]}},{"type":"Feature","properties":{"code":"270503","name":"ผักขะ","parentCode":"2705"},"geometry":{"type":"Polygon","coordinates":[[[102.42093155500004,13.75629768400006],[102.31544196200008,13.711787324000056],[102.33376242200006,13.642063921000045],[102.33526487200004,13.642002310000066],[102.41909128700007,13.70597093400005],[102.45888563400007,13.735480198000062],[102.42093155500004,13.75629768400006]]]}},{"type":"Feature","properties":{"code":"270609","name":"ผ่านศึก","parentCode":"2706"},"geometry":{"type":"Polygon","coordinates":[[[102.40968172000004,13.607957510000062],[102.33693025700006,13.62241031700006],[102.32717457500007,13.589026743000034],[102.35930629900008,13.570719613000051],[102.45926931400004,13.562843844000042],[102.46421497300008,13.596781839000073],[102.46795246200008,13.608810345000052],[102.40968172000004,13.607957510000062]]]}},{"type":"Feature","properties":{"code":"270703","name":"พระเพลิง","parentCode":"2707"},"geometry":{"type":"Polygon","coordinates":[[[102.08414207600003,13.641634122000028],[102.07946579300005,13.644964316000028],[102.06491599700007,13.621856704000038],[102.00237169900004,13.621562878000077],[101.99663898300008,13.589274224000064],[101.95099261500008,13.553273838000052],[101.90704765300006,13.571071395000047],[101.88917250000009,13.500513622000028],[101.89377360600008,13.47157345000005],[101.93717280700008,13.47798655500003],[101.99998200400006,13.557635646000051],[102.03704358900006,13.55924931100003],[102.09007141600006,13.575645345000055],[102.08414207600003,13.641634122000028]]]}},{"type":"Feature","properties":{"code":"270101","name":"สระแก้ว","parentCode":"2701"},"geometry":{"type":"Polygon","coordinates":[[[102.04796915400004,13.85031009100004],[102.02560359700004,13.869283997000025],[102.01337948400004,13.855604436000021],[102.08811217400006,13.762793191000071],[102.12930450600004,13.736442588000045],[102.10102370900006,13.811744943000065],[102.04796915400004,13.85031009100004]]]}},{"type":"Feature","properties":{"code":"270108","name":"สระขวัญ","parentCode":"2701"},"geometry":{"type":"Polygon","coordinates":[[[102.01337948400004,13.855604436000021],[101.94113556700006,13.739279428000032],[101.94288304500009,13.692339021000066],[101.98520915700004,13.680415733000075],[101.99933249400004,13.714412160000052],[102.03369759300006,13.703145867000046],[102.04420877100006,13.744905463000066],[102.07590858800006,13.743334119000053],[102.08977356200006,13.758820857000046],[102.08811217400006,13.762793191000071],[102.01337948400004,13.855604436000021]]]}},{"type":"Feature","properties":{"code":"270508","name":"แซร์ออ","parentCode":"2705"},"geometry":{"type":"Polygon","coordinates":[[[102.50220041900008,14.13237285300005],[102.45357896800004,14.143333480000024],[102.44700128900007,14.125291358000027],[102.49645614700006,14.029952451000042],[102.48218286400004,13.990460006000035],[102.48496732300003,13.871285511000053],[102.48559290400004,13.867909998000073],[102.53561054700003,13.853028958000039],[102.53279106000008,13.939703628000075],[102.58249693000005,13.94242007500003],[102.58167971800003,13.946299639000074],[102.58909874800008,13.979893494000066],[102.56463920500005,13.984618252000075],[102.53618210400003,14.043913288000056],[102.53247138900008,14.097199868000075],[102.50220041900008,14.13237285300005]]]}},{"type":"Feature","properties":{"code":"270204","name":"ไทรเดี่ยว","parentCode":"2702"},"geometry":{"type":"Polygon","coordinates":[[[102.26438326100003,13.621259322000071],[102.21623699300005,13.628801086000067],[102.15353060600006,13.612438908000058],[102.17934978000005,13.57435487600003],[102.18738453300006,13.564511010000047],[102.22808136100008,13.558896440000069],[102.27069201500007,13.587409592000029],[102.26438326100003,13.621259322000071]]]}},{"type":"Feature","properties":{"code":"270207","name":"ไทรทอง","parentCode":"2702"},"geometry":{"type":"Polygon","coordinates":[[[102.33376242200006,13.642063921000045],[102.26438326100003,13.621259322000071],[102.27069201500007,13.587409592000029],[102.22808136100008,13.558896440000069],[102.24266297800006,13.547284782000077],[102.28914082900008,13.587895336000031],[102.32001483600004,13.583590301000072],[102.32717457500007,13.589026743000034],[102.33693025700006,13.62241031700006],[102.33526487200004,13.642002310000066],[102.33376242200006,13.642063921000045]]]}},{"type":"Feature","properties":{"code":"270103","name":"ศาลาลำดวน","parentCode":"2701"},"geometry":{"type":"Polygon","coordinates":[[[101.92217627200006,13.937359093000055],[101.91146572600007,13.934727511000062],[101.90561744300004,13.915107376000037],[101.92402526900008,13.81672549700005],[101.94140870200005,13.811849936000044],[101.94113556700006,13.739279428000032],[102.01337948400004,13.855604436000021],[102.02560359700004,13.869283997000025],[101.98487389300004,13.903843061000032],[101.92217627200006,13.937359093000055]]]}},{"type":"Feature","properties":{"code":"270203","name":"ซับมะกรูด","parentCode":"2702"},"geometry":{"type":"Polygon","coordinates":[[[102.22808136100008,13.558896440000069],[102.18738453300006,13.564511010000047],[102.21863834900006,13.480772759000047],[102.23809278900006,13.472914286000048],[102.26922093800005,13.49245202800006],[102.24266297800006,13.547284782000077],[102.22808136100008,13.558896440000069]]]}},{"type":"Feature","properties":{"code":"270403","name":"ตาหลังใน","parentCode":"2704"},"geometry":{"type":"Polygon","coordinates":[[[102.09007141600006,13.575645345000055],[102.03704358900006,13.55924931100003],[102.07301328300008,13.515754241000025],[102.07414019200007,13.450539559000049],[102.14297145500007,13.44918569300006],[102.16324500000007,13.471556476000046],[102.10044196700005,13.526197437000064],[102.12705692000009,13.546531338000023],[102.09007141600006,13.575645345000055]]]}},{"type":"Feature","properties":{"code":"270301","name":"ตาพระยา","parentCode":"2703"},"geometry":{"type":"Polygon","coordinates":[[[102.85557383800005,13.992936057000065],[102.77859858800008,14.059443360000046],[102.71555401700004,14.009619129000043],[102.67955810300003,13.92832190200005],[102.76691925000006,13.856680745000062],[102.78325152400004,13.932903563000025],[102.85557383800005,13.992936057000065]]]}},{"type":"Feature","properties":{"code":"270106","name":"ท่าเกษม","parentCode":"2701"},"geometry":{"type":"Polygon","coordinates":[[[102.16382800700006,13.84176960600007],[102.10102370900006,13.811744943000065],[102.12930450600004,13.736442588000045],[102.15383838700006,13.68498233400004],[102.16893298200006,13.694071043000065],[102.22776653000005,13.725923751000039],[102.22571563000008,13.766676572000051],[102.17948928100009,13.792229537000026],[102.16382800700006,13.84176960600007]]]}},{"type":"Feature","properties":{"code":"270605","name":"ท่าข้าม","parentCode":"2706"},"geometry":{"type":"Polygon","coordinates":[[[102.54912141800008,13.659968096000057],[102.50541931100008,13.674428965000061],[102.51581499300005,13.614722081000025],[102.57480663200005,13.602665140000056],[102.62188793000007,13.612724162000063],[102.54912141800008,13.659968096000057]]]}},{"type":"Feature","properties":{"code":"270502","name":"ท่าเกวียน","parentCode":"2705"},"geometry":{"type":"Polygon","coordinates":[[[102.31544196200008,13.711787324000056],[102.24480824900007,13.711665297000025],[102.20580854900004,13.674734217000037],[102.16893298200006,13.694071043000065],[102.15383838700006,13.68498233400004],[102.15305501700004,13.651773024000022],[102.15353060600006,13.612438908000058],[102.21623699300005,13.628801086000067],[102.26438326100003,13.621259322000071],[102.33376242200006,13.642063921000045],[102.31544196200008,13.711787324000056]]]}},{"type":"Feature","properties":{"code":"270105","name":"ท่าแยก","parentCode":"2701"},"geometry":{"type":"Polygon","coordinates":[[[102.20803998900004,14.175651143000039],[102.19079900600008,14.195757171000025],[102.16478322900008,14.140548056000057],[102.16943988700007,14.012059806000025],[102.09782509900003,13.956543514000032],[102.09295911900006,13.889090612000075],[102.12202325700008,13.88426247800004],[102.19537605800008,13.922300498000027],[102.24301798900007,13.947134193000068],[102.28571501500005,14.007811901000025],[102.31115552400007,14.02581576600005],[102.32595634700004,14.128397520000021],[102.21558053300004,14.145795153000051],[102.20803998900004,14.175651143000039]]]}},{"type":"Feature","properties":{"code":"270202","name":"ไทยอุดม","parentCode":"2702"},"geometry":{"type":"Polygon","coordinates":[[[102.28465840300004,13.39730482400006],[102.27849291900009,13.436642212000038],[102.23498417800005,13.449845633000052],[102.22591241100008,13.383899190000022],[102.24008404200003,13.346867245000055],[102.28465840300004,13.39730482400006]]]}},{"type":"Feature","properties":{"code":"270607","name":"ทับพริก","parentCode":"2706"},"geometry":{"type":"Polygon","coordinates":[[[102.35930629900008,13.570719613000051],[102.32717457500007,13.589026743000034],[102.32001483600004,13.583590301000072],[102.30856246700006,13.503168649000031],[102.30701802900006,13.476952557000061],[102.35899510400009,13.481447703000072],[102.33697154700008,13.543642491000071],[102.35930629900008,13.570719613000051]]]}},{"type":"Feature","properties":{"code":"270306","name":"ทัพราช","parentCode":"2703"},"geometry":{"type":"Polygon","coordinates":[[[102.74790880900008,14.138167848000023],[102.69750200200008,14.13004453800005],[102.65360409200008,14.165394524000021],[102.59621109600005,14.168624105000049],[102.55159361200003,14.135421200000053],[102.50220041900008,14.13237285300005],[102.53247138900008,14.097199868000075],[102.53618210400003,14.043913288000056],[102.56463920500005,13.984618252000075],[102.58909874800008,13.979893494000066],[102.60386349700008,14.000685091000037],[102.71555401700004,14.009619129000043],[102.77859858800008,14.059443360000046],[102.76572398900004,14.140179293000074],[102.74790880900008,14.138167848000023]]]}},{"type":"Feature","properties":{"code":"270302","name":"ทัพเสด็จ","parentCode":"2703"},"geometry":{"type":"Polygon","coordinates":[[[102.90739109000003,14.092569508000054],[102.84543736900008,14.097006865000026],[102.84311126200004,14.074236299000063],[102.77859858800008,14.059443360000046],[102.85557383800005,13.992936057000065],[102.90975724300006,14.015952451000032],[102.90739109000003,14.092569508000054]]]}},{"type":"Feature","properties":{"code":"270307","name":"ทัพไทย","parentCode":"2703"},"geometry":{"type":"Polygon","coordinates":[[[102.90739109000003,14.092569508000054],[102.94154271800005,14.155468303000077],[102.93035676000005,14.175651232000064],[102.90467322000006,14.164591306000034],[102.87327018600007,14.147517992000076],[102.81505340400008,14.170192715000042],[102.76572398900004,14.140179293000074],[102.77859858800008,14.059443360000046],[102.84311126200004,14.074236299000063],[102.84543736900008,14.097006865000026],[102.90739109000003,14.092569508000054]]]}},{"type":"Feature","properties":{"code":"270406","name":"ทุ่งมหาเจริญ","parentCode":"2704"},"geometry":{"type":"Polygon","coordinates":[[[102.03704358900006,13.55924931100003],[101.99998200400006,13.557635646000051],[101.93717280700008,13.47798655500003],[101.93807532700004,13.45084218900007],[101.95198809600004,13.432540079000034],[102.06217451200007,13.435971426000037],[102.07414019200007,13.450539559000049],[102.07301328300008,13.515754241000025],[102.03704358900006,13.55924931100003]]]}},{"type":"Feature","properties":{"code":"270902","name":"วังใหม่","parentCode":"2709"},"geometry":{"type":"Polygon","coordinates":[[[102.23809278900006,13.472914286000048],[102.21863834900006,13.480772759000047],[102.16324500000007,13.471556476000046],[102.14297145500007,13.44918569300006],[102.07414019200007,13.450539559000049],[102.06217451200007,13.435971426000037],[101.95198809600004,13.432540079000034],[101.98993275500004,13.352635983000027],[102.07822744600008,13.418835210000054],[102.13835018900005,13.396590366000055],[102.18992553700008,13.403270770000063],[102.22591241100008,13.383899190000022],[102.23498417800005,13.449845633000052],[102.23809278900006,13.472914286000048]]]}},{"type":"Feature","properties":{"code":"270401","name":"วังน้ำเย็น","parentCode":"2704"},"geometry":{"type":"Polygon","coordinates":[[[102.17934978000005,13.57435487600003],[102.12705692000009,13.546531338000023],[102.10044196700005,13.526197437000064],[102.16324500000007,13.471556476000046],[102.21863834900006,13.480772759000047],[102.18738453300006,13.564511010000047],[102.17934978000005,13.57435487600003]]]}},{"type":"Feature","properties":{"code":"270901","name":"วังสมบูรณ์","parentCode":"2709"},"geometry":{"type":"Polygon","coordinates":[[[102.22591241100008,13.383899190000022],[102.18992553700008,13.403270770000063],[102.13835018900005,13.396590366000055],[102.16524586000008,13.324091698000075],[102.18865892300005,13.293062450000036],[102.24480464600003,13.285576967000054],[102.28377653500007,13.303635412000062],[102.24008404200003,13.346867245000055],[102.22591241100008,13.383899190000022]]]}},{"type":"Feature","properties":{"code":"270903","name":"วังทอง","parentCode":"2709"},"geometry":{"type":"Polygon","coordinates":[[[102.13835018900005,13.396590366000055],[102.07822744600008,13.418835210000054],[101.98993275500004,13.352635983000027],[101.98890313500004,13.333254906000036],[102.03281523200008,13.28643435600003],[102.02829049400003,13.236708263000025],[102.10344996800006,13.261590357000046],[102.13142311900003,13.336088321000034],[102.16524586000008,13.324091698000075],[102.13835018900005,13.396590366000055]]]}},{"type":"Feature","properties":{"code":"270501","name":"วัฒนานคร","parentCode":"2705"},"geometry":{"type":"Polygon","coordinates":[[[102.32862237900008,13.775264983000056],[102.31878043000006,13.781810255000039],[102.24480824900007,13.711665297000025],[102.31544196200008,13.711787324000056],[102.42093155500004,13.75629768400006],[102.41390070200003,13.768702329000064],[102.32862237900008,13.775264983000056]]]}}]}