{"type":"FeatureCollection","features":[{"type":"Feature","properties":{"code":"310104","name":"บ้านบัว","parentCode":"3101"},"geometry":{"type":"Polygon","coordinates":[[[103.08353868900008,14.955601690000037],[103.06948304100007,14.972282762000077],[103.05522999400006,14.953353350000043],[102.98013027500008,14.96660944000007],[102.96764062400007,14.954159107000066],[102.98261944300003,14.933142899000075],[103.02547879900004,14.935629299000027],[103.02123281500008,14.88742650200004],[103.05850382000006,14.898913055000037],[103.08353868900008,14.955601690000037]]]}},{"type":"Feature","properties":{"code":"310903","name":"บ้านจาน","parentCode":"3109"},"geometry":{"type":"Polygon","coordinates":[[[103.00199479600008,15.53659414200007],[102.97309792500005,15.547251471000038],[102.93941179500007,15.496984869000073],[102.94226066600004,15.49224639700003],[102.97834095800005,15.482181746000037],[103.01006928900006,15.436508616000026],[103.01261813800005,15.435316744000033],[103.02797139200004,15.438223372000039],[103.00199479600008,15.53659414200007]]]}},{"type":"Feature","properties":{"code":"312101","name":"บ้านด่าน","parentCode":"3121"},"geometry":{"type":"Polygon","coordinates":[[[103.18664009900004,15.109188829000061],[103.19418380000008,15.158169998000062],[103.14613565000008,15.145597124000062],[103.12904484800004,15.137878424000064],[103.13204325900006,15.078347433000033],[103.18714495100005,15.071503866000057],[103.18664009900004,15.109188829000061]]]}},{"type":"Feature","properties":{"code":"311303","name":"บ้านดู่","parentCode":"3113"},"geometry":{"type":"Polygon","coordinates":[[[103.00527807600008,15.728837592000048],[102.95315847600006,15.759947202000035],[102.95176445700008,15.727848386000062],[102.95279641900004,15.684184557000037],[102.97696473000008,15.671705802000076],[102.98176128100005,15.674380808000024],[103.00799590100007,15.701173907000054],[103.00527807600008,15.728837592000048]]]}},{"type":"Feature","properties":{"code":"311302","name":"บ้านคู","parentCode":"3113"},"geometry":{"type":"Polygon","coordinates":[[[102.95176445700008,15.727848386000062],[102.87385764500004,15.73835735700004],[102.87467375800009,15.734924200000023],[102.87339499700005,15.681287852000025],[102.90772996000004,15.66878506300003],[102.95279641900004,15.684184557000037],[102.95176445700008,15.727848386000062]]]}},{"type":"Feature","properties":{"code":"310801","name":"บ้านกรวด","parentCode":"3108"},"geometry":{"type":"Polygon","coordinates":[[[103.11630349400008,14.478301781000027],[103.10882265500004,14.478270459000044],[103.03170553300004,14.417343507000055],[103.08976978900006,14.410021611000047],[103.12268144400008,14.424551837000024],[103.11630349400008,14.478301781000027]]]}},{"type":"Feature","properties":{"code":"310906","name":"บ้านเป้า","parentCode":"3109"},"geometry":{"type":"Polygon","coordinates":[[[102.92722065400005,15.621161796000024],[102.88297611300004,15.666777495000076],[102.84873502600004,15.636744063000037],[102.83820827400007,15.63674448300003],[102.84039635700009,15.62610548300006],[102.91414071000008,15.58925907400004],[102.91681974100004,15.597267830000021],[102.92722065400005,15.621161796000024]]]}},{"type":"Feature","properties":{"code":"310203","name":"บ้านแพ","parentCode":"3102"},"geometry":{"type":"Polygon","coordinates":[[[103.01261813800005,15.435316744000033],[103.01006928900006,15.436508616000026],[102.96553673200003,15.419974449000051],[102.95509740300008,15.38273395300007],[102.97741206500007,15.344071167000038],[103.02857007200004,15.374563498000043],[103.01261813800005,15.435316744000033]]]}},{"type":"Feature","properties":{"code":"310308","name":"บ้านปรือ","parentCode":"3103"},"geometry":{"type":"Polygon","coordinates":[[[103.31826369400005,14.872609070000067],[103.27713863000008,14.891349955000067],[103.26134463200003,14.853046036000023],[103.29216454600004,14.81139769400005],[103.35369612700003,14.842768188000036],[103.31826369400005,14.872609070000067]]]}},{"type":"Feature","properties":{"code":"310703","name":"บ้านไทร","parentCode":"3107"},"geometry":{"type":"Polygon","coordinates":[[[103.11057459800008,14.739243975000022],[103.07310707600004,14.74576877800007],[103.04379690900004,14.74128772000006],[103.02233487800004,14.735436333000052],[103.03109404900005,14.676073318000022],[103.05798292800006,14.66088123000003],[103.09433225700008,14.669185711000068],[103.10998834500003,14.713317450000034],[103.11057459800008,14.739243975000022]]]}},{"type":"Feature","properties":{"code":"310416","name":"บ้านสิงห์","parentCode":"3104"},"geometry":{"type":"Polygon","coordinates":[[[102.82296416100007,14.755503555000075],[102.79067639300007,14.77423204300004],[102.75747371500006,14.748465664000037],[102.74567522200005,14.714176308000049],[102.82598629200004,14.713835881000023],[102.82296416100007,14.755503555000075]]]}},{"type":"Feature","properties":{"code":"311604","name":"บ้านตะโก","parentCode":"3116"},"geometry":{"type":"Polygon","coordinates":[[[103.25177038100009,14.990378173000067],[103.21777547300007,14.985366370000065],[103.21357916500006,14.963153179000074],[103.20919515700007,14.945868871000073],[103.21844740000006,14.93756774600007],[103.23010831600004,14.938448337000068],[103.26345359600003,14.966579897000031],[103.25177038100009,14.990378173000067]]]}},{"type":"Feature","properties":{"code":"310907","name":"บ้านแวง","parentCode":"3109"},"geometry":{"type":"Polygon","coordinates":[[[102.99804735900005,15.61076362800003],[102.92722065400005,15.621161796000024],[102.91681974100004,15.597267830000021],[102.93177066600003,15.563135382000041],[102.97684436000009,15.557262356000024],[102.99804735900005,15.61076362800003]]]}},{"type":"Feature","properties":{"code":"310108","name":"บ้านยาง","parentCode":"3101"},"geometry":{"type":"Polygon","coordinates":[[[103.19055030800007,15.044186843000034],[103.12546300500009,15.040006479000056],[103.13398987300008,14.995419077000065],[103.15296584300006,14.976495409000051],[103.15842080000004,14.985650425000074],[103.16690697800004,15.004713654000057],[103.18529313300007,15.02513652500005],[103.19055030800007,15.044186843000034]]]}},{"type":"Feature","properties":{"code":"310909","name":"บ้านยาง","parentCode":"3109"},"geometry":{"type":"Polygon","coordinates":[[[103.11140379300008,15.481283650000023],[103.07299009000008,15.497399350000023],[103.09065946100009,15.532902190000073],[103.05284488500007,15.557130169000061],[103.05281411500005,15.557081426000025],[103.05482187000007,15.438071512000022],[103.10012702700004,15.432799791000036],[103.11140379300008,15.481283650000023]]]}},{"type":"Feature","properties":{"code":"311010","name":"บ้านยาง","parentCode":"3110"},"geometry":{"type":"Polygon","coordinates":[[[102.92035984900008,14.905929108000066],[102.85091821600008,14.905502510000076],[102.85656905500008,14.858278338000048],[102.86971268300005,14.840316474000076],[102.87556157400007,14.830507026000078],[102.91305824700004,14.836072878000039],[102.91499299900005,14.876838507000059],[102.92035984900008,14.905929108000066]]]}},{"type":"Feature","properties":{"code":"310510","name":"บุกระสัง","parentCode":"3105"},"geometry":{"type":"Polygon","coordinates":[[[102.52232218200004,14.734436166000023],[102.47240317000006,14.763253047000035],[102.46040148700007,14.710581949000073],[102.47545853100007,14.65538871800004],[102.48602813100007,14.701632575000076],[102.51899793000007,14.690187388000027],[102.53269558700003,14.723913006000032],[102.52232218200004,14.734436166000023]]]}},{"type":"Feature","properties":{"code":"311015","name":"บุโพธิ์","parentCode":"3110"},"geometry":{"type":"Polygon","coordinates":[[[102.95680999600006,15.073059086000058],[102.94171748600007,15.15101476500007],[102.90936652100004,15.111252845000024],[102.93826430900003,15.067448410000054],[102.95680999600006,15.073059086000058]]]}},{"type":"Feature","properties":{"code":"310119","name":"บัวทอง","parentCode":"3101"},"geometry":{"type":"Polygon","coordinates":[[[103.18714495100005,15.071503866000057],[103.13204325900006,15.078347433000033],[103.11603444000008,15.066820644000074],[103.12546300500009,15.040006479000056],[103.19055030800007,15.044186843000034],[103.19400472500007,15.049938473000054],[103.18714495100005,15.071503866000057]]]}},{"type":"Feature","properties":{"code":"310807","name":"บึงเจริญ","parentCode":"3108"},"geometry":{"type":"Polygon","coordinates":[[[103.08976978900006,14.410021611000047],[103.03170553300004,14.417343507000055],[103.01942703000009,14.415488163000077],[103.03802067800007,14.250621157000069],[103.09036087500004,14.297253440000077],[103.07063578900005,14.35863291100003],[103.08976978900006,14.410021611000047]]]}},{"type":"Feature","properties":{"code":"311801","name":"ชำนิ","parentCode":"3118"},"geometry":{"type":"Polygon","coordinates":[[[102.87556157400007,14.830507026000078],[102.86971268300005,14.840316474000076],[102.79003223600006,14.784916785000064],[102.79067639300007,14.77423204300004],[102.82296416100007,14.755503555000075],[102.82813515200007,14.76938221000006],[102.87556157400007,14.830507026000078]]]}},{"type":"Feature","properties":{"code":"311501","name":"จันดุม","parentCode":"3115"},"geometry":{"type":"Polygon","coordinates":[[[103.19288665100004,14.681625415000042],[103.10998834500003,14.713317450000034],[103.09433225700008,14.669185711000068],[103.11566721900004,14.648681967000073],[103.15903341200004,14.622453132000032],[103.15972216600005,14.664192116000038],[103.19288665100004,14.681625415000042]]]}},{"type":"Feature","properties":{"code":"310808","name":"จันทบเพชร","parentCode":"3108"},"geometry":{"type":"Polygon","coordinates":[[[103.17743104400006,14.434713587000033],[103.14437486700007,14.431336462000047],[103.13072837400006,14.392091908000054],[103.13959725100005,14.324214227000027],[103.19661299500007,14.331197775000021],[103.17743104400006,14.434713587000033]]]}},{"type":"Feature","properties":{"code":"312301","name":"เจริญสุข","parentCode":"3123"},"geometry":{"type":"Polygon","coordinates":[[[102.90432157100008,14.60378088300007],[102.86235365700009,14.625854957000058],[102.82557102400006,14.559182177000025],[102.82278930100006,14.541688632000046],[102.82724860800005,14.528870933000064],[102.87765384900007,14.543701939000073],[102.88397229800006,14.542431061000059],[102.90432157100008,14.60378088300007]]]}},{"type":"Feature","properties":{"code":"311804","name":"ช่อผกา","parentCode":"3118"},"geometry":{"type":"Polygon","coordinates":[[[102.85656905500008,14.858278338000048],[102.78919718100008,14.850888714000064],[102.75974771000006,14.813838060000023],[102.79003223600006,14.784916785000064],[102.86971268300005,14.840316474000076],[102.85656905500008,14.858278338000048]]]}},{"type":"Feature","properties":{"code":"310706","name":"จรเข้มาก","parentCode":"3107"},"geometry":{"type":"Polygon","coordinates":[[[103.04025077600005,14.491677210000034],[103.01356439300008,14.54084212500004],[102.95584307000007,14.539281852000045],[102.93892546700005,14.51518021000004],[102.95334275500005,14.479079882000065],[102.96673697100005,14.451717690000066],[103.04025077600005,14.491677210000034]]]}},{"type":"Feature","properties":{"code":"310120","name":"ชุมเห็ด","parentCode":"3101"},"geometry":{"type":"Polygon","coordinates":[[[103.12546300500009,15.040006479000056],[103.11603444000008,15.066820644000074],[103.05645649400009,15.05753517200003],[103.04988317600004,15.015045048000047],[103.09867529800005,15.005166376000034],[103.12218823300009,15.00030147900003],[103.13398987300008,14.995419077000065],[103.12546300500009,15.040006479000056]]]}},{"type":"Feature","properties":{"code":"310307","name":"ชุมแสง","parentCode":"3103"},"geometry":{"type":"Polygon","coordinates":[[[103.41557966400006,15.00880933600007],[103.36787414500009,15.013879227000075],[103.35000765300003,15.000041080000074],[103.38353244400008,14.960818102000076],[103.42324762000004,14.946531695000033],[103.41557966400006,15.00880933600007]]]}},{"type":"Feature","properties":{"code":"310405","name":"ชุมแสง","parentCode":"3104"},"geometry":{"type":"Polygon","coordinates":[[[102.71231189600007,14.554170137000028],[102.68758399900008,14.589567459000023],[102.62291491900004,14.582895971000028],[102.64822449000008,14.538036814000066],[102.71450347100006,14.545055774000048],[102.71231189600007,14.554170137000028]]]}},{"type":"Feature","properties":{"code":"311110","name":"ชุมแสง","parentCode":"3111"},"geometry":{"type":"Polygon","coordinates":[[[103.42056735700004,15.167421342000068],[103.37404239300008,15.170675158000051],[103.33969582600008,15.16177156200007],[103.31556252100006,15.105233888000043],[103.32588145700004,15.099509839000063],[103.38520577700007,15.119799079000074],[103.42724398100006,15.115589197000077],[103.42528798600006,15.131949918000032],[103.42056735700004,15.167421342000068]]]}},{"type":"Feature","properties":{"code":"311903","name":"แดงใหญ่","parentCode":"3119"},"geometry":{"type":"Polygon","coordinates":[[[102.91414071000008,15.58925907400004],[102.84039635700009,15.62610548300006],[102.84072464200005,15.59457935200004],[102.87466021600005,15.569628446000024],[102.91414071000008,15.58925907400004]]]}},{"type":"Feature","properties":{"code":"310504","name":"ดอนอะราง","parentCode":"3105"},"geometry":{"type":"Polygon","coordinates":[[[102.58511499200006,14.66012132000003],[102.52018338800008,14.64489442200005],[102.47545853100007,14.65538871800004],[102.47115154600004,14.614545631000055],[102.49550168100006,14.56480209600005],[102.53966164000008,14.610197285000027],[102.60335193300006,14.635408877000032],[102.60715209800009,14.648892906000071],[102.58511499200006,14.66012132000003]]]}},{"type":"Feature","properties":{"code":"311304","name":"ดอนกอก","parentCode":"3113"},"geometry":{"type":"Polygon","coordinates":[[[102.93947318700003,15.770558784000059],[102.93046269600006,15.795826058000046],[102.87776027300004,15.76894517900007],[102.87385764500004,15.73835735700004],[102.95176445700008,15.727848386000062],[102.95315847600006,15.759947202000035],[102.93947318700003,15.770558784000059]]]}},{"type":"Feature","properties":{"code":"311109","name":"ดอนมนต์","parentCode":"3111"},"geometry":{"type":"Polygon","coordinates":[[[103.19756501100005,15.167198210000038],[103.20245406700008,15.244767094000053],[103.15558122200008,15.236608938000074],[103.19756501100005,15.167198210000038]]]}},{"type":"Feature","properties":{"code":"311704","name":"ดงอีจาน","parentCode":"3117"},"geometry":{"type":"Polygon","coordinates":[[[102.54054210900006,14.504475051000043],[102.53966164000008,14.610197285000027],[102.49550168100006,14.56480209600005],[102.49840115800004,14.505107620000047],[102.54054210900006,14.504475051000043]]]}},{"type":"Feature","properties":{"code":"312202","name":"ดงพลอง","parentCode":"3122"},"geometry":{"type":"Polygon","coordinates":[[[103.18534076500003,15.366236191000041],[103.16026283200006,15.352533761000075],[103.13188191600005,15.253631636000023],[103.15773899700008,15.262449742000058],[103.21003302100007,15.331705462000059],[103.18534076500003,15.366236191000041]]]}},{"type":"Feature","properties":{"code":"310910","name":"หายโศก","parentCode":"3109"},"geometry":{"type":"Polygon","coordinates":[[[102.97684436000009,15.557262356000024],[102.93177066600003,15.563135382000041],[102.89594599200007,15.521453817000065],[102.93941179500007,15.496984869000073],[102.97309792500005,15.547251471000038],[102.97684436000009,15.557262356000024]]]}},{"type":"Feature","properties":{"code":"311013","name":"หินโคน","parentCode":"3110"},"geometry":{"type":"Polygon","coordinates":[[[102.83833179300007,15.071184580000022],[102.78182104500007,15.093984133000049],[102.76268729900005,15.080976399000065],[102.80472525000005,15.040613421000046],[102.78130561600005,15.012337642000034],[102.81158877700005,15.01994565800004],[102.84135764600006,15.038555440000039],[102.83833179300007,15.071184580000022]]]}},{"type":"Feature","properties":{"code":"310806","name":"หินลาด","parentCode":"3108"},"geometry":{"type":"Polygon","coordinates":[[[103.17547699900007,14.508881049000024],[103.15451863200008,14.512607851000041],[103.11630349400008,14.478301781000027],[103.12268144400008,14.424551837000024],[103.13935969000005,14.430406064000067],[103.17547699900007,14.508881049000024]]]}},{"type":"Feature","properties":{"code":"310205","name":"หินเหล็กไฟ","parentCode":"3102"},"geometry":{"type":"Polygon","coordinates":[[[103.03162960800006,15.280084326000065],[103.01019530100007,15.28027196000005],[103.04327870600008,15.20889644600004],[103.06791895200007,15.191660715000069],[103.03647237200005,15.152776491000054],[103.04812200100008,15.117143233000036],[103.09233303500008,15.142795309000064],[103.09473379000008,15.247525128000063],[103.07674653800007,15.25996456300004],[103.02959628400004,15.250596575000031],[103.03162960800006,15.280084326000065]]]}},{"type":"Feature","properties":{"code":"311205","name":"หูทำนบ","parentCode":"3112"},"geometry":{"type":"Polygon","coordinates":[[[102.76267671200009,14.413053586000046],[102.70247190100008,14.422957833000055],[102.69172768600004,14.415187634000063],[102.65384496500008,14.403492397000036],[102.63730944600007,14.327076735000048],[102.68629543300005,14.299173804000077],[102.72134928300005,14.331379815000048],[102.74857358700007,14.377391740000064],[102.76267671200009,14.413053586000046]]]}},{"type":"Feature","properties":{"code":"312204","name":"หัวฝาย","parentCode":"3122"},"geometry":{"type":"Polygon","coordinates":[[[103.23532815300007,15.319540618000076],[103.21003302100007,15.331705462000059],[103.15773899700008,15.262449742000058],[103.13188191600005,15.253631636000023],[103.13478102700009,15.241652542000054],[103.13448143100004,15.239637431000062],[103.15558122200008,15.236608938000074],[103.20245406700008,15.244767094000053],[103.20346138300005,15.253425348000064],[103.20523221600007,15.310511722000058],[103.23532815300007,15.319540618000076]]]}},{"type":"Feature","properties":{"code":"310425","name":"หัวถนน","parentCode":"3104"},"geometry":{"type":"Polygon","coordinates":[[[102.68225514800008,14.713318346000051],[102.65808528600007,14.73932811700007],[102.65569681300008,14.734888228000045],[102.63717500200005,14.711309852000056],[102.60715209800009,14.648892906000071],[102.60335193300006,14.635408877000032],[102.64588074700004,14.633193156000061],[102.69255622300005,14.640520835000075],[102.68890352500006,14.672714408000047],[102.63856758100007,14.704896653000048],[102.68225514800008,14.713318346000051]]]}},{"type":"Feature","properties":{"code":"311402","name":"ห้วยหิน","parentCode":"3114"},"geometry":{"type":"Polygon","coordinates":[[[102.64662711700004,14.877167456000052],[102.60489182400005,14.887491957000066],[102.56659899500005,14.93024594600007],[102.55204089200004,14.859822117000022],[102.60003666300008,14.830040039000039],[102.65471863700009,14.848888258000045],[102.66273863400005,14.86130247400007],[102.64662711700004,14.877167456000052]]]}},{"type":"Feature","properties":{"code":"311608","name":"ห้วยราชา","parentCode":"3116"},"geometry":{"type":"Polygon","coordinates":[[[103.21777547300007,14.985366370000065],[103.16690697800004,15.004713654000057],[103.15842080000004,14.985650425000074],[103.21357916500006,14.963153179000074],[103.21777547300007,14.985366370000065]]]}},{"type":"Feature","properties":{"code":"311601","name":"ห้วยราช","parentCode":"3116"},"geometry":{"type":"Polygon","coordinates":[[[103.21357916500006,14.963153179000074],[103.15842080000004,14.985650425000074],[103.15296584300006,14.976495409000051],[103.15586283700009,14.966538571000058],[103.20919515700007,14.945868871000073],[103.21357916500006,14.963153179000074]]]}},{"type":"Feature","properties":{"code":"310309","name":"ห้วยสำราญ","parentCode":"3103"},"geometry":{"type":"Polygon","coordinates":[[[103.38520577700007,15.119799079000074],[103.32588145700004,15.099509839000063],[103.28994729100003,15.05049083700004],[103.28831272400004,15.034899862000032],[103.36922115100003,15.042447671000048],[103.38520577700007,15.119799079000074]]]}},{"type":"Feature","properties":{"code":"310102","name":"อิสาณ","parentCode":"3101"},"geometry":{"type":"Polygon","coordinates":[[[103.09867529800005,15.005166376000034],[103.04988317600004,15.015045048000047],[103.05013542800003,14.989268505000041],[103.06948304100007,14.972282762000077],[103.08353868900008,14.955601690000037],[103.12770644100004,14.95588549200005],[103.14755880700005,14.953677614000071],[103.15586283700009,14.966538571000058],[103.15296584300006,14.976495409000051],[103.13398987300008,14.995419077000065],[103.12218823300009,15.00030147900003],[103.08784704400006,14.982915321000064],[103.09867529800005,15.005166376000034]]]}},{"type":"Feature","properties":{"code":"312303","name":"อีสานเขต","parentCode":"3123"},"geometry":{"type":"Polygon","coordinates":[[[102.95072910600004,14.682491778000042],[102.92151617500008,14.680893750000052],[102.90945813300004,14.639866239000071],[102.86677588300006,14.652787963000037],[102.86235365700009,14.625854957000058],[102.90432157100008,14.60378088300007],[102.94657385500005,14.601078760000064],[102.95072910600004,14.682491778000042]]]}},{"type":"Feature","properties":{"code":"310126","name":"กลันทา","parentCode":"3101"},"geometry":{"type":"Polygon","coordinates":[[[103.12904484800004,15.137878424000064],[103.12367270300007,15.136002059000077],[103.04970014700007,15.082457442000077],[103.04978952600004,15.06891835700003],[103.05645649400009,15.05753517200003],[103.11603444000008,15.066820644000074],[103.13204325900006,15.078347433000033],[103.12904484800004,15.137878424000064]]]}},{"type":"Feature","properties":{"code":"310415","name":"ก้านเหลือง","parentCode":"3104"},"geometry":{"type":"Polygon","coordinates":[[[102.75747371500006,14.748465664000037],[102.69472623400009,14.768976100000032],[102.65808528600007,14.73932811700007],[102.68225514800008,14.713318346000051],[102.74301700700005,14.69001647600004],[102.74567522200005,14.714176308000049],[102.75747371500006,14.748465664000037]]]}},{"type":"Feature","properties":{"code":"310310","name":"กันทรารมย์","parentCode":"3103"},"geometry":{"type":"Polygon","coordinates":[[[103.35000765300003,15.000041080000074],[103.33385757100007,15.01325081400006],[103.28694758500006,14.960082162000049],[103.35784697700007,14.922663052000075],[103.38353244400008,14.960818102000076],[103.35000765300003,15.000041080000074]]]}},{"type":"Feature","properties":{"code":"312201","name":"แคนดง","parentCode":"3122"},"geometry":{"type":"Polygon","coordinates":[[[103.14480545000004,15.404118616000062],[103.13354107500004,15.400316469000074],[103.11425007600008,15.37719534300004],[103.07674653800007,15.25996456300004],[103.09473379000008,15.247525128000063],[103.13478102700009,15.241652542000054],[103.13188191600005,15.253631636000023],[103.16026283200006,15.352533761000075],[103.14480545000004,15.404118616000062]]]}},{"type":"Feature","properties":{"code":"310809","name":"เขาดินเหนือ","parentCode":"3108"},"geometry":{"type":"Polygon","coordinates":[[[103.21618241000004,14.571733356000038],[103.21071178000005,14.580573411000046],[103.17942321400005,14.557243691000053],[103.15451863200008,14.512607851000041],[103.17547699900007,14.508881049000024],[103.23487449400005,14.474659645000031],[103.21140118600005,14.539904368000066],[103.21618241000004,14.571733356000038]]]}},{"type":"Feature","properties":{"code":"310715","name":"เขาคอก","parentCode":"3107"},"geometry":{"type":"Polygon","coordinates":[[[103.10882265500004,14.478270459000044],[103.11050718000007,14.512238148000051],[103.04025077600005,14.491677210000034],[102.96673697100005,14.451717690000066],[102.97985036800009,14.430057669000064],[103.01942703000009,14.415488163000077],[103.03170553300004,14.417343507000055],[103.10882265500004,14.478270459000044]]]}},{"type":"Feature","properties":{"code":"311502","name":"โคกขมิ้น","parentCode":"3115"},"geometry":{"type":"Polygon","coordinates":[[[103.21063132700004,14.79189954800006],[103.14672133700009,14.803532333000078],[103.14831093300006,14.744811240000047],[103.22410311500005,14.747971312000061],[103.25673942800006,14.767238934000034],[103.21063132700004,14.79189954800006]]]}},{"type":"Feature","properties":{"code":"311007","name":"โคกกลาง","parentCode":"3110"},"geometry":{"type":"Polygon","coordinates":[[[102.88174536400004,14.986198391000073],[102.81636286200006,14.978000417000032],[102.81514209300008,14.940056321000043],[102.79325156700008,14.905513960000064],[102.80607927700004,14.897264579000023],[102.85091821600008,14.905502510000076],[102.92035984900008,14.905929108000066],[102.92331502500008,14.935798669000064],[102.88174536400004,14.986198391000073]]]}},{"type":"Feature","properties":{"code":"311012","name":"โคกล่าม","parentCode":"3110"},"geometry":{"type":"Polygon","coordinates":[[[102.87393415500009,15.111683691000053],[102.84663912800005,15.165993448000052],[102.78182104500007,15.093984133000049],[102.83833179300007,15.071184580000022],[102.86575952100009,15.083861262000028],[102.87393415500009,15.111683691000053]]]}},{"type":"Feature","properties":{"code":"311606","name":"โคกเหล็ก","parentCode":"3116"},"geometry":{"type":"Polygon","coordinates":[[[103.24540542700004,15.038402154000039],[103.19400472500007,15.049938473000054],[103.19055030800007,15.044186843000034],[103.18529313300007,15.02513652500005],[103.25997528100004,15.002740322000022],[103.27291207900004,15.015326733000052],[103.24540542700004,15.038402154000039]]]}},{"type":"Feature","properties":{"code":"310710","name":"โคกม้า","parentCode":"3107"},"geometry":{"type":"Polygon","coordinates":[[[103.05798292800006,14.66088123000003],[103.03109404900005,14.676073318000022],[103.00419049900006,14.674930063000033],[103.01197827300007,14.60744859600004],[103.06414665500006,14.613239732000068],[103.05798292800006,14.66088123000003]]]}},{"type":"Feature","properties":{"code":"310718","name":"โคกมะขาม","parentCode":"3107"},"geometry":{"type":"Polygon","coordinates":[[[103.15903341200004,14.622453132000032],[103.11566721900004,14.648681967000073],[103.11794484200004,14.555265366000071],[103.14553889100006,14.585172553000064],[103.15671565300005,14.612104643000066],[103.15903341200004,14.622453132000032]]]}},{"type":"Feature","properties":{"code":"311204","name":"โคกมะม่วง","parentCode":"3112"},"geometry":{"type":"Polygon","coordinates":[[[102.63741805000006,14.496460329000058],[102.61059848800005,14.494087109000077],[102.56499064100007,14.40466407200006],[102.56294269800009,14.375135356000044],[102.60266133600004,14.32251711300006],[102.63730944600007,14.327076735000048],[102.65384496500008,14.403492397000036],[102.62972660200006,14.467031890000044],[102.66203191700004,14.454938231000028],[102.65984027600007,14.489460654000027],[102.63741805000006,14.496460329000058]]]}},{"type":"Feature","properties":{"code":"311008","name":"โคกสะอาด","parentCode":"3110"},"geometry":{"type":"Polygon","coordinates":[[[102.94732344400006,15.188913748000061],[102.86820616500006,15.16592947600003],[102.84663912800005,15.165993448000052],[102.87393415500009,15.111683691000053],[102.90936652100004,15.111252845000024],[102.94171748600007,15.15101476500007],[102.94732344400006,15.188913748000061]]]}},{"type":"Feature","properties":{"code":"311806","name":"โคกสนวน","parentCode":"3118"},"geometry":{"type":"Polygon","coordinates":[[[102.92274794400004,14.759853190000058],[102.86432094400004,14.772937820000038],[102.90998019900007,14.720234850000054],[102.92274794400004,14.759853190000058]]]}},{"type":"Feature","properties":{"code":"310505","name":"โคกสว่าง","parentCode":"3105"},"geometry":{"type":"Polygon","coordinates":[[[102.53423160100004,14.814596428000073],[102.50261028600005,14.802210737000053],[102.45789928600004,14.835097868000048],[102.45129284800004,14.770757626000034],[102.47240317000006,14.763253047000035],[102.52232218200004,14.734436166000023],[102.54907987600006,14.762389018000022],[102.53423160100004,14.814596428000073]]]}},{"type":"Feature","properties":{"code":"310509","name":"โคกสูง","parentCode":"3105"},"geometry":{"type":"Polygon","coordinates":[[[102.60003666300008,14.830040039000039],[102.55204089200004,14.859822117000022],[102.54785895100008,14.854820653000047],[102.53423160100004,14.814596428000073],[102.54907987600006,14.762389018000022],[102.57058625800005,14.773408969000059],[102.59571765500004,14.801760763000061],[102.60003666300008,14.830040039000039]]]}},{"type":"Feature","properties":{"code":"310719","name":"โคกตูม","parentCode":"3107"},"geometry":{"type":"Polygon","coordinates":[[[103.02233487800004,14.735436333000052],[102.96267735700008,14.72996157800003],[102.95072910600004,14.682491778000042],[103.00419049900006,14.674930063000033],[103.03109404900005,14.676073318000022],[103.02233487800004,14.735436333000052]]]}},{"type":"Feature","properties":{"code":"310611","name":"โคกว่าน","parentCode":"3106"},"geometry":{"type":"Polygon","coordinates":[[[102.86555079100003,14.47787128400006],[102.80414527000005,14.49118915300005],[102.76704737000006,14.461128357000064],[102.78296508900007,14.425357230000031],[102.81144229000006,14.432889746000058],[102.86137434300008,14.455361752000044],[102.86555079100003,14.47787128400006]]]}},{"type":"Feature","properties":{"code":"310708","name":"โคกย่าง","parentCode":"3107"},"geometry":{"type":"Polygon","coordinates":[[[103.05011362200008,14.586763615000052],[103.01790111600008,14.594630207000023],[102.95652109400004,14.545242116000054],[102.95584307000007,14.539281852000045],[103.01356439300008,14.54084212500004],[103.05011362200008,14.586763615000052]]]}},{"type":"Feature","properties":{"code":"310201","name":"คูเมือง","parentCode":"3102"},"geometry":{"type":"Polygon","coordinates":[[[103.01019530100007,15.28027196000005],[102.95989934500005,15.279468765000047],[102.97447043200003,15.206800806000047],[103.00483363200004,15.201424195000072],[103.04327870600008,15.20889644600004],[103.01019530100007,15.28027196000005]]]}},{"type":"Feature","properties":{"code":"310127","name":"กระสัง","parentCode":"3101"},"geometry":{"type":"Polygon","coordinates":[[[103.05013542800003,14.989268505000041],[102.98640834200006,14.991063158000031],[102.98013027500008,14.96660944000007],[103.05522999400006,14.953353350000043],[103.06948304100007,14.972282762000077],[103.05013542800003,14.989268505000041]]]}},{"type":"Feature","properties":{"code":"310301","name":"กระสัง","parentCode":"3103"},"geometry":{"type":"Polygon","coordinates":[[[103.28694758500006,14.960082162000049],[103.26345359600003,14.966579897000031],[103.23010831600004,14.938448337000068],[103.27713863000008,14.891349955000067],[103.31826369400005,14.872609070000067],[103.35784697700007,14.922663052000075],[103.28694758500006,14.960082162000049]]]}},{"type":"Feature","properties":{"code":"311115","name":"กระสัง","parentCode":"3111"},"geometry":{"type":"Polygon","coordinates":[[[103.43366165900005,15.205109436000043],[103.43373687500008,15.229554590000077],[103.38457258500006,15.221073431000036],[103.37404239300008,15.170675158000051],[103.42056735700004,15.167421342000068],[103.43366165900005,15.205109436000043]]]}},{"type":"Feature","properties":{"code":"311703","name":"โกรกแก้ว","parentCode":"3117"},"geometry":{"type":"Polygon","coordinates":[[[102.64588074700004,14.633193156000061],[102.60335193300006,14.635408877000032],[102.57270753700004,14.582544454000072],[102.62291491900004,14.582895971000028],[102.64588074700004,14.633193156000061]]]}},{"type":"Feature","properties":{"code":"311904","name":"กู่สวนแตง","parentCode":"3119"},"geometry":{"type":"Polygon","coordinates":[[[102.89594599200007,15.521453817000065],[102.87268586400006,15.560582227000054],[102.82921976200004,15.552332382000031],[102.83599039400008,15.51661213400007],[102.89594599200007,15.521453817000065]]]}},{"type":"Feature","properties":{"code":"310601","name":"ละหานทราย","parentCode":"3106"},"geometry":{"type":"Polygon","coordinates":[[[102.89768175900008,14.403972488000022],[102.89548849400006,14.443174485000043],[102.86137434300008,14.455361752000044],[102.81144229000006,14.432889746000058],[102.82451696200008,14.404439266000054],[102.89181860000008,14.38396429100004],[102.89768175900008,14.403972488000022]]]}},{"type":"Feature","properties":{"code":"310122","name":"หลักเขต","parentCode":"3101"},"geometry":{"type":"Polygon","coordinates":[[[103.17336841900004,14.859911392000072],[103.11213704100004,14.831669476000059],[103.11254891100003,14.811402918000056],[103.14672133700009,14.803532333000078],[103.21063132700004,14.79189954800006],[103.18475983500008,14.840903094000055],[103.17336841900004,14.859911392000072]]]}},{"type":"Feature","properties":{"code":"311805","name":"ละลวด","parentCode":"3118"},"geometry":{"type":"Polygon","coordinates":[[[102.75974771000006,14.813838060000023],[102.72829430200005,14.811867550000045],[102.69472623400009,14.768976100000032],[102.75747371500006,14.748465664000037],[102.79067639300007,14.77423204300004],[102.79003223600006,14.784916785000064],[102.75974771000006,14.813838060000023]]]}},{"type":"Feature","properties":{"code":"312003","name":"ลำนางรอง","parentCode":"3120"},"geometry":{"type":"Polygon","coordinates":[[[102.74790880900008,14.138167848000023],[102.78692763900006,14.229258215000073],[102.75802546500006,14.29226065000006],[102.68629543300005,14.299173804000077],[102.57790264400006,14.226730879000058],[102.50220175400005,14.186937044000047],[102.45318001000004,14.193729372000064],[102.43452948800007,14.154589859000055],[102.45357896800004,14.143333480000024],[102.50220041900008,14.13237285300005],[102.55159361200003,14.135421200000053],[102.59621109600005,14.168624105000049],[102.65360409200008,14.165394524000021],[102.69750200200008,14.13004453800005],[102.74790880900008,14.138167848000023]]]}},{"type":"Feature","properties":{"code":"311001","name":"ลำปลายมาศ","parentCode":"3110"},"geometry":{"type":"Polygon","coordinates":[[[102.81158877700005,15.01994565800004],[102.84680387900005,15.001003515000036],[102.84135764600006,15.038555440000039],[102.81158877700005,15.01994565800004]]]}},{"type":"Feature","properties":{"code":"310417","name":"ลำไทรโยง","parentCode":"3104"},"geometry":{"type":"Polygon","coordinates":[[[102.68225514800008,14.713318346000051],[102.63856758100007,14.704896653000048],[102.68890352500006,14.672714408000047],[102.69255622300005,14.640520835000075],[102.74957879200008,14.63581582300003],[102.76836350600007,14.674451931000021],[102.74301700700005,14.69001647600004],[102.68225514800008,14.713318346000051]]]}},{"type":"Feature","properties":{"code":"310302","name":"ลำดวน","parentCode":"3103"},"geometry":{"type":"Polygon","coordinates":[[[103.42724398100006,15.115589197000077],[103.38520577700007,15.119799079000074],[103.36922115100003,15.042447671000048],[103.36787414500009,15.013879227000075],[103.41557966400006,15.00880933600007],[103.41866691900003,15.017722066000033],[103.44211832800005,15.034367432000067],[103.44002788200004,15.099907210000026],[103.42724398100006,15.115589197000077]]]}},{"type":"Feature","properties":{"code":"310705","name":"ละเวี้ย","parentCode":"3107"},"geometry":{"type":"Polygon","coordinates":[[[103.21071178000005,14.580573411000046],[103.23033616300006,14.633306711000046],[103.15671565300005,14.612104643000066],[103.14553889100006,14.585172553000064],[103.17942321400005,14.557243691000053],[103.21071178000005,14.580573411000046]]]}},{"type":"Feature","properties":{"code":"310117","name":"ลุมปุ๊ก","parentCode":"3101"},"geometry":{"type":"Polygon","coordinates":[[[102.98261944300003,14.933142899000075],[102.96764062400007,14.954159107000066],[102.94902984000004,14.94472328300003],[102.92331502500008,14.935798669000064],[102.92035984900008,14.905929108000066],[102.91499299900005,14.876838507000059],[102.95983489800005,14.872196346000067],[102.98261944300003,14.933142899000075]]]}},{"type":"Feature","properties":{"code":"310902","name":"มะเฟือง","parentCode":"3109"},"geometry":{"type":"Polygon","coordinates":[[[103.05482187000007,15.438071512000022],[103.05281411500005,15.557081426000025],[103.00199479600008,15.53659414200007],[103.02797139200004,15.438223372000039],[103.05482187000007,15.438071512000022]]]}},{"type":"Feature","properties":{"code":"311009","name":"เมืองแฝก","parentCode":"3110"},"geometry":{"type":"Polygon","coordinates":[[[103.00483363200004,15.201424195000072],[102.97447043200003,15.206800806000047],[102.94732344400006,15.188913748000061],[102.94171748600007,15.15101476500007],[102.95680999600006,15.073059086000058],[102.99144771400006,15.072706691000064],[102.98301710300007,15.112305002000028],[103.02025817800006,15.196324473000061],[103.00483363200004,15.201424195000072]]]}},{"type":"Feature","properties":{"code":"311406","name":"เมืองฝ้าย","parentCode":"3114"},"geometry":{"type":"Polygon","coordinates":[[[102.78579269800008,14.85895640800004],[102.73244532200005,14.873407740000061],[102.70871127700008,14.850569173000054],[102.69753502900005,14.801154240000074],[102.72829430200005,14.811867550000045],[102.75974771000006,14.813838060000023],[102.78919718100008,14.850888714000064],[102.78579269800008,14.85895640800004]]]}},{"type":"Feature","properties":{"code":"310128","name":"เมืองฝาง","parentCode":"3101"},"geometry":{"type":"Polygon","coordinates":[[[103.04338106900008,14.819937198000048],[103.01753742500006,14.840425518000075],[102.98564136000005,14.838972789000024],[102.96169542800004,14.753430113000036],[103.01736412700006,14.779211573000055],[103.04338106900008,14.819937198000048]]]}},{"type":"Feature","properties":{"code":"311104","name":"เมืองแก","parentCode":"3111"},"geometry":{"type":"Polygon","coordinates":[[[103.33969582600008,15.16177156200007],[103.32998338000004,15.237082666000049],[103.27503582500003,15.231227796000042],[103.27262401400009,15.157416315000035],[103.33969582600008,15.16177156200007]]]}},{"type":"Feature","properties":{"code":"310306","name":"เมืองไผ่","parentCode":"3103"},"geometry":{"type":"Polygon","coordinates":[[[103.33385757100007,15.01325081400006],[103.28358265700007,15.030683195000051],[103.27291207900004,15.015326733000052],[103.25997528100004,15.002740322000022],[103.25177038100009,14.990378173000067],[103.26345359600003,14.966579897000031],[103.28694758500006,14.960082162000049],[103.33385757100007,15.01325081400006]]]}},{"type":"Feature","properties":{"code":"310503","name":"เมืองไผ่","parentCode":"3105"},"geometry":{"type":"Polygon","coordinates":[[[102.72829430200005,14.811867550000045],[102.69753502900005,14.801154240000074],[102.65943260100005,14.798175019000041],[102.59571765500004,14.801760763000061],[102.57058625800005,14.773408969000059],[102.60841330600005,14.735966996000059],[102.63346810800005,14.766116547000024],[102.65569681300008,14.734888228000045],[102.65808528600007,14.73932811700007],[102.69472623400009,14.768976100000032],[102.72829430200005,14.811867550000045]]]}},{"type":"Feature","properties":{"code":"311607","name":"เมืองโพธิ์","parentCode":"3116"},"geometry":{"type":"Polygon","coordinates":[[[103.28994729100003,15.05049083700004],[103.25535899700009,15.081237436000038],[103.24540542700004,15.038402154000039],[103.27291207900004,15.015326733000052],[103.28358265700007,15.030683195000051],[103.28831272400004,15.034899862000032],[103.28994729100003,15.05049083700004]]]}},{"type":"Feature","properties":{"code":"311803","name":"เมืองยาง","parentCode":"3118"},"geometry":{"type":"Polygon","coordinates":[[[102.91305824700004,14.836072878000039],[102.87556157400007,14.830507026000078],[102.82813515200007,14.76938221000006],[102.86432094400004,14.772937820000038],[102.92274794400004,14.759853190000058],[102.93309834000007,14.794710500000065],[102.91305824700004,14.836072878000039]]]}},{"type":"Feature","properties":{"code":"311301","name":"นาโพธิ์","parentCode":"3113"},"geometry":{"type":"Polygon","coordinates":[[[102.90772996000004,15.66878506300003],[102.87339499700005,15.681287852000025],[102.88297611300004,15.666777495000076],[102.92722065400005,15.621161796000024],[102.99804735900005,15.61076362800003],[103.01288591500008,15.617229735000024],[103.01199651100006,15.620217138000044],[102.90772996000004,15.66878506300003]]]}},{"type":"Feature","properties":{"code":"310101","name":"ในเมือง","parentCode":"3101"},"geometry":{"type":"Polygon","coordinates":[[[103.12218823300009,15.00030147900003],[103.09867529800005,15.005166376000034],[103.08784704400006,14.982915321000064],[103.12218823300009,15.00030147900003]]]}},{"type":"Feature","properties":{"code":"310401","name":"นางรอง","parentCode":"3104"},"geometry":{"type":"Polygon","coordinates":[[[102.82598629200004,14.713835881000023],[102.74567522200005,14.714176308000049],[102.74301700700005,14.69001647600004],[102.76836350600007,14.674451931000021],[102.74957879200008,14.63581582300003],[102.74901266900008,14.624244127000054],[102.79441471700005,14.612956224000072],[102.81624474400007,14.648937756000066],[102.82598629200004,14.713835881000023]]]}},{"type":"Feature","properties":{"code":"311102","name":"นิคม","parentCode":"3111"},"geometry":{"type":"Polygon","coordinates":[[[103.26764850900008,15.317579094000052],[103.23532815300007,15.319540618000076],[103.20523221600007,15.310511722000058],[103.20346138300005,15.253425348000064],[103.24958873300005,15.243946458000039],[103.28779750400008,15.29841386000004],[103.26764850900008,15.317579094000052]]]}},{"type":"Feature","properties":{"code":"310802","name":"โนนเจริญ","parentCode":"3108"},"geometry":{"type":"Polygon","coordinates":[[[103.23487449400005,14.474659645000031],[103.17547699900007,14.508881049000024],[103.13935969000005,14.430406064000067],[103.14437486700007,14.431336462000047],[103.17743104400006,14.434713587000033],[103.21389440400009,14.434248696000054],[103.23381877800006,14.467986213000074],[103.23487449400005,14.474659645000031]]]}},{"type":"Feature","properties":{"code":"312001","name":"โนนดินแดง","parentCode":"3120"},"geometry":{"type":"Polygon","coordinates":[[[102.80038542700004,14.345783609000023],[102.75936162100004,14.320574100000044],[102.72134928300005,14.331379815000048],[102.68629543300005,14.299173804000077],[102.75802546500006,14.29226065000006],[102.78692763900006,14.229258215000073],[102.74790880900008,14.138167848000023],[102.76572398900004,14.140179293000074],[102.81505340400008,14.170192715000042],[102.82076147600009,14.30743491800007],[102.80038542700004,14.345783609000023]]]}},{"type":"Feature","properties":{"code":"312104","name":"โนนขวาง","parentCode":"3121"},"geometry":{"type":"Polygon","coordinates":[[[103.15558122200008,15.236608938000074],[103.13448143100004,15.239637431000062],[103.14613565000008,15.145597124000062],[103.19418380000008,15.158169998000062],[103.19806200700003,15.16695114600003],[103.19756501100005,15.167198210000038],[103.15558122200008,15.236608938000074]]]}},{"type":"Feature","properties":{"code":"311701","name":"โนนสุวรรณ","parentCode":"3117"},"geometry":{"type":"Polygon","coordinates":[[[102.62291491900004,14.582895971000028],[102.57270753700004,14.582544454000072],[102.57288587000005,14.499126258000047],[102.61059848800005,14.494087109000077],[102.63741805000006,14.496460329000058],[102.64822449000008,14.538036814000066],[102.62291491900004,14.582895971000028]]]}},{"type":"Feature","properties":{"code":"310716","name":"หนองบอน","parentCode":"3107"},"geometry":{"type":"Polygon","coordinates":[[[103.17942321400005,14.557243691000053],[103.14553889100006,14.585172553000064],[103.11794484200004,14.555265366000071],[103.11050718000007,14.512238148000051],[103.10882265500004,14.478270459000044],[103.11630349400008,14.478301781000027],[103.15451863200008,14.512607851000041],[103.17942321400005,14.557243691000053]]]}},{"type":"Feature","properties":{"code":"310406","name":"หนองโบสถ์","parentCode":"3104"},"geometry":{"type":"Polygon","coordinates":[[[102.74957879200008,14.63581582300003],[102.69255622300005,14.640520835000075],[102.64588074700004,14.633193156000061],[102.62291491900004,14.582895971000028],[102.68758399900008,14.589567459000023],[102.72576634200004,14.606828350000058],[102.72037814000004,14.562097553000058],[102.74901266900008,14.624244127000054],[102.74957879200008,14.63581582300003]]]}},{"type":"Feature","properties":{"code":"311203","name":"หนองบัว","parentCode":"3112"},"geometry":{"type":"Polygon","coordinates":[[[102.66203191700004,14.454938231000028],[102.62972660200006,14.467031890000044],[102.65384496500008,14.403492397000036],[102.69172768600004,14.415187634000063],[102.66203191700004,14.454938231000028]]]}},{"type":"Feature","properties":{"code":"311014","name":"หนองบัวโคก","parentCode":"3110"},"geometry":{"type":"Polygon","coordinates":[[[102.94902984000004,14.94472328300003],[102.92332805000007,15.030416793000029],[102.87498121100003,15.030994866000071],[102.88174536400004,14.986198391000073],[102.92331502500008,14.935798669000064],[102.94902984000004,14.94472328300003]]]}},{"type":"Feature","properties":{"code":"311404","name":"หนองชัยศรี","parentCode":"3114"},"geometry":{"type":"Polygon","coordinates":[[[102.65943260100005,14.798175019000041],[102.65471863700009,14.848888258000045],[102.60003666300008,14.830040039000039],[102.59571765500004,14.801760763000061],[102.65943260100005,14.798175019000041]]]}},{"type":"Feature","properties":{"code":"311016","name":"หนองโดน","parentCode":"3110"},"geometry":{"type":"Polygon","coordinates":[[[102.85091821600008,14.905502510000076],[102.80607927700004,14.897264579000023],[102.78579269800008,14.85895640800004],[102.78919718100008,14.850888714000064],[102.85656905500008,14.858278338000048],[102.85091821600008,14.905502510000076]]]}},{"type":"Feature","properties":{"code":"311006","name":"หนองกะทิง","parentCode":"3110"},"geometry":{"type":"Polygon","coordinates":[[[102.81636286200006,14.978000417000032],[102.78130561600005,15.012337642000034],[102.74838499400005,15.003998980000063],[102.73687164700004,15.001079278000077],[102.70973903200007,14.95793008000004],[102.81514209300008,14.940056321000043],[102.81636286200006,14.978000417000032]]]}},{"type":"Feature","properties":{"code":"310207","name":"หนองขมาร","parentCode":"3102"},"geometry":{"type":"Polygon","coordinates":[[[103.04692153100007,15.306379837000065],[103.02857007200004,15.374563498000043],[102.97741206500007,15.344071167000038],[102.95214402100004,15.313304778000031],[102.95989934500005,15.279468765000047],[103.01019530100007,15.28027196000005],[103.03162960800006,15.280084326000065],[103.04692153100007,15.306379837000065]]]}},{"type":"Feature","properties":{"code":"311002","name":"หนองคู","parentCode":"3110"},"geometry":{"type":"Polygon","coordinates":[[[102.86575952100009,15.083861262000028],[102.83833179300007,15.071184580000022],[102.84135764600006,15.038555440000039],[102.84680387900005,15.001003515000036],[102.81158877700005,15.01994565800004],[102.78130561600005,15.012337642000034],[102.81636286200006,14.978000417000032],[102.88174536400004,14.986198391000073],[102.87498121100003,15.030994866000071],[102.87491176000003,15.044514477000064],[102.86575952100009,15.083861262000028]]]}},{"type":"Feature","properties":{"code":"310501","name":"หนองกี่","parentCode":"3105"},"geometry":{"type":"Polygon","coordinates":[[[102.58511499200006,14.66012132000003],[102.53926404600008,14.684376283000063],[102.52018338800008,14.64489442200005],[102.58511499200006,14.66012132000003]]]}},{"type":"Feature","properties":{"code":"310408","name":"หนองกง","parentCode":"3104"},"geometry":{"type":"Polygon","coordinates":[[[102.92151617500008,14.680893750000052],[102.90998019900007,14.720234850000054],[102.90499315800008,14.713580036000053],[102.86590191000005,14.666603715000065],[102.86677588300006,14.652787963000037],[102.90945813300004,14.639866239000071],[102.92151617500008,14.680893750000052]]]}},{"type":"Feature","properties":{"code":"310803","name":"หนองไม้งาม","parentCode":"3108"},"geometry":{"type":"Polygon","coordinates":[[[103.01942703000009,14.415488163000077],[102.97985036800009,14.430057669000064],[102.95695541000003,14.347168225000075],[102.96797966100007,14.31616525100003],[103.03802067800007,14.250621157000069],[103.01942703000009,14.415488163000077]]]}},{"type":"Feature","properties":{"code":"311802","name":"หนองปล่อง","parentCode":"3118"},"geometry":{"type":"Polygon","coordinates":[[[102.86432094400004,14.772937820000038],[102.82813515200007,14.76938221000006],[102.82296416100007,14.755503555000075],[102.82598629200004,14.713835881000023],[102.85976640600006,14.731396949000043],[102.90499315800008,14.713580036000053],[102.90998019900007,14.720234850000054],[102.86432094400004,14.772937820000038]]]}},{"type":"Feature","properties":{"code":"310414","name":"หนองไทร","parentCode":"3104"},"geometry":{"type":"Polygon","coordinates":[[[102.82278930100006,14.541688632000046],[102.77695037500007,14.567766308000046],[102.73343666800008,14.530237242000055],[102.73777537000007,14.496248164000065],[102.76704737000006,14.461128357000064],[102.80414527000005,14.49118915300005],[102.78523001600007,14.51938782700006],[102.82724860800005,14.528870933000064],[102.82278930100006,14.541688632000046]]]}},{"type":"Feature","properties":{"code":"310427","name":"หนองโสน","parentCode":"3104"},"geometry":{"type":"Polygon","coordinates":[[[102.96169542800004,14.753430113000036],[102.93309834000007,14.794710500000065],[102.92274794400004,14.759853190000058],[102.90998019900007,14.720234850000054],[102.92151617500008,14.680893750000052],[102.95072910600004,14.682491778000042],[102.96267735700008,14.72996157800003],[102.96169542800004,14.753430113000036]]]}},{"type":"Feature","properties":{"code":"310610","name":"หนองตะครอง","parentCode":"3106"},"geometry":{"type":"Polygon","coordinates":[[[102.81144229000006,14.432889746000058],[102.78296508900007,14.425357230000031],[102.76267671200009,14.413053586000046],[102.74857358700007,14.377391740000064],[102.80011956400006,14.34951651800003],[102.82451696200008,14.404439266000054],[102.81144229000006,14.432889746000058]]]}},{"type":"Feature","properties":{"code":"310114","name":"หนองตาด","parentCode":"3101"},"geometry":{"type":"Polygon","coordinates":[[[103.04978952600004,15.06891835700003],[103.00552544400006,15.073093873000062],[103.00744078200006,15.023676241000032],[102.98640834200006,14.991063158000031],[103.05013542800003,14.989268505000041],[103.04988317600004,15.015045048000047],[103.05645649400009,15.05753517200003],[103.04978952600004,15.06891835700003]]]}},{"type":"Feature","properties":{"code":"310305","name":"หนองเต็ง","parentCode":"3103"},"geometry":{"type":"Polygon","coordinates":[[[103.42324762000004,14.946531695000033],[103.38353244400008,14.960818102000076],[103.35784697700007,14.922663052000075],[103.31826369400005,14.872609070000067],[103.35369612700003,14.842768188000036],[103.37877851600007,14.875427261000027],[103.42555737100008,14.92834106600003],[103.42324762000004,14.946531695000033]]]}},{"type":"Feature","properties":{"code":"310607","name":"หนองแวง","parentCode":"3106"},"geometry":{"type":"Polygon","coordinates":[[[102.96797966100007,14.31616525100003],[102.93238779300003,14.336560649000035],[102.92964981700004,14.401024104000044],[102.89768175900008,14.403972488000022],[102.89181860000008,14.38396429100004],[102.90357840600007,14.323871386000064],[102.87266123700005,14.323946264000028],[102.89398137600006,14.263461262000021],[102.86997531600008,14.206288112000038],[102.90467322000006,14.164591306000034],[102.93035676000005,14.175651232000064],[102.95273546000004,14.206960049000031],[102.99877695400005,14.21399295200007],[103.03802067800007,14.250621157000069],[102.96797966100007,14.31616525100003]]]}},{"type":"Feature","properties":{"code":"311901","name":"หนองแวง","parentCode":"3119"},"geometry":{"type":"Polygon","coordinates":[[[102.93177066600003,15.563135382000041],[102.91681974100004,15.597267830000021],[102.91414071000008,15.58925907400004],[102.87466021600005,15.569628446000024],[102.84072464200005,15.59457935200004],[102.82671618700005,15.585480554000071],[102.82921976200004,15.552332382000031],[102.87268586400006,15.560582227000054],[102.89594599200007,15.521453817000065],[102.93177066600003,15.563135382000041]]]}},{"type":"Feature","properties":{"code":"311105","name":"หนองใหญ่","parentCode":"3111"},"geometry":{"type":"Polygon","coordinates":[[[103.33969582600008,15.16177156200007],[103.27262401400009,15.157416315000035],[103.25016415500005,15.147404416000029],[103.24141165900005,15.124882803000048],[103.25498039000007,15.111030182000036],[103.31556252100006,15.105233888000043],[103.33969582600008,15.16177156200007]]]}},{"type":"Feature","properties":{"code":"310424","name":"หนองยายพิมพ์","parentCode":"3104"},"geometry":{"type":"Polygon","coordinates":[[[102.90499315800008,14.713580036000053],[102.85976640600006,14.731396949000043],[102.82598629200004,14.713835881000023],[102.81624474400007,14.648937756000066],[102.86590191000005,14.666603715000065],[102.90499315800008,14.713580036000053]]]}},{"type":"Feature","properties":{"code":"311905","name":"หนองเยือง","parentCode":"3119"},"geometry":{"type":"Polygon","coordinates":[[[102.82671618700005,15.585480554000071],[102.78289337700005,15.590327524000031],[102.78057649100003,15.563569599000061],[102.81661755900006,15.512488240000039],[102.83348137400009,15.510829536000074],[102.83599039400008,15.51661213400007],[102.82921976200004,15.552332382000031],[102.82671618700005,15.585480554000071]]]}},{"type":"Feature","properties":{"code":"311503","name":"ป่าชัน","parentCode":"3115"},"geometry":{"type":"Polygon","coordinates":[[[103.26629260600004,14.766658384000038],[103.25673942800006,14.767238934000034],[103.22410311500005,14.747971312000061],[103.20086875600003,14.699274642000034],[103.25661848600004,14.682408718000033],[103.26629260600004,14.766658384000038]]]}},{"type":"Feature","properties":{"code":"311201","name":"ปะคำ","parentCode":"3112"},"geometry":{"type":"Polygon","coordinates":[[[102.76704737000006,14.461128357000064],[102.73777537000007,14.496248164000065],[102.71027312900009,14.482839152000054],[102.70247190100008,14.422957833000055],[102.76267671200009,14.413053586000046],[102.78296508900007,14.425357230000031],[102.76704737000006,14.461128357000064]]]}},{"type":"Feature","properties":{"code":"310202","name":"ปะเคียบ","parentCode":"3102"},"geometry":{"type":"Polygon","coordinates":[[[103.05482187000007,15.438071512000022],[103.02797139200004,15.438223372000039],[103.01261813800005,15.435316744000033],[103.02857007200004,15.374563498000043],[103.04692153100007,15.306379837000065],[103.06383572600004,15.360404023000058],[103.10666513500007,15.409391000000028],[103.10012702700004,15.432799791000036],[103.05482187000007,15.438071512000022]]]}},{"type":"Feature","properties":{"code":"310707","name":"ปังกู","parentCode":"3107"},"geometry":{"type":"Polygon","coordinates":[[[103.11794484200004,14.555265366000071],[103.05011362200008,14.586763615000052],[103.01356439300008,14.54084212500004],[103.04025077600005,14.491677210000034],[103.11050718000007,14.512238148000051],[103.11794484200004,14.555265366000071]]]}},{"type":"Feature","properties":{"code":"310713","name":"ไพศาล","parentCode":"3107"},"geometry":{"type":"Polygon","coordinates":[[[103.25661848600004,14.682408718000033],[103.20086875600003,14.699274642000034],[103.19288665100004,14.681625415000042],[103.15972216600005,14.664192116000038],[103.15903341200004,14.622453132000032],[103.15671565300005,14.612104643000066],[103.23033616300006,14.633306711000046],[103.25322609600005,14.664422557000023],[103.25661848600004,14.682408718000033]]]}},{"type":"Feature","properties":{"code":"311011","name":"ผไทรินทร์","parentCode":"3110"},"geometry":{"type":"Polygon","coordinates":[[[102.81514209300008,14.940056321000043],[102.70973903200007,14.95793008000004],[102.69661253900006,14.933720228000027],[102.70962608900004,14.888293970000063],[102.79325156700008,14.905513960000064],[102.81514209300008,14.940056321000043]]]}},{"type":"Feature","properties":{"code":"310204","name":"พรสำราญ","parentCode":"3102"},"geometry":{"type":"Polygon","coordinates":[[[103.04327870600008,15.20889644600004],[103.00483363200004,15.201424195000072],[103.02025817800006,15.196324473000061],[102.98301710300007,15.112305002000028],[103.01739329900005,15.134489931000076],[103.04812200100008,15.117143233000036],[103.03647237200005,15.152776491000054],[103.06791895200007,15.191660715000069],[103.04327870600008,15.20889644600004]]]}},{"type":"Feature","properties":{"code":"310112","name":"พระครู","parentCode":"3101"},"geometry":{"type":"Polygon","coordinates":[[[103.04812200100008,15.117143233000036],[103.01739329900005,15.134489931000076],[102.98301710300007,15.112305002000028],[102.99144771400006,15.072706691000064],[103.00552544400006,15.073093873000062],[103.04978952600004,15.06891835700003],[103.04970014700007,15.082457442000077],[103.04812200100008,15.117143233000036]]]}},{"type":"Feature","properties":{"code":"310901","name":"พุทไธสง","parentCode":"3109"},"geometry":{"type":"Polygon","coordinates":[[[103.05281322300004,15.592746606000048],[103.01288591500008,15.617229735000024],[102.99804735900005,15.61076362800003],[102.97684436000009,15.557262356000024],[102.97309792500005,15.547251471000038],[103.00199479600008,15.53659414200007],[103.05281411500005,15.557081426000025],[103.05284488500007,15.557130169000061],[103.05281322300004,15.592746606000048]]]}},{"type":"Feature","properties":{"code":"310701","name":"ประโคนชัย","parentCode":"3107"},"geometry":{"type":"Polygon","coordinates":[[[103.11566721900004,14.648681967000073],[103.09433225700008,14.669185711000068],[103.05798292800006,14.66088123000003],[103.06414665500006,14.613239732000068],[103.01197827300007,14.60744859600004],[103.01579673900005,14.599432781000075],[103.01790111600008,14.594630207000023],[103.05011362200008,14.586763615000052],[103.11794484200004,14.555265366000071],[103.11566721900004,14.648681967000073]]]}},{"type":"Feature","properties":{"code":"310804","name":"ปราสาท","parentCode":"3108"},"geometry":{"type":"Polygon","coordinates":[[[103.14437486700007,14.431336462000047],[103.13935969000005,14.430406064000067],[103.12268144400008,14.424551837000024],[103.08976978900006,14.410021611000047],[103.07063578900005,14.35863291100003],[103.09036087500004,14.297253440000077],[103.13959725100005,14.324214227000027],[103.13072837400006,14.392091908000054],[103.14437486700007,14.431336462000047]]]}},{"type":"Feature","properties":{"code":"312102","name":"ปราสาท","parentCode":"3121"},"geometry":{"type":"Polygon","coordinates":[[[103.24141165900005,15.124882803000048],[103.18664009900004,15.109188829000061],[103.18714495100005,15.071503866000057],[103.19400472500007,15.049938473000054],[103.24540542700004,15.038402154000039],[103.25535899700009,15.081237436000038],[103.25498039000007,15.111030182000036],[103.24141165900005,15.124882803000048]]]}},{"type":"Feature","properties":{"code":"310720","name":"ประทัดบุ","parentCode":"3107"},"geometry":{"type":"Polygon","coordinates":[[[103.01579673900005,14.599432781000075],[102.94462730500004,14.579328315000055],[102.95652109400004,14.545242116000054],[103.01790111600008,14.594630207000023],[103.01579673900005,14.599432781000075]]]}},{"type":"Feature","properties":{"code":"311106","name":"ร่อนทอง","parentCode":"3111"},"geometry":{"type":"Polygon","coordinates":[[[103.24958873300005,15.243946458000039],[103.20346138300005,15.253425348000064],[103.20245406700008,15.244767094000053],[103.19756501100005,15.167198210000038],[103.19806200700003,15.16695114600003],[103.25016415500005,15.147404416000029],[103.27262401400009,15.157416315000035],[103.27503582500003,15.231227796000042],[103.24958873300005,15.243946458000039]]]}},{"type":"Feature","properties":{"code":"312203","name":"สระบัว","parentCode":"3122"},"geometry":{"type":"Polygon","coordinates":[[[103.13354107500004,15.400316469000074],[103.10666513500007,15.409391000000028],[103.06383572600004,15.360404023000058],[103.04692153100007,15.306379837000065],[103.03162960800006,15.280084326000065],[103.02959628400004,15.250596575000031],[103.07674653800007,15.25996456300004],[103.11425007600008,15.37719534300004],[103.13354107500004,15.400316469000074]]]}},{"type":"Feature","properties":{"code":"311401","name":"สระแก้ว","parentCode":"3114"},"geometry":{"type":"Polygon","coordinates":[[[102.69468006600005,14.857867013000032],[102.66273863400005,14.86130247400007],[102.65471863700009,14.848888258000045],[102.65943260100005,14.798175019000041],[102.69753502900005,14.801154240000074],[102.70871127700008,14.850569173000054],[102.69468006600005,14.857867013000032]]]}},{"type":"Feature","properties":{"code":"311407","name":"สระทอง","parentCode":"3114"},"geometry":{"type":"Polygon","coordinates":[[[102.69468006600005,14.857867013000032],[102.67329666600006,14.921857115000023],[102.64662711700004,14.877167456000052],[102.66273863400005,14.86130247400007],[102.69468006600005,14.857867013000032]]]}},{"type":"Feature","properties":{"code":"310403","name":"สะเดา","parentCode":"3104"},"geometry":{"type":"Polygon","coordinates":[[[102.79441471700005,14.612956224000072],[102.74901266900008,14.624244127000054],[102.72037814000004,14.562097553000058],[102.71231189600007,14.554170137000028],[102.71450347100006,14.545055774000048],[102.73343666800008,14.530237242000055],[102.77695037500007,14.567766308000046],[102.82278930100006,14.541688632000046],[102.82557102400006,14.559182177000025],[102.79441471700005,14.612956224000072]]]}},{"type":"Feature","properties":{"code":"311504","name":"สะเดา","parentCode":"3115"},"geometry":{"type":"Polygon","coordinates":[[[103.22410311500005,14.747971312000061],[103.14831093300006,14.744811240000047],[103.11057459800008,14.739243975000022],[103.10998834500003,14.713317450000034],[103.19288665100004,14.681625415000042],[103.20086875600003,14.699274642000034],[103.22410311500005,14.747971312000061]]]}},{"type":"Feature","properties":{"code":"310805","name":"สายตะกู","parentCode":"3108"},"geometry":{"type":"Polygon","coordinates":[[[103.23381877800006,14.467986213000074],[103.21389440400009,14.434248696000054],[103.17743104400006,14.434713587000033],[103.19661299500007,14.331197775000021],[103.22619930000008,14.326709882000046],[103.21926171800004,14.359593295000025],[103.24665626200004,14.441753255000037],[103.23381877800006,14.467986213000074]]]}},{"type":"Feature","properties":{"code":"311112","name":"สะแก","parentCode":"3111"},"geometry":{"type":"Polygon","coordinates":[[[103.36923480200005,15.340171296000051],[103.32752052300003,15.336937362000072],[103.31572646100005,15.318199167000046],[103.33859052600008,15.248913475000052],[103.36101412300007,15.24715373600003],[103.38076596600007,15.296670316000075],[103.39766398300009,15.313482493000038],[103.36923480200005,15.340171296000051]]]}},{"type":"Feature","properties":{"code":"310105","name":"สะแกโพรง","parentCode":"3101"},"geometry":{"type":"Polygon","coordinates":[[[103.02123281500008,14.88742650200004],[103.02547879900004,14.935629299000027],[102.98261944300003,14.933142899000075],[102.95983489800005,14.872196346000067],[102.91499299900005,14.876838507000059],[102.91305824700004,14.836072878000039],[102.98564136000005,14.838972789000024],[103.01753742500006,14.840425518000075],[103.02123281500008,14.88742650200004]]]}},{"type":"Feature","properties":{"code":"310125","name":"สะแกซำ","parentCode":"3101"},"geometry":{"type":"Polygon","coordinates":[[[103.12286763200007,14.90728049300003],[103.07827452800007,14.917924065000022],[103.08530266800005,14.822155677000069],[103.11254891100003,14.811402918000056],[103.11213704100004,14.831669476000059],[103.12286763200007,14.90728049300003]]]}},{"type":"Feature","properties":{"code":"311003","name":"แสลงพัน","parentCode":"3110"},"geometry":{"type":"Polygon","coordinates":[[[103.00744078200006,15.023676241000032],[102.92332805000007,15.030416793000029],[102.94902984000004,14.94472328300003],[102.96764062400007,14.954159107000066],[102.98013027500008,14.96660944000007],[102.98640834200006,14.991063158000031],[103.00744078200006,15.023676241000032]]]}},{"type":"Feature","properties":{"code":"310702","name":"แสลงโทน","parentCode":"3107"},"geometry":{"type":"Polygon","coordinates":[[[103.08530266800005,14.822155677000069],[103.04338106900008,14.819937198000048],[103.01736412700006,14.779211573000055],[103.04379690900004,14.74128772000006],[103.07310707600004,14.74576877800007],[103.08530266800005,14.822155677000069]]]}},{"type":"Feature","properties":{"code":"311602","name":"สามแวง","parentCode":"3116"},"geometry":{"type":"Polygon","coordinates":[[[103.25997528100004,15.002740322000022],[103.18529313300007,15.02513652500005],[103.16690697800004,15.004713654000057],[103.21777547300007,14.985366370000065],[103.25177038100009,14.990378173000067],[103.25997528100004,15.002740322000022]]]}},{"type":"Feature","properties":{"code":"310103","name":"เสม็ด","parentCode":"3101"},"geometry":{"type":"Polygon","coordinates":[[[103.12770644100004,14.95588549200005],[103.08353868900008,14.955601690000037],[103.05850382000006,14.898913055000037],[103.02123281500008,14.88742650200004],[103.01753742500006,14.840425518000075],[103.04338106900008,14.819937198000048],[103.08530266800005,14.822155677000069],[103.07827452800007,14.917924065000022],[103.12286763200007,14.90728049300003],[103.12770644100004,14.95588549200005]]]}},{"type":"Feature","properties":{"code":"311505","name":"สำโรง","parentCode":"3115"},"geometry":{"type":"Polygon","coordinates":[[[103.11254891100003,14.811402918000056],[103.08530266800005,14.822155677000069],[103.07310707600004,14.74576877800007],[103.11057459800008,14.739243975000022],[103.14831093300006,14.744811240000047],[103.14672133700009,14.803532333000078],[103.11254891100003,14.811402918000056]]]}},{"type":"Feature","properties":{"code":"310604","name":"สำโรงใหม่","parentCode":"3106"},"geometry":{"type":"Polygon","coordinates":[[[102.89181860000008,14.38396429100004],[102.82451696200008,14.404439266000054],[102.80011956400006,14.34951651800003],[102.80038542700004,14.345783609000023],[102.82076147600009,14.30743491800007],[102.81505340400008,14.170192715000042],[102.87327018600007,14.147517992000076],[102.90467322000006,14.164591306000034],[102.86997531600008,14.206288112000038],[102.89398137600006,14.263461262000021],[102.87266123700005,14.323946264000028],[102.90357840600007,14.323871386000064],[102.89181860000008,14.38396429100004]]]}},{"type":"Feature","properties":{"code":"311114","name":"สนามชัย","parentCode":"3111"},"geometry":{"type":"Polygon","coordinates":[[[103.36101412300007,15.24715373600003],[103.33859052600008,15.248913475000052],[103.32998338000004,15.237082666000049],[103.33969582600008,15.16177156200007],[103.37404239300008,15.170675158000051],[103.38457258500006,15.221073431000036],[103.36101412300007,15.24715373600003]]]}},{"type":"Feature","properties":{"code":"311605","name":"สนวน","parentCode":"3116"},"geometry":{"type":"Polygon","coordinates":[[[103.20919515700007,14.945868871000073],[103.15586283700009,14.966538571000058],[103.14755880700005,14.953677614000071],[103.19153501900007,14.900776376000067],[103.21844740000006,14.93756774600007],[103.20919515700007,14.945868871000073]]]}},{"type":"Feature","properties":{"code":"311405","name":"เสาเดียว","parentCode":"3114"},"geometry":{"type":"Polygon","coordinates":[[[102.62174399300005,14.936029464000057],[102.54578762600005,14.946877288000053],[102.56659899500005,14.93024594600007],[102.60489182400005,14.887491957000066],[102.64662711700004,14.877167456000052],[102.67329666600006,14.921857115000023],[102.67432803300005,14.934594223000033],[102.62174399300005,14.936029464000057]]]}},{"type":"Feature","properties":{"code":"310418","name":"ทรัพย์พระยา","parentCode":"3104"},"geometry":{"type":"Polygon","coordinates":[[[102.73343666800008,14.530237242000055],[102.71450347100006,14.545055774000048],[102.64822449000008,14.538036814000066],[102.63741805000006,14.496460329000058],[102.65984027600007,14.489460654000027],[102.71027312900009,14.482839152000054],[102.73777537000007,14.496248164000065],[102.73343666800008,14.530237242000055]]]}},{"type":"Feature","properties":{"code":"311101","name":"สตึก","parentCode":"3111"},"geometry":{"type":"Polygon","coordinates":[[[103.31572646100005,15.318199167000046],[103.28779750400008,15.29841386000004],[103.24958873300005,15.243946458000039],[103.27503582500003,15.231227796000042],[103.32998338000004,15.237082666000049],[103.33859052600008,15.248913475000052],[103.31572646100005,15.318199167000046]]]}},{"type":"Feature","properties":{"code":"310106","name":"สวายจีก","parentCode":"3101"},"geometry":{"type":"Polygon","coordinates":[[[103.14755880700005,14.953677614000071],[103.12770644100004,14.95588549200005],[103.12286763200007,14.90728049300003],[103.11213704100004,14.831669476000059],[103.17336841900004,14.859911392000072],[103.19153501900007,14.900776376000067],[103.14755880700005,14.953677614000071]]]}},{"type":"Feature","properties":{"code":"310721","name":"สี่เหลี่ยม","parentCode":"3107"},"geometry":{"type":"Polygon","coordinates":[[[103.04379690900004,14.74128772000006],[103.01736412700006,14.779211573000055],[102.96169542800004,14.753430113000036],[102.96267735700008,14.72996157800003],[103.02233487800004,14.735436333000052],[103.04379690900004,14.74128772000006]]]}},{"type":"Feature","properties":{"code":"310311","name":"ศรีภูมิ","parentCode":"3103"},"geometry":{"type":"Polygon","coordinates":[[[103.36922115100003,15.042447671000048],[103.28831272400004,15.034899862000032],[103.28358265700007,15.030683195000051],[103.33385757100007,15.01325081400006],[103.35000765300003,15.000041080000074],[103.36787414500009,15.013879227000075],[103.36922115100003,15.042447671000048]]]}},{"type":"Feature","properties":{"code":"311305","name":"ศรีสว่าง","parentCode":"3113"},"geometry":{"type":"Polygon","coordinates":[[[102.95279641900004,15.684184557000037],[102.90772996000004,15.66878506300003],[103.01199651100006,15.620217138000044],[102.97696473000008,15.671705802000076],[102.95279641900004,15.684184557000037]]]}},{"type":"Feature","properties":{"code":"312002","name":"ส้มป่อย","parentCode":"3120"},"geometry":{"type":"Polygon","coordinates":[[[102.80011956400006,14.34951651800003],[102.74857358700007,14.377391740000064],[102.72134928300005,14.331379815000048],[102.75936162100004,14.320574100000044],[102.80038542700004,14.345783609000023],[102.80011956400006,14.34951651800003]]]}},{"type":"Feature","properties":{"code":"310303","name":"สองชั้น","parentCode":"3103"},"geometry":{"type":"Polygon","coordinates":[[[103.27713863000008,14.891349955000067],[103.23010831600004,14.938448337000068],[103.21844740000006,14.93756774600007],[103.19153501900007,14.900776376000067],[103.17336841900004,14.859911392000072],[103.18475983500008,14.840903094000055],[103.26134463200003,14.853046036000023],[103.27713863000008,14.891349955000067]]]}},{"type":"Feature","properties":{"code":"310118","name":"สองห้อง","parentCode":"3101"},"geometry":{"type":"Polygon","coordinates":[[[102.98564136000005,14.838972789000024],[102.91305824700004,14.836072878000039],[102.93309834000007,14.794710500000065],[102.96169542800004,14.753430113000036],[102.98564136000005,14.838972789000024]]]}},{"type":"Feature","properties":{"code":"310304","name":"สูงเนิน","parentCode":"3103"},"geometry":{"type":"Polygon","coordinates":[[[103.26134463200003,14.853046036000023],[103.18475983500008,14.840903094000055],[103.21063132700004,14.79189954800006],[103.25673942800006,14.767238934000034],[103.26629260600004,14.766658384000038],[103.27912506600006,14.775337622000052],[103.29216454600004,14.81139769400005],[103.26134463200003,14.853046036000023]]]}},{"type":"Feature","properties":{"code":"310603","name":"ตาจง","parentCode":"3106"},"geometry":{"type":"Polygon","coordinates":[[[102.95334275500005,14.479079882000065],[102.88728745500003,14.49574676900005],[102.86555079100003,14.47787128400006],[102.86137434300008,14.455361752000044],[102.89548849400006,14.443174485000043],[102.89768175900008,14.403972488000022],[102.92964981700004,14.401024104000044],[102.93238779300003,14.336560649000035],[102.96797966100007,14.31616525100003],[102.95695541000003,14.347168225000075],[102.97985036800009,14.430057669000064],[102.96673697100005,14.451717690000066],[102.95334275500005,14.479079882000065]]]}},{"type":"Feature","properties":{"code":"312302","name":"ตาเป๊ก","parentCode":"3123"},"geometry":{"type":"Polygon","coordinates":[[[102.94657385500005,14.601078760000064],[102.90432157100008,14.60378088300007],[102.88397229800006,14.542431061000059],[102.93892546700005,14.51518021000004],[102.95584307000007,14.539281852000045],[102.95652109400004,14.545242116000054],[102.94462730500004,14.579328315000055],[102.94657385500005,14.601078760000064]]]}},{"type":"Feature","properties":{"code":"311603","name":"ตาเสา","parentCode":"3116"},"geometry":{"type":"Polygon","coordinates":[[[103.31556252100006,15.105233888000043],[103.25498039000007,15.111030182000036],[103.25535899700009,15.081237436000038],[103.28994729100003,15.05049083700004],[103.32588145700004,15.099509839000063],[103.31556252100006,15.105233888000043]]]}},{"type":"Feature","properties":{"code":"310714","name":"ตะโกตาพิ","parentCode":"3107"},"geometry":{"type":"Polygon","coordinates":[[[103.00419049900006,14.674930063000033],[102.95072910600004,14.682491778000042],[102.94657385500005,14.601078760000064],[102.94462730500004,14.579328315000055],[103.01579673900005,14.599432781000075],[103.01197827300007,14.60744859600004],[103.00419049900006,14.674930063000033]]]}},{"type":"Feature","properties":{"code":"311005","name":"ตลาดโพธิ์","parentCode":"3110"},"geometry":{"type":"Polygon","coordinates":[[[102.90936652100004,15.111252845000024],[102.87393415500009,15.111683691000053],[102.86575952100009,15.083861262000028],[102.87491176000003,15.044514477000064],[102.93826430900003,15.067448410000054],[102.90936652100004,15.111252845000024]]]}},{"type":"Feature","properties":{"code":"311111","name":"ท่าม่วง","parentCode":"3111"},"geometry":{"type":"Polygon","coordinates":[[[103.45186071000006,15.338379144000044],[103.39766398300009,15.313482493000038],[103.38076596600007,15.296670316000075],[103.40900406700007,15.263772274000075],[103.45797994300005,15.265727385000048],[103.50543628800006,15.291748332000054],[103.45186071000006,15.338379144000044]]]}},{"type":"Feature","properties":{"code":"310508","name":"ท่าโพธิ์ชัย","parentCode":"3105"},"geometry":{"type":"Polygon","coordinates":[[[102.65569681300008,14.734888228000045],[102.63346810800005,14.766116547000024],[102.60841330600005,14.735966996000059],[102.57502469200006,14.70696883900007],[102.60654835900004,14.675324406000072],[102.63717500200005,14.711309852000056],[102.65569681300008,14.734888228000045]]]}},{"type":"Feature","properties":{"code":"311202","name":"ไทยเจริญ","parentCode":"3112"},"geometry":{"type":"Polygon","coordinates":[[[102.71027312900009,14.482839152000054],[102.65984027600007,14.489460654000027],[102.66203191700004,14.454938231000028],[102.69172768600004,14.415187634000063],[102.70247190100008,14.422957833000055],[102.71027312900009,14.482839152000054]]]}},{"type":"Feature","properties":{"code":"311403","name":"ไทยสามัคคี","parentCode":"3114"},"geometry":{"type":"Polygon","coordinates":[[[102.69661253900006,14.933720228000027],[102.67432803300005,14.934594223000033],[102.67329666600006,14.921857115000023],[102.69468006600005,14.857867013000032],[102.70871127700008,14.850569173000054],[102.73244532200005,14.873407740000061],[102.78579269800008,14.85895640800004],[102.80607927700004,14.897264579000023],[102.79325156700008,14.905513960000064],[102.70962608900004,14.888293970000063],[102.69661253900006,14.933720228000027]]]}},{"type":"Feature","properties":{"code":"310113","name":"ถลุงเหล็ก","parentCode":"3101"},"geometry":{"type":"Polygon","coordinates":[[[103.12367270300007,15.136002059000077],[103.09233303500008,15.142795309000064],[103.04812200100008,15.117143233000036],[103.04970014700007,15.082457442000077],[103.12367270300007,15.136002059000077]]]}},{"type":"Feature","properties":{"code":"311004","name":"ทะเมนชัย","parentCode":"3110"},"geometry":{"type":"Polygon","coordinates":[[[103.00744078200006,15.023676241000032],[103.00552544400006,15.073093873000062],[102.99144771400006,15.072706691000064],[102.95680999600006,15.073059086000058],[102.93826430900003,15.067448410000054],[102.87491176000003,15.044514477000064],[102.87498121100003,15.030994866000071],[102.92332805000007,15.030416793000029],[103.00744078200006,15.023676241000032]]]}},{"type":"Feature","properties":{"code":"310413","name":"ถนนหัก","parentCode":"3104"},"geometry":{"type":"Polygon","coordinates":[[[102.86590191000005,14.666603715000065],[102.81624474400007,14.648937756000066],[102.79441471700005,14.612956224000072],[102.82557102400006,14.559182177000025],[102.86235365700009,14.625854957000058],[102.86677588300006,14.652787963000037],[102.86590191000005,14.666603715000065]]]}},{"type":"Feature","properties":{"code":"312304","name":"ถาวร","parentCode":"3123"},"geometry":{"type":"Polygon","coordinates":[[[102.88728745500003,14.49574676900005],[102.87765384900007,14.543701939000073],[102.82724860800005,14.528870933000064],[102.78523001600007,14.51938782700006],[102.80414527000005,14.49118915300005],[102.86555079100003,14.47787128400006],[102.88728745500003,14.49574676900005]]]}},{"type":"Feature","properties":{"code":"311902","name":"ทองหลาง","parentCode":"3119"},"geometry":{"type":"Polygon","coordinates":[[[102.84039635700009,15.62610548300006],[102.83820827400007,15.63674448300003],[102.77659426100007,15.633593717000053],[102.77095161400007,15.62867366300003],[102.78289337700005,15.590327524000031],[102.82671618700005,15.585480554000071],[102.84072464200005,15.59457935200004],[102.84039635700009,15.62610548300006]]]}},{"type":"Feature","properties":{"code":"311702","name":"ทุ่งจังหัน","parentCode":"3117"},"geometry":{"type":"Polygon","coordinates":[[[102.57270753700004,14.582544454000072],[102.60335193300006,14.635408877000032],[102.53966164000008,14.610197285000027],[102.54054210900006,14.504475051000043],[102.57288587000005,14.499126258000047],[102.57270753700004,14.582544454000072]]]}},{"type":"Feature","properties":{"code":"310506","name":"ทุ่งกระตาดพัฒนา","parentCode":"3105"},"geometry":{"type":"Polygon","coordinates":[[[102.55616042100007,14.711332975000062],[102.53269558700003,14.723913006000032],[102.51899793000007,14.690187388000027],[102.48602813100007,14.701632575000076],[102.47545853100007,14.65538871800004],[102.52018338800008,14.64489442200005],[102.53926404600008,14.684376283000063],[102.55616042100007,14.711332975000062]]]}},{"type":"Feature","properties":{"code":"310507","name":"ทุ่งกระเต็น","parentCode":"3105"},"geometry":{"type":"Polygon","coordinates":[[[102.63717500200005,14.711309852000056],[102.60654835900004,14.675324406000072],[102.57502469200006,14.70696883900007],[102.55616042100007,14.711332975000062],[102.53926404600008,14.684376283000063],[102.58511499200006,14.66012132000003],[102.60715209800009,14.648892906000071],[102.63717500200005,14.711309852000056]]]}},{"type":"Feature","properties":{"code":"310426","name":"ทุ่งแสงทอง","parentCode":"3104"},"geometry":{"type":"Polygon","coordinates":[[[102.72037814000004,14.562097553000058],[102.72576634200004,14.606828350000058],[102.68758399900008,14.589567459000023],[102.71231189600007,14.554170137000028],[102.72037814000004,14.562097553000058]]]}},{"type":"Feature","properties":{"code":"311103","name":"ทุ่งวัง","parentCode":"3111"},"geometry":{"type":"Polygon","coordinates":[[[103.45797994300005,15.265727385000048],[103.40900406700007,15.263772274000075],[103.38076596600007,15.296670316000075],[103.36101412300007,15.24715373600003],[103.38457258500006,15.221073431000036],[103.43373687500008,15.229554590000077],[103.45797994300005,15.265727385000048]]]}},{"type":"Feature","properties":{"code":"310206","name":"ตูมใหญ่","parentCode":"3102"},"geometry":{"type":"Polygon","coordinates":[[[103.13478102700009,15.241652542000054],[103.09473379000008,15.247525128000063],[103.09233303500008,15.142795309000064],[103.12367270300007,15.136002059000077],[103.12904484800004,15.137878424000064],[103.14613565000008,15.145597124000062],[103.13448143100004,15.239637431000062],[103.13478102700009,15.241652542000054]]]}},{"type":"Feature","properties":{"code":"312103","name":"วังเหนือ","parentCode":"3121"},"geometry":{"type":"Polygon","coordinates":[[[103.25016415500005,15.147404416000029],[103.19806200700003,15.16695114600003],[103.19418380000008,15.158169998000062],[103.18664009900004,15.109188829000061],[103.24141165900005,15.124882803000048],[103.25016415500005,15.147404416000029]]]}},{"type":"Feature","properties":{"code":"312305","name":"ยายแย้มวัฒนา","parentCode":"3123"},"geometry":{"type":"Polygon","coordinates":[[[102.93892546700005,14.51518021000004],[102.88397229800006,14.542431061000059],[102.87765384900007,14.543701939000073],[102.88728745500003,14.49574676900005],[102.95334275500005,14.479079882000065],[102.93892546700005,14.51518021000004]]]}},{"type":"Feature","properties":{"code":"310502","name":"เย้ยปราสาท","parentCode":"3105"},"geometry":{"type":"Polygon","coordinates":[[[102.60841330600005,14.735966996000059],[102.57058625800005,14.773408969000059],[102.54907987600006,14.762389018000022],[102.52232218200004,14.734436166000023],[102.53269558700003,14.723913006000032],[102.55616042100007,14.711332975000062],[102.57502469200006,14.70696883900007],[102.60841330600005,14.735966996000059]]]}}]}