{"type":"FeatureCollection","features":[{"type":"Feature","properties":{"code":"321305","name":"อาโพน","parentCode":"3213"},"geometry":{"type":"Polygon","coordinates":[[[104.00782583700004,14.498792109000021],[103.89540613600008,14.513454814000056],[103.89532908100006,14.504696718000048],[103.89348687700004,14.436469998000064],[103.95022776300004,14.489502561000052],[103.99879958900004,14.479792891000045],[104.00782583700004,14.498792109000021]]]}},{"type":"Feature","properties":{"code":"320306","name":"บะ","parentCode":"3203"},"geometry":{"type":"Polygon","coordinates":[[[103.61234534700009,15.272725300000047],[103.61710730500005,15.30257699200007],[103.58703160300007,15.30167298300006],[103.52730975100008,15.28817435600007],[103.55811645500006,15.252529451000044],[103.52598632000007,15.208583029000067],[103.55062049400004,15.178842168000074],[103.59654300900007,15.188817434000043],[103.59254291600007,15.262892962000024],[103.61234534700009,15.272725300000047]]]}},{"type":"Feature","properties":{"code":"321401","name":"บักได","parentCode":"3214"},"geometry":{"type":"Polygon","coordinates":[[[103.38746509100008,14.483246866000059],[103.36333659500008,14.486552111000037],[103.29217281400008,14.435316520000072],[103.30412646000008,14.35334569500003],[103.38052704600005,14.352624321000064],[103.40982591600005,14.369403599000066],[103.38746509100008,14.483246866000059]]]}},{"type":"Feature","properties":{"code":"321008","name":"บ้านจารย์","parentCode":"3210"},"geometry":{"type":"Polygon","coordinates":[[[103.82244868900005,14.575912161000076],[103.79127106900006,14.597633010000038],[103.71406332900006,14.591894700000068],[103.68862465600006,14.54477094200007],[103.69825547300007,14.542964337000058],[103.74320672400006,14.50771994300004],[103.81710846700008,14.56311534100007],[103.82244868900005,14.575912161000076]]]}},{"type":"Feature","properties":{"code":"321015","name":"บ้านชบ","parentCode":"3210"},"geometry":{"type":"Polygon","coordinates":[[[103.91710341700008,14.623655452000037],[103.80248973700009,14.637187180000069],[103.77245606600007,14.635328185000049],[103.79127106900006,14.597633010000038],[103.82244868900005,14.575912161000076],[103.87719992200005,14.600926033000064],[103.89729196500008,14.560444204000078],[103.89872861400005,14.563435437000066],[103.92424848300004,14.578082893000044],[103.91710341700008,14.623655452000037]]]}},{"type":"Feature","properties":{"code":"320515","name":"บ้านพลวง","parentCode":"3205"},"geometry":{"type":"Polygon","coordinates":[[[103.43616451000008,14.624784520000048],[103.36926712800005,14.605959239000072],[103.36766003900004,14.585849223000025],[103.39406541400007,14.572964972000022],[103.43127974900005,14.564088646000073],[103.44827337200007,14.60184502800007],[103.43616451000008,14.624784520000048]]]}},{"type":"Feature","properties":{"code":"320406","name":"บ้านผือ","parentCode":"3204"},"geometry":{"type":"Polygon","coordinates":[[[103.69951427900008,15.152689277000036],[103.69395931100007,15.153287671000044],[103.64372096600005,15.137934011000027],[103.65384777500009,15.107292849000032],[103.72969070100004,15.109004296000023],[103.71915575500009,15.127031393000038],[103.69951427900008,15.152689277000036]]]}},{"type":"Feature","properties":{"code":"321605","name":"บ้านแร่","parentCode":"3216"},"geometry":{"type":"Polygon","coordinates":[[[103.61506374600003,14.982093409000072],[103.54615050100006,14.994883334000065],[103.53776315600004,14.975906417000033],[103.55031547900006,14.952851140000064],[103.58123083200007,14.942715118000024],[103.61144135100005,14.94135299900006],[103.61506374600003,14.982093409000072]]]}},{"type":"Feature","properties":{"code":"320510","name":"บ้านไทร","parentCode":"3205"},"geometry":{"type":"Polygon","coordinates":[[[103.60175147500007,14.686229457000024],[103.59855109800009,14.688084789000072],[103.57393726700008,14.639361683000061],[103.58541138500004,14.559696533000022],[103.61979508700006,14.570166922000055],[103.62234087900003,14.57126368300004],[103.62957622100004,14.62865034400005],[103.60175147500007,14.686229457000024]]]}},{"type":"Feature","properties":{"code":"320711","name":"เบิด","parentCode":"3207"},"geometry":{"type":"Polygon","coordinates":[[[103.95473632700003,15.285921367000071],[103.91445379600003,15.294014966000077],[103.89473771800004,15.280047946000025],[103.92407568200008,15.251493708000055],[103.98432693200004,15.230795191000027],[103.99682811900004,15.252214137000067],[103.97234216000004,15.279155166000066],[103.95473632700003,15.285921367000071]]]}},{"type":"Feature","properties":{"code":"320404","name":"บุแกรง","parentCode":"3204"},"geometry":{"type":"Polygon","coordinates":[[[103.72969070100004,15.109004296000023],[103.65384777500009,15.107292849000032],[103.62853460200006,15.071221010000045],[103.65443541500008,15.056154528000036],[103.67175402400005,15.045707458000038],[103.72340179400004,15.084255855000038],[103.72969070100004,15.109004296000023]]]}},{"type":"Feature","properties":{"code":"320121","name":"บุฤาษี","parentCode":"3201"},"geometry":{"type":"Polygon","coordinates":[[[103.62729155300008,14.873330827000075],[103.62169620800006,14.949055142000077],[103.61144135100005,14.94135299900006],[103.58123083200007,14.942715118000024],[103.56592652200004,14.883671067000023],[103.61462891200006,14.87579605600007],[103.62729155300008,14.873330827000075]]]}},{"type":"Feature","properties":{"code":"320308","name":"บัวโคก","parentCode":"3203"},"geometry":{"type":"Polygon","coordinates":[[[103.75922916700006,15.294758702000024],[103.76123842300007,15.298514434000026],[103.72997723900005,15.287137728000062],[103.68557998100005,15.263422038000044],[103.67608403800006,15.17627174100005],[103.69395931100007,15.153287671000044],[103.69951427900008,15.152689277000036],[103.71627251300004,15.187910129000045],[103.73021765900006,15.227211535000038],[103.75922916700006,15.294758702000024]]]}},{"type":"Feature","properties":{"code":"321301","name":"บัวเชด","parentCode":"3213"},"geometry":{"type":"Polygon","coordinates":[[[104.00513802000006,14.524622917000045],[103.89872861400005,14.563435437000066],[103.89729196500008,14.560444204000078],[103.89540613600008,14.513454814000056],[104.00782583700004,14.498792109000021],[104.00513802000006,14.524622917000045]]]}},{"type":"Feature","properties":{"code":"321602","name":"บึง","parentCode":"3216"},"geometry":{"type":"Polygon","coordinates":[[[103.62853460200006,15.071221010000045],[103.58844161200005,15.088104835000024],[103.56688393000007,15.042541706000065],[103.60597722100005,15.02460054900007],[103.65443541500008,15.056154528000036],[103.62853460200006,15.071221010000045]]]}},{"type":"Feature","properties":{"code":"321502","name":"แจนแวน","parentCode":"3215"},"geometry":{"type":"Polygon","coordinates":[[[103.91493975700007,14.831402032000028],[103.87324828300007,14.795142879000025],[103.91628585400008,14.792443529000025],[103.91967004300005,14.74810479200005],[103.94878676800005,14.737072659000034],[103.97256791600006,14.810878313000046],[103.97079314000007,14.811423799000067],[103.91493975700007,14.831402032000028]]]}},{"type":"Feature","properties":{"code":"320910","name":"ช่างปี่","parentCode":"3209"},"geometry":{"type":"Polygon","coordinates":[[[103.73675911200007,14.981772355000032],[103.68495243000007,14.98846261500006],[103.66142968400004,14.94776636000006],[103.69076294400008,14.907924752000042],[103.75135733600007,14.919370902000026],[103.73675911200007,14.981772355000032]]]}},{"type":"Feature","properties":{"code":"320114","name":"เฉนียง","parentCode":"3201"},"geometry":{"type":"Polygon","coordinates":[[[103.51083344400007,14.805769938000026],[103.47352222700005,14.849703550000072],[103.45294031300006,14.841415478000044],[103.43929193100007,14.822900159000028],[103.45206616900003,14.739515965000066],[103.46037232700007,14.742668851000076],[103.50122728400004,14.750190330000066],[103.51083344400007,14.805769938000026]]]}},{"type":"Feature","properties":{"code":"320903","name":"จารพัต","parentCode":"3209"},"geometry":{"type":"Polygon","coordinates":[[[103.78077458500007,14.901834458000053],[103.75499431100008,14.929797714000074],[103.75135733600007,14.919370902000026],[103.69076294400008,14.907924752000042],[103.69071177300003,14.880756314000052],[103.69059977800003,14.863490055000057],[103.76486168800005,14.809713429000055],[103.74842068000004,14.836247064000077],[103.78077458500007,14.901834458000053]]]}},{"type":"Feature","properties":{"code":"321303","name":"จรัส","parentCode":"3213"},"geometry":{"type":"Polygon","coordinates":[[[104.05365911100006,14.494629927000062],[104.04572508100006,14.495418895000057],[103.99879958900004,14.479792891000045],[103.95022776300004,14.489502561000052],[103.89348687700004,14.436469998000064],[103.90165866100006,14.379664974000036],[103.91738446800008,14.336655432000043],[103.95065586100009,14.349570559000028],[104.05712228100003,14.343440557000065],[104.04361653900008,14.360928493000074],[104.05365911100006,14.494629927000062]]]}},{"type":"Feature","properties":{"code":"321403","name":"จีกแดก","parentCode":"3214"},"geometry":{"type":"Polygon","coordinates":[[[103.36333659500008,14.486552111000037],[103.32811368100005,14.511402393000026],[103.27866782000007,14.499572722000039],[103.26600231100008,14.437897233000058],[103.29217281400008,14.435316520000072],[103.36333659500008,14.486552111000037]]]}},{"type":"Feature","properties":{"code":"320511","name":"โชคนาสาม","parentCode":"3205"},"geometry":{"type":"Polygon","coordinates":[[[103.30538974000007,14.58209770600007],[103.21618241000004,14.571733356000038],[103.21140118600005,14.539904368000066],[103.27866782000007,14.499572722000039],[103.32811368100005,14.511402393000026],[103.32931179700006,14.573079449000033],[103.30538974000007,14.58209770600007]]]}},{"type":"Feature","properties":{"code":"321102","name":"โชคเหนือ","parentCode":"3211"},"geometry":{"type":"Polygon","coordinates":[[[103.75923876100006,14.769316938000031],[103.73886469100006,14.785577013000022],[103.68240412100005,14.728749124000046],[103.68120239200005,14.718075278000072],[103.72191819100004,14.693388198000036],[103.75923876100006,14.769316938000031]]]}},{"type":"Feature","properties":{"code":"320401","name":"จอมพระ","parentCode":"3204"},"geometry":{"type":"Polygon","coordinates":[[[103.64372096600005,15.137934011000027],[103.60948364900008,15.140403905000028],[103.57830385900007,15.133427827000048],[103.54462988700004,15.107863821000024],[103.54291267900004,15.100277129000062],[103.58844161200005,15.088104835000024],[103.62853460200006,15.071221010000045],[103.65384777500009,15.107292849000032],[103.64372096600005,15.137934011000027]]]}},{"type":"Feature","properties":{"code":"320512","name":"เชื้อเพลิง","parentCode":"3205"},"geometry":{"type":"Polygon","coordinates":[[[103.45206616900003,14.739515965000066],[103.39281045200005,14.745649016000073],[103.40194760900005,14.681806653000024],[103.43924082100006,14.681930760000057],[103.44774425400004,14.691109039000025],[103.46037232700007,14.742668851000076],[103.45206616900003,14.739515965000066]]]}},{"type":"Feature","properties":{"code":"320408","name":"ชุมแสง","parentCode":"3204"},"geometry":{"type":"Polygon","coordinates":[[[103.59654300900007,15.188817434000043],[103.55062049400004,15.178842168000074],[103.52598632000007,15.208583029000067],[103.49645354800003,15.202750403000039],[103.51683246700009,15.15242618700006],[103.55618085200007,15.15995276700005],[103.59299246200004,15.168887909000034],[103.59654300900007,15.188817434000043]]]}},{"type":"Feature","properties":{"code":"320201","name":"ชุมพลบุรี","parentCode":"3202"},"geometry":{"type":"Polygon","coordinates":[[[103.47877498100007,15.451292773000034],[103.40326782800008,15.436452529000064],[103.34314642700008,15.40887809700007],[103.34290512100006,15.40857524200004],[103.36923480200005,15.340171296000051],[103.39766398300009,15.313482493000038],[103.45186071000006,15.338379144000044],[103.45249137600007,15.396863979000045],[103.47877498100007,15.451292773000034]]]}},{"type":"Feature","properties":{"code":"320605","name":"ด่าน","parentCode":"3206"},"geometry":{"type":"Polygon","coordinates":[[[103.74320672400006,14.50771994300004],[103.69825547300007,14.542964337000058],[103.66859416400007,14.509099606000063],[103.68061938100004,14.43327933300003],[103.69834510300007,14.38894874400006],[103.73899107500006,14.377309307000075],[103.74320672400006,14.50771994300004]]]}},{"type":"Feature","properties":{"code":"321006","name":"ดม","parentCode":"3210"},"geometry":{"type":"Polygon","coordinates":[[[103.89729196500008,14.560444204000078],[103.87719992200005,14.600926033000064],[103.82244868900005,14.575912161000076],[103.81710846700008,14.56311534100007],[103.89532908100006,14.504696718000048],[103.89540613600008,14.513454814000056],[103.89729196500008,14.560444204000078]]]}},{"type":"Feature","properties":{"code":"320704","name":"ดอนแรด","parentCode":"3207"},"geometry":{"type":"Polygon","coordinates":[[[103.98900059900006,15.406978390000063],[103.96933908800008,15.424445025000068],[103.93470272600007,15.362221082000076],[103.97126604000005,15.325887427000055],[104.02565318700005,15.32854584200004],[104.06399142100008,15.34950810500004],[104.09079641100004,15.34843677200007],[104.06002586800008,15.405215180000027],[103.98900059900006,15.406978390000063]]]}},{"type":"Feature","properties":{"code":"320806","name":"หัวงัว","parentCode":"3208"},"geometry":{"type":"Polygon","coordinates":[[[103.86516778600009,15.110500735000073],[103.85773836900006,15.145397364000075],[103.81409935700003,15.137526711000078],[103.81025874900007,15.100006390000033],[103.84943920400008,15.108017266000047],[103.86516778600009,15.110500735000073]]]}},{"type":"Feature","properties":{"code":"320126","name":"กาเกาะ","parentCode":"3201"},"geometry":{"type":"Polygon","coordinates":[[[103.50340435600003,15.125290046000032],[103.42528798600006,15.131949918000032],[103.42724398100006,15.115589197000077],[103.44002788200004,15.099907210000026],[103.51729880200008,15.096040359000028],[103.52363424800006,15.104808210000044],[103.50340435600003,15.125290046000032]]]}},{"type":"Feature","properties":{"code":"320703","name":"แก","parentCode":"3207"},"geometry":{"type":"Polygon","coordinates":[[[103.81338413900005,15.397084039000049],[103.76922920000004,15.364534971000069],[103.81747095400004,15.33499536100004],[103.84676599800008,15.352233634000072],[103.81338413900005,15.397084039000049]]]}},{"type":"Feature","properties":{"code":"320110","name":"แกใหญ่","parentCode":"3201"},"geometry":{"type":"Polygon","coordinates":[[[103.53776315600004,14.975906417000033],[103.50686509100007,14.990100824000024],[103.48059978400005,14.938404122000065],[103.49329739200004,14.912662397000076],[103.49979636800003,14.90604875200006],[103.50810869600008,14.904576201000054],[103.55031547900006,14.952851140000064],[103.53776315600004,14.975906417000033]]]}},{"type":"Feature","properties":{"code":"320501","name":"กังแอน","parentCode":"3205"},"geometry":{"type":"Polygon","coordinates":[[[103.43924082100006,14.681930760000057],[103.40194760900005,14.681806653000024],[103.38671689300008,14.670571560000042],[103.35669401900009,14.617123627000069],[103.36926712800005,14.605959239000072],[103.43616451000008,14.624784520000048],[103.45581556600007,14.65982496600003],[103.43924082100006,14.681930760000057]]]}},{"type":"Feature","properties":{"code":"320516","name":"กันตวจระมวล","parentCode":"3205"},"geometry":{"type":"Polygon","coordinates":[[[103.58541138500004,14.559696533000022],[103.57393726700008,14.639361683000061],[103.54200152800007,14.628280726000071],[103.52209928500008,14.558148445000029],[103.55219096200005,14.554238612000063],[103.58541138500004,14.559696533000022]]]}},{"type":"Feature","properties":{"code":"320601","name":"กาบเชิง","parentCode":"3206"},"geometry":{"type":"Polygon","coordinates":[[[103.62919616000005,14.520877176000056],[103.61979508700006,14.570166922000055],[103.58541138500004,14.559696533000022],[103.55219096200005,14.554238612000063],[103.53922676700006,14.493823460000044],[103.56256561700008,14.422689296000044],[103.62332142600008,14.397570185000063],[103.61510156400004,14.492438280000044],[103.62919616000005,14.520877176000056]]]}},{"type":"Feature","properties":{"code":"320805","name":"แคน","parentCode":"3208"},"geometry":{"type":"Polygon","coordinates":[[[103.84079050000008,15.20245701400006],[103.80446806500004,15.201361191000046],[103.79617796300005,15.172156329000074],[103.81409935700003,15.137526711000078],[103.85773836900006,15.145397364000075],[103.85931262000008,15.16024748500007],[103.84079050000008,15.20245701400006]]]}},{"type":"Feature","properties":{"code":"320907","name":"คาละแมะ","parentCode":"3209"},"geometry":{"type":"Polygon","coordinates":[[[103.87511254700007,15.066422479000039],[103.84943920400008,15.108017266000047],[103.81025874900007,15.100006390000033],[103.79603097300009,15.100415127000076],[103.79636841200005,15.050925457000062],[103.87511254700007,15.066422479000039]]]}},{"type":"Feature","properties":{"code":"321702","name":"คำผง","parentCode":"3217"},"geometry":{"type":"Polygon","coordinates":[[[103.97039937400007,15.219471696000028],[103.91589463300005,15.203203679000069],[103.90189317200009,15.196079074000068],[103.93395251000004,15.169940417000078],[103.94790752000006,15.144615740000063],[103.97347169300008,15.161487949000048],[103.97039937400007,15.219471696000028]]]}},{"type":"Feature","properties":{"code":"320112","name":"คอโค","parentCode":"3201"},"geometry":{"type":"Polygon","coordinates":[[[103.44783670700008,14.902929253000025],[103.42555737100008,14.92834106600003],[103.37877851600007,14.875427261000027],[103.42729086000008,14.87645271200006],[103.45294031300006,14.841415478000044],[103.47352222700005,14.849703550000072],[103.44783670700008,14.902929253000025]]]}},{"type":"Feature","properties":{"code":"321402","name":"โคกกลาง","parentCode":"3214"},"geometry":{"type":"Polygon","coordinates":[[[103.27866782000007,14.499572722000039],[103.21140118600005,14.539904368000066],[103.23487449400005,14.474659645000031],[103.23381877800006,14.467986213000074],[103.24665626200004,14.441753255000037],[103.26600231100008,14.437897233000058],[103.27866782000007,14.499572722000039]]]}},{"type":"Feature","properties":{"code":"320509","name":"โคกสะอาด","parentCode":"3205"},"geometry":{"type":"Polygon","coordinates":[[[103.36766003900004,14.585849223000025],[103.32931179700006,14.573079449000033],[103.32811368100005,14.511402393000026],[103.36333659500008,14.486552111000037],[103.38746509100008,14.483246866000059],[103.42199488900008,14.52392272800006],[103.39406541400007,14.572964972000022],[103.36766003900004,14.585849223000025]]]}},{"type":"Feature","properties":{"code":"320607","name":"โคกตะเคียน","parentCode":"3206"},"geometry":{"type":"Polygon","coordinates":[[[103.55219096200005,14.554238612000063],[103.52209928500008,14.558148445000029],[103.51161553100007,14.559988685000064],[103.49705735300006,14.516406721000067],[103.43617724300009,14.522060817000067],[103.46100884700007,14.478382426000053],[103.44743248700007,14.433579534000046],[103.47433128700004,14.417941529000075],[103.46946675700008,14.365710507000074],[103.49829138800004,14.39737057700006],[103.56256561700008,14.422689296000044],[103.53922676700006,14.493823460000044],[103.55219096200005,14.554238612000063]]]}},{"type":"Feature","properties":{"code":"320508","name":"โคกยาง","parentCode":"3205"},"geometry":{"type":"Polygon","coordinates":[[[103.53646523900005,14.71092928400003],[103.44774425400004,14.691109039000025],[103.43924082100006,14.681930760000057],[103.45581556600007,14.65982496600003],[103.50220179700005,14.66019329200003],[103.54200152800007,14.628280726000071],[103.57393726700008,14.639361683000061],[103.59855109800009,14.688084789000072],[103.53646523900005,14.71092928400003]]]}},{"type":"Feature","properties":{"code":"321002","name":"ขอนแตก","parentCode":"3210"},"geometry":{"type":"Polygon","coordinates":[[[103.94878676800005,14.737072659000034],[103.91967004300005,14.74810479200005],[103.86196763300006,14.690321790000041],[103.89988655300004,14.644902942000044],[103.92167554200006,14.657990867000024],[103.95562631500007,14.715029464000054],[103.94878676800005,14.737072659000034]]]}},{"type":"Feature","properties":{"code":"320604","name":"คูตัน","parentCode":"3206"},"geometry":{"type":"Polygon","coordinates":[[[103.68862465600006,14.54477094200007],[103.62234087900003,14.57126368300004],[103.61979508700006,14.570166922000055],[103.62919616000005,14.520877176000056],[103.66859416400007,14.509099606000063],[103.69825547300007,14.542964337000058],[103.68862465600006,14.54477094200007]]]}},{"type":"Feature","properties":{"code":"321601","name":"เขวาสินรินทร์","parentCode":"3216"},"geometry":{"type":"Polygon","coordinates":[[[103.60597722100005,15.02460054900007],[103.56688393000007,15.042541706000065],[103.56581970600007,15.040038035000066],[103.54615050100006,14.994883334000065],[103.61506374600003,14.982093409000072],[103.61382517600003,15.000270425000053],[103.60597722100005,15.02460054900007]]]}},{"type":"Feature","properties":{"code":"320912","name":"ขวาวใหญ่","parentCode":"3209"},"geometry":{"type":"Polygon","coordinates":[[[103.80182663600004,15.034646441000064],[103.74920128900004,15.05640470700007],[103.73675911200007,14.981772355000032],[103.81258688000008,14.997573785000043],[103.80182663600004,15.034646441000064]]]}},{"type":"Feature","properties":{"code":"321206","name":"เกาะแก้ว","parentCode":"3212"},"geometry":{"type":"Polygon","coordinates":[[[103.95804610100004,14.97564882000006],[103.90561342200004,14.950212689000068],[103.92813397800006,14.903384493000033],[103.95600923900008,14.937722488000077],[103.96646994700006,14.971762685000044],[103.95804610100004,14.97564882000006]]]}},{"type":"Feature","properties":{"code":"321203","name":"กระออม","parentCode":"3212"},"geometry":{"type":"Polygon","coordinates":[[[103.99957753500007,15.137293796000051],[103.98333287900005,15.162250615000062],[103.97347169300008,15.161487949000048],[103.94790752000006,15.144615740000063],[103.93465202900006,15.132302168000024],[103.94036197300005,15.10715170900005],[103.99064957500008,15.123217225000076],[103.99957753500007,15.137293796000051]]]}},{"type":"Feature","properties":{"code":"320208","name":"กระเบื้อง","parentCode":"3202"},"geometry":{"type":"Polygon","coordinates":[[[103.28937025800008,15.421325283000044],[103.26296256400008,15.428489115000048],[103.25360556400005,15.400454603000071],[103.28026285300007,15.343131928000048],[103.26764850900008,15.317579094000052],[103.28779750400008,15.29841386000004],[103.31572646100005,15.318199167000046],[103.32752052300003,15.336937362000072],[103.31213418400006,15.414247353000064],[103.28937025800008,15.421325283000044]]]}},{"type":"Feature","properties":{"code":"320403","name":"กระหาด","parentCode":"3204"},"geometry":{"type":"Polygon","coordinates":[[[103.54462988700004,15.107863821000024],[103.55618085200007,15.15995276700005],[103.51683246700009,15.15242618700006],[103.50340435600003,15.125290046000032],[103.52363424800006,15.104808210000044],[103.54291267900004,15.100277129000062],[103.54462988700004,15.107863821000024]]]}},{"type":"Feature","properties":{"code":"320302","name":"กระโพ","parentCode":"3203"},"geometry":{"type":"Polygon","coordinates":[[[103.52730975100008,15.28817435600007],[103.52311916200006,15.300739328000077],[103.50543628800006,15.291748332000054],[103.45797994300005,15.265727385000048],[103.43373687500008,15.229554590000077],[103.43366165900005,15.205109436000043],[103.49645354800003,15.202750403000039],[103.52598632000007,15.208583029000067],[103.55811645500006,15.252529451000044],[103.52730975100008,15.28817435600007]]]}},{"type":"Feature","properties":{"code":"321009","name":"กระเทียม","parentCode":"3210"},"geometry":{"type":"Polygon","coordinates":[[[103.71531445900007,14.650100183000063],[103.64007669600005,14.634095116000026],[103.62957622100004,14.62865034400005],[103.62234087900003,14.57126368300004],[103.68862465600006,14.54477094200007],[103.71406332900006,14.591894700000068],[103.71531445900007,14.650100183000063]]]}},{"type":"Feature","properties":{"code":"320714","name":"กุดขาคีม","parentCode":"3207"},"geometry":{"type":"Polygon","coordinates":[[[103.87178644400007,15.463490174000071],[103.85492563600008,15.465958166000064],[103.82840478800006,15.451330547000055],[103.81338413900005,15.397084039000049],[103.84676599800008,15.352233634000072],[103.85964921400006,15.367449575000023],[103.87178644400007,15.463490174000071]]]}},{"type":"Feature","properties":{"code":"320911","name":"กุดหวาย","parentCode":"3209"},"geometry":{"type":"Polygon","coordinates":[[[103.90561342200004,14.950212689000068],[103.87687908300006,14.958311929000047],[103.80808988900009,14.919923983000047],[103.83628241500008,14.907835316000046],[103.86757005400005,14.890454152000075],[103.92325141000003,14.892818347000059],[103.92813397800006,14.903384493000033],[103.90561342200004,14.950212689000068]]]}},{"type":"Feature","properties":{"code":"321101","name":"ลำดวน","parentCode":"3211"},"geometry":{"type":"Polygon","coordinates":[[[103.68240412100005,14.728749124000046],[103.64375377700009,14.751571257000023],[103.60175147500007,14.686229457000024],[103.62957622100004,14.62865034400005],[103.64007669600005,14.634095116000026],[103.63532993900009,14.661927922000075],[103.68120239200005,14.718075278000072],[103.68240412100005,14.728749124000046]]]}},{"type":"Feature","properties":{"code":"320407","name":"ลุ่มระวี","parentCode":"3204"},"geometry":{"type":"Polygon","coordinates":[[[103.61756427000006,15.189629632000049],[103.59654300900007,15.188817434000043],[103.59299246200004,15.168887909000034],[103.57830385900007,15.133427827000048],[103.60948364900008,15.140403905000028],[103.62752415600005,15.180113618000064],[103.61756427000006,15.189629632000049]]]}},{"type":"Feature","properties":{"code":"320206","name":"เมืองบัว","parentCode":"3202"},"geometry":{"type":"Polygon","coordinates":[[[103.21216900500008,15.460864109000056],[103.17097072100006,15.468571182000062],[103.14480545000004,15.404118616000062],[103.16026283200006,15.352533761000075],[103.18534076500003,15.366236191000041],[103.21261045400007,15.406947390000028],[103.25360556400005,15.400454603000071],[103.26296256400008,15.428489115000048],[103.24068325000007,15.449771347000024],[103.21216900500008,15.460864109000056]]]}},{"type":"Feature","properties":{"code":"320305","name":"เมืองแก","parentCode":"3203"},"geometry":{"type":"Polygon","coordinates":[[[103.68557998100005,15.263422038000044],[103.63607289800007,15.26582660500003],[103.61756427000006,15.189629632000049],[103.62752415600005,15.180113618000064],[103.67608403800006,15.17627174100005],[103.68557998100005,15.263422038000044]]]}},{"type":"Feature","properties":{"code":"320402","name":"เมืองลีง","parentCode":"3204"},"geometry":{"type":"Polygon","coordinates":[[[103.49645354800003,15.202750403000039],[103.43366165900005,15.205109436000043],[103.42056735700004,15.167421342000068],[103.42528798600006,15.131949918000032],[103.50340435600003,15.125290046000032],[103.51683246700009,15.15242618700006],[103.49645354800003,15.202750403000039]]]}},{"type":"Feature","properties":{"code":"320119","name":"เมืองที","parentCode":"3201"},"geometry":{"type":"Polygon","coordinates":[[[103.66142968400004,14.94776636000006],[103.62169620800006,14.949055142000077],[103.62729155300008,14.873330827000075],[103.69071177300003,14.880756314000052],[103.69076294400008,14.907924752000042],[103.66142968400004,14.94776636000006]]]}},{"type":"Feature","properties":{"code":"321207","name":"หมื่นศรี","parentCode":"3212"},"geometry":{"type":"Polygon","coordinates":[[[104.01882284300007,15.04197369600007],[104.01468029500006,15.052602385000057],[103.99776110500005,15.045465149000051],[103.95627355300007,15.027254283000048],[103.95804610100004,14.97564882000006],[103.96646994700006,14.971762685000044],[103.98108649500006,14.97478910600006],[103.99808625900005,15.007179294000025],[104.01882284300007,15.04197369600007]]]}},{"type":"Feature","properties":{"code":"320118","name":"นาบัว","parentCode":"3201"},"geometry":{"type":"Polygon","coordinates":[[[103.43929193100007,14.822900159000028],[103.37851026800007,14.827679447000037],[103.36393688400005,14.756151111000065],[103.38095315500004,14.750250452000046],[103.39281045200005,14.745649016000073],[103.45206616900003,14.739515965000066],[103.43929193100007,14.822900159000028]]]}},{"type":"Feature","properties":{"code":"320104","name":"นาดี","parentCode":"3201"},"geometry":{"type":"Polygon","coordinates":[[[103.56581970600007,15.040038035000066],[103.50176814800005,15.063037955000027],[103.49199328300006,15.028974102000063],[103.44211832800005,15.034367432000067],[103.41866691900003,15.017722066000033],[103.50686509100007,14.990100824000024],[103.53776315600004,14.975906417000033],[103.54615050100006,14.994883334000065],[103.56581970600007,15.040038035000066]]]}},{"type":"Feature","properties":{"code":"320202","name":"นาหนองไผ่","parentCode":"3202"},"geometry":{"type":"Polygon","coordinates":[[[103.49338318300005,15.43840790300004],[103.47877498100007,15.451292773000034],[103.45249137600007,15.396863979000045],[103.45186071000006,15.338379144000044],[103.50543628800006,15.291748332000054],[103.52311916200006,15.300739328000077],[103.52449304800007,15.326680500000066],[103.51662711700004,15.428429982000068],[103.49338318300005,15.43840790300004]]]}},{"type":"Feature","properties":{"code":"320804","name":"นานวน","parentCode":"3208"},"geometry":{"type":"Polygon","coordinates":[[[103.79617796300005,15.172156329000074],[103.76890509400005,15.175343299000076],[103.77791146600003,15.109917902000063],[103.79603097300009,15.100415127000076],[103.81025874900007,15.100006390000033],[103.81409935700003,15.137526711000078],[103.79617796300005,15.172156329000074]]]}},{"type":"Feature","properties":{"code":"320913","name":"นารุ่ง","parentCode":"3209"},"geometry":{"type":"Polygon","coordinates":[[[103.89240824600006,15.015611988000046],[103.81258688000008,14.997573785000043],[103.80616938400004,14.952988332000075],[103.89481555200007,14.996384990000024],[103.89240824600006,15.015611988000046]]]}},{"type":"Feature","properties":{"code":"320606","name":"แนงมุด","parentCode":"3206"},"geometry":{"type":"Polygon","coordinates":[[[103.43617724300009,14.522060817000067],[103.42199488900008,14.52392272800006],[103.38746509100008,14.483246866000059],[103.40982591600005,14.369403599000066],[103.43338824900007,14.389847394000071],[103.46946675700008,14.365710507000074],[103.47433128700004,14.417941529000075],[103.44743248700007,14.433579534000046],[103.46100884700007,14.478382426000053],[103.43617724300009,14.522060817000067]]]}},{"type":"Feature","properties":{"code":"320101","name":"ในเมือง","parentCode":"3201"},"geometry":{"type":"Polygon","coordinates":[[[103.49979636800003,14.90604875200006],[103.50861457700006,14.89066771000006],[103.50810869600008,14.904576201000054],[103.49979636800003,14.90604875200006]]]}},{"type":"Feature","properties":{"code":"320713","name":"น้ำเขียว","parentCode":"3207"},"geometry":{"type":"Polygon","coordinates":[[[103.76922920000004,15.364534971000069],[103.76123842300007,15.298514434000026],[103.75922916700006,15.294758702000024],[103.79965339500006,15.275345368000046],[103.81747095400004,15.33499536100004],[103.76922920000004,15.364534971000069]]]}},{"type":"Feature","properties":{"code":"321501","name":"ณรงค์","parentCode":"3215"},"geometry":{"type":"Polygon","coordinates":[[[103.91967004300005,14.74810479200005],[103.91628585400008,14.792443529000025],[103.87324828300007,14.795142879000025],[103.84486502000004,14.779152239000041],[103.85217881500006,14.687605912000038],[103.86196763300006,14.690321790000041],[103.91967004300005,14.74810479200005]]]}},{"type":"Feature","properties":{"code":"320111","name":"นอกเมือง","parentCode":"3201"},"geometry":{"type":"Polygon","coordinates":[[[103.49979636800003,14.90604875200006],[103.49329739200004,14.912662397000076],[103.44783670700008,14.902929253000025],[103.47352222700005,14.849703550000072],[103.51083344400007,14.805769938000026],[103.53224526900004,14.83768813000006],[103.53388461800006,14.890421650000064],[103.50861457700006,14.89066771000006],[103.49979636800003,14.90604875200006]]]}},{"type":"Feature","properties":{"code":"321703","name":"โนน","parentCode":"3217"},"geometry":{"type":"Polygon","coordinates":[[[103.93395251000004,15.169940417000078],[103.90189317200009,15.196079074000068],[103.85873865300005,15.216524912000068],[103.84079050000008,15.20245701400006],[103.85931262000008,15.16024748500007],[103.93395251000004,15.169940417000078]]]}},{"type":"Feature","properties":{"code":"320307","name":"หนองบัว","parentCode":"3203"},"geometry":{"type":"Polygon","coordinates":[[[103.76922920000004,15.364534971000069],[103.72491181600009,15.359942727000032],[103.72997723900005,15.287137728000062],[103.76123842300007,15.298514434000026],[103.76922920000004,15.364534971000069]]]}},{"type":"Feature","properties":{"code":"320906","name":"หนองบัว","parentCode":"3209"},"geometry":{"type":"Polygon","coordinates":[[[103.77791146600003,15.109917902000063],[103.73059458600005,15.130411652000078],[103.71915575500009,15.127031393000038],[103.72969070100004,15.109004296000023],[103.72340179400004,15.084255855000038],[103.74920128900004,15.05640470700007],[103.80182663600004,15.034646441000064],[103.79636841200005,15.050925457000062],[103.79603097300009,15.100415127000076],[103.77791146600003,15.109917902000063]]]}},{"type":"Feature","properties":{"code":"320706","name":"หนองบัวบาน","parentCode":"3207"},"geometry":{"type":"Polygon","coordinates":[[[103.86361220800006,15.269068967000067],[103.79965339500006,15.275345368000046],[103.79309798900005,15.222760098000037],[103.80446806500004,15.201361191000046],[103.84079050000008,15.20245701400006],[103.85873865300005,15.216524912000068],[103.86361220800006,15.269068967000067]]]}},{"type":"Feature","properties":{"code":"320705","name":"หนองบัวทอง","parentCode":"3207"},"geometry":{"type":"Polygon","coordinates":[[[103.96933908800008,15.424445025000068],[103.94564144100008,15.438934208000035],[103.92537374100004,15.438049956000043],[103.89816853000008,15.36368423700003],[103.93470272600007,15.362221082000076],[103.96933908800008,15.424445025000068]]]}},{"type":"Feature","properties":{"code":"321204","name":"หนองฮะ","parentCode":"3212"},"geometry":{"type":"Polygon","coordinates":[[[103.93465202900006,15.132302168000024],[103.89606231100004,15.113969801000053],[103.89074835400004,15.068959234000033],[103.90474009800005,15.060176107000075],[103.93852367100004,15.099656457000037],[103.94036197300005,15.10715170900005],[103.93465202900006,15.132302168000024]]]}},{"type":"Feature","properties":{"code":"320807","name":"หนองอียอ","parentCode":"3208"},"geometry":{"type":"Polygon","coordinates":[[[103.75692020200006,15.186441020000075],[103.71627251300004,15.187910129000045],[103.69951427900008,15.152689277000036],[103.71915575500009,15.127031393000038],[103.73059458600005,15.130411652000078],[103.75692020200006,15.186441020000075]]]}},{"type":"Feature","properties":{"code":"320909","name":"หนองขวาว","parentCode":"3209"},"geometry":{"type":"Polygon","coordinates":[[[103.81258688000008,14.997573785000043],[103.73675911200007,14.981772355000032],[103.75135733600007,14.919370902000026],[103.75499431100008,14.929797714000074],[103.80616938400004,14.952988332000075],[103.81258688000008,14.997573785000043]]]}},{"type":"Feature","properties":{"code":"320908","name":"หนองเหล็ก","parentCode":"3209"},"geometry":{"type":"Polygon","coordinates":[[[103.76486168800005,14.809713429000055],[103.69059977800003,14.863490055000057],[103.67271293800007,14.81555805000005],[103.66721724600006,14.804166388000056],[103.70385365500005,14.776956532000042],[103.73886469100006,14.785577013000022],[103.75923876100006,14.769316938000031],[103.78533796200009,14.790073048000068],[103.78790870900008,14.799110203000055],[103.76486168800005,14.809713429000055]]]}},{"type":"Feature","properties":{"code":"321701","name":"หนองหลวง","parentCode":"3217"},"geometry":{"type":"Polygon","coordinates":[[[103.98432693200004,15.230795191000027],[103.92407568200008,15.251493708000055],[103.91589463300005,15.203203679000069],[103.97039937400007,15.219471696000028],[103.98432693200004,15.230795191000027]]]}},{"type":"Feature","properties":{"code":"320309","name":"หนองเมธี","parentCode":"3203"},"geometry":{"type":"Polygon","coordinates":[[[103.63607289800007,15.26582660500003],[103.61234534700009,15.272725300000047],[103.59254291600007,15.262892962000024],[103.59654300900007,15.188817434000043],[103.61756427000006,15.189629632000049],[103.63607289800007,15.26582660500003]]]}},{"type":"Feature","properties":{"code":"321202","name":"หนองไผ่ล้อม","parentCode":"3212"},"geometry":{"type":"Polygon","coordinates":[[[103.90474009800005,15.060176107000075],[103.89074835400004,15.068959234000033],[103.87511254700007,15.066422479000039],[103.89240824600006,15.015611988000046],[103.89481555200007,14.996384990000024],[103.95627355300007,15.027254283000048],[103.99776110500005,15.045465149000051],[103.96273561100008,15.059642741000062],[103.90474009800005,15.060176107000075]]]}},{"type":"Feature","properties":{"code":"320803","name":"หนองระฆัง","parentCode":"3208"},"geometry":{"type":"Polygon","coordinates":[[[103.76890509400005,15.175343299000076],[103.75692020200006,15.186441020000075],[103.73059458600005,15.130411652000078],[103.77791146600003,15.109917902000063],[103.76890509400005,15.175343299000076]]]}},{"type":"Feature","properties":{"code":"320209","name":"หนองเรือ","parentCode":"3202"},"geometry":{"type":"Polygon","coordinates":[[[103.58104092800005,15.340229548000025],[103.52449304800007,15.326680500000066],[103.52311916200006,15.300739328000077],[103.52730975100008,15.28817435600007],[103.58703160300007,15.30167298300006],[103.58104092800005,15.340229548000025]]]}},{"type":"Feature","properties":{"code":"320405","name":"หนองสนิท","parentCode":"3204"},"geometry":{"type":"Polygon","coordinates":[[[103.67608403800006,15.17627174100005],[103.62752415600005,15.180113618000064],[103.60948364900008,15.140403905000028],[103.64372096600005,15.137934011000027],[103.69395931100007,15.153287671000044],[103.67608403800006,15.17627174100005]]]}},{"type":"Feature","properties":{"code":"321705","name":"หนองเทพ","parentCode":"3217"},"geometry":{"type":"Polygon","coordinates":[[[103.94790752000006,15.144615740000063],[103.93395251000004,15.169940417000078],[103.85931262000008,15.16024748500007],[103.85773836900006,15.145397364000075],[103.86516778600009,15.110500735000073],[103.89606231100004,15.113969801000053],[103.93465202900006,15.132302168000024],[103.94790752000006,15.144615740000063]]]}},{"type":"Feature","properties":{"code":"321504","name":"หนองแวง","parentCode":"3215"},"geometry":{"type":"Polygon","coordinates":[[[103.99938704300007,14.747853317000022],[103.97256791600006,14.810878313000046],[103.94878676800005,14.737072659000034],[103.95562631500007,14.715029464000054],[104.00414033100009,14.72095702100006],[103.99938704300007,14.747853317000022]]]}},{"type":"Feature","properties":{"code":"320507","name":"หนองใหญ่","parentCode":"3205"},"geometry":{"type":"Polygon","coordinates":[[[103.51161553100007,14.559988685000064],[103.44827337200007,14.60184502800007],[103.43127974900005,14.564088646000073],[103.39406541400007,14.572964972000022],[103.42199488900008,14.52392272800006],[103.43617724300009,14.522060817000067],[103.49705735300006,14.516406721000067],[103.51161553100007,14.559988685000064]]]}},{"type":"Feature","properties":{"code":"320409","name":"เป็นสุข","parentCode":"3204"},"geometry":{"type":"Polygon","coordinates":[[[103.59299246200004,15.168887909000034],[103.55618085200007,15.15995276700005],[103.54462988700004,15.107863821000024],[103.57830385900007,15.133427827000048],[103.59299246200004,15.168887909000034]]]}},{"type":"Feature","properties":{"code":"320709","name":"ไผ่","parentCode":"3207"},"geometry":{"type":"Polygon","coordinates":[[[103.93470272600007,15.362221082000076],[103.89816853000008,15.36368423700003],[103.88104005800005,15.359974932000057],[103.87239936800006,15.288608048000071],[103.89473771800004,15.280047946000025],[103.91445379600003,15.294014966000077],[103.93470272600007,15.362221082000076]]]}},{"type":"Feature","properties":{"code":"320915","name":"ผักไหม","parentCode":"3209"},"geometry":{"type":"Polygon","coordinates":[[[103.86757005400005,14.890454152000075],[103.83628241500008,14.907835316000046],[103.80849236600005,14.876709389000041],[103.78790870900008,14.799110203000055],[103.78533796200009,14.790073048000068],[103.81859955700008,14.795392525000068],[103.86757005400005,14.890454152000075]]]}},{"type":"Feature","properties":{"code":"320103","name":"เพี้ยราม","parentCode":"3201"},"geometry":{"type":"Polygon","coordinates":[[[103.51729880200008,15.096040359000028],[103.44002788200004,15.099907210000026],[103.44211832800005,15.034367432000067],[103.49199328300006,15.028974102000063],[103.50176814800005,15.063037955000027],[103.51729880200008,15.096040359000028]]]}},{"type":"Feature","properties":{"code":"320503","name":"ไพล","parentCode":"3205"},"geometry":{"type":"Polygon","coordinates":[[[103.39281045200005,14.745649016000073],[103.38095315500004,14.750250452000046],[103.37860336800009,14.706167673000039],[103.34675285900005,14.688717460000078],[103.35466106300004,14.680948209000064],[103.38671689300008,14.670571560000042],[103.40194760900005,14.681806653000024],[103.39281045200005,14.745649016000073]]]}},{"type":"Feature","properties":{"code":"320304","name":"โพนครก","parentCode":"3203"},"geometry":{"type":"Polygon","coordinates":[[[103.82840478800006,15.451330547000055],[103.75339781100007,15.439634924000075],[103.72154529300008,15.439885665000077],[103.70351533900003,15.418750067000076],[103.69086368600006,15.334640085000046],[103.72491181600009,15.359942727000032],[103.76922920000004,15.364534971000069],[103.81338413900005,15.397084039000049],[103.82840478800006,15.451330547000055]]]}},{"type":"Feature","properties":{"code":"320802","name":"โพนโก","parentCode":"3208"},"geometry":{"type":"Polygon","coordinates":[[[103.79965339500006,15.275345368000046],[103.75922916700006,15.294758702000024],[103.73021765900006,15.227211535000038],[103.79309798900005,15.222760098000037],[103.79965339500006,15.275345368000046]]]}},{"type":"Feature","properties":{"code":"321007","name":"พระแก้ว","parentCode":"3210"},"geometry":{"type":"Polygon","coordinates":[[[104.01146460300004,14.710440969000047],[104.00414033100009,14.72095702100006],[103.95562631500007,14.715029464000054],[103.92167554200006,14.657990867000024],[103.91710341700008,14.623655452000037],[103.92424848300004,14.578082893000044],[103.96294692700008,14.597191495000061],[103.98259392000006,14.624930646000053],[103.97112743200006,14.662639776000049],[104.01146460300004,14.710440969000047]]]}},{"type":"Feature","properties":{"code":"320203","name":"ไพรขลา","parentCode":"3202"},"geometry":{"type":"Polygon","coordinates":[[[103.59246155600005,15.46742740600007],[103.57432238900009,15.463538885000048],[103.51662711700004,15.428429982000068],[103.52449304800007,15.326680500000066],[103.58104092800005,15.340229548000025],[103.58559914700004,15.410702094000044],[103.59246155600005,15.46742740600007]]]}},{"type":"Feature","properties":{"code":"320303","name":"พรมเทพ","parentCode":"3203"},"geometry":{"type":"Polygon","coordinates":[[[103.66399193500007,15.359960457000057],[103.65211553700004,15.387711867000064],[103.58559914700004,15.410702094000044],[103.58104092800005,15.340229548000025],[103.58703160300007,15.30167298300006],[103.61710730500005,15.30257699200007],[103.66399193500007,15.359960457000057]]]}},{"type":"Feature","properties":{"code":"321210","name":"ประดู่","parentCode":"3212"},"geometry":{"type":"Polygon","coordinates":[[[104.02007604200008,15.078658368000049],[103.99233196700004,15.09009596900006],[103.96318577900007,15.081950408000068],[103.96273561100008,15.059642741000062],[103.99776110500005,15.045465149000051],[104.01468029500006,15.052602385000057],[104.02007604200008,15.078658368000049]]]}},{"type":"Feature","properties":{"code":"320513","name":"ปราสาททนง","parentCode":"3205"},"geometry":{"type":"Polygon","coordinates":[[[103.38671689300008,14.670571560000042],[103.35466106300004,14.680948209000064],[103.33166190200006,14.672948052000038],[103.35669401900009,14.617123627000069],[103.38671689300008,14.670571560000042]]]}},{"type":"Feature","properties":{"code":"321604","name":"ปราสาททอง","parentCode":"3216"},"geometry":{"type":"Polygon","coordinates":[[[103.68495243000007,14.98846261500006],[103.68446070200008,15.01270186000005],[103.61382517600003,15.000270425000053],[103.61506374600003,14.982093409000072],[103.61144135100005,14.94135299900006],[103.62169620800006,14.949055142000077],[103.66142968400004,14.94776636000006],[103.68495243000007,14.98846261500006]]]}},{"type":"Feature","properties":{"code":"320518","name":"ประทัดบุ","parentCode":"3205"},"geometry":{"type":"Polygon","coordinates":[[[103.36393688400005,14.756151111000065],[103.32695958800008,14.747362632000033],[103.34675285900005,14.688717460000078],[103.37860336800009,14.706167673000039],[103.38095315500004,14.750250452000046],[103.36393688400005,14.756151111000065]]]}},{"type":"Feature","properties":{"code":"320504","name":"ปรือ","parentCode":"3205"},"geometry":{"type":"Polygon","coordinates":[[[103.33166190200006,14.672948052000038],[103.29758466600003,14.67967317700004],[103.25957025100007,14.656805409000071],[103.30538974000007,14.58209770600007],[103.32931179700006,14.573079449000033],[103.36766003900004,14.585849223000025],[103.36926712800005,14.605959239000072],[103.35669401900009,14.617123627000069],[103.33166190200006,14.672948052000038]]]}},{"type":"Feature","properties":{"code":"320901","name":"ระแงง","parentCode":"3209"},"geometry":{"type":"Polygon","coordinates":[[[103.80616938400004,14.952988332000075],[103.75499431100008,14.929797714000074],[103.78077458500007,14.901834458000053],[103.80849236600005,14.876709389000041],[103.83628241500008,14.907835316000046],[103.80808988900009,14.919923983000047],[103.80616938400004,14.952988332000075]]]}},{"type":"Feature","properties":{"code":"320120","name":"ราม","parentCode":"3201"},"geometry":{"type":"Polygon","coordinates":[[[103.69071177300003,14.880756314000052],[103.62729155300008,14.873330827000075],[103.61462891200006,14.87579605600007],[103.61181965500003,14.835227367000073],[103.67271293800007,14.81555805000005],[103.69059977800003,14.863490055000057],[103.69071177300003,14.880756314000052]]]}},{"type":"Feature","properties":{"code":"320701","name":"รัตนบุรี","parentCode":"3207"},"geometry":{"type":"Polygon","coordinates":[[[103.88104005800005,15.359974932000057],[103.85964921400006,15.367449575000023],[103.84676599800008,15.352233634000072],[103.81747095400004,15.33499536100004],[103.79965339500006,15.275345368000046],[103.86361220800006,15.269068967000067],[103.87239936800006,15.288608048000071],[103.88104005800005,15.359974932000057]]]}},{"type":"Feature","properties":{"code":"321704","name":"ระเวียง","parentCode":"3217"},"geometry":{"type":"Polygon","coordinates":[[[103.89473771800004,15.280047946000025],[103.87239936800006,15.288608048000071],[103.86361220800006,15.269068967000067],[103.85873865300005,15.216524912000068],[103.90189317200009,15.196079074000068],[103.91589463300005,15.203203679000069],[103.92407568200008,15.251493708000055],[103.89473771800004,15.280047946000025]]]}},{"type":"Feature","properties":{"code":"320207","name":"สระขุด","parentCode":"3202"},"geometry":{"type":"Polygon","coordinates":[[[103.14355459800004,15.475677370000028],[103.11140379300008,15.481283650000023],[103.10012702700004,15.432799791000036],[103.10666513500007,15.409391000000028],[103.13354107500004,15.400316469000074],[103.14480545000004,15.404118616000062],[103.17097072100006,15.468571182000062],[103.14355459800004,15.475677370000028]]]}},{"type":"Feature","properties":{"code":"321302","name":"สะเดา","parentCode":"3213"},"geometry":{"type":"Polygon","coordinates":[[[104.05164027100005,14.572445122000033],[104.05852373700009,14.600611841000045],[104.00120618800008,14.579321184000037],[104.00513802000006,14.524622917000045],[104.00782583700004,14.498792109000021],[103.99879958900004,14.479792891000045],[104.04572508100006,14.495418895000057],[104.03241897700008,14.545514096000034],[104.05164027100005,14.572445122000033]]]}},{"type":"Feature","properties":{"code":"321010","name":"สะกาด","parentCode":"3210"},"geometry":{"type":"Polygon","coordinates":[[[103.77245606600007,14.635328185000049],[103.75340083900005,14.684630885000047],[103.74586872100008,14.680882285000052],[103.71531445900007,14.650100183000063],[103.71406332900006,14.591894700000068],[103.79127106900006,14.597633010000038],[103.77245606600007,14.635328185000049]]]}},{"type":"Feature","properties":{"code":"320125","name":"แสลงพันธ์","parentCode":"3201"},"geometry":{"type":"Polygon","coordinates":[[[103.58123083200007,14.942715118000024],[103.55031547900006,14.952851140000064],[103.50810869600008,14.904576201000054],[103.50861457700006,14.89066771000006],[103.53388461800006,14.890421650000064],[103.56592652200004,14.883671067000023],[103.58123083200007,14.942715118000024]]]}},{"type":"Feature","properties":{"code":"320106","name":"สลักได","parentCode":"3201"},"geometry":{"type":"Polygon","coordinates":[[[103.56592652200004,14.883671067000023],[103.53388461800006,14.890421650000064],[103.53224526900004,14.83768813000006],[103.57497907500004,14.815151547000028],[103.61181965500003,14.835227367000073],[103.61462891200006,14.87579605600007],[103.56592652200004,14.883671067000023]]]}},{"type":"Feature","properties":{"code":"321208","name":"เสม็จ","parentCode":"3212"},"geometry":{"type":"Polygon","coordinates":[[[103.89074835400004,15.068959234000033],[103.89606231100004,15.113969801000053],[103.86516778600009,15.110500735000073],[103.84943920400008,15.108017266000047],[103.87511254700007,15.066422479000039],[103.89074835400004,15.068959234000033]]]}},{"type":"Feature","properties":{"code":"321306","name":"สำเภาลูน","parentCode":"3213"},"geometry":{"type":"Polygon","coordinates":[[[104.00513802000006,14.524622917000045],[104.00120618800008,14.579321184000037],[103.96294692700008,14.597191495000061],[103.92424848300004,14.578082893000044],[103.89872861400005,14.563435437000066],[104.00513802000006,14.524622917000045]]]}},{"type":"Feature","properties":{"code":"320109","name":"สำโรง","parentCode":"3201"},"geometry":{"type":"Polygon","coordinates":[[[103.67271293800007,14.81555805000005],[103.61181965500003,14.835227367000073],[103.57497907500004,14.815151547000028],[103.64375377700009,14.751571257000023],[103.66721724600006,14.804166388000056],[103.67271293800007,14.81555805000005]]]}},{"type":"Feature","properties":{"code":"321201","name":"สำโรงทาบ","parentCode":"3212"},"geometry":{"type":"Polygon","coordinates":[[[103.95804610100004,14.97564882000006],[103.95627355300007,15.027254283000048],[103.89481555200007,14.996384990000024],[103.90561342200004,14.950212689000068],[103.95804610100004,14.97564882000006]]]}},{"type":"Feature","properties":{"code":"320517","name":"สมุด","parentCode":"3205"},"geometry":{"type":"Polygon","coordinates":[[[103.32695958800008,14.747362632000033],[103.31914482900004,14.743401968000057],[103.28885669200008,14.736457684000072],[103.29758466600003,14.67967317700004],[103.33166190200006,14.672948052000038],[103.35466106300004,14.680948209000064],[103.34675285900005,14.688717460000078],[103.32695958800008,14.747362632000033]]]}},{"type":"Feature","properties":{"code":"321001","name":"สังขะ","parentCode":"3210"},"geometry":{"type":"Polygon","coordinates":[[[103.92167554200006,14.657990867000024],[103.89988655300004,14.644902942000044],[103.86196763300006,14.690321790000041],[103.85217881500006,14.687605912000038],[103.81798764200005,14.690558791000058],[103.80248973700009,14.637187180000069],[103.91710341700008,14.623655452000037],[103.92167554200006,14.657990867000024]]]}},{"type":"Feature","properties":{"code":"321209","name":"สะโน","parentCode":"3212"},"geometry":{"type":"Polygon","coordinates":[[[103.99233196700004,15.09009596900006],[103.99064957500008,15.123217225000076],[103.94036197300005,15.10715170900005],[103.93852367100004,15.099656457000037],[103.96318577900007,15.081950408000068],[103.99233196700004,15.09009596900006]]]}},{"type":"Feature","properties":{"code":"320801","name":"สนม","parentCode":"3208"},"geometry":{"type":"Polygon","coordinates":[[[103.79309798900005,15.222760098000037],[103.73021765900006,15.227211535000038],[103.71627251300004,15.187910129000045],[103.75692020200006,15.186441020000075],[103.76890509400005,15.175343299000076],[103.79617796300005,15.172156329000074],[103.80446806500004,15.201361191000046],[103.79309798900005,15.222760098000037]]]}},{"type":"Feature","properties":{"code":"320113","name":"สวาย","parentCode":"3201"},"geometry":{"type":"Polygon","coordinates":[[[103.37851026800007,14.827679447000037],[103.35369612700003,14.842768188000036],[103.29216454600004,14.81139769400005],[103.27912506600006,14.775337622000052],[103.31914482900004,14.743401968000057],[103.32695958800008,14.747362632000033],[103.36393688400005,14.756151111000065],[103.37851026800007,14.827679447000037]]]}},{"type":"Feature","properties":{"code":"320204","name":"ศรีณรงค์","parentCode":"3202"},"geometry":{"type":"Polygon","coordinates":[[[103.34290512100006,15.40857524200004],[103.31213418400006,15.414247353000064],[103.32752052300003,15.336937362000072],[103.36923480200005,15.340171296000051],[103.34290512100006,15.40857524200004]]]}},{"type":"Feature","properties":{"code":"321205","name":"ศรีสุข","parentCode":"3212"},"geometry":{"type":"Polygon","coordinates":[[[103.93852367100004,15.099656457000037],[103.90474009800005,15.060176107000075],[103.96273561100008,15.059642741000062],[103.96318577900007,15.081950408000068],[103.93852367100004,15.099656457000037]]]}},{"type":"Feature","properties":{"code":"321505","name":"ศรีสุข","parentCode":"3215"},"geometry":{"type":"Polygon","coordinates":[[[103.81859955700008,14.795392525000068],[103.78533796200009,14.790073048000068],[103.75923876100006,14.769316938000031],[103.76902979500005,14.727509633000068],[103.81798764200005,14.690558791000058],[103.85217881500006,14.687605912000038],[103.84486502000004,14.779152239000041],[103.81859955700008,14.795392525000068]]]}},{"type":"Feature","properties":{"code":"320107","name":"ตาอ็อง","parentCode":"3201"},"geometry":{"type":"Polygon","coordinates":[[[103.64375377700009,14.751571257000023],[103.57497907500004,14.815151547000028],[103.55515119800003,14.763572838000073],[103.58300615700006,14.739579843000058],[103.53497133800005,14.71978556700003],[103.53646523900005,14.71092928400003],[103.59855109800009,14.688084789000072],[103.60175147500007,14.686229457000024],[103.64375377700009,14.751571257000023]]]}},{"type":"Feature","properties":{"code":"320506","name":"ตาเบา","parentCode":"3205"},"geometry":{"type":"Polygon","coordinates":[[[103.54200152800007,14.628280726000071],[103.50220179700005,14.66019329200003],[103.45581556600007,14.65982496600003],[103.43616451000008,14.624784520000048],[103.44827337200007,14.60184502800007],[103.51161553100007,14.559988685000064],[103.52209928500008,14.558148445000029],[103.54200152800007,14.628280726000071]]]}},{"type":"Feature","properties":{"code":"321013","name":"ตาคง","parentCode":"3210"},"geometry":{"type":"Polygon","coordinates":[[[104.01146460300004,14.710440969000047],[103.97112743200006,14.662639776000049],[103.98259392000006,14.624930646000053],[104.05103883600003,14.63684904300004],[104.05320103100007,14.656243086000075],[104.01146460300004,14.710440969000047]]]}},{"type":"Feature","properties":{"code":"321603","name":"ตากูก","parentCode":"3216"},"geometry":{"type":"Polygon","coordinates":[[[103.67175402400005,15.045707458000038],[103.65443541500008,15.056154528000036],[103.60597722100005,15.02460054900007],[103.61382517600003,15.000270425000053],[103.68446070200008,15.01270186000005],[103.67175402400005,15.045707458000038]]]}},{"type":"Feature","properties":{"code":"321404","name":"ตาเมียง","parentCode":"3214"},"geometry":{"type":"Polygon","coordinates":[[[103.26600231100008,14.437897233000058],[103.24665626200004,14.441753255000037],[103.21926171800004,14.359593295000025],[103.22619930000008,14.326709882000046],[103.30412646000008,14.35334569500003],[103.29217281400008,14.435316520000072],[103.26600231100008,14.437897233000058]]]}},{"type":"Feature","properties":{"code":"321304","name":"ตาวัง","parentCode":"3213"},"geometry":{"type":"Polygon","coordinates":[[[104.05103883600003,14.63684904300004],[103.98259392000006,14.624930646000053],[103.96294692700008,14.597191495000061],[104.00120618800008,14.579321184000037],[104.05852373700009,14.600611841000045],[104.05727489400005,14.621943053000052],[104.05103883600003,14.63684904300004]]]}},{"type":"Feature","properties":{"code":"320610","name":"ตะเคียน","parentCode":"3206"},"geometry":{"type":"Polygon","coordinates":[[[103.66859416400007,14.509099606000063],[103.62919616000005,14.520877176000056],[103.61510156400004,14.492438280000044],[103.62332142600008,14.397570185000063],[103.68061938100004,14.43327933300003],[103.66859416400007,14.509099606000063]]]}},{"type":"Feature","properties":{"code":"320102","name":"ตั้งใจ","parentCode":"3201"},"geometry":{"type":"Polygon","coordinates":[[[103.54291267900004,15.100277129000062],[103.52363424800006,15.104808210000044],[103.51729880200008,15.096040359000028],[103.50176814800005,15.063037955000027],[103.56581970600007,15.040038035000066],[103.56688393000007,15.042541706000065],[103.58844161200005,15.088104835000024],[103.54291267900004,15.100277129000062]]]}},{"type":"Feature","properties":{"code":"320514","name":"ตานี","parentCode":"3205"},"geometry":{"type":"Polygon","coordinates":[[[103.25322609600005,14.664422557000023],[103.23033616300006,14.633306711000046],[103.21071178000005,14.580573411000046],[103.21618241000004,14.571733356000038],[103.30538974000007,14.58209770600007],[103.25957025100007,14.656805409000071],[103.25322609600005,14.664422557000023]]]}},{"type":"Feature","properties":{"code":"321011","name":"ตาตุม","parentCode":"3210"},"geometry":{"type":"Polygon","coordinates":[[[103.81710846700008,14.56311534100007],[103.74320672400006,14.50771994300004],[103.73899107500006,14.377309307000075],[103.83002709000004,14.351046791000044],[103.83946815300004,14.371517020000056],[103.91738446800008,14.336655432000043],[103.90165866100006,14.379664974000036],[103.82944909400004,14.453915134000056],[103.81710846700008,14.56311534100007]]]}},{"type":"Feature","properties":{"code":"320105","name":"ท่าสว่าง","parentCode":"3201"},"geometry":{"type":"Polygon","coordinates":[[[103.41866691900003,15.017722066000033],[103.41557966400006,15.00880933600007],[103.42324762000004,14.946531695000033],[103.42555737100008,14.92834106600003],[103.44783670700008,14.902929253000025],[103.49329739200004,14.912662397000076],[103.48059978400005,14.938404122000065],[103.50686509100007,14.990100824000024],[103.41866691900003,15.017722066000033]]]}},{"type":"Feature","properties":{"code":"320301","name":"ท่าตูม","parentCode":"3203"},"geometry":{"type":"Polygon","coordinates":[[[103.72491181600009,15.359942727000032],[103.69086368600006,15.334640085000046],[103.66399193500007,15.359960457000057],[103.61710730500005,15.30257699200007],[103.61234534700009,15.272725300000047],[103.63607289800007,15.26582660500003],[103.68557998100005,15.263422038000044],[103.72997723900005,15.287137728000062],[103.72491181600009,15.359942727000032]]]}},{"type":"Feature","properties":{"code":"320502","name":"ทมอ","parentCode":"3205"},"geometry":{"type":"Polygon","coordinates":[[[103.50122728400004,14.750190330000066],[103.46037232700007,14.742668851000076],[103.44774425400004,14.691109039000025],[103.53646523900005,14.71092928400003],[103.53497133800005,14.71978556700003],[103.50122728400004,14.750190330000066]]]}},{"type":"Feature","properties":{"code":"320716","name":"ทับใหญ่","parentCode":"3207"},"geometry":{"type":"Polygon","coordinates":[[[103.92537374100004,15.438049956000043],[103.89314940300005,15.464877873000034],[103.87178644400007,15.463490174000071],[103.85964921400006,15.367449575000023],[103.88104005800005,15.359974932000057],[103.89816853000008,15.36368423700003],[103.92537374100004,15.438049956000043]]]}},{"type":"Feature","properties":{"code":"321012","name":"ทับทัน","parentCode":"3210"},"geometry":{"type":"Polygon","coordinates":[[[103.81798764200005,14.690558791000058],[103.76902979500005,14.727509633000068],[103.75340083900005,14.684630885000047],[103.77245606600007,14.635328185000049],[103.80248973700009,14.637187180000069],[103.81798764200005,14.690558791000058]]]}},{"type":"Feature","properties":{"code":"320702","name":"ธาตุ","parentCode":"3207"},"geometry":{"type":"Polygon","coordinates":[[[103.97126604000005,15.325887427000055],[103.93470272600007,15.362221082000076],[103.91445379600003,15.294014966000077],[103.95473632700003,15.285921367000071],[103.97126604000005,15.325887427000055]]]}},{"type":"Feature","properties":{"code":"320116","name":"เทนมีย์","parentCode":"3201"},"geometry":{"type":"Polygon","coordinates":[[[103.57497907500004,14.815151547000028],[103.53224526900004,14.83768813000006],[103.51083344400007,14.805769938000026],[103.50122728400004,14.750190330000066],[103.53497133800005,14.71978556700003],[103.58300615700006,14.739579843000058],[103.55515119800003,14.763572838000073],[103.57497907500004,14.815151547000028]]]}},{"type":"Feature","properties":{"code":"321017","name":"เทพรักษา","parentCode":"3210"},"geometry":{"type":"Polygon","coordinates":[[[103.89532908100006,14.504696718000048],[103.81710846700008,14.56311534100007],[103.82944909400004,14.453915134000056],[103.90165866100006,14.379664974000036],[103.89348687700004,14.436469998000064],[103.89532908100006,14.504696718000048]]]}},{"type":"Feature","properties":{"code":"320310","name":"ทุ่งกุลา","parentCode":"3203"},"geometry":{"type":"Polygon","coordinates":[[[103.64009687000004,15.459929244000023],[103.59246155600005,15.46742740600007],[103.58559914700004,15.410702094000044],[103.65211553700004,15.387711867000064],[103.66399193500007,15.359960457000057],[103.69086368600006,15.334640085000046],[103.70351533900003,15.418750067000076],[103.72154529300008,15.439885665000077],[103.64009687000004,15.459929244000023]]]}},{"type":"Feature","properties":{"code":"320505","name":"ทุ่งมน","parentCode":"3205"},"geometry":{"type":"Polygon","coordinates":[[[103.27912506600006,14.775337622000052],[103.26629260600004,14.766658384000038],[103.25661848600004,14.682408718000033],[103.25322609600005,14.664422557000023],[103.25957025100007,14.656805409000071],[103.29758466600003,14.67967317700004],[103.28885669200008,14.736457684000072],[103.31914482900004,14.743401968000057],[103.27912506600006,14.775337622000052]]]}},{"type":"Feature","properties":{"code":"320905","name":"แตล","parentCode":"3209"},"geometry":{"type":"Polygon","coordinates":[[[103.74920128900004,15.05640470700007],[103.72340179400004,15.084255855000038],[103.67175402400005,15.045707458000038],[103.68446070200008,15.01270186000005],[103.68495243000007,14.98846261500006],[103.73675911200007,14.981772355000032],[103.74920128900004,15.05640470700007]]]}},{"type":"Feature","properties":{"code":"321104","name":"ตรำดม","parentCode":"3211"},"geometry":{"type":"Polygon","coordinates":[[[103.73886469100006,14.785577013000022],[103.70385365500005,14.776956532000042],[103.66721724600006,14.804166388000056],[103.64375377700009,14.751571257000023],[103.68240412100005,14.728749124000046],[103.73886469100006,14.785577013000022]]]}},{"type":"Feature","properties":{"code":"321105","name":"ตระเปียงเตีย","parentCode":"3211"},"geometry":{"type":"Polygon","coordinates":[[[103.76902979500005,14.727509633000068],[103.75923876100006,14.769316938000031],[103.72191819100004,14.693388198000036],[103.74586872100008,14.680882285000052],[103.75340083900005,14.684630885000047],[103.76902979500005,14.727509633000068]]]}},{"type":"Feature","properties":{"code":"320122","name":"ตระแสง","parentCode":"3201"},"geometry":{"type":"Polygon","coordinates":[[[103.45294031300006,14.841415478000044],[103.42729086000008,14.87645271200006],[103.37877851600007,14.875427261000027],[103.35369612700003,14.842768188000036],[103.37851026800007,14.827679447000037],[103.43929193100007,14.822900159000028],[103.45294031300006,14.841415478000044]]]}},{"type":"Feature","properties":{"code":"320914","name":"ตรมไพร","parentCode":"3209"},"geometry":{"type":"Polygon","coordinates":[[[103.78077458500007,14.901834458000053],[103.74842068000004,14.836247064000077],[103.76486168800005,14.809713429000055],[103.78790870900008,14.799110203000055],[103.80849236600005,14.876709389000041],[103.78077458500007,14.901834458000053]]]}},{"type":"Feature","properties":{"code":"321503","name":"ตรวจ","parentCode":"3215"},"geometry":{"type":"Polygon","coordinates":[[[103.92325141000003,14.892818347000059],[103.86757005400005,14.890454152000075],[103.81859955700008,14.795392525000068],[103.84486502000004,14.779152239000041],[103.87324828300007,14.795142879000025],[103.91493975700007,14.831402032000028],[103.92325141000003,14.892818347000059]]]}},{"type":"Feature","properties":{"code":"320902","name":"ตรึม","parentCode":"3209"},"geometry":{"type":"Polygon","coordinates":[[[103.89240824600006,15.015611988000046],[103.87511254700007,15.066422479000039],[103.79636841200005,15.050925457000062],[103.80182663600004,15.034646441000064],[103.81258688000008,14.997573785000043],[103.89240824600006,15.015611988000046]]]}},{"type":"Feature","properties":{"code":"321103","name":"อู่โลก","parentCode":"3211"},"geometry":{"type":"Polygon","coordinates":[[[103.72191819100004,14.693388198000036],[103.68120239200005,14.718075278000072],[103.63532993900009,14.661927922000075],[103.64007669600005,14.634095116000026],[103.71531445900007,14.650100183000063],[103.74586872100008,14.680882285000052],[103.72191819100004,14.693388198000036]]]}},{"type":"Feature","properties":{"code":"320904","name":"ยาง","parentCode":"3209"},"geometry":{"type":"Polygon","coordinates":[[[103.90561342200004,14.950212689000068],[103.89481555200007,14.996384990000024],[103.80616938400004,14.952988332000075],[103.80808988900009,14.919923983000047],[103.87687908300006,14.958311929000047],[103.90561342200004,14.950212689000068]]]}},{"type":"Feature","properties":{"code":"320715","name":"ยางสว่าง","parentCode":"3207"},"geometry":{"type":"Polygon","coordinates":[[[104.02565318700005,15.32854584200004],[103.97126604000005,15.325887427000055],[103.95473632700003,15.285921367000071],[103.97234216000004,15.279155166000066],[104.01524377900006,15.289547106000043],[104.02874778000006,15.324203909000062],[104.02565318700005,15.32854584200004]]]}},{"type":"Feature","properties":{"code":"320205","name":"ยะวึก","parentCode":"3202"},"geometry":{"type":"Polygon","coordinates":[[[103.25360556400005,15.400454603000071],[103.21261045400007,15.406947390000028],[103.18534076500003,15.366236191000041],[103.21003302100007,15.331705462000059],[103.23532815300007,15.319540618000076],[103.26764850900008,15.317579094000052],[103.28026285300007,15.343131928000048],[103.25360556400005,15.400454603000071]]]}}]}