{"type":"FeatureCollection","features":[{"type":"Feature","properties":{"code":"330802","name":"บักดอง","parentCode":"3308"},"geometry":{"type":"Polygon","coordinates":[[[104.53833000700007,14.552869526000052],[104.48554835100003,14.547350610000024],[104.45368483100003,14.601924948000033],[104.42639192400009,14.587616869000044],[104.40034986000006,14.529331282000044],[104.39152211600003,14.456175852000058],[104.34660286700006,14.368127260000051],[104.40032311200008,14.372746747000065],[104.47343424200005,14.346903463000046],[104.49824920000003,14.373393718000045],[104.50697867300005,14.452142442000024],[104.49270048600005,14.482248801000026],[104.52153857300004,14.52997158100004],[104.53833000700007,14.552869526000052]]]}},{"type":"Feature","properties":{"code":"331604","name":"บ่อแก้ว","parentCode":"3316"},"geometry":{"type":"Polygon","coordinates":[[[104.29948044100007,15.025789073000055],[104.24969899000007,15.013029108000069],[104.23923621800009,14.992164917000025],[104.23962224700006,14.974312249000036],[104.29858641100009,14.971319335000032],[104.30054114100005,15.015263064000067],[104.29948044100007,15.025789073000055]]]}},{"type":"Feature","properties":{"code":"331302","name":"บก","parentCode":"3313"},"geometry":{"type":"Polygon","coordinates":[[[104.67199106500004,15.021854965000045],[104.63346404800006,15.006402549000029],[104.62300964000008,15.005519269000047],[104.59744130200005,14.947354046000044],[104.67671984500004,14.928621957000075],[104.68478665200007,14.95892991900007],[104.68439695700005,14.986140048000038],[104.67199106500004,15.021854965000045]]]}},{"type":"Feature","properties":{"code":"331601","name":"บุสูง","parentCode":"3316"},"geometry":{"type":"Polygon","coordinates":[[[104.13105716500007,15.00991863300004],[104.11505557400005,14.987040192000052],[104.12534540400009,14.94471984200004],[104.13437265700009,14.931466015000069],[104.22888152600007,14.938306081000064],[104.23906197300005,14.948426077000022],[104.23962224700006,14.974312249000036],[104.14843053500005,14.97497949600006],[104.13105716500007,15.00991863300004]]]}},{"type":"Feature","properties":{"code":"330910","name":"บัวหุ่ง","parentCode":"3309"},"geometry":{"type":"Polygon","coordinates":[[[104.09079641100004,15.34843677200007],[104.06399142100008,15.34950810500004],[104.07944986600006,15.322567050000032],[104.11439532500003,15.281854687000077],[104.14046027100005,15.269051967000053],[104.14002785300005,15.324687852000068],[104.13206522900003,15.342693976000078],[104.09079641100004,15.34843677200007]]]}},{"type":"Feature","properties":{"code":"330311","name":"บัวน้อย","parentCode":"3303"},"geometry":{"type":"Polygon","coordinates":[[[104.51019948200008,15.166719061000038],[104.46388593800003,15.223189665000064],[104.46294457500005,15.220207584000036],[104.43171981300009,15.150708955000027],[104.47485281600007,15.13328337300004],[104.52600752900008,15.156014381000034],[104.51019948200008,15.166719061000038]]]}},{"type":"Feature","properties":{"code":"330206","name":"บึงบอน","parentCode":"3302"},"geometry":{"type":"Polygon","coordinates":[[[104.48280729500004,15.267853125000045],[104.43549357300009,15.283199254000067],[104.40393998700006,15.23528503500006],[104.46294457500005,15.220207584000036],[104.46388593800003,15.223189665000064],[104.48280729500004,15.267853125000045]]]}},{"type":"Feature","properties":{"code":"331102","name":"บึงบูรพ์","parentCode":"3311"},"geometry":{"type":"Polygon","coordinates":[[[104.02874778000006,15.324203909000062],[104.07944986600006,15.322567050000032],[104.06399142100008,15.34950810500004],[104.02565318700005,15.32854584200004],[104.02874778000006,15.324203909000062]]]}},{"type":"Feature","properties":{"code":"330401","name":"บึงมะลู","parentCode":"3304"},"geometry":{"type":"Polygon","coordinates":[[[104.74974153400007,14.569909039000038],[104.71286682700008,14.576118897000072],[104.65024063000004,14.552527399000041],[104.65510601500006,14.496383054000034],[104.77175468400009,14.503884406000054],[104.76213217200007,14.564323213000023],[104.74974153400007,14.569909039000038]]]}},{"type":"Feature","properties":{"code":"330502","name":"จะกง","parentCode":"3305"},"geometry":{"type":"Polygon","coordinates":[[[104.28862705400007,14.798922796000056],[104.28346303000006,14.855886811000062],[104.21997150100003,14.840400956000053],[104.21658234200004,14.817808637000041],[104.22468038700003,14.791653587000042],[104.28862705400007,14.798922796000056]]]}},{"type":"Feature","properties":{"code":"330503","name":"ใจดี","parentCode":"3305"},"geometry":{"type":"Polygon","coordinates":[[[104.17722990800007,14.781559740000034],[104.12822171400006,14.773855003000051],[104.11959184500006,14.767879588000028],[104.10308209000004,14.736092979000034],[104.19304419100007,14.735196275000021],[104.17722990800007,14.781559740000034]]]}},{"type":"Feature","properties":{"code":"330413","name":"ชำ","parentCode":"3304"},"geometry":{"type":"Polygon","coordinates":[[[104.62011206800008,14.55956530800006],[104.53582394300008,14.579492091000077],[104.53833000700007,14.552869526000052],[104.52153857300004,14.52997158100004],[104.55475303200006,14.537337896000054],[104.59639714500008,14.505604273000074],[104.62011206800008,14.55956530800006]]]}},{"type":"Feature","properties":{"code":"330105","name":"จาน","parentCode":"3301"},"geometry":{"type":"Polygon","coordinates":[[[104.40891864900004,15.026419704000034],[104.40065879100007,15.038954742000044],[104.39523689500004,15.036105397000028],[104.36445821700005,14.993514336000032],[104.37664673100005,14.968650632000049],[104.40355998400008,14.971154851000051],[104.42308662700003,14.977565273000039],[104.40891864900004,15.026419704000034]]]}},{"type":"Feature","properties":{"code":"330315","name":"จาน","parentCode":"3303"},"geometry":{"type":"Polygon","coordinates":[[[104.49790206100005,14.950142006000021],[104.55756093100007,14.97684451300006],[104.56355444800005,15.006660530000033],[104.50865790000006,15.028375655000048],[104.47014845600006,15.008204868000064],[104.49790206100005,14.950142006000021]]]}},{"type":"Feature","properties":{"code":"331205","name":"จานแสนไชย","parentCode":"3312"},"geometry":{"type":"Polygon","coordinates":[[[104.05572449200008,15.00023374400007],[103.99808625900005,15.007179294000025],[103.98108649500006,14.97478910600006],[104.05258936800004,14.952262998000037],[104.05572449200008,15.00023374400007]]]}},{"type":"Feature","properties":{"code":"330411","name":"จานใหญ่","parentCode":"3304"},"geometry":{"type":"Polygon","coordinates":[[[104.67378584400007,14.771243511000023],[104.64252130900007,14.788606392000077],[104.63799732700005,14.785351524000077],[104.62476476200004,14.693785869000067],[104.69956999900006,14.689483703000064],[104.68389543900008,14.734190907000027],[104.67378584400007,14.771243511000023]]]}},{"type":"Feature","properties":{"code":"330906","name":"จิกสังข์ทอง","parentCode":"3309"},"geometry":{"type":"Polygon","coordinates":[[[104.15881407900008,15.453929036000034],[104.10781130900006,15.458779228000026],[104.09497141400004,15.429675090000046],[104.12650085300004,15.412265575000049],[104.15881407900008,15.453929036000034]]]}},{"type":"Feature","properties":{"code":"332204","name":"โจดม่วง","parentCode":"3322"},"geometry":{"type":"Polygon","coordinates":[[[104.17112029300006,15.472411446000024],[104.14117081300009,15.503356647000032],[104.11596615300004,15.489134662000026],[104.10781130900006,15.458779228000026],[104.15881407900008,15.453929036000034],[104.17112029300006,15.472411446000024]]]}},{"type":"Feature","properties":{"code":"330907","name":"ด่าน","parentCode":"3309"},"geometry":{"type":"Polygon","coordinates":[[[104.06002586800008,15.405215180000027],[104.06291690300009,15.411848165000038],[104.02037911900004,15.470515704000036],[104.00002230400008,15.452368092000029],[103.98900059900006,15.406978390000063],[104.06002586800008,15.405215180000027]]]}},{"type":"Feature","properties":{"code":"330602","name":"ดินแดง","parentCode":"3306"},"geometry":{"type":"Polygon","coordinates":[[[104.31257903200009,14.832321482000054],[104.28346303000006,14.855886811000062],[104.28862705400007,14.798922796000056],[104.30729095800007,14.77114561600007],[104.33591857700009,14.796590243000026],[104.32688381200006,14.82540270000004],[104.31257903200009,14.832321482000054]]]}},{"type":"Feature","properties":{"code":"330504","name":"ดองกำเม็ด","parentCode":"3305"},"geometry":{"type":"Polygon","coordinates":[[[104.22468038700003,14.791653587000042],[104.21658234200004,14.817808637000041],[104.17744867500005,14.799678635000078],[104.17722990800007,14.781559740000034],[104.19304419100007,14.735196275000021],[104.22636341900005,14.750837949000072],[104.22468038700003,14.791653587000042]]]}},{"type":"Feature","properties":{"code":"331706","name":"ดงรัก","parentCode":"3317"},"geometry":{"type":"Polygon","coordinates":[[[104.25676473800007,14.49531896800005],[104.14757131600004,14.52459736000003],[104.13427984700007,14.486771945000044],[104.11829589800004,14.372343526000066],[104.21633600700005,14.366608762000055],[104.27679124200006,14.408464510000044],[104.25676473800007,14.49531896800005]]]}},{"type":"Feature","properties":{"code":"332101","name":"โดด","parentCode":"3321"},"geometry":{"type":"Polygon","coordinates":[[[104.09702217800009,15.217921705000037],[104.06313062300006,15.24491917100005],[104.04507339400004,15.221472949000031],[104.06813320000003,15.180210174000024],[104.09391720800005,15.163167189000035],[104.11075427400004,15.182574483000053],[104.10996105900006,15.189120187000071],[104.09702217800009,15.217921705000037]]]}},{"type":"Feature","properties":{"code":"330313","name":"ดู่","parentCode":"3303"},"geometry":{"type":"Polygon","coordinates":[[[104.51800786700005,15.090764227000022],[104.47736939600009,15.125209384000073],[104.47948666300005,15.100511391000055],[104.46753203600008,15.067004324000038],[104.48928757900006,15.065340057000071],[104.51800786700005,15.090764227000022]]]}},{"type":"Feature","properties":{"code":"330708","name":"ดู่","parentCode":"3307"},"geometry":{"type":"Polygon","coordinates":[[[103.99938704300007,14.747853317000022],[104.04098258300007,14.759272016000068],[104.03592087900006,14.801189116000046],[104.00186659600007,14.829375680000055],[103.97079314000007,14.811423799000067],[103.97256791600006,14.810878313000046],[103.99938704300007,14.747853317000022]]]}},{"type":"Feature","properties":{"code":"330908","name":"ดู่","parentCode":"3309"},"geometry":{"type":"Polygon","coordinates":[[[104.19342111500004,15.458590711000056],[104.17112029300006,15.472411446000024],[104.15881407900008,15.453929036000034],[104.12650085300004,15.412265575000049],[104.15222717000006,15.382992397000066],[104.16680178400009,15.379684902000065],[104.20589666300003,15.438825884000039],[104.19342111500004,15.458590711000056]]]}},{"type":"Feature","properties":{"code":"331603","name":"ดวนใหญ่","parentCode":"3316"},"geometry":{"type":"Polygon","coordinates":[[[104.29858641100009,14.971319335000032],[104.23962224700006,14.974312249000036],[104.23906197300005,14.948426077000022],[104.26045873200007,14.907667066000045],[104.29956485700006,14.940110065000056],[104.30074577700009,14.962955613000076],[104.29858641100009,14.971319335000032]]]}},{"type":"Feature","properties":{"code":"330301","name":"ดูน","parentCode":"3303"},"geometry":{"type":"Polygon","coordinates":[[[104.58899438700007,15.086293338000075],[104.60102900800007,15.145734780000055],[104.55637536900008,15.141531790000045],[104.55016861900003,15.100359954000055],[104.58661425800005,15.079779389000066],[104.58899438700007,15.086293338000075]]]}},{"type":"Feature","properties":{"code":"331011","name":"หัวช้าง","parentCode":"3310"},"geometry":{"type":"Polygon","coordinates":[[[104.14046027100005,15.269051967000053],[104.11439532500003,15.281854687000077],[104.09621298100006,15.276429241000073],[104.10121170100007,15.269033238000077],[104.12526204000005,15.23459882800006],[104.14445983400009,15.221565585000064],[104.16766011100003,15.242804567000064],[104.14046027100005,15.269051967000053]]]}},{"type":"Feature","properties":{"code":"330511","name":"หัวเสือ","parentCode":"3305"},"geometry":{"type":"Polygon","coordinates":[[[104.21842122900006,14.856725446000041],[104.14242370600005,14.83917675400005],[104.17744867500005,14.799678635000078],[104.21658234200004,14.817808637000041],[104.21997150100003,14.840400956000053],[104.21842122900006,14.856725446000041]]]}},{"type":"Feature","properties":{"code":"330812","name":"ห้วยจันทร์","parentCode":"3308"},"geometry":{"type":"Polygon","coordinates":[[[104.40034986000006,14.529331282000044],[104.39354913400007,14.587801179000053],[104.37783297700008,14.592665709000073],[104.38730933600004,14.576327566000032],[104.33472465700004,14.519446094000045],[104.30906205100007,14.425703809000026],[104.32230395800008,14.372870766000062],[104.34660286700006,14.368127260000051],[104.39152211600003,14.456175852000058],[104.40034986000006,14.529331282000044]]]}},{"type":"Feature","properties":{"code":"330509","name":"ห้วยเหนือ","parentCode":"3305"},"geometry":{"type":"Polygon","coordinates":[[[104.25372252300008,14.751058146000048],[104.22636341900005,14.750837949000072],[104.19304419100007,14.735196275000021],[104.18236589500003,14.699270412000033],[104.19598700000006,14.698092332000044],[104.22386250500006,14.712623502000042],[104.27160659900005,14.745507008000061],[104.25372252300008,14.751058146000048]]]}},{"type":"Feature","properties":{"code":"330522","name":"ห้วยสำราญ","parentCode":"3305"},"geometry":{"type":"Polygon","coordinates":[[[104.18236589500003,14.699270412000033],[104.19304419100007,14.735196275000021],[104.10308209000004,14.736092979000034],[104.08835892400003,14.702743554000051],[104.15499552200004,14.681315178000034],[104.18236589500003,14.699270412000033]]]}},{"type":"Feature","properties":{"code":"331702","name":"ห้วยตามอญ","parentCode":"3317"},"geometry":{"type":"Polygon","coordinates":[[[104.08692585300008,14.542659036000032],[104.05164027100005,14.572445122000033],[104.03241897700008,14.545514096000034],[104.04572508100006,14.495418895000057],[104.05365911100006,14.494629927000062],[104.13427984700007,14.486771945000044],[104.08692585300008,14.542659036000032]]]}},{"type":"Feature","properties":{"code":"330510","name":"ห้วยใต้","parentCode":"3305"},"geometry":{"type":"Polygon","coordinates":[[[104.19598700000006,14.698092332000044],[104.18236589500003,14.699270412000033],[104.15499552200004,14.681315178000034],[104.14503172400003,14.637008433000062],[104.19187901900005,14.630616289000045],[104.20804075800004,14.637702581000042],[104.20474768600008,14.657460245000038],[104.19598700000006,14.698092332000044]]]}},{"type":"Feature","properties":{"code":"331201","name":"ห้วยทับทัน","parentCode":"3312"},"geometry":{"type":"Polygon","coordinates":[[[104.08329338900006,15.071118639000076],[104.06122738200008,15.088041622000048],[104.02007604200008,15.078658368000049],[104.01468029500006,15.052602385000057],[104.01882284300007,15.04197369600007],[104.08329338900006,15.071118639000076]]]}},{"type":"Feature","properties":{"code":"331703","name":"ห้วยตึ๊กชู","parentCode":"3317"},"geometry":{"type":"Polygon","coordinates":[[[104.13472860300004,14.63058200000006],[104.10280805000008,14.613886225000044],[104.08692585300008,14.542659036000032],[104.13427984700007,14.486771945000044],[104.14757131600004,14.52459736000003],[104.15262448500005,14.57353749300006],[104.13472860300004,14.63058200000006]]]}},{"type":"Feature","properties":{"code":"331002","name":"อี่หล่ำ","parentCode":"3310"},"geometry":{"type":"Polygon","coordinates":[[[104.21816584600003,15.20200772800007],[104.20708953000008,15.23650178500003],[104.20014868500004,15.23358410700007],[104.15765969900008,15.193143243000065],[104.16645809100004,15.181265402000065],[104.17118001600005,15.169810792000021],[104.21816584600003,15.20200772800007]]]}},{"type":"Feature","properties":{"code":"330310","name":"อีปาด","parentCode":"3303"},"geometry":{"type":"Polygon","coordinates":[[[104.52326882400007,15.252660624000043],[104.50416235300008,15.267662294000047],[104.48280729500004,15.267853125000045],[104.46388593800003,15.223189665000064],[104.51019948200008,15.166719061000038],[104.52326882400007,15.252660624000043]]]}},{"type":"Feature","properties":{"code":"332105","name":"อีเซ","parentCode":"3321"},"geometry":{"type":"Polygon","coordinates":[[[104.01524377900006,15.289547106000043],[103.97234216000004,15.279155166000066],[103.99682811900004,15.252214137000067],[104.02065633700005,15.241983616000027],[104.02893824300008,15.288904237000054],[104.01524377900006,15.289547106000043]]]}},{"type":"Feature","properties":{"code":"331001","name":"กำแพง","parentCode":"3310"},"geometry":{"type":"Polygon","coordinates":[[[104.15875570100008,15.119067952000023],[104.12324362900006,15.121375356000044],[104.13977146400003,15.089477548000048],[104.15665700300008,15.074297237000053],[104.17120698500008,15.096844056000066],[104.16763156700006,15.097616086000073],[104.15875570100008,15.119067952000023]]]}},{"type":"Feature","properties":{"code":"331003","name":"ก้านเหลือง","parentCode":"3310"},"geometry":{"type":"Polygon","coordinates":[[[104.12033947400005,15.071775273000071],[104.11825416100004,15.046580593000044],[104.13642708700007,15.013959753000051],[104.14921826100004,15.019521764000046],[104.17472498300003,15.046619906000046],[104.15665700300008,15.074297237000053],[104.13977146400003,15.089477548000048],[104.12033947400005,15.071775273000071]]]}},{"type":"Feature","properties":{"code":"330809","name":"กันทรอม","parentCode":"3308"},"geometry":{"type":"Polygon","coordinates":[[[104.37783297700008,14.592665709000073],[104.37685229200008,14.610517507000054],[104.34802746400004,14.600341234000041],[104.28473704900006,14.583140095000033],[104.28811152400004,14.516130834000023],[104.25567640700007,14.501712797000039],[104.25676473800007,14.49531896800005],[104.27679124200006,14.408464510000044],[104.32230395800008,14.372870766000062],[104.30906205100007,14.425703809000026],[104.33472465700004,14.519446094000045],[104.38730933600004,14.576327566000032],[104.37783297700008,14.592665709000073]]]}},{"type":"Feature","properties":{"code":"330501","name":"กันทรารมย์","parentCode":"3305"},"geometry":{"type":"Polygon","coordinates":[[[104.10308209000004,14.736092979000034],[104.04472125300003,14.745741506000059],[104.03529742900008,14.699054861000036],[104.07629418400006,14.683877886000062],[104.08835892400003,14.702743554000051],[104.10308209000004,14.736092979000034]]]}},{"type":"Feature","properties":{"code":"331015","name":"แข้","parentCode":"3310"},"geometry":{"type":"Polygon","coordinates":[[[104.23352432500008,15.069077808000031],[104.17120698500008,15.096844056000066],[104.15665700300008,15.074297237000053],[104.17472498300003,15.046619906000046],[104.21769352600006,15.051570297000069],[104.23352432500008,15.069077808000031]]]}},{"type":"Feature","properties":{"code":"331006","name":"แขม","parentCode":"3310"},"geometry":{"type":"Polygon","coordinates":[[[104.14445983400009,15.221565585000064],[104.12526204000005,15.23459882800006],[104.10996105900006,15.189120187000071],[104.11075427400004,15.182574483000053],[104.12241352000007,15.166000328000052],[104.16645809100004,15.181265402000065],[104.15765969900008,15.193143243000065],[104.14445983400009,15.221565585000064]]]}},{"type":"Feature","properties":{"code":"330320","name":"คำเนียม","parentCode":"3303"},"geometry":{"type":"Polygon","coordinates":[[[104.58661425800005,15.079779389000066],[104.55016861900003,15.100359954000055],[104.54088911100007,15.079979223000066],[104.62574168200007,15.039455633000046],[104.58661425800005,15.079779389000066]]]}},{"type":"Feature","properties":{"code":"330420","name":"ขนุน","parentCode":"3304"},"geometry":{"type":"Polygon","coordinates":[[[104.83682555600006,14.629702253000062],[104.77596930800007,14.644249419000062],[104.74974153400007,14.569909039000038],[104.76213217200007,14.564323213000023],[104.81896111700007,14.559403900000063],[104.83682555600006,14.629702253000062]]]}},{"type":"Feature","properties":{"code":"331008","name":"ขะยูง","parentCode":"3310"},"geometry":{"type":"Polygon","coordinates":[[[104.26842937700007,15.107158192000043],[104.24637499600004,15.160372967000058],[104.22323854300004,15.154498276000027],[104.20066039300008,15.12978647400007],[104.20167581900006,15.119010459000037],[104.25928127000009,15.09414802200007],[104.26842937700007,15.107158192000043]]]}},{"type":"Feature","properties":{"code":"332202","name":"คลีกลิ้ง","parentCode":"3322"},"geometry":{"type":"Polygon","coordinates":[[[104.12173508800004,15.563130354000066],[104.08552934900007,15.550517764000062],[104.06422024200003,15.521718023000062],[104.11596615300004,15.489134662000026],[104.14117081300009,15.503356647000032],[104.14118661900005,15.528667011000039],[104.12173508800004,15.563130354000066]]]}},{"type":"Feature","properties":{"code":"331504","name":"เขิน","parentCode":"3315"},"geometry":{"type":"Polygon","coordinates":[[[104.60095200300009,14.887651936000054],[104.55092455300007,14.882399087000067],[104.54753981500005,14.834709330000067],[104.60569155800005,14.816978324000047],[104.61286029500008,14.86787825700003],[104.60095200300009,14.887651936000054]]]}},{"type":"Feature","properties":{"code":"331025","name":"โคกจาน","parentCode":"3310"},"geometry":{"type":"Polygon","coordinates":[[[104.11505557400005,14.987040192000052],[104.08854785700004,14.995277758000043],[104.08760737600005,14.992470018000063],[104.09484664300004,14.938202029000024],[104.12534540400009,14.94471984200004],[104.11505557400005,14.987040192000052]]]}},{"type":"Feature","properties":{"code":"331024","name":"โคกหล่าม","parentCode":"3310"},"geometry":{"type":"Polygon","coordinates":[[[104.20014868500004,15.23358410700007],[104.16766011100003,15.242804567000064],[104.14445983400009,15.221565585000064],[104.15765969900008,15.193143243000065],[104.20014868500004,15.23358410700007]]]}},{"type":"Feature","properties":{"code":"330517","name":"โคกเพชร","parentCode":"3305"},"geometry":{"type":"Polygon","coordinates":[[[104.14242370600005,14.83917675400005],[104.13537605300007,14.85422679900006],[104.12740294700006,14.848731482000062],[104.12219745300007,14.783294226000066],[104.12822171400006,14.773855003000051],[104.17722990800007,14.781559740000034],[104.17744867500005,14.799678635000078],[104.14242370600005,14.83917675400005]]]}},{"type":"Feature","properties":{"code":"331701","name":"โคกตาล","parentCode":"3317"},"geometry":{"type":"Polygon","coordinates":[[[104.25567640700007,14.501712797000039],[104.24778494900005,14.579368871000042],[104.20619763400003,14.579008122000062],[104.15262448500005,14.57353749300006],[104.14757131600004,14.52459736000003],[104.25676473800007,14.49531896800005],[104.25567640700007,14.501712797000039]]]}},{"type":"Feature","properties":{"code":"330203","name":"คอนกาม","parentCode":"3302"},"geometry":{"type":"Polygon","coordinates":[[[104.37571576900007,15.259223599000052],[104.33105245200005,15.264049907000071],[104.33599001900006,15.20546207600006],[104.38568568000005,15.193341903000032],[104.38169504200005,15.202039652000053],[104.37699737800006,15.216206142000033],[104.37571576900007,15.259223599000052]]]}},{"type":"Feature","properties":{"code":"330103","name":"คูซอด","parentCode":"3301"},"geometry":{"type":"Polygon","coordinates":[[[104.29021354500009,15.247629577000055],[104.27401765300004,15.252022239000041],[104.24533577300008,15.226511735000031],[104.24571997400005,15.181352249000042],[104.26639158700004,15.182860033000054],[104.28519661900003,15.182991787000049],[104.31469965900004,15.216261727000074],[104.29021354500009,15.247629577000055]]]}},{"type":"Feature","properties":{"code":"330807","name":"ขุนหาญ","parentCode":"3308"},"geometry":{"type":"Polygon","coordinates":[[[104.39267865900007,14.62793007700003],[104.37196882900008,14.666735525000036],[104.34802746400004,14.600341234000041],[104.37685229200008,14.610517507000054],[104.39267865900007,14.62793007700003]]]}},{"type":"Feature","properties":{"code":"331506","name":"คูบ","parentCode":"3315"},"geometry":{"type":"Polygon","coordinates":[[[104.62300964000008,15.005519269000047],[104.56355444800005,15.006660530000033],[104.55756093100007,14.97684451300006],[104.49790206100005,14.950142006000021],[104.49301627800008,14.944450498000037],[104.60050595500007,14.94084672100007],[104.59744130200005,14.947354046000044],[104.62300964000008,15.005519269000047]]]}},{"type":"Feature","properties":{"code":"331203","name":"กล้วยกว้าง","parentCode":"3312"},"geometry":{"type":"Polygon","coordinates":[[[104.08760737600005,14.992470018000063],[104.05572449200008,15.00023374400007],[104.05258936800004,14.952262998000037],[104.05237769700005,14.940179421000039],[104.09484664300004,14.938202029000024],[104.08760737600005,14.992470018000063]]]}},{"type":"Feature","properties":{"code":"330414","name":"กระแชง","parentCode":"3304"},"geometry":{"type":"Polygon","coordinates":[[[104.58911433700007,14.61040551900004],[104.59823433600008,14.69284981800007],[104.58414344300007,14.720316318000073],[104.54250706800008,14.680991033000055],[104.51710163500007,14.648784598000077],[104.54352863300005,14.601723187000061],[104.58911433700007,14.61040551900004]]]}},{"type":"Feature","properties":{"code":"330806","name":"กระหวัน","parentCode":"3308"},"geometry":{"type":"Polygon","coordinates":[[[104.42594766300004,14.677315242000077],[104.42051942000006,14.707111653000027],[104.39566901100005,14.686484810000024],[104.36271985800005,14.673616742000036],[104.37196882900008,14.666735525000036],[104.39267865900007,14.62793007700003],[104.41366953800008,14.64140726100004],[104.43054381800005,14.664921202000073],[104.42594766300004,14.677315242000077]]]}},{"type":"Feature","properties":{"code":"330524","name":"กฤษณา","parentCode":"3305"},"geometry":{"type":"Polygon","coordinates":[[[104.29340360800006,14.887320812000041],[104.22123553400007,14.893397037000057],[104.21875860000006,14.894666534000066],[104.21842122900006,14.856725446000041],[104.21997150100003,14.840400956000053],[104.28346303000006,14.855886811000062],[104.29340360800006,14.887320812000041]]]}},{"type":"Feature","properties":{"code":"330702","name":"กู่","parentCode":"3307"},"geometry":{"type":"Polygon","coordinates":[[[103.93366218200003,14.892158678000044],[103.92325141000003,14.892818347000059],[103.91493975700007,14.831402032000028],[103.97079314000007,14.811423799000067],[104.00186659600007,14.829375680000055],[104.01751829800008,14.862978185000031],[104.01671399000008,14.875351605000048],[103.93366218200003,14.892158678000044]]]}},{"type":"Feature","properties":{"code":"332201","name":"กุง","parentCode":"3322"},"geometry":{"type":"Polygon","coordinates":[[[104.11596615300004,15.489134662000026],[104.06422024200003,15.521718023000062],[104.05997604300006,15.502419313000075],[104.06642561600006,15.416917460000036],[104.09497141400004,15.429675090000046],[104.10781130900006,15.458779228000026],[104.11596615300004,15.489134662000026]]]}},{"type":"Feature","properties":{"code":"330205","name":"กุดเมืองฮาม","parentCode":"3302"},"geometry":{"type":"Polygon","coordinates":[[[104.33599001900006,15.20546207600006],[104.33105245200005,15.264049907000071],[104.29021354500009,15.247629577000055],[104.31469965900004,15.216261727000074],[104.33599001900006,15.20546207600006]]]}},{"type":"Feature","properties":{"code":"330402","name":"กุดเสลา","parentCode":"3304"},"geometry":{"type":"Polygon","coordinates":[[[104.83797212400003,14.739614919000076],[104.81468744400007,14.730319884000039],[104.77596930800007,14.644249419000062],[104.83682555600006,14.629702253000062],[104.84836659000007,14.659076233000064],[104.89047839200003,14.651406331000032],[104.86100021800007,14.709127046000049],[104.83797212400003,14.739614919000076]]]}},{"type":"Feature","properties":{"code":"331502","name":"ละเอาะ","parentCode":"3315"},"geometry":{"type":"Polygon","coordinates":[[[104.49301627800008,14.944450498000037],[104.43135002800005,14.961143458000038],[104.44408181300008,14.902755027000069],[104.50889219200008,14.916265210000063],[104.49301627800008,14.944450498000037]]]}},{"type":"Feature","properties":{"code":"330407","name":"ละลาย","parentCode":"3304"},"geometry":{"type":"Polygon","coordinates":[[[104.59639714500008,14.505604273000074],[104.55475303200006,14.537337896000054],[104.52153857300004,14.52997158100004],[104.49270048600005,14.482248801000026],[104.50697867300005,14.452142442000024],[104.49824920000003,14.373393718000045],[104.58168670300006,14.356429405000029],[104.60754219600005,14.396531994000043],[104.59639714500008,14.505604273000074]]]}},{"type":"Feature","properties":{"code":"331704","name":"ละลม","parentCode":"3317"},"geometry":{"type":"Polygon","coordinates":[[[104.10280805000008,14.613886225000044],[104.05727489400005,14.621943053000052],[104.05852373700009,14.600611841000045],[104.05164027100005,14.572445122000033],[104.08692585300008,14.542659036000032],[104.10280805000008,14.613886225000044]]]}},{"type":"Feature","properties":{"code":"331305","name":"เหล่ากวาง","parentCode":"3313"},"geometry":{"type":"Polygon","coordinates":[[[104.67889361700009,14.902239383000051],[104.60136704200005,14.901133901000037],[104.60095200300009,14.887651936000054],[104.61286029500008,14.86787825700003],[104.61749608500008,14.864624703000061],[104.67468278400008,14.857229550000056],[104.67889361700009,14.902239383000051]]]}},{"type":"Feature","properties":{"code":"330308","name":"ละทาย","parentCode":"3303"},"geometry":{"type":"Polygon","coordinates":[[[104.60314180600005,15.199870904000022],[104.57709135100004,15.245562006000057],[104.55637536900008,15.141531790000045],[104.60102900800007,15.145734780000055],[104.60195899400009,15.153811611000037],[104.59989679100005,15.184943825000062],[104.60314180600005,15.199870904000022]]]}},{"type":"Feature","properties":{"code":"330202","name":"ลิ้นฟ้า","parentCode":"3302"},"geometry":{"type":"Polygon","coordinates":[[[104.43171981300009,15.150708955000027],[104.46294457500005,15.220207584000036],[104.41196306700004,15.193326006000063],[104.38169504200005,15.202039652000053],[104.38568568000005,15.193341903000032],[104.38518236800007,15.157917651000048],[104.42074657100005,15.146008365000057],[104.43171981300009,15.150708955000027]]]}},{"type":"Feature","properties":{"code":"330525","name":"ลมศักดิ์","parentCode":"3305"},"geometry":{"type":"Polygon","coordinates":[[[104.30729095800007,14.77114561600007],[104.28862705400007,14.798922796000056],[104.25372252300008,14.751058146000048],[104.27160659900005,14.745507008000061],[104.29742526000007,14.737583777000054],[104.31045661000007,14.750281419000032],[104.30729095800007,14.77114561600007]]]}},{"type":"Feature","properties":{"code":"330124","name":"หมากเขียบ","parentCode":"3301"},"geometry":{"type":"Polygon","coordinates":[[[104.25908055600007,15.090428497000062],[104.23352432500008,15.069077808000031],[104.21769352600006,15.051570297000069],[104.24969899000007,15.013029108000069],[104.29948044100007,15.025789073000055],[104.29644719900006,15.04498436700004],[104.25908055600007,15.090428497000062]]]}},{"type":"Feature","properties":{"code":"330403","name":"เมือง","parentCode":"3304"},"geometry":{"type":"Polygon","coordinates":[[[104.65986915200006,14.626114361000077],[104.65022701400005,14.628955102000077],[104.62602691000006,14.558423273000074],[104.65024063000004,14.552527399000041],[104.71286682700008,14.576118897000072],[104.71168419000008,14.596925246000069],[104.65986915200006,14.626114361000077]]]}},{"type":"Feature","properties":{"code":"331801","name":"เมืองจันทร์","parentCode":"3318"},"geometry":{"type":"Polygon","coordinates":[[[104.09391720800005,15.163167189000035],[104.06813320000003,15.180210174000024],[104.02245137100005,15.171723112000052],[103.98333287900005,15.162250615000062],[103.99957753500007,15.137293796000051],[104.05175455100004,15.131823348000069],[104.09391720800005,15.163167189000035]]]}},{"type":"Feature","properties":{"code":"330902","name":"เมืองแคน","parentCode":"3309"},"geometry":{"type":"Polygon","coordinates":[[[104.25913762300007,15.371844013000043],[104.23286340900006,15.403150238000023],[104.18700926600008,15.349964458000045],[104.17223826500003,15.318227451000041],[104.19043670100007,15.304123633000074],[104.21984085800005,15.324488958000074],[104.25913762300007,15.371844013000043]]]}},{"type":"Feature","properties":{"code":"330901","name":"เมืองคง","parentCode":"3309"},"geometry":{"type":"Polygon","coordinates":[[[104.16680178400009,15.379684902000065],[104.15222717000006,15.382992397000066],[104.13206522900003,15.342693976000078],[104.14002785300005,15.324687852000068],[104.17223826500003,15.318227451000041],[104.18700926600008,15.349964458000045],[104.16680178400009,15.379684902000065]]]}},{"type":"Feature","properties":{"code":"331202","name":"เมืองหลวง","parentCode":"3312"},"geometry":{"type":"Polygon","coordinates":[[[104.09474168500009,15.047230773000024],[104.08329338900006,15.071118639000076],[104.01882284300007,15.04197369600007],[103.99808625900005,15.007179294000025],[104.05572449200008,15.00023374400007],[104.08760737600005,14.992470018000063],[104.08854785700004,14.995277758000043],[104.09474168500009,15.047230773000024]]]}},{"type":"Feature","properties":{"code":"330309","name":"เมืองน้อย","parentCode":"3303"},"geometry":{"type":"Polygon","coordinates":[[[104.57709135100004,15.245562006000057],[104.57608636300006,15.256015105000074],[104.52326882400007,15.252660624000043],[104.51019948200008,15.166719061000038],[104.52600752900008,15.156014381000034],[104.55637536900008,15.141531790000045],[104.57709135100004,15.245562006000057]]]}},{"type":"Feature","properties":{"code":"330101","name":"เมืองเหนือ","parentCode":"3301"},"geometry":{"type":"Polygon","coordinates":[[[104.34149203800007,15.114652765000073],[104.31786340800005,15.12097581100005],[104.31861984200003,15.118018757000073],[104.31856748600006,15.116946724000059],[104.34149203800007,15.114652765000073]]]}},{"type":"Feature","properties":{"code":"330102","name":"เมืองใต้","parentCode":"3301"},"geometry":{"type":"Polygon","coordinates":[[[104.34149203800007,15.114652765000073],[104.31856748600006,15.116946724000059],[104.31814663200004,15.114666401000022],[104.33282124900006,15.10009079200006],[104.34149203800007,15.114652765000073]]]}},{"type":"Feature","properties":{"code":"330122","name":"น้ำคำ","parentCode":"3301"},"geometry":{"type":"Polygon","coordinates":[[[104.33599001900006,15.20546207600006],[104.31469965900004,15.216261727000074],[104.28519661900003,15.182991787000049],[104.31688552100007,15.133899946000042],[104.36902191800004,15.118043801000056],[104.38518236800007,15.157917651000048],[104.38568568000005,15.193341903000032],[104.33599001900006,15.20546207600006]]]}},{"type":"Feature","properties":{"code":"331501","name":"น้ำเกลี้ยง","parentCode":"3315"},"geometry":{"type":"Polygon","coordinates":[[[104.60050595500007,14.94084672100007],[104.49301627800008,14.944450498000037],[104.50889219200008,14.916265210000063],[104.55092455300007,14.882399087000067],[104.60095200300009,14.887651936000054],[104.60136704200005,14.901133901000037],[104.60050595500007,14.94084672100007]]]}},{"type":"Feature","properties":{"code":"330406","name":"น้ำอ้อม","parentCode":"3304"},"geometry":{"type":"Polygon","coordinates":[[[104.69956999900006,14.689483703000064],[104.62476476200004,14.693785869000067],[104.65022701400005,14.628955102000077],[104.65986915200006,14.626114361000077],[104.69650779500006,14.681548792000058],[104.69956999900006,14.689483703000064]]]}},{"type":"Feature","properties":{"code":"330515","name":"นิคมพัฒนา","parentCode":"3305"},"geometry":{"type":"Polygon","coordinates":[[[104.25959614600004,14.66284028800004],[104.20474768600008,14.657460245000038],[104.20804075800004,14.637702581000042],[104.25007597700005,14.625017607000075],[104.25212891200005,14.644970779000062],[104.25959614600004,14.66284028800004]]]}},{"type":"Feature","properties":{"code":"331301","name":"โนนค้อ","parentCode":"3313"},"geometry":{"type":"Polygon","coordinates":[[[104.68478665200007,14.95892991900007],[104.67671984500004,14.928621957000075],[104.67889361700009,14.902239383000051],[104.67468278400008,14.857229550000056],[104.71877088900004,14.858255009000061],[104.75440686800005,14.920309183000029],[104.73486847000004,14.938227278000056],[104.68478665200007,14.95892991900007]]]}},{"type":"Feature","properties":{"code":"330204","name":"โนนคูณ","parentCode":"3302"},"geometry":{"type":"Polygon","coordinates":[[[104.36687053500003,15.32606428300005],[104.34548914200008,15.34188105100003],[104.32451996500004,15.284078202000046],[104.33105245200005,15.264049907000071],[104.37571576900007,15.259223599000052],[104.38222246900006,15.29466039700003],[104.36687053500003,15.32606428300005]]]}},{"type":"Feature","properties":{"code":"332004","name":"โนนเพ็ก","parentCode":"3320"},"geometry":{"type":"Polygon","coordinates":[[[104.35523368500009,14.948198985000033],[104.30074577700009,14.962955613000076],[104.29956485700006,14.940110065000056],[104.29935382900004,14.917167900000038],[104.36572497300006,14.90596763700006],[104.36971950300006,14.91347490100003],[104.35523368500009,14.948198985000033]]]}},{"type":"Feature","properties":{"code":"330606","name":"โนนปูน","parentCode":"3306"},"geometry":{"type":"Polygon","coordinates":[[[104.30057914800005,14.887146132000055],[104.29340360800006,14.887320812000041],[104.28346303000006,14.855886811000062],[104.31257903200009,14.832321482000054],[104.32003828400008,14.882690788000048],[104.30057914800005,14.887146132000055]]]}},{"type":"Feature","properties":{"code":"330415","name":"โนนสำราญ","parentCode":"3304"},"geometry":{"type":"Polygon","coordinates":[[[104.81896111700007,14.559403900000063],[104.76213217200007,14.564323213000023],[104.77175468400009,14.503884406000054],[104.77938887400006,14.495702546000075],[104.81765582500009,14.477787699000032],[104.84895364700009,14.509246314000052],[104.82721164600008,14.534739064000064],[104.81896111700007,14.559403900000063]]]}},{"type":"Feature","properties":{"code":"330302","name":"โนนสัง","parentCode":"3303"},"geometry":{"type":"Polygon","coordinates":[[[104.68942836500008,15.128171386000076],[104.60195899400009,15.153811611000037],[104.60102900800007,15.145734780000055],[104.58899438700007,15.086293338000075],[104.68636278400004,15.073976034000054],[104.68942836500008,15.128171386000076]]]}},{"type":"Feature","properties":{"code":"330808","name":"โนนสูง","parentCode":"3308"},"geometry":{"type":"Polygon","coordinates":[[[104.41366953800008,14.64140726100004],[104.39267865900007,14.62793007700003],[104.37685229200008,14.610517507000054],[104.37783297700008,14.592665709000073],[104.39354913400007,14.587801179000053],[104.40034986000006,14.529331282000044],[104.42639192400009,14.587616869000044],[104.41366953800008,14.64140726100004]]]}},{"type":"Feature","properties":{"code":"330312","name":"หนองบัว","parentCode":"3303"},"geometry":{"type":"Polygon","coordinates":[[[104.55637536900008,15.141531790000045],[104.52600752900008,15.156014381000034],[104.47485281600007,15.13328337300004],[104.47736939600009,15.125209384000073],[104.51800786700005,15.090764227000022],[104.54088911100007,15.079979223000066],[104.55016861900003,15.100359954000055],[104.55637536900008,15.141531790000045]]]}},{"type":"Feature","properties":{"code":"332203","name":"หนองบัวดง","parentCode":"3322"},"geometry":{"type":"Polygon","coordinates":[[[104.06642561600006,15.416917460000036],[104.05997604300006,15.502419313000075],[104.02037911900004,15.470515704000036],[104.06291690300009,15.411848165000038],[104.06642561600006,15.416917460000036]]]}},{"type":"Feature","properties":{"code":"330526","name":"หนองฉลอง","parentCode":"3305"},"geometry":{"type":"Polygon","coordinates":[[[104.25149719900008,14.682773851000036],[104.22386250500006,14.712623502000042],[104.19598700000006,14.698092332000044],[104.20474768600008,14.657460245000038],[104.25959614600004,14.66284028800004],[104.25149719900008,14.682773851000036]]]}},{"type":"Feature","properties":{"code":"330703","name":"หนองเชียงทูน","parentCode":"3307"},"geometry":{"type":"Polygon","coordinates":[[[104.13940773100006,14.911875113000065],[104.06670868200007,14.897028228000067],[104.06329224300003,14.835151240000073],[104.12740294700006,14.848731482000062],[104.13537605300007,14.85422679900006],[104.13756972200008,14.899961311000027],[104.13940773100006,14.911875113000065]]]}},{"type":"Feature","properties":{"code":"330119","name":"หนองไฮ","parentCode":"3301"},"geometry":{"type":"Polygon","coordinates":[[[104.45687476400008,15.017503985000076],[104.40891864900004,15.026419704000034],[104.42308662700003,14.977565273000039],[104.42456704300008,14.97748795800004],[104.45616226200008,15.008703880000041],[104.45687476400008,15.017503985000076]]]}},{"type":"Feature","properties":{"code":"331007","name":"หนองไฮ","parentCode":"3310"},"geometry":{"type":"Polygon","coordinates":[[[104.12241352000007,15.166000328000052],[104.11075427400004,15.182574483000053],[104.09391720800005,15.163167189000035],[104.05175455100004,15.131823348000069],[104.05520515300009,15.120804407000037],[104.09413768400009,15.127918880000038],[104.12324362900006,15.121375356000044],[104.12241352000007,15.166000328000052]]]}},{"type":"Feature","properties":{"code":"331018","name":"หนองห้าง","parentCode":"3310"},"geometry":{"type":"Polygon","coordinates":[[[104.12033947400005,15.071775273000071],[104.09413768400009,15.127918880000038],[104.05520515300009,15.120804407000037],[104.06122738200008,15.088041622000048],[104.08329338900006,15.071118639000076],[104.09474168500009,15.047230773000024],[104.11825416100004,15.046580593000044],[104.12033947400005,15.071775273000071]]]}},{"type":"Feature","properties":{"code":"331904","name":"หนองฮาง","parentCode":"3319"},"geometry":{"type":"Polygon","coordinates":[[[104.61749608500008,14.864624703000061],[104.61286029500008,14.86787825700003],[104.60569155800005,14.816978324000047],[104.58489280400005,14.787850941000045],[104.58916111000008,14.771647211000072],[104.63799732700005,14.785351524000077],[104.64252130900007,14.788606392000077],[104.64231390900005,14.811350090000076],[104.61749608500008,14.864624703000061]]]}},{"type":"Feature","properties":{"code":"330303","name":"หนองหัวช้าง","parentCode":"3303"},"geometry":{"type":"Polygon","coordinates":[[[104.68636278400004,15.073976034000054],[104.58899438700007,15.086293338000075],[104.58661425800005,15.079779389000066],[104.62574168200007,15.039455633000046],[104.63346404800006,15.006402549000029],[104.67199106500004,15.021854965000045],[104.68617225300005,15.07066756000006],[104.68636278400004,15.073976034000054]]]}},{"type":"Feature","properties":{"code":"330121","name":"หนองแก้ว","parentCode":"3301"},"geometry":{"type":"Polygon","coordinates":[[[104.47948666300005,15.100511391000055],[104.41111192900007,15.103494971000032],[104.37415662700005,15.091789378000044],[104.40057268900006,15.065080612000031],[104.46744539800005,15.065105668000058],[104.46753203600008,15.067004324000038],[104.47948666300005,15.100511391000055]]]}},{"type":"Feature","properties":{"code":"330306","name":"หนองแก้ว","parentCode":"3303"},"geometry":{"type":"Polygon","coordinates":[[[104.69915590600004,15.172486649000064],[104.59989679100005,15.184943825000062],[104.60195899400009,15.153811611000037],[104.68942836500008,15.128171386000076],[104.70516280400005,15.131579351000028],[104.72877816400006,15.154344399000024],[104.69915590600004,15.172486649000064]]]}},{"type":"Feature","properties":{"code":"332005","name":"หนองค้า","parentCode":"3320"},"geometry":{"type":"Polygon","coordinates":[[[104.36572497300006,14.90596763700006],[104.29935382900004,14.917167900000038],[104.30057914800005,14.887146132000055],[104.32003828400008,14.882690788000048],[104.35388671600003,14.876269026000045],[104.36572497300006,14.90596763700006]]]}},{"type":"Feature","properties":{"code":"330903","name":"หนองแค","parentCode":"3309"},"geometry":{"type":"Polygon","coordinates":[[[104.09497141400004,15.429675090000046],[104.06642561600006,15.416917460000036],[104.06291690300009,15.411848165000038],[104.06002586800008,15.405215180000027],[104.09079641100004,15.34843677200007],[104.13206522900003,15.342693976000078],[104.15222717000006,15.382992397000066],[104.12650085300004,15.412265575000049],[104.09497141400004,15.429675090000046]]]}},{"type":"Feature","properties":{"code":"330107","name":"หนองครก","parentCode":"3301"},"geometry":{"type":"Polygon","coordinates":[[[104.31814663200004,15.114666401000022],[104.26842937700007,15.107158192000043],[104.25928127000009,15.09414802200007],[104.25908055600007,15.090428497000062],[104.29644719900006,15.04498436700004],[104.33042694900007,15.071831515000042],[104.34235333200007,15.087544843000046],[104.33282124900006,15.10009079200006],[104.31814663200004,15.114666401000022]]]}},{"type":"Feature","properties":{"code":"331304","name":"หนองกุง","parentCode":"3313"},"geometry":{"type":"Polygon","coordinates":[[[104.78348945500005,14.897311964000039],[104.75440686800005,14.920309183000029],[104.71877088900004,14.858255009000061],[104.76235985600005,14.81591522900004],[104.79760925600004,14.810341085000061],[104.81447908500007,14.834552081000027],[104.81024307000007,14.878739138000071],[104.78348945500005,14.897311964000039]]]}},{"type":"Feature","properties":{"code":"332103","name":"หนองม้า","parentCode":"3321"},"geometry":{"type":"Polygon","coordinates":[[[104.10121170100007,15.269033238000077],[104.09621298100006,15.276429241000073],[104.05895515700007,15.266523625000048],[104.06313062300006,15.24491917100005],[104.09702217800009,15.217921705000037],[104.10121170100007,15.269033238000077]]]}},{"type":"Feature","properties":{"code":"330913","name":"หนองหมี","parentCode":"3309"},"geometry":{"type":"Polygon","coordinates":[[[104.32451996500004,15.284078202000046],[104.26656918700007,15.304248589000053],[104.27401765300004,15.252022239000041],[104.29021354500009,15.247629577000055],[104.33105245200005,15.264049907000071],[104.32451996500004,15.284078202000046]]]}},{"type":"Feature","properties":{"code":"331903","name":"หนองงูเหลือม","parentCode":"3319"},"geometry":{"type":"Polygon","coordinates":[[[104.67468278400008,14.857229550000056],[104.61749608500008,14.864624703000061],[104.64231390900005,14.811350090000076],[104.68889727300007,14.836523210000053],[104.75606207100009,14.816999231000068],[104.76235985600005,14.81591522900004],[104.71877088900004,14.858255009000061],[104.67468278400008,14.857229550000056]]]}},{"type":"Feature","properties":{"code":"330127","name":"หนองไผ่","parentCode":"3301"},"geometry":{"type":"Polygon","coordinates":[[[104.31861984200003,15.118018757000073],[104.29097647400005,15.125206326000068],[104.26639158700004,15.182860033000054],[104.24571997400005,15.181352249000042],[104.24637499600004,15.160372967000058],[104.26842937700007,15.107158192000043],[104.31814663200004,15.114666401000022],[104.31856748600006,15.116946724000059],[104.31861984200003,15.118018757000073]]]}},{"type":"Feature","properties":{"code":"330909","name":"หนองอึ่ง","parentCode":"3309"},"geometry":{"type":"Polygon","coordinates":[[[104.17223826500003,15.318227451000041],[104.14002785300005,15.324687852000068],[104.14046027100005,15.269051967000053],[104.16766011100003,15.242804567000064],[104.20014868500004,15.23358410700007],[104.20708953000008,15.23650178500003],[104.23341700300006,15.265228076000028],[104.19043670100007,15.304123633000074],[104.17223826500003,15.318227451000041]]]}},{"type":"Feature","properties":{"code":"331902","name":"หนองหว้า","parentCode":"3319"},"geometry":{"type":"Polygon","coordinates":[[[104.75024482400005,14.716038448000063],[104.76185901300005,14.795956868000076],[104.73866583000006,14.800690073000055],[104.67378584400007,14.771243511000023],[104.68389543900008,14.734190907000027],[104.73980374600006,14.705671038000048],[104.75024482400005,14.716038448000063]]]}},{"type":"Feature","properties":{"code":"330305","name":"หนองแวง","parentCode":"3303"},"geometry":{"type":"Polygon","coordinates":[[[104.69044941200008,15.22524984100005],[104.64740801000005,15.238556257000027],[104.63111682100003,15.192853784000022],[104.60314180600005,15.199870904000022],[104.59989679100005,15.184943825000062],[104.69915590600004,15.172486649000064],[104.71420010500009,15.182596922000073],[104.69044941200008,15.22524984100005]]]}},{"type":"Feature","properties":{"code":"330416","name":"หนองหญ้าลาด","parentCode":"3304"},"geometry":{"type":"Polygon","coordinates":[[[104.62476476200004,14.693785869000067],[104.59823433600008,14.69284981800007],[104.58911433700007,14.61040551900004],[104.65022701400005,14.628955102000077],[104.62476476200004,14.693785869000067]]]}},{"type":"Feature","properties":{"code":"331803","name":"หนองใหญ่","parentCode":"3318"},"geometry":{"type":"Polygon","coordinates":[[[104.04507339400004,15.221472949000031],[104.02740232700006,15.233481809000068],[104.02245137100005,15.171723112000052],[104.06813320000003,15.180210174000024],[104.04507339400004,15.221472949000031]]]}},{"type":"Feature","properties":{"code":"331017","name":"ปะอาว","parentCode":"3310"},"geometry":{"type":"Polygon","coordinates":[[[104.25928127000009,15.09414802200007],[104.20167581900006,15.119010459000037],[104.16763156700006,15.097616086000073],[104.17120698500008,15.096844056000066],[104.23352432500008,15.069077808000031],[104.25908055600007,15.090428497000062],[104.25928127000009,15.09414802200007]]]}},{"type":"Feature","properties":{"code":"330911","name":"ไผ่","parentCode":"3309"},"geometry":{"type":"Polygon","coordinates":[[[104.28612166400006,15.356589920000033],[104.25913762300007,15.371844013000043],[104.21984085800005,15.324488958000074],[104.26656918700007,15.304248589000053],[104.29362841700004,15.346960198000033],[104.28612166400006,15.356589920000033]]]}},{"type":"Feature","properties":{"code":"331204","name":"ผักไหม","parentCode":"3312"},"geometry":{"type":"Polygon","coordinates":[[[103.98108649500006,14.97478910600006],[103.96646994700006,14.971762685000044],[103.95600923900008,14.937722488000077],[103.99845246000007,14.926580259000048],[104.03400881600004,14.925498609000044],[104.05237769700005,14.940179421000039],[104.05258936800004,14.952262998000037],[103.98108649500006,14.97478910600006]]]}},{"type":"Feature","properties":{"code":"330314","name":"ผักแพว","parentCode":"3303"},"geometry":{"type":"Polygon","coordinates":[[[104.48928757900006,15.065340057000071],[104.46753203600008,15.067004324000038],[104.46744539800005,15.065105668000058],[104.45687476400008,15.017503985000076],[104.45616226200008,15.008703880000041],[104.47014845600006,15.008204868000064],[104.50865790000006,15.028375655000048],[104.56355444800005,15.006660530000033],[104.54134682700004,15.049488868000026],[104.48928757900006,15.065340057000071]]]}},{"type":"Feature","properties":{"code":"332001","name":"พยุห์","parentCode":"3320"},"geometry":{"type":"Polygon","coordinates":[[[104.40106728200004,14.895227111000054],[104.40355998400008,14.971154851000051],[104.37664673100005,14.968650632000049],[104.35523368500009,14.948198985000033],[104.36971950300006,14.91347490100003],[104.40106728200004,14.895227111000054]]]}},{"type":"Feature","properties":{"code":"330701","name":"พิมาย","parentCode":"3307"},"geometry":{"type":"Polygon","coordinates":[[[104.05939969500008,14.836362807000057],[104.01751829800008,14.862978185000031],[104.00186659600007,14.829375680000055],[104.03592087900006,14.801189116000046],[104.06044141800004,14.818885819000059],[104.05939969500008,14.836362807000057]]]}},{"type":"Feature","properties":{"code":"330710","name":"พิมายเหนือ","parentCode":"3307"},"geometry":{"type":"Polygon","coordinates":[[[104.06670868200007,14.897028228000067],[104.02326758400005,14.897462028000064],[104.01671399000008,14.875351605000048],[104.01751829800008,14.862978185000031],[104.05939969500008,14.836362807000057],[104.06329224300003,14.835151240000073],[104.06670868200007,14.897028228000067]]]}},{"type":"Feature","properties":{"code":"331402","name":"พิงพวย","parentCode":"3314"},"geometry":{"type":"Polygon","coordinates":[[[104.44781020500005,14.768715388000032],[104.38846127800008,14.798085997000044],[104.39937741200004,14.78315672900004],[104.41469778900006,14.736067603000038],[104.46836765900008,14.74159230600003],[104.44781020500005,14.768715388000032]]]}},{"type":"Feature","properties":{"code":"330123","name":"โพธิ์","parentCode":"3301"},"geometry":{"type":"Polygon","coordinates":[[[104.42074657100005,15.146008365000057],[104.38518236800007,15.157917651000048],[104.36902191800004,15.118043801000056],[104.31688552100007,15.133899946000042],[104.31786340800005,15.12097581100005],[104.34149203800007,15.114652765000073],[104.33282124900006,15.10009079200006],[104.34235333200007,15.087544843000046],[104.37415662700005,15.091789378000044],[104.41111192900007,15.103494971000032],[104.42074657100005,15.146008365000057]]]}},{"type":"Feature","properties":{"code":"331303","name":"โพธิ์","parentCode":"3313"},"geometry":{"type":"Polygon","coordinates":[[[104.67671984500004,14.928621957000075],[104.59744130200005,14.947354046000044],[104.60050595500007,14.94084672100007],[104.60136704200005,14.901133901000037],[104.67889361700009,14.902239383000051],[104.67671984500004,14.928621957000075]]]}},{"type":"Feature","properties":{"code":"331016","name":"โพธิ์ชัย","parentCode":"3310"},"geometry":{"type":"Polygon","coordinates":[[[104.24571997400005,15.181352249000042],[104.21816584600003,15.20200772800007],[104.17118001600005,15.169810792000021],[104.22323854300004,15.154498276000027],[104.24637499600004,15.160372967000058],[104.24571997400005,15.181352249000042]]]}},{"type":"Feature","properties":{"code":"330811","name":"โพธิ์กระสังข์","parentCode":"3308"},"geometry":{"type":"Polygon","coordinates":[[[104.34802746400004,14.600341234000041],[104.37196882900008,14.666735525000036],[104.36271985800005,14.673616742000036],[104.31333778200008,14.648453262000032],[104.29039116100006,14.614665261000027],[104.28473704900006,14.583140095000033],[104.34802746400004,14.600341234000041]]]}},{"type":"Feature","properties":{"code":"330706","name":"โพธิ์ศรี","parentCode":"3307"},"geometry":{"type":"Polygon","coordinates":[[[104.12219745300007,14.783294226000066],[104.06044141800004,14.818885819000059],[104.03592087900006,14.801189116000046],[104.04098258300007,14.759272016000068],[104.11959184500006,14.767879588000028],[104.12822171400006,14.773855003000051],[104.12219745300007,14.783294226000066]]]}},{"type":"Feature","properties":{"code":"330804","name":"โพธิ์วงศ์","parentCode":"3308"},"geometry":{"type":"Polygon","coordinates":[[[104.47583352900006,14.64378046400003],[104.48717852900006,14.684694927000066],[104.42594766300004,14.677315242000077],[104.43054381800005,14.664921202000073],[104.45139137400008,14.637906744000077],[104.47583352900006,14.64378046400003]]]}},{"type":"Feature","properties":{"code":"330111","name":"โพนข่า","parentCode":"3301"},"geometry":{"type":"Polygon","coordinates":[[[104.37415662700005,15.091789378000044],[104.34235333200007,15.087544843000046],[104.33042694900007,15.071831515000042],[104.36624509400008,15.03982030000003],[104.39523689500004,15.036105397000028],[104.40065879100007,15.038954742000044],[104.40057268900006,15.065080612000031],[104.37415662700005,15.091789378000044]]]}},{"type":"Feature","properties":{"code":"330112","name":"โพนค้อ","parentCode":"3301"},"geometry":{"type":"Polygon","coordinates":[[[104.39523689500004,15.036105397000028],[104.36624509400008,15.03982030000003],[104.34305902000006,15.010780891000024],[104.36445821700005,14.993514336000032],[104.39523689500004,15.036105397000028]]]}},{"type":"Feature","properties":{"code":"330115","name":"โพนเขวา","parentCode":"3301"},"geometry":{"type":"Polygon","coordinates":[[[104.47485281600007,15.13328337300004],[104.43171981300009,15.150708955000027],[104.42074657100005,15.146008365000057],[104.41111192900007,15.103494971000032],[104.47948666300005,15.100511391000055],[104.47736939600009,15.125209384000073],[104.47485281600007,15.13328337300004]]]}},{"type":"Feature","properties":{"code":"331608","name":"โพนยาง","parentCode":"3316"},"geometry":{"type":"Polygon","coordinates":[[[104.22888152600007,14.938306081000064],[104.13437265700009,14.931466015000069],[104.13375015000008,14.927623254000025],[104.21803548400004,14.90706814300006],[104.22888152600007,14.938306081000064]]]}},{"type":"Feature","properties":{"code":"330805","name":"ไพร","parentCode":"3308"},"geometry":{"type":"Polygon","coordinates":[[[104.49885491400005,14.737986440000043],[104.48849831300004,14.749871528000028],[104.46836765900008,14.74159230600003],[104.41469778900006,14.736067603000038],[104.42051942000006,14.707111653000027],[104.42594766300004,14.677315242000077],[104.48717852900006,14.684694927000066],[104.49885491400005,14.737986440000043]]]}},{"type":"Feature","properties":{"code":"330601","name":"ไพรบึง","parentCode":"3306"},"geometry":{"type":"Polygon","coordinates":[[[104.39937741200004,14.78315672900004],[104.33591857700009,14.796590243000026],[104.30729095800007,14.77114561600007],[104.31045661000007,14.750281419000032],[104.39566901100005,14.686484810000024],[104.42051942000006,14.707111653000027],[104.41469778900006,14.736067603000038],[104.39937741200004,14.78315672900004]]]}},{"type":"Feature","properties":{"code":"331707","name":"ไพรพัฒนา","parentCode":"3317"},"geometry":{"type":"Polygon","coordinates":[[[104.13427984700007,14.486771945000044],[104.05365911100006,14.494629927000062],[104.04361653900008,14.360928493000074],[104.05712228100003,14.343440557000065],[104.11829589800004,14.372343526000066],[104.13427984700007,14.486771945000044]]]}},{"type":"Feature","properties":{"code":"330803","name":"พราน","parentCode":"3308"},"geometry":{"type":"Polygon","coordinates":[[[104.54352863300005,14.601723187000061],[104.51710163500007,14.648784598000077],[104.47583352900006,14.64378046400003],[104.45139137400008,14.637906744000077],[104.45368483100003,14.601924948000033],[104.48554835100003,14.547350610000024],[104.53833000700007,14.552869526000052],[104.53582394300008,14.579492091000077],[104.54352863300005,14.601723187000061]]]}},{"type":"Feature","properties":{"code":"332002","name":"พรหมสวัสดิ์","parentCode":"3320"},"geometry":{"type":"Polygon","coordinates":[[[104.40106728200004,14.895227111000054],[104.36971950300006,14.91347490100003],[104.36572497300006,14.90596763700006],[104.35388671600003,14.876269026000045],[104.39938989800004,14.83118528600005],[104.42829211000009,14.82388863600005],[104.44817514200008,14.849071000000038],[104.44620967700007,14.860834607000072],[104.44347158000005,14.868151182000076],[104.40106728200004,14.895227111000054]]]}},{"type":"Feature","properties":{"code":"330810","name":"ภูฝ้าย","parentCode":"3308"},"geometry":{"type":"Polygon","coordinates":[[[104.54250706800008,14.680991033000055],[104.49885491400005,14.737986440000043],[104.48717852900006,14.684694927000066],[104.47583352900006,14.64378046400003],[104.51710163500007,14.648784598000077],[104.54250706800008,14.680991033000055]]]}},{"type":"Feature","properties":{"code":"330412","name":"ภูเงิน","parentCode":"3304"},"geometry":{"type":"Polygon","coordinates":[[[104.58489280400005,14.787850941000045],[104.55091786300005,14.782949866000024],[104.48849831300004,14.749871528000028],[104.49885491400005,14.737986440000043],[104.54250706800008,14.680991033000055],[104.58414344300007,14.720316318000073],[104.58916111000008,14.771647211000072],[104.58489280400005,14.787850941000045]]]}},{"type":"Feature","properties":{"code":"330425","name":"ภูผาหมอก","parentCode":"3304"},"geometry":{"type":"Polygon","coordinates":[[[104.88580950400006,14.427106512000023],[104.82854610000004,14.44275125400003],[104.85977121100007,14.471897128000023],[104.84895364700009,14.509246314000052],[104.81765582500009,14.477787699000032],[104.77938887400006,14.495702546000075],[104.78029665500009,14.426812256000062],[104.80676164400006,14.437040460000048],[104.84262534600003,14.40303646600006],[104.90710547700007,14.399177843000075],[104.88580950400006,14.427106512000023]]]}},{"type":"Feature","properties":{"code":"332104","name":"ผือใหญ่","parentCode":"3321"},"geometry":{"type":"Polygon","coordinates":[[[104.12526204000005,15.23459882800006],[104.10121170100007,15.269033238000077],[104.09702217800009,15.217921705000037],[104.10996105900006,15.189120187000071],[104.12526204000005,15.23459882800006]]]}},{"type":"Feature","properties":{"code":"331101","name":"เป๊าะ","parentCode":"3311"},"geometry":{"type":"Polygon","coordinates":[[[104.07944986600006,15.322567050000032],[104.02874778000006,15.324203909000062],[104.01524377900006,15.289547106000043],[104.02893824300008,15.288904237000054],[104.05895515700007,15.266523625000048],[104.09621298100006,15.276429241000073],[104.11439532500003,15.281854687000077],[104.07944986600006,15.322567050000032]]]}},{"type":"Feature","properties":{"code":"330518","name":"ปราสาท","parentCode":"3305"},"geometry":{"type":"Polygon","coordinates":[[[104.07629418400006,14.683877886000062],[104.03529742900008,14.699054861000036],[104.04472125300003,14.745741506000059],[104.04098258300007,14.759272016000068],[103.99938704300007,14.747853317000022],[104.00414033100009,14.72095702100006],[104.01146460300004,14.710440969000047],[104.05320103100007,14.656243086000075],[104.07629418400006,14.683877886000062]]]}},{"type":"Feature","properties":{"code":"331206","name":"ปราสาท","parentCode":"3312"},"geometry":{"type":"Polygon","coordinates":[[[104.05175455100004,15.131823348000069],[103.99957753500007,15.137293796000051],[103.99064957500008,15.123217225000076],[103.99233196700004,15.09009596900006],[104.02007604200008,15.078658368000049],[104.06122738200008,15.088041622000048],[104.05520515300009,15.120804407000037],[104.05175455100004,15.131823348000069]]]}},{"type":"Feature","properties":{"code":"330603","name":"ปราสาทเยอ","parentCode":"3306"},"geometry":{"type":"Polygon","coordinates":[[[104.39243837600009,14.829723770000044],[104.32688381200006,14.82540270000004],[104.33591857700009,14.796590243000026],[104.39937741200004,14.78315672900004],[104.38846127800008,14.798085997000044],[104.39243837600009,14.829723770000044]]]}},{"type":"Feature","properties":{"code":"330506","name":"ปรือใหญ่","parentCode":"3305"},"geometry":{"type":"Polygon","coordinates":[[[104.25007597700005,14.625017607000075],[104.20804075800004,14.637702581000042],[104.19187901900005,14.630616289000045],[104.20619763400003,14.579008122000062],[104.24778494900005,14.579368871000042],[104.25567640700007,14.501712797000039],[104.28811152400004,14.516130834000023],[104.28473704900006,14.583140095000033],[104.29039116100006,14.614665261000027],[104.25007597700005,14.625017607000075]]]}},{"type":"Feature","properties":{"code":"331012","name":"รังแร้ง","parentCode":"3310"},"geometry":{"type":"Polygon","coordinates":[[[104.24533577300008,15.226511735000031],[104.23341700300006,15.265228076000028],[104.20708953000008,15.23650178500003],[104.21816584600003,15.20200772800007],[104.24571997400005,15.181352249000042],[104.24533577300008,15.226511735000031]]]}},{"type":"Feature","properties":{"code":"330408","name":"รุง","parentCode":"3304"},"geometry":{"type":"Polygon","coordinates":[[[104.65024063000004,14.552527399000041],[104.62602691000006,14.558423273000074],[104.62011206800008,14.55956530800006],[104.59639714500008,14.505604273000074],[104.60754219600005,14.396531994000043],[104.64621344300008,14.422833756000045],[104.65510601500006,14.496383054000034],[104.65024063000004,14.552527399000041]]]}},{"type":"Feature","properties":{"code":"331505","name":"รุ่งระวี","parentCode":"3315"},"geometry":{"type":"Polygon","coordinates":[[[104.50889219200008,14.916265210000063],[104.44408181300008,14.902755027000069],[104.44347158000005,14.868151182000076],[104.44620967700007,14.860834607000072],[104.48159476300003,14.887083395000047],[104.52690882600007,14.858799610000062],[104.54753981500005,14.834709330000067],[104.55092455300007,14.882399087000067],[104.50889219200008,14.916265210000063]]]}},{"type":"Feature","properties":{"code":"331022","name":"สระกำแพงใหญ่","parentCode":"3310"},"geometry":{"type":"Polygon","coordinates":[[[104.09413768400009,15.127918880000038],[104.12033947400005,15.071775273000071],[104.13977146400003,15.089477548000048],[104.12324362900006,15.121375356000044],[104.09413768400009,15.127918880000038]]]}},{"type":"Feature","properties":{"code":"331403","name":"สระเยาว์","parentCode":"3314"},"geometry":{"type":"Polygon","coordinates":[[[104.55091786300005,14.782949866000024],[104.50990005400007,14.823334310000064],[104.50171218300005,14.815947176000066],[104.47841866400006,14.809430765000059],[104.48849831300004,14.749871528000028],[104.55091786300005,14.782949866000024]]]}},{"type":"Feature","properties":{"code":"330507","name":"สะเดาใหญ่","parentCode":"3305"},"geometry":{"type":"Polygon","coordinates":[[[104.29742526000007,14.737583777000054],[104.27160659900005,14.745507008000061],[104.22386250500006,14.712623502000042],[104.25149719900008,14.682773851000036],[104.28562333900004,14.68249565800005],[104.29742526000007,14.737583777000054]]]}},{"type":"Feature","properties":{"code":"330104","name":"ซำ","parentCode":"3301"},"geometry":{"type":"Polygon","coordinates":[[[104.36624509400008,15.03982030000003],[104.33042694900007,15.071831515000042],[104.29644719900006,15.04498436700004],[104.29948044100007,15.025789073000055],[104.30054114100005,15.015263064000067],[104.34305902000006,15.010780891000024],[104.36624509400008,15.03982030000003]]]}},{"type":"Feature","properties":{"code":"330705","name":"สมอ","parentCode":"3307"},"geometry":{"type":"Polygon","coordinates":[[[104.12740294700006,14.848731482000062],[104.06329224300003,14.835151240000073],[104.05939969500008,14.836362807000057],[104.06044141800004,14.818885819000059],[104.12219745300007,14.783294226000066],[104.12740294700006,14.848731482000062]]]}},{"type":"Feature","properties":{"code":"331005","name":"สำโรง","parentCode":"3310"},"geometry":{"type":"Polygon","coordinates":[[[104.16645809100004,15.181265402000065],[104.12241352000007,15.166000328000052],[104.12324362900006,15.121375356000044],[104.15875570100008,15.119067952000023],[104.17523978000008,15.140067379000072],[104.17118001600005,15.169810792000021],[104.16645809100004,15.181265402000065]]]}},{"type":"Feature","properties":{"code":"330604","name":"สำโรงพลัน","parentCode":"3306"},"geometry":{"type":"Polygon","coordinates":[[[104.39566901100005,14.686484810000024],[104.31045661000007,14.750281419000032],[104.29742526000007,14.737583777000054],[104.28562333900004,14.68249565800005],[104.29092533700003,14.66603798400007],[104.31333778200008,14.648453262000032],[104.36271985800005,14.673616742000036],[104.39566901100005,14.686484810000024]]]}},{"type":"Feature","properties":{"code":"330707","name":"สำโรงปราสาท","parentCode":"3307"},"geometry":{"type":"Polygon","coordinates":[[[104.13437265700009,14.931466015000069],[104.12534540400009,14.94471984200004],[104.09484664300004,14.938202029000024],[104.05237769700005,14.940179421000039],[104.03400881600004,14.925498609000044],[104.02326758400005,14.897462028000064],[104.06670868200007,14.897028228000067],[104.13940773100006,14.911875113000065],[104.13375015000008,14.927623254000025],[104.13437265700009,14.931466015000069]]]}},{"type":"Feature","properties":{"code":"330521","name":"สำโรงตาเจ็น","parentCode":"3305"},"geometry":{"type":"Polygon","coordinates":[[[104.21875860000006,14.894666534000066],[104.13756972200008,14.899961311000027],[104.13537605300007,14.85422679900006],[104.14242370600005,14.83917675400005],[104.21842122900006,14.856725446000041],[104.21875860000006,14.894666534000066]]]}},{"type":"Feature","properties":{"code":"330405","name":"สังเม็ก","parentCode":"3304"},"geometry":{"type":"Polygon","coordinates":[[[104.73980374600006,14.705671038000048],[104.68389543900008,14.734190907000027],[104.69956999900006,14.689483703000064],[104.69650779500006,14.681548792000058],[104.71168419000008,14.596925246000069],[104.71286682700008,14.576118897000072],[104.74974153400007,14.569909039000038],[104.77596930800007,14.644249419000062],[104.73980374600006,14.705671038000048]]]}},{"type":"Feature","properties":{"code":"330915","name":"สร้างปี่","parentCode":"3309"},"geometry":{"type":"Polygon","coordinates":[[[104.34548914200008,15.34188105100003],[104.29362841700004,15.346960198000033],[104.26656918700007,15.304248589000053],[104.32451996500004,15.284078202000046],[104.34548914200008,15.34188105100003]]]}},{"type":"Feature","properties":{"code":"330505","name":"โสน","parentCode":"3305"},"geometry":{"type":"Polygon","coordinates":[[[104.15499552200004,14.681315178000034],[104.08835892400003,14.702743554000051],[104.07629418400006,14.683877886000062],[104.05320103100007,14.656243086000075],[104.05103883600003,14.63684904300004],[104.05727489400005,14.621943053000052],[104.10280805000008,14.613886225000044],[104.13472860300004,14.63058200000006],[104.14503172400003,14.637008433000062],[104.15499552200004,14.681315178000034]]]}},{"type":"Feature","properties":{"code":"330419","name":"เสาธงชัย","parentCode":"3304"},"geometry":{"type":"Polygon","coordinates":[[[104.77175468400009,14.503884406000054],[104.65510601500006,14.496383054000034],[104.64621344300008,14.422833756000045],[104.68282882700004,14.39368571600005],[104.71477772400004,14.431349755000042],[104.75218835100009,14.40279881500004],[104.78029665500009,14.426812256000062],[104.77938887400006,14.495702546000075],[104.77175468400009,14.503884406000054]]]}},{"type":"Feature","properties":{"code":"331407","name":"สะพุง","parentCode":"3314"},"geometry":{"type":"Polygon","coordinates":[[[104.50171218300005,14.815947176000066],[104.44817514200008,14.849071000000038],[104.42829211000009,14.82388863600005],[104.44080395400005,14.801332150000064],[104.47841866400006,14.809430765000059],[104.50171218300005,14.815947176000066]]]}},{"type":"Feature","properties":{"code":"330709","name":"สวาย","parentCode":"3307"},"geometry":{"type":"Polygon","coordinates":[[[103.95600923900008,14.937722488000077],[103.92813397800006,14.903384493000033],[103.92325141000003,14.892818347000059],[103.93366218200003,14.892158678000044],[103.99057977500007,14.902985504000071],[103.99845246000007,14.926580259000048],[103.95600923900008,14.937722488000077]]]}},{"type":"Feature","properties":{"code":"330801","name":"สิ","parentCode":"3308"},"geometry":{"type":"Polygon","coordinates":[[[104.42639192400009,14.587616869000044],[104.45368483100003,14.601924948000033],[104.45139137400008,14.637906744000077],[104.43054381800005,14.664921202000073],[104.41366953800008,14.64140726100004],[104.42639192400009,14.587616869000044]]]}},{"type":"Feature","properties":{"code":"331401","name":"ศรีแก้ว","parentCode":"3314"},"geometry":{"type":"Polygon","coordinates":[[[104.47841866400006,14.809430765000059],[104.44080395400005,14.801332150000064],[104.44781020500005,14.768715388000032],[104.46836765900008,14.74159230600003],[104.48849831300004,14.749871528000028],[104.47841866400006,14.809430765000059]]]}},{"type":"Feature","properties":{"code":"331406","name":"ศรีโนนงาม","parentCode":"3314"},"geometry":{"type":"Polygon","coordinates":[[[104.42829211000009,14.82388863600005],[104.39938989800004,14.83118528600005],[104.39243837600009,14.829723770000044],[104.38846127800008,14.798085997000044],[104.44781020500005,14.768715388000032],[104.44080395400005,14.801332150000064],[104.42829211000009,14.82388863600005]]]}},{"type":"Feature","properties":{"code":"330528","name":"ศรีสะอาด","parentCode":"3305"},"geometry":{"type":"Polygon","coordinates":[[[104.11959184500006,14.767879588000028],[104.04098258300007,14.759272016000068],[104.04472125300003,14.745741506000059],[104.10308209000004,14.736092979000034],[104.11959184500006,14.767879588000028]]]}},{"type":"Feature","properties":{"code":"331605","name":"ศรีสำราญ","parentCode":"3316"},"geometry":{"type":"Polygon","coordinates":[[[104.21803548400004,14.90706814300006],[104.13375015000008,14.927623254000025],[104.13940773100006,14.911875113000065],[104.13756972200008,14.899961311000027],[104.21875860000006,14.894666534000066],[104.22123553400007,14.893397037000057],[104.21803548400004,14.90706814300006]]]}},{"type":"Feature","properties":{"code":"330527","name":"ศรีตระกูล","parentCode":"3305"},"geometry":{"type":"Polygon","coordinates":[[[104.31333778200008,14.648453262000032],[104.29092533700003,14.66603798400007],[104.25212891200005,14.644970779000062],[104.25007597700005,14.625017607000075],[104.29039116100006,14.614665261000027],[104.31333778200008,14.648453262000032]]]}},{"type":"Feature","properties":{"code":"331901","name":"เสียว","parentCode":"3319"},"geometry":{"type":"Polygon","coordinates":[[[104.75606207100009,14.816999231000068],[104.68889727300007,14.836523210000053],[104.64231390900005,14.811350090000076],[104.64252130900007,14.788606392000077],[104.67378584400007,14.771243511000023],[104.73866583000006,14.800690073000055],[104.75606207100009,14.816999231000068]]]}},{"type":"Feature","properties":{"code":"332102","name":"เสียว","parentCode":"3321"},"geometry":{"type":"Polygon","coordinates":[[[104.05895515700007,15.266523625000048],[104.02893824300008,15.288904237000054],[104.02065633700005,15.241983616000027],[104.02740232700006,15.233481809000068],[104.04507339400004,15.221472949000031],[104.06313062300006,15.24491917100005],[104.05895515700007,15.266523625000048]]]}},{"type":"Feature","properties":{"code":"330912","name":"ส้มป่อย","parentCode":"3309"},"geometry":{"type":"Polygon","coordinates":[[[104.26656918700007,15.304248589000053],[104.21984085800005,15.324488958000074],[104.19043670100007,15.304123633000074],[104.23341700300006,15.265228076000028],[104.24533577300008,15.226511735000031],[104.27401765300004,15.252022239000041],[104.26656918700007,15.304248589000053]]]}},{"type":"Feature","properties":{"code":"330421","name":"สวนกล้วย","parentCode":"3304"},"geometry":{"type":"Polygon","coordinates":[[[104.77596930800007,14.644249419000062],[104.81468744400007,14.730319884000039],[104.75024482400005,14.716038448000063],[104.73980374600006,14.705671038000048],[104.77596930800007,14.644249419000062]]]}},{"type":"Feature","properties":{"code":"331405","name":"เสื่องข้าว","parentCode":"3314"},"geometry":{"type":"Polygon","coordinates":[[[104.54753981500005,14.834709330000067],[104.52690882600007,14.858799610000062],[104.50990005400007,14.823334310000064],[104.55091786300005,14.782949866000024],[104.58489280400005,14.787850941000045],[104.60569155800005,14.816978324000047],[104.54753981500005,14.834709330000067]]]}},{"type":"Feature","properties":{"code":"330605","name":"สุขสวัสดิ์","parentCode":"3306"},"geometry":{"type":"Polygon","coordinates":[[[104.35388671600003,14.876269026000045],[104.32003828400008,14.882690788000048],[104.31257903200009,14.832321482000054],[104.32688381200006,14.82540270000004],[104.39243837600009,14.829723770000044],[104.39938989800004,14.83118528600005],[104.35388671600003,14.876269026000045]]]}},{"type":"Feature","properties":{"code":"331010","name":"ตาเกษ","parentCode":"3310"},"geometry":{"type":"Polygon","coordinates":[[[104.22323854300004,15.154498276000027],[104.17118001600005,15.169810792000021],[104.17523978000008,15.140067379000072],[104.20066039300008,15.12978647400007],[104.22323854300004,15.154498276000027]]]}},{"type":"Feature","properties":{"code":"331802","name":"ตาโกน","parentCode":"3318"},"geometry":{"type":"Polygon","coordinates":[[[104.02065633700005,15.241983616000027],[103.99682811900004,15.252214137000067],[103.98432693200004,15.230795191000027],[103.97039937400007,15.219471696000028],[103.97347169300008,15.161487949000048],[103.98333287900005,15.162250615000062],[104.02245137100005,15.171723112000052],[104.02740232700006,15.233481809000068],[104.02065633700005,15.241983616000027]]]}},{"type":"Feature","properties":{"code":"330508","name":"ตาอุด","parentCode":"3305"},"geometry":{"type":"Polygon","coordinates":[[[104.28562333900004,14.68249565800005],[104.25149719900008,14.682773851000036],[104.25959614600004,14.66284028800004],[104.25212891200005,14.644970779000062],[104.29092533700003,14.66603798400007],[104.28562333900004,14.68249565800005]]]}},{"type":"Feature","properties":{"code":"330106","name":"ตะดอบ","parentCode":"3301"},"geometry":{"type":"Polygon","coordinates":[[[104.46744539800005,15.065105668000058],[104.40057268900006,15.065080612000031],[104.40065879100007,15.038954742000044],[104.40891864900004,15.026419704000034],[104.45687476400008,15.017503985000076],[104.46744539800005,15.065105668000058]]]}},{"type":"Feature","properties":{"code":"331014","name":"แต้","parentCode":"3310"},"geometry":{"type":"Polygon","coordinates":[[[104.20066039300008,15.12978647400007],[104.17523978000008,15.140067379000072],[104.15875570100008,15.119067952000023],[104.16763156700006,15.097616086000073],[104.20167581900006,15.119010459000037],[104.20066039300008,15.12978647400007]]]}},{"type":"Feature","properties":{"code":"330513","name":"ตะเคียน","parentCode":"3305"},"geometry":{"type":"Polygon","coordinates":[[[104.25372252300008,14.751058146000048],[104.28862705400007,14.798922796000056],[104.22468038700003,14.791653587000042],[104.22636341900005,14.750837949000072],[104.25372252300008,14.751058146000048]]]}},{"type":"Feature","properties":{"code":"331705","name":"ตะเคียนราม","parentCode":"3317"},"geometry":{"type":"Polygon","coordinates":[[[104.19187901900005,14.630616289000045],[104.14503172400003,14.637008433000062],[104.13472860300004,14.63058200000006],[104.15262448500005,14.57353749300006],[104.20619763400003,14.579008122000062],[104.19187901900005,14.630616289000045]]]}},{"type":"Feature","properties":{"code":"332003","name":"ตำแย","parentCode":"3320"},"geometry":{"type":"Polygon","coordinates":[[[104.42456704300008,14.97748795800004],[104.42308662700003,14.977565273000039],[104.40355998400008,14.971154851000051],[104.40106728200004,14.895227111000054],[104.44347158000005,14.868151182000076],[104.44408181300008,14.902755027000069],[104.43135002800005,14.961143458000038],[104.42456704300008,14.97748795800004]]]}},{"type":"Feature","properties":{"code":"331905","name":"ท่าคล้อ","parentCode":"3319"},"geometry":{"type":"Polygon","coordinates":[[[104.79760925600004,14.810341085000061],[104.76235985600005,14.81591522900004],[104.75606207100009,14.816999231000068],[104.73866583000006,14.800690073000055],[104.76185901300005,14.795956868000076],[104.75024482400005,14.716038448000063],[104.81468744400007,14.730319884000039],[104.83797212400003,14.739614919000076],[104.81794224800007,14.776988454000048],[104.79760925600004,14.810341085000061]]]}},{"type":"Feature","properties":{"code":"330307","name":"ทาม","parentCode":"3303"},"geometry":{"type":"Polygon","coordinates":[[[104.64740801000005,15.238556257000027],[104.60910997300005,15.282055916000047],[104.57608636300006,15.256015105000074],[104.57709135100004,15.245562006000057],[104.60314180600005,15.199870904000022],[104.63111682100003,15.192853784000022],[104.64740801000005,15.238556257000027]]]}},{"type":"Feature","properties":{"code":"331602","name":"ธาตุ","parentCode":"3316"},"geometry":{"type":"Polygon","coordinates":[[[104.23923621800009,14.992164917000025],[104.14921826100004,15.019521764000046],[104.13642708700007,15.013959753000051],[104.13105716500007,15.00991863300004],[104.14843053500005,14.97497949600006],[104.23962224700006,14.974312249000036],[104.23923621800009,14.992164917000025]]]}},{"type":"Feature","properties":{"code":"330118","name":"ทุ่ม","parentCode":"3301"},"geometry":{"type":"Polygon","coordinates":[[[104.34305902000006,15.010780891000024],[104.30054114100005,15.015263064000067],[104.29858641100009,14.971319335000032],[104.30074577700009,14.962955613000076],[104.35523368500009,14.948198985000033],[104.37664673100005,14.968650632000049],[104.36445821700005,14.993514336000032],[104.34305902000006,15.010780891000024]]]}},{"type":"Feature","properties":{"code":"331004","name":"ทุ่งไชย","parentCode":"3310"},"geometry":{"type":"Polygon","coordinates":[[[104.08854785700004,14.995277758000043],[104.11505557400005,14.987040192000052],[104.13105716500007,15.00991863300004],[104.13642708700007,15.013959753000051],[104.11825416100004,15.046580593000044],[104.09474168500009,15.047230773000024],[104.08854785700004,14.995277758000043]]]}},{"type":"Feature","properties":{"code":"331606","name":"ทุ่งสว่าง","parentCode":"3316"},"geometry":{"type":"Polygon","coordinates":[[[104.21769352600006,15.051570297000069],[104.17472498300003,15.046619906000046],[104.14921826100004,15.019521764000046],[104.23923621800009,14.992164917000025],[104.24969899000007,15.013029108000069],[104.21769352600006,15.051570297000069]]]}},{"type":"Feature","properties":{"code":"330424","name":"ทุ่งใหญ่","parentCode":"3304"},"geometry":{"type":"Polygon","coordinates":[[[104.65022701400005,14.628955102000077],[104.58911433700007,14.61040551900004],[104.54352863300005,14.601723187000061],[104.53582394300008,14.579492091000077],[104.62011206800008,14.55956530800006],[104.62602691000006,14.558423273000074],[104.65022701400005,14.628955102000077]]]}},{"type":"Feature","properties":{"code":"331503","name":"ตองปิด","parentCode":"3315"},"geometry":{"type":"Polygon","coordinates":[[[104.47014845600006,15.008204868000064],[104.45616226200008,15.008703880000041],[104.42456704300008,14.97748795800004],[104.43135002800005,14.961143458000038],[104.49301627800008,14.944450498000037],[104.49790206100005,14.950142006000021],[104.47014845600006,15.008204868000064]]]}},{"type":"Feature","properties":{"code":"330409","name":"ตระกาจ","parentCode":"3304"},"geometry":{"type":"Polygon","coordinates":[[[104.62476476200004,14.693785869000067],[104.63799732700005,14.785351524000077],[104.58916111000008,14.771647211000072],[104.58414344300007,14.720316318000073],[104.59823433600008,14.69284981800007],[104.62476476200004,14.693785869000067]]]}},{"type":"Feature","properties":{"code":"330704","name":"ตูม","parentCode":"3307"},"geometry":{"type":"Polygon","coordinates":[[[104.03400881600004,14.925498609000044],[103.99845246000007,14.926580259000048],[103.99057977500007,14.902985504000071],[103.93366218200003,14.892158678000044],[104.01671399000008,14.875351605000048],[104.02326758400005,14.897462028000064],[104.03400881600004,14.925498609000044]]]}},{"type":"Feature","properties":{"code":"331404","name":"ตูม","parentCode":"3314"},"geometry":{"type":"Polygon","coordinates":[[[104.52690882600007,14.858799610000062],[104.48159476300003,14.887083395000047],[104.44620967700007,14.860834607000072],[104.44817514200008,14.849071000000038],[104.50171218300005,14.815947176000066],[104.50990005400007,14.823334310000064],[104.52690882600007,14.858799610000062]]]}},{"type":"Feature","properties":{"code":"330914","name":"หว้านคำ","parentCode":"3309"},"geometry":{"type":"Polygon","coordinates":[[[104.23286340900006,15.403150238000023],[104.20589666300003,15.438825884000039],[104.16680178400009,15.379684902000065],[104.18700926600008,15.349964458000045],[104.23286340900006,15.403150238000023]]]}},{"type":"Feature","properties":{"code":"331607","name":"วังหิน","parentCode":"3316"},"geometry":{"type":"Polygon","coordinates":[[[104.29956485700006,14.940110065000056],[104.26045873200007,14.907667066000045],[104.23906197300005,14.948426077000022],[104.22888152600007,14.938306081000064],[104.21803548400004,14.90706814300006],[104.22123553400007,14.893397037000057],[104.29340360800006,14.887320812000041],[104.30057914800005,14.887146132000055],[104.29935382900004,14.917167900000038],[104.29956485700006,14.940110065000056]]]}},{"type":"Feature","properties":{"code":"330423","name":"เวียงเหนือ","parentCode":"3304"},"geometry":{"type":"Polygon","coordinates":[[[104.71168419000008,14.596925246000069],[104.69650779500006,14.681548792000058],[104.65986915200006,14.626114361000077],[104.71168419000008,14.596925246000069]]]}},{"type":"Feature","properties":{"code":"330116","name":"หญ้าปล้อง","parentCode":"3301"},"geometry":{"type":"Polygon","coordinates":[[[104.31688552100007,15.133899946000042],[104.28519661900003,15.182991787000049],[104.26639158700004,15.182860033000054],[104.29097647400005,15.125206326000068],[104.31861984200003,15.118018757000073],[104.31786340800005,15.12097581100005],[104.31688552100007,15.133899946000042]]]}},{"type":"Feature","properties":{"code":"330304","name":"ยาง","parentCode":"3303"},"geometry":{"type":"Polygon","coordinates":[[[104.62574168200007,15.039455633000046],[104.54088911100007,15.079979223000066],[104.51800786700005,15.090764227000022],[104.48928757900006,15.065340057000071],[104.54134682700004,15.049488868000026],[104.56355444800005,15.006660530000033],[104.62300964000008,15.005519269000047],[104.63346404800006,15.006402549000029],[104.62574168200007,15.039455633000046]]]}},{"type":"Feature","properties":{"code":"330201","name":"ยางชุมน้อย","parentCode":"3302"},"geometry":{"type":"Polygon","coordinates":[[[104.37699737800006,15.216206142000033],[104.40393998700006,15.23528503500006],[104.43549357300009,15.283199254000067],[104.40672898900004,15.289305787000046],[104.38222246900006,15.29466039700003],[104.37571576900007,15.259223599000052],[104.37699737800006,15.216206142000033]]]}},{"type":"Feature","properties":{"code":"330207","name":"ยางชุมใหญ่","parentCode":"3302"},"geometry":{"type":"Polygon","coordinates":[[[104.46294457500005,15.220207584000036],[104.40393998700006,15.23528503500006],[104.37699737800006,15.216206142000033],[104.38169504200005,15.202039652000053],[104.41196306700004,15.193326006000063],[104.46294457500005,15.220207584000036]]]}}]}