{"type":"FeatureCollection","features":[{"type":"Feature","properties":{"code":"341914","name":"อ่างศิลา","parentCode":"3419"},"geometry":{"type":"Polygon","coordinates":[[[105.29667271700004,15.097059502000036],[105.25184611100008,15.095303224000077],[105.25757233700006,15.068639006000069],[105.28181538100006,14.993011759000069],[105.26780012400008,14.973323470000025],[105.29673203700008,14.953929361000064],[105.30708439400007,14.953235748000054],[105.30492147200005,15.024640158000068],[105.29667271700004,15.097059502000036]]]}},{"type":"Feature","properties":{"code":"341122","name":"บ้านแดง","parentCode":"3411"},"geometry":{"type":"Polygon","coordinates":[[[105.11242189400008,15.676977969000063],[105.06682063800008,15.677031771000031],[105.05419208800004,15.658111305000034],[105.04122852000006,15.628343613000027],[105.11114074800008,15.65599680500003],[105.11242189400008,15.676977969000063]]]}},{"type":"Feature","properties":{"code":"341919","name":"บ้านแขม","parentCode":"3419"},"geometry":{"type":"Polygon","coordinates":[[[105.25757233700006,15.068639006000069],[105.23576934000005,15.076903509000033],[105.21782174800006,15.001723818000073],[105.26780012400008,14.973323470000025],[105.28181538100006,14.993011759000069],[105.25757233700006,15.068639006000069]]]}},{"type":"Feature","properties":{"code":"340412","name":"บ้านกอก","parentCode":"3404"},"geometry":{"type":"Polygon","coordinates":[[[104.46103776500007,15.46399454300007],[104.48509908400007,15.487736991000077],[104.46936594100004,15.511753061000036],[104.44858694000004,15.491979080000021],[104.46103776500007,15.46399454300007]]]}},{"type":"Feature","properties":{"code":"341008","name":"บ้านแมด","parentCode":"3410"},"geometry":{"type":"Polygon","coordinates":[[[105.37338304000008,14.94069601600006],[105.32728924600008,14.956153389000065],[105.31600499700005,14.825672546000021],[105.34052681500003,14.82038030800004],[105.34669364500007,14.867134631000056],[105.39337284700008,14.922486239000023],[105.37338304000008,14.94069601600006]]]}},{"type":"Feature","properties":{"code":"340411","name":"บ้านไทย","parentCode":"3404"},"geometry":{"type":"Polygon","coordinates":[[[104.44858694000004,15.491979080000021],[104.39039184800004,15.490415271000074],[104.37230066800004,15.457492201000036],[104.39143799800007,15.407783765000033],[104.46864236700009,15.42101801800004],[104.46103776500007,15.46399454300007],[104.44858694000004,15.491979080000021]]]}},{"type":"Feature","properties":{"code":"340804","name":"บ้านตูม","parentCode":"3408"},"geometry":{"type":"Polygon","coordinates":[[[105.31115769900003,14.59548731600006],[105.21881068400006,14.642526995000026],[105.18692288200003,14.570173271000044],[105.14814869300005,14.541391801000032],[105.15007991100003,14.534667766000041],[105.14769171300009,14.524328828000023],[105.16929339700005,14.480896700000073],[105.21961624900007,14.562487555000075],[105.27579178900004,14.596654382000054],[105.31115769900003,14.59548731600006]]]}},{"type":"Feature","properties":{"code":"342208","name":"บอน","parentCode":"3422"},"geometry":{"type":"Polygon","coordinates":[[[104.78760996300008,15.078492133000054],[104.74334682100005,15.070616813000072],[104.72901017700008,15.053494029000035],[104.76941987100008,15.022934894000059],[104.78616977700005,15.049669583000025],[104.80112785700004,15.08122127100006],[104.78760996300008,15.078492133000054]]]}},{"type":"Feature","properties":{"code":"340906","name":"บุเปือย","parentCode":"3409"},"geometry":{"type":"Polygon","coordinates":[[[105.15007991100003,14.534667766000041],[105.07469211600005,14.550497758000063],[105.06430259900009,14.56916977000003],[105.00598351700006,14.549139508000053],[104.98713677100005,14.51599783200004],[105.06241339800005,14.519404980000047],[105.09777610900005,14.502530053000044],[105.14769171300009,14.524328828000023],[105.15007991100003,14.534667766000041]]]}},{"type":"Feature","properties":{"code":"340715","name":"บัวงาม","parentCode":"3407"},"geometry":{"type":"Polygon","coordinates":[[[105.27048381900005,14.855957130000036],[105.15924621600004,14.852647022000042],[105.19814598100004,14.765877597000042],[105.20098265000007,14.726403914000059],[105.22269229700004,14.736093698000047],[105.25351968300004,14.72047806300003],[105.26333817600005,14.834979728000064],[105.27048381900005,14.855957130000036]]]}},{"type":"Feature","properties":{"code":"341007","name":"บัวงาม","parentCode":"3410"},"geometry":{"type":"Polygon","coordinates":[[[105.39125451900009,14.787224793000064],[105.33987854400004,14.776480279000054],[105.35591314400006,14.72454586400005],[105.33245625800004,14.704850445000034],[105.35113253900005,14.688874482000074],[105.40454770300005,14.728500631000031],[105.39125451900009,14.787224793000064]]]}},{"type":"Feature","properties":{"code":"341526","name":"บุ่งไหม","parentCode":"3415"},"geometry":{"type":"Polygon","coordinates":[[[104.94115798200005,15.23358479600006],[104.89431937200004,15.233092795000061],[104.89121985100007,15.232653292000066],[104.87193882300005,15.22217235200003],[104.86950939900004,15.193085951000057],[104.90717602300003,15.203100604000042],[104.96919482300007,15.179023318000077],[104.98864622100007,15.173302357000068],[104.94115798200005,15.23358479600006]]]}},{"type":"Feature","properties":{"code":"343203","name":"บุ่งมะแลง","parentCode":"3432"},"geometry":{"type":"Polygon","coordinates":[[[105.07299700500005,15.250608495000051],[105.05550379200008,15.283789472000024],[105.03358162800004,15.279449520000071],[105.02794833500008,15.273433255000043],[105.03556118100005,15.183854617000065],[105.06045944300007,15.182849415000078],[105.06372625000006,15.185674126000038],[105.07299700500005,15.250608495000051]]]}},{"type":"Feature","properties":{"code":"341511","name":"บุ่งหวาย","parentCode":"3415"},"geometry":{"type":"Polygon","coordinates":[[[104.79750472800004,15.164357821000067],[104.74920981600008,15.204302512000027],[104.71420010500009,15.182596922000073],[104.69915590600004,15.172486649000064],[104.72877816400006,15.154344399000024],[104.75283768300005,15.124008572000037],[104.79366847100005,15.13658631900006],[104.79750472800004,15.164357821000067]]]}},{"type":"Feature","properties":{"code":"340109","name":"แจระแม","parentCode":"3401"},"geometry":{"type":"Polygon","coordinates":[[[104.79303461500007,15.291002981000076],[104.76151026200006,15.278732279000053],[104.78057961200005,15.239416506000055],[104.79868770800005,15.206338704000075],[104.84263823300006,15.20838953200007],[104.83359557700004,15.265096172000028],[104.79303461500007,15.291002981000076]]]}},{"type":"Feature","properties":{"code":"340406","name":"ชีทวน","parentCode":"3404"},"geometry":{"type":"Polygon","coordinates":[[[104.69938370400007,15.278829183000028],[104.64204784600008,15.30068016100006],[104.62999842400006,15.333653560000073],[104.60920615500004,15.291822928000045],[104.60910997300005,15.282055916000047],[104.64740801000005,15.238556257000027],[104.69044941200008,15.22524984100005],[104.69938370400007,15.278829183000028]]]}},{"type":"Feature","properties":{"code":"340504","name":"เจียด","parentCode":"3405"},"geometry":{"type":"Polygon","coordinates":[[[105.25356924400006,15.893488510000054],[105.20801435800007,15.893370841000035],[105.16243798100004,15.80103249900003],[105.17253410300003,15.814175500000033],[105.21976615500006,15.848436202000073],[105.25356924400006,15.893488510000054]]]}},{"type":"Feature","properties":{"code":"342003","name":"จิกเทิง","parentCode":"3420"},"geometry":{"type":"Polygon","coordinates":[[[105.14499904800005,15.359792807000076],[105.11023871500004,15.377276920000043],[105.07252601900007,15.369079183000053],[105.06839040200003,15.344264997000039],[105.09245590700004,15.323721904000024],[105.14499904800005,15.359792807000076]]]}},{"type":"Feature","properties":{"code":"342502","name":"ช่องเม็ก","parentCode":"3425"},"geometry":{"type":"Polygon","coordinates":[[[105.48107419200005,15.185489826000037],[105.42941981400008,15.194412518000036],[105.39236187100005,15.17057075100007],[105.38502652800008,15.099486442000057],[105.38756453600007,15.07286165100004],[105.43973915600009,15.068832924000048],[105.48998637300008,15.02638485600005],[105.54875890800008,15.06505796700003],[105.48177495900006,15.100192289000063],[105.48107419200005,15.185489826000037]]]}},{"type":"Feature","properties":{"code":"340409","name":"แดงหม้อ","parentCode":"3404"},"geometry":{"type":"Polygon","coordinates":[[[104.52501157700004,15.321710224000071],[104.48587910300006,15.297195345000034],[104.50416235300008,15.267662294000047],[104.52326882400007,15.252660624000043],[104.52501157700004,15.321710224000071]]]}},{"type":"Feature","properties":{"code":"340904","name":"โดมประดิษฐ์","parentCode":"3409"},"geometry":{"type":"Polygon","coordinates":[[[105.14769171300009,14.524328828000023],[105.09777610900005,14.502530053000044],[105.05953328300006,14.45381023300007],[105.01693326100008,14.439439268000058],[104.99983899800009,14.367064535000054],[104.98959558700005,14.32425980100004],[105.02618357200004,14.237162785000066],[105.10348194900007,14.212507456000026],[105.14204959600005,14.237349554000048],[105.17472753100009,14.34328381000006],[105.21868657700008,14.333941627000058],[105.28374697400005,14.365558587000066],[105.23934862000004,14.420475605000036],[105.21412518000005,14.417424013000073],[105.16929339700005,14.480896700000073],[105.14769171300009,14.524328828000023]]]}},{"type":"Feature","properties":{"code":"341904","name":"ดอนจิก","parentCode":"3419"},"geometry":{"type":"Polygon","coordinates":[[[105.34585968800008,15.167234639000071],[105.28226472100005,15.177939453000022],[105.24817135400008,15.157036067000035],[105.20288524600005,15.170004925000057],[105.19853808800008,15.168849292000061],[105.20454893100003,15.138678607000031],[105.20558977600007,15.121984052000073],[105.25184611100008,15.095303224000077],[105.29667271700004,15.097059502000036],[105.34432507300005,15.106857904000037],[105.34585968800008,15.167234639000071]]]}},{"type":"Feature","properties":{"code":"342401","name":"ดอนมดแดง","parentCode":"3424"},"geometry":{"type":"Polygon","coordinates":[[[105.06839040200003,15.344264997000039],[105.01671925400007,15.346684905000075],[105.01431535500006,15.310852413000077],[105.03358162800004,15.279449520000071],[105.05550379200008,15.283789472000024],[105.11221039600008,15.30668165700007],[105.09245590700004,15.323721904000024],[105.06839040200003,15.344264997000039]]]}},{"type":"Feature","properties":{"code":"340211","name":"ดอนใหญ่","parentCode":"3402"},"geometry":{"type":"Polygon","coordinates":[[[105.29631619600008,15.413509436000027],[105.34877674900008,15.446708555000043],[105.34509598700004,15.48118532500007],[105.29037555000008,15.45566311600004],[105.29631619600008,15.413509436000027]]]}},{"type":"Feature","properties":{"code":"341403","name":"ดุมใหญ่","parentCode":"3414"},"geometry":{"type":"Polygon","coordinates":[[[104.74375327900003,15.651697941000066],[104.73318932200004,15.655497946000025],[104.72165354400005,15.651722079000024],[104.69075960900005,15.628059151000059],[104.69428072100004,15.586366182000063],[104.78974146800005,15.595838425000068],[104.79429601500004,15.598425672000076],[104.74375327900003,15.651697941000066]]]}},{"type":"Feature","properties":{"code":"342505","name":"ฝางคำ","parentCode":"3425"},"geometry":{"type":"Polygon","coordinates":[[[105.38502652800008,15.099486442000057],[105.39236187100005,15.17057075100007],[105.34585968800008,15.167234639000071],[105.34432507300005,15.106857904000037],[105.38502652800008,15.099486442000057]]]}},{"type":"Feature","properties":{"code":"340405","name":"หัวดอน","parentCode":"3404"},"geometry":{"type":"Polygon","coordinates":[[[104.68685693000003,15.391688831000067],[104.66122348700009,15.384147574000053],[104.63195284800008,15.340378844000043],[104.62999842400006,15.333653560000073],[104.64204784600008,15.30068016100006],[104.69938370400007,15.278829183000028],[104.70707687800007,15.284860173000027],[104.67270854300006,15.33443371800007],[104.68685693000003,15.391688831000067]]]}},{"type":"Feature","properties":{"code":"340513","name":"หัวนา","parentCode":"3405"},"geometry":{"type":"Polygon","coordinates":[[[105.20801435800007,15.893370841000035],[105.12915610400006,15.90441729500003],[105.11186369700005,15.85780604200005],[105.14115041200006,15.829488429000037],[105.16243798100004,15.80103249900003],[105.20801435800007,15.893370841000035]]]}},{"type":"Feature","properties":{"code":"340104","name":"หัวเรือ","parentCode":"3401"},"geometry":{"type":"Polygon","coordinates":[[[104.85058123900006,15.38572488400007],[104.80636573300006,15.414383931000032],[104.83540360500007,15.337025504000053],[104.87901796500006,15.338836309000044],[104.88358573800008,15.369271210000022],[104.85058123900006,15.38572488400007]]]}},{"type":"Feature","properties":{"code":"341120","name":"ห้วยฝ้ายพัฒนา","parentCode":"3411"},"geometry":{"type":"Polygon","coordinates":[[[105.20123934800006,15.54543209600007],[105.15333033800005,15.565205286000037],[105.13618293400003,15.527582024000026],[105.13983514100005,15.458651016000033],[105.14751524500008,15.460349086000065],[105.19133946900007,15.486401385000022],[105.19736886000004,15.512324553000042],[105.20123934800006,15.54543209600007]]]}},{"type":"Feature","properties":{"code":"341002","name":"ห้วยข่า","parentCode":"3410"},"geometry":{"type":"Polygon","coordinates":[[[105.40454770300005,14.728500631000031],[105.35113253900005,14.688874482000074],[105.30791863300004,14.609502779000024],[105.31115769900003,14.59548731600006],[105.32491674200008,14.393503427000041],[105.35723573800004,14.385656312000037],[105.42401645000007,14.416545149000058],[105.46981433500008,14.469584660000066],[105.53866498200006,14.582178536000072],[105.52529996600003,14.68167778700007],[105.43949812700004,14.697696171000075],[105.40454770300005,14.728500631000031]]]}},{"type":"Feature","properties":{"code":"341524","name":"ห้วยขะยุง","parentCode":"3415"},"geometry":{"type":"Polygon","coordinates":[[[104.74334682100005,15.070616813000072],[104.70516280400005,15.131579351000028],[104.68942836500008,15.128171386000076],[104.68636278400004,15.073976034000054],[104.68617225300005,15.07066756000006],[104.72901017700008,15.053494029000035],[104.74334682100005,15.070616813000072]]]}},{"type":"Feature","properties":{"code":"340305","name":"ห้วยไผ่","parentCode":"3403"},"geometry":{"type":"Polygon","coordinates":[[[105.47030325000009,15.340345434000028],[105.49295751600005,15.385804741000072],[105.57763797300004,15.407517666000047],[105.59737397500004,15.446193528000038],[105.56793945900006,15.418010037000045],[105.52724989800004,15.430674563000025],[105.47396036200007,15.423215366000022],[105.43162135700004,15.374184815000035],[105.46227606500008,15.330300948000058],[105.47030325000009,15.340345434000028]]]}},{"type":"Feature","properties":{"code":"340302","name":"ห้วยยาง","parentCode":"3403"},"geometry":{"type":"Polygon","coordinates":[[[105.52724989800004,15.430674563000025],[105.54379009300004,15.465165267000032],[105.52052981000008,15.502048033000051],[105.45926853500004,15.522228762000054],[105.43889341900007,15.520676568000056],[105.38097706400004,15.471867787000065],[105.39089918500008,15.395536691000075],[105.43162135700004,15.374184815000035],[105.47396036200007,15.423215366000022],[105.52724989800004,15.430674563000025]]]}},{"type":"Feature","properties":{"code":"341204","name":"กาบิน","parentCode":"3412"},"geometry":{"type":"Polygon","coordinates":[[[105.01488078900007,15.754041501000074],[104.94585982300003,15.780985222000027],[104.92228061100008,15.769008750000069],[104.90739223900005,15.761424343000044],[104.96176714500007,15.735104205000027],[105.00083058000007,15.73444534400005],[105.01488078900007,15.754041501000074]]]}},{"type":"Feature","properties":{"code":"340712","name":"แก้ง","parentCode":"3407"},"geometry":{"type":"Polygon","coordinates":[[[105.05877478400004,14.740923060000057],[104.96887931600008,14.709047371000054],[104.96185477000006,14.70336803400005],[104.98512975000006,14.675217597000028],[104.99543235900006,14.668941312000072],[105.03260400200008,14.674980796000057],[105.05877478400004,14.740923060000057]]]}},{"type":"Feature","properties":{"code":"343201","name":"แก่งโดม","parentCode":"3432"},"geometry":{"type":"Polygon","coordinates":[[[105.17321079700008,15.28075801600005],[105.14322975000005,15.239332310000066],[105.07299700500005,15.250608495000051],[105.06372625000006,15.185674126000038],[105.11716475000009,15.165110163000065],[105.14545202900007,15.192676347000031],[105.17321079700008,15.28075801600005]]]}},{"type":"Feature","properties":{"code":"341203","name":"แก่งเค็ง","parentCode":"3412"},"geometry":{"type":"Polygon","coordinates":[[[105.16243798100004,15.80103249900003],[105.14115041200006,15.829488429000037],[105.06416745000007,15.790846675000068],[105.03964048400007,15.756730461000075],[105.05739424100005,15.75191184700003],[105.08148304200006,15.756102002000034],[105.16527599500006,15.773853217000067],[105.16243798100004,15.80103249900003]]]}},{"type":"Feature","properties":{"code":"340202","name":"แก้งกอก","parentCode":"3402"},"geometry":{"type":"Polygon","coordinates":[[[105.25950158100005,15.516708735000066],[105.24678916500005,15.519828919000076],[105.19736886000004,15.512324553000042],[105.19133946900007,15.486401385000022],[105.22411365000005,15.452318863000073],[105.28172203100007,15.467802980000044],[105.25950158100005,15.516708735000066]]]}},{"type":"Feature","properties":{"code":"340510","name":"แก้งเหนือ","parentCode":"3405"},"geometry":{"type":"Polygon","coordinates":[[[105.17204766500004,15.930379684000059],[105.11634891100005,15.969385499000055],[105.08530048800009,15.887405153000032],[105.08084961100008,15.87473478100003],[105.11186369700005,15.85780604200005],[105.12915610400006,15.90441729500003],[105.17204766500004,15.930379684000059]]]}},{"type":"Feature","properties":{"code":"340911","name":"เก่าขาม","parentCode":"3409"},"geometry":{"type":"Polygon","coordinates":[[[105.07516932900006,14.591349321000052],[105.01567917800008,14.597697573000062],[104.98243760800005,14.624600301000044],[104.98245612900007,14.62137623500007],[104.96863457700005,14.573138314000062],[105.00598351700006,14.549139508000053],[105.06430259900009,14.56916977000003],[105.07516932900006,14.591349321000052]]]}},{"type":"Feature","properties":{"code":"341103","name":"เกษม","parentCode":"3411"},"geometry":{"type":"Polygon","coordinates":[[[105.06682063800008,15.677031771000031],[105.08148304200006,15.756102002000034],[105.05739424100005,15.75191184700003],[105.03613967300004,15.696789831000046],[105.01122927900008,15.707848452000064],[105.00676364200007,15.658056826000063],[105.05419208800004,15.658111305000034],[105.06682063800008,15.677031771000031]]]}},{"type":"Feature","properties":{"code":"341123","name":"คำเจริญ","parentCode":"3411"},"geometry":{"type":"Polygon","coordinates":[[[105.05419208800004,15.658111305000034],[105.00676364200007,15.658056826000063],[104.98486886600006,15.641349886000057],[105.00507899300004,15.623030609000068],[105.04231857000008,15.599226040000076],[105.06389706700008,15.586267750000047],[105.04122852000006,15.628343613000027],[105.05419208800004,15.658111305000034]]]}},{"type":"Feature","properties":{"code":"342404","name":"คำไฮใหญ่","parentCode":"3424"},"geometry":{"type":"Polygon","coordinates":[[[104.99481788900005,15.39739078100007],[104.94613756700005,15.380548072000067],[104.94063806300005,15.342324146000067],[104.95302262000007,15.341190791000031],[104.99875949800008,15.344010189000073],[104.99481788900005,15.39739078100007]]]}},{"type":"Feature","properties":{"code":"340716","name":"คำครั่ง","parentCode":"3407"},"geometry":{"type":"Polygon","coordinates":[[[105.26186462000004,14.900556873000028],[105.19997384600003,14.923805564000077],[105.14258077000005,14.906394901000056],[105.13986678600008,14.872555999000042],[105.15924621600004,14.852647022000042],[105.27048381900005,14.855957130000036],[105.26186462000004,14.900556873000028]]]}},{"type":"Feature","properties":{"code":"342506","name":"คำเขื่อนแก้ว","parentCode":"3425"},"geometry":{"type":"Polygon","coordinates":[[[105.55578297100004,15.25819535900007],[105.53139858000009,15.289810329000034],[105.46855100500005,15.303586593000034],[105.43976369500007,15.265718751000065],[105.40633088300007,15.303385741000056],[105.37071112400008,15.296495742000047],[105.35601037600009,15.289524721000078],[105.35807846400007,15.279576379000048],[105.43427895400004,15.239508492000027],[105.42941981400008,15.194412518000036],[105.48107419200005,15.185489826000037],[105.55578297100004,15.25819535900007]]]}},{"type":"Feature","properties":{"code":"341515","name":"คำขวาง","parentCode":"3415"},"geometry":{"type":"Polygon","coordinates":[[[104.96919482300007,15.179023318000077],[104.90717602300003,15.203100604000042],[104.89656654500004,15.160976624000057],[104.90620677400005,15.130669454000042],[104.91991960300004,15.127547932000027],[104.96919482300007,15.179023318000077]]]}},{"type":"Feature","properties":{"code":"340208","name":"คำไหล","parentCode":"3402"},"geometry":{"type":"Polygon","coordinates":[[[105.43889341900007,15.520676568000056],[105.41849392800003,15.547071016000075],[105.34509598700004,15.48118532500007],[105.34877674900008,15.446708555000043],[105.29631619600008,15.413509436000027],[105.27524406100008,15.371137371000032],[105.34450073800008,15.370926245000078],[105.39089918500008,15.395536691000075],[105.38097706400004,15.471867787000065],[105.43889341900007,15.520676568000056]]]}},{"type":"Feature","properties":{"code":"341510","name":"คำน้ำแซบ","parentCode":"3415"},"geometry":{"type":"Polygon","coordinates":[[[104.84913764000004,15.188111914000046],[104.84263823300006,15.20838953200007],[104.79868770800005,15.206338704000075],[104.80886556400009,15.183327064000025],[104.83782342300009,15.176200512000037],[104.84913764000004,15.188111914000046]]]}},{"type":"Feature","properties":{"code":"341105","name":"ขามเปี้ย","parentCode":"3411"},"geometry":{"type":"Polygon","coordinates":[[[104.97553516200009,15.541255905000071],[104.92083704600009,15.560441123000032],[104.91827448500004,15.598265573000049],[104.91719628400006,15.600251823000065],[104.88754400700009,15.545026620000044],[104.94134567100008,15.488043478000066],[104.94264127500008,15.487881263000077],[104.98576743900009,15.491792910000072],[104.98634349400004,15.508854965000069],[104.97553516200009,15.541255905000071]]]}},{"type":"Feature","properties":{"code":"340503","name":"ขามป้อม","parentCode":"3405"},"geometry":{"type":"Polygon","coordinates":[[[105.24034740200005,16.003099599000052],[105.14022801200008,16.020081424000068],[105.11469731600005,15.979555095000023],[105.11634891100005,15.969385499000055],[105.17204766500004,15.930379684000059],[105.22817986200005,15.976468431000058],[105.24034740200005,16.003099599000052]]]}},{"type":"Feature","properties":{"code":"342209","name":"ขามป้อม","parentCode":"3422"},"geometry":{"type":"Polygon","coordinates":[[[104.85453287700005,14.990017736000027],[104.81543231700005,15.015519873000073],[104.78462779300008,14.98374377600004],[104.78372269500005,14.978420243000073],[104.83447422600005,14.943293082000025],[104.85453287700005,14.990017736000027]]]}},{"type":"Feature","properties":{"code":"342006","name":"คำหว้า","parentCode":"3420"},"geometry":{"type":"Polygon","coordinates":[[[105.20653474900007,15.40489632200007],[105.15053866600005,15.414803195000047],[105.11023871500004,15.377276920000043],[105.14499904800005,15.359792807000076],[105.17470621700005,15.350004108000064],[105.20653474900007,15.40489632200007]]]}},{"type":"Feature","properties":{"code":"340108","name":"ขามใหญ่","parentCode":"3401"},"geometry":{"type":"Polygon","coordinates":[[[104.87901796500006,15.338836309000044],[104.83540360500007,15.337025504000053],[104.79678130500008,15.332213209000031],[104.79303461500007,15.291002981000076],[104.83359557700004,15.265096172000028],[104.85595285200009,15.261189183000056],[104.87901796500006,15.338836309000044]]]}},{"type":"Feature","properties":{"code":"342501","name":"คันไร่","parentCode":"3425"},"geometry":{"type":"Polygon","coordinates":[[[105.39236187100005,15.17057075100007],[105.37743000100005,15.215863493000029],[105.33652633900005,15.241243932000032],[105.35807846400007,15.279576379000048],[105.35601037600009,15.289524721000078],[105.28448728800004,15.240859232000048],[105.28226472100005,15.177939453000022],[105.34585968800008,15.167234639000071],[105.39236187100005,15.17057075100007]]]}},{"type":"Feature","properties":{"code":"341201","name":"ข้าวปุ้น","parentCode":"3412"},"geometry":{"type":"Polygon","coordinates":[[[105.06351907400006,15.796327843000029],[104.98390294300003,15.825126691000037],[104.96704183800006,15.866667541000027],[104.94585982300003,15.780985222000027],[105.01488078900007,15.754041501000074],[105.03964048400007,15.756730461000075],[105.06416745000007,15.790846675000068],[105.06351907400006,15.796327843000029]]]}},{"type":"Feature","properties":{"code":"340501","name":"เขมราฐ","parentCode":"3405"},"geometry":{"type":"Polygon","coordinates":[[[105.24844155600005,16.04442821600003],[105.06026078000008,16.09814908000004],[105.02552885400007,16.057780699000034],[105.05974145500005,16.066468367000027],[105.14022801200008,16.020081424000068],[105.24034740200005,16.003099599000052],[105.24844155600005,16.04442821600003]]]}},{"type":"Feature","properties":{"code":"340119","name":"ขี้เหล็ก","parentCode":"3401"},"geometry":{"type":"Polygon","coordinates":[[[104.79678130500008,15.332213209000031],[104.83540360500007,15.337025504000053],[104.80636573300006,15.414383931000032],[104.79047192800004,15.414113297000029],[104.79390745900008,15.381168487000025],[104.75646433200006,15.362882073000037],[104.79678130500008,15.332213209000031]]]}},{"type":"Feature","properties":{"code":"343303","name":"ขี้เหล็ก","parentCode":"3433"},"geometry":{"type":"Polygon","coordinates":[[[104.98512975000006,14.675217597000028],[104.94488194800005,14.649069188000055],[104.89136569400006,14.647991919000049],[104.85648146700004,14.597825878000037],[104.88183261700004,14.579819961000055],[104.93929227200005,14.616026413000043],[104.98245612900007,14.62137623500007],[104.98243760800005,14.624600301000044],[104.99543235900006,14.668941312000072],[104.98512975000006,14.675217597000028]]]}},{"type":"Feature","properties":{"code":"341003","name":"คอแลน","parentCode":"3410"},"geometry":{"type":"Polygon","coordinates":[[[105.55284435400006,14.949737740000046],[105.53578723800007,14.95803353100007],[105.46422720300006,14.920311957000024],[105.39337284700008,14.922486239000023],[105.34669364500007,14.867134631000056],[105.34052681500003,14.82038030800004],[105.39227312200006,14.834199922000039],[105.46098489200006,14.815020953000044],[105.52055278000006,14.82365182600006],[105.57997373100005,14.878591989000029],[105.55284435400006,14.949737740000046]]]}},{"type":"Feature","properties":{"code":"342204","name":"ค้อน้อย","parentCode":"3422"},"geometry":{"type":"Polygon","coordinates":[[[104.83447422600005,14.943293082000025],[104.78372269500005,14.978420243000073],[104.78348945500005,14.897311964000039],[104.81024307000007,14.878739138000071],[104.83605526400004,14.885821129000021],[104.83447422600005,14.943293082000025]]]}},{"type":"Feature","properties":{"code":"340403","name":"ค้อทอง","parentCode":"3404"},"geometry":{"type":"Polygon","coordinates":[[[104.46864236700009,15.42101801800004],[104.39143799800007,15.407783765000033],[104.38975796500006,15.38696591300004],[104.43758066200007,15.368908779000037],[104.46021196900006,15.390382468000041],[104.47233587500006,15.413340238000046],[104.46864236700009,15.42101801800004]]]}},{"type":"Feature","properties":{"code":"342605","name":"โคกชำแระ","parentCode":"3426"},"geometry":{"type":"Polygon","coordinates":[[[104.95410452100003,14.772466078000036],[104.95696604500006,14.787304560000052],[104.88469674400005,14.776120043000049],[104.86100021800007,14.709127046000049],[104.90330989600005,14.721065730000078],[104.95410452100003,14.772466078000036]]]}},{"type":"Feature","properties":{"code":"341107","name":"โคกจาน","parentCode":"3411"},"geometry":{"type":"Polygon","coordinates":[[[105.11447165000004,15.547596694000049],[105.06045097400005,15.560539833000064],[105.03179702300008,15.535960810000063],[105.05967061100006,15.500106426000059],[105.09951486100005,15.452702375000058],[105.13983514100005,15.458651016000033],[105.13618293400003,15.527582024000026],[105.11447165000004,15.547596694000049]]]}},{"type":"Feature","properties":{"code":"342202","name":"โคกก่อง","parentCode":"3422"},"geometry":{"type":"Polygon","coordinates":[[[104.82496170300004,15.061456057000044],[104.80112785700004,15.08122127100006],[104.78616977700005,15.049669583000025],[104.81543231700005,15.015519873000073],[104.85453287700005,14.990017736000027],[104.85830167100005,14.986451376000048],[104.88351402900008,15.036662662000026],[104.82496170300004,15.061456057000044]]]}},{"type":"Feature","properties":{"code":"343304","name":"โคกสะอาด","parentCode":"3433"},"geometry":{"type":"Polygon","coordinates":[[[104.87745860900009,14.560978070000033],[104.82721164600008,14.534739064000064],[104.84895364700009,14.509246314000052],[104.85977121100007,14.471897128000023],[104.82854610000004,14.44275125400003],[104.88580950400006,14.427106512000023],[104.90987384700009,14.514431797000043],[104.87745860900009,14.560978070000033]]]}},{"type":"Feature","properties":{"code":"342206","name":"โคกสว่าง","parentCode":"3422"},"geometry":{"type":"Polygon","coordinates":[[[104.90460163000006,14.942308282000056],[104.85830167100005,14.986451376000048],[104.85453287700005,14.990017736000027],[104.83447422600005,14.943293082000025],[104.83605526400004,14.885821129000021],[104.81024307000007,14.878739138000071],[104.81447908500007,14.834552081000027],[104.84415654800006,14.864738973000044],[104.90246585900007,14.93919088000007],[104.90460163000006,14.942308282000056]]]}},{"type":"Feature","properties":{"code":"341106","name":"คอนสาย","parentCode":"3411"},"geometry":{"type":"Polygon","coordinates":[[[105.19113267100005,15.773387868000043],[105.16527599500006,15.773853217000067],[105.08148304200006,15.756102002000034],[105.06682063800008,15.677031771000031],[105.11242189400008,15.676977969000063],[105.18731806600005,15.743220327000074],[105.19113267100005,15.773387868000043]]]}},{"type":"Feature","properties":{"code":"340301","name":"โขงเจียม","parentCode":"3403"},"geometry":{"type":"Polygon","coordinates":[[[105.55578297100004,15.25819535900007],[105.59224355900005,15.274417472000039],[105.57422098600006,15.32852804600003],[105.50387060200006,15.315858220000052],[105.47030325000009,15.340345434000028],[105.46227606500008,15.330300948000058],[105.40633088300007,15.303385741000056],[105.43976369500007,15.265718751000065],[105.46855100500005,15.303586593000034],[105.53139858000009,15.289810329000034],[105.55578297100004,15.25819535900007]]]}},{"type":"Feature","properties":{"code":"341507","name":"คูเมือง","parentCode":"3415"},"geometry":{"type":"Polygon","coordinates":[[[104.88073057600008,15.126051156000074],[104.85146356400008,15.131194015000062],[104.84726004000004,15.120489768000027],[104.82496170300004,15.061456057000044],[104.88351402900008,15.036662662000026],[104.92256874100008,15.045717688000025],[104.88064496200008,15.083240616000069],[104.88073057600008,15.126051156000074]]]}},{"type":"Feature","properties":{"code":"340401","name":"เขื่องใน","parentCode":"3404"},"geometry":{"type":"Polygon","coordinates":[[[104.57567559600005,15.394403853000028],[104.55499597900007,15.425454314000035],[104.51702121600005,15.416385812000044],[104.53863361400005,15.38946848200004],[104.53825089000009,15.329732532000037],[104.57653319700006,15.320373859000028],[104.59584198200008,15.355871671000045],[104.57567559600005,15.394403853000028]]]}},{"type":"Feature","properties":{"code":"341101","name":"ขุหลุ","parentCode":"3411"},"geometry":{"type":"Polygon","coordinates":[[[105.04231857000008,15.599226040000076],[105.00507899300004,15.623030609000068],[104.98608983100007,15.585295250000058],[105.00655751600004,15.570781573000033],[105.04231857000008,15.599226040000076]]]}},{"type":"Feature","properties":{"code":"340711","name":"กลาง","parentCode":"3407"},"geometry":{"type":"Polygon","coordinates":[[[105.15924621600004,14.852647022000042],[105.13986678600008,14.872555999000042],[105.10674673900007,14.87298809300006],[105.10195272200008,14.860210345000041],[105.08837426900004,14.803166872000077],[105.11727272300004,14.741620800000021],[105.14964654800008,14.731309601000078],[105.20098265000007,14.726403914000059],[105.19814598100004,14.765877597000042],[105.15924621600004,14.852647022000042]]]}},{"type":"Feature","properties":{"code":"340413","name":"กลางใหญ่","parentCode":"3404"},"geometry":{"type":"Polygon","coordinates":[[[104.48028916000004,15.536861950000059],[104.44143566100007,15.554481125000052],[104.38591622300004,15.53625071700003],[104.39039184800004,15.490415271000074],[104.44858694000004,15.491979080000021],[104.46936594100004,15.511753061000036],[104.48028916000004,15.536861950000059]]]}},{"type":"Feature","properties":{"code":"340404","name":"ก่อเอ้","parentCode":"3404"},"geometry":{"type":"Polygon","coordinates":[[[104.66122348700009,15.384147574000053],[104.65597041600006,15.44325996300006],[104.63440521300004,15.443848028000048],[104.57567559600005,15.394403853000028],[104.59584198200008,15.355871671000045],[104.63195284800008,15.340378844000043],[104.66122348700009,15.384147574000053]]]}},{"type":"Feature","properties":{"code":"343003","name":"กองโพน","parentCode":"3430"},"geometry":{"type":"Polygon","coordinates":[[[105.30582744600008,15.991407571000025],[105.24034740200005,16.003099599000052],[105.22817986200005,15.976468431000058],[105.24758339100003,15.934294952000073],[105.29273904900003,15.921905817000038],[105.30582744600008,15.991407571000025]]]}},{"type":"Feature","properties":{"code":"341102","name":"กระเดียน","parentCode":"3411"},"geometry":{"type":"Polygon","coordinates":[[[105.13838398400009,15.637172029000055],[105.11114074800008,15.65599680500003],[105.04122852000006,15.628343613000027],[105.06389706700008,15.586267750000047],[105.10656906700007,15.590207332000034],[105.13838398400009,15.637172029000055]]]}},{"type":"Feature","properties":{"code":"340113","name":"กระโสบ","parentCode":"3401"},"geometry":{"type":"Polygon","coordinates":[[[105.01671925400007,15.346684905000075],[104.99875949800008,15.344010189000073],[104.95302262000007,15.341190791000031],[104.91180353800007,15.280223693000039],[104.94817019700008,15.270967409000036],[105.01431535500006,15.310852413000077],[105.01671925400007,15.346684905000075]]]}},{"type":"Feature","properties":{"code":"341902","name":"กุดชมภู","parentCode":"3419"},"geometry":{"type":"Polygon","coordinates":[[[105.24724837100007,15.242330090000053],[105.21446446400006,15.226054470000065],[105.20288524600005,15.170004925000057],[105.24817135400008,15.157036067000035],[105.28226472100005,15.177939453000022],[105.28448728800004,15.240859232000048],[105.24724837100007,15.242330090000053]]]}},{"type":"Feature","properties":{"code":"340116","name":"กุดลาด","parentCode":"3401"},"geometry":{"type":"Polygon","coordinates":[[[105.03358162800004,15.279449520000071],[105.01431535500006,15.310852413000077],[104.94817019700008,15.270967409000036],[104.91180353800007,15.280223693000039],[104.89740557100004,15.255280052000046],[104.89431937200004,15.233092795000061],[104.94115798200005,15.23358479600006],[105.00575622000008,15.279858610000076],[105.02794833500008,15.273433255000043],[105.03358162800004,15.279449520000071]]]}},{"type":"Feature","properties":{"code":"340709","name":"กุดประทาย","parentCode":"3407"},"geometry":{"type":"Polygon","coordinates":[[[105.21782174800006,15.001723818000073],[105.19017871700004,15.027923810000061],[105.11841272000004,14.978729760000022],[105.11308794000007,14.968358519000049],[105.12203370100008,14.93869918300004],[105.14258077000005,14.906394901000056],[105.19997384600003,14.923805564000077],[105.26186462000004,14.900556873000028],[105.29673203700008,14.953929361000064],[105.26780012400008,14.973323470000025],[105.21782174800006,15.001723818000073]]]}},{"type":"Feature","properties":{"code":"342604","name":"กุดเรือ","parentCode":"3426"},"geometry":{"type":"Polygon","coordinates":[[[104.90330989600005,14.721065730000078],[104.86100021800007,14.709127046000049],[104.89047839200003,14.651406331000032],[104.89136569400006,14.647991919000049],[104.94488194800005,14.649069188000055],[104.98512975000006,14.675217597000028],[104.96185477000006,14.70336803400005],[104.90330989600005,14.721065730000078]]]}},{"type":"Feature","properties":{"code":"341121","name":"กุดยาลวน","parentCode":"3411"},"geometry":{"type":"Polygon","coordinates":[[[105.03964048400007,15.756730461000075],[105.01488078900007,15.754041501000074],[105.00083058000007,15.73444534400005],[105.01122927900008,15.707848452000064],[105.03613967300004,15.696789831000046],[105.05739424100005,15.75191184700003],[105.03964048400007,15.756730461000075]]]}},{"type":"Feature","properties":{"code":"341104","name":"กุศกร","parentCode":"3411"},"geometry":{"type":"Polygon","coordinates":[[[105.10656906700007,15.590207332000034],[105.06389706700008,15.586267750000047],[105.06045097400005,15.560539833000064],[105.11447165000004,15.547596694000049],[105.14892246700003,15.581436748000044],[105.10656906700007,15.590207332000034]]]}},{"type":"Feature","properties":{"code":"341113","name":"ไหล่ทุ่ง","parentCode":"3411"},"geometry":{"type":"Polygon","coordinates":[[[104.98486886600006,15.641349886000057],[104.97272716300006,15.65061131300007],[104.96625202700005,15.600340275000065],[104.91827448500004,15.598265573000049],[104.92083704600009,15.560441123000032],[104.97553516200009,15.541255905000071],[104.98608983100007,15.585295250000058],[105.00507899300004,15.623030609000068],[104.98486886600006,15.641349886000057]]]}},{"type":"Feature","properties":{"code":"341402","name":"เหล่าบก","parentCode":"3414"},"geometry":{"type":"Polygon","coordinates":[[[104.64069750100003,15.687239373000068],[104.62006736500007,15.687008168000034],[104.61064291500008,15.682482463000042],[104.63743448300005,15.646958945000051],[104.69075960900005,15.628059151000059],[104.72165354400005,15.651722079000024],[104.65734348200004,15.678349795000031],[104.64069750100003,15.687239373000068]]]}},{"type":"Feature","properties":{"code":"342402","name":"เหล่าแดง","parentCode":"3424"},"geometry":{"type":"Polygon","coordinates":[[[105.05960106900005,15.41811063700004],[105.00718590700006,15.416938516000073],[104.99481788900005,15.39739078100007],[104.99875949800008,15.344010189000073],[105.01671925400007,15.346684905000075],[105.06839040200003,15.344264997000039],[105.07252601900007,15.369079183000053],[105.05960106900005,15.41811063700004]]]}},{"type":"Feature","properties":{"code":"342106","name":"เหล่างาม","parentCode":"3421"},"geometry":{"type":"Polygon","coordinates":[[[105.44682954100006,15.751573036000025],[105.39267032800007,15.805427007000048],[105.34798961500007,15.792053401000032],[105.32966948500007,15.75903383800005],[105.30209350800004,15.736855540000022],[105.33293315900005,15.707156312000052],[105.35954985800004,15.73247582600004],[105.41039729800008,15.720137760000057],[105.44682954100006,15.751573036000025]]]}},{"type":"Feature","properties":{"code":"343101","name":"เหล่าเสือโก้ก","parentCode":"3431"},"geometry":{"type":"Polygon","coordinates":[[[104.94264127500008,15.487881263000077],[104.94134567100008,15.488043478000066],[104.84796129000006,15.423354156000073],[104.91017631100004,15.400464860000056],[104.90319378000004,15.358458658000075],[104.91492105000003,15.355405680000047],[104.96400799000008,15.462966977000065],[104.94264127500008,15.487881263000077]]]}},{"type":"Feature","properties":{"code":"340205","name":"ลาดควาย","parentCode":"3402"},"geometry":{"type":"Polygon","coordinates":[[[105.40323341200008,15.55339682400006],[105.36608983600007,15.57768969700004],[105.35459253400006,15.625130916000046],[105.26042442900007,15.560693322000077],[105.25950158100005,15.516708735000066],[105.40323341200008,15.55339682400006]]]}},{"type":"Feature","properties":{"code":"341401","name":"ม่วงสามสิบ","parentCode":"3414"},"geometry":{"type":"Polygon","coordinates":[[[104.75068299500003,15.542367854000076],[104.69031329000006,15.550161979000052],[104.68101007800004,15.526930479000043],[104.67727682100008,15.484328517000051],[104.72314257400006,15.483122769000033],[104.75431997900006,15.475355421000074],[104.78056922200005,15.49652304700004],[104.75068299500003,15.542367854000076]]]}},{"type":"Feature","properties":{"code":"342102","name":"ม่วงใหญ่","parentCode":"3421"},"geometry":{"type":"Polygon","coordinates":[[[105.31485687800006,15.86389894000007],[105.26376247500008,15.902742228000022],[105.25356924400006,15.893488510000054],[105.21976615500006,15.848436202000073],[105.29569105200005,15.837262771000042],[105.31485687800006,15.86389894000007]]]}},{"type":"Feature","properties":{"code":"340701","name":"เมืองเดช","parentCode":"3407"},"geometry":{"type":"Polygon","coordinates":[[[105.11308794000007,14.968358519000049],[105.07523075200004,14.944100414000047],[105.02348924600005,14.981639243000075],[105.00057099000009,14.943827209000062],[105.00721631800008,14.898791971000037],[105.10195272200008,14.860210345000041],[105.10674673900007,14.87298809300006],[105.08617928800004,14.886113615000056],[105.12203370100008,14.93869918300004],[105.11308794000007,14.968358519000049]]]}},{"type":"Feature","properties":{"code":"341522","name":"เมืองศรีไค","parentCode":"3415"},"geometry":{"type":"Polygon","coordinates":[[[104.91991960300004,15.127547932000027],[104.90620677400005,15.130669454000042],[104.88073057600008,15.126051156000074],[104.88064496200008,15.083240616000069],[104.92256874100008,15.045717688000025],[104.94566145100003,15.028206607000072],[104.97239875600008,15.039490629000056],[104.97833065300006,15.067396958000074],[104.92888588200009,15.076318369000035],[104.91991960300004,15.127547932000027]]]}},{"type":"Feature","properties":{"code":"340801","name":"นาจะหลวย","parentCode":"3408"},"geometry":{"type":"Polygon","coordinates":[[[105.31115769900003,14.59548731600006],[105.27579178900004,14.596654382000054],[105.21961624900007,14.562487555000075],[105.16929339700005,14.480896700000073],[105.21412518000005,14.417424013000073],[105.23934862000004,14.420475605000036],[105.28374697400005,14.365558587000066],[105.32491674200008,14.393503427000041],[105.31115769900003,14.59548731600006]]]}},{"type":"Feature","properties":{"code":"340704","name":"นาเจริญ","parentCode":"3407"},"geometry":{"type":"Polygon","coordinates":[[[105.00057099000009,14.943827209000062],[104.92996926700005,14.935089229000027],[104.92148648700004,14.954231484000047],[104.90460163000006,14.942308282000056],[104.90246585900007,14.93919088000007],[104.97304547700008,14.856834007000032],[105.00698276600008,14.862979031000066],[105.00721631800008,14.898791971000037],[105.00057099000009,14.943827209000062]]]}},{"type":"Feature","properties":{"code":"342902","name":"นาดี","parentCode":"3429"},"geometry":{"type":"Polygon","coordinates":[[[105.06045944300007,15.182849415000078],[105.03556118100005,15.183854617000065],[104.99210934700005,15.168163818000039],[105.00464995100003,15.096941351000055],[104.97833065300006,15.067396958000074],[104.97239875600008,15.039490629000056],[105.00412161900005,15.032985874000076],[105.04242949800005,15.089210991000073],[105.05201708600003,15.114122774000066],[105.06045944300007,15.182849415000078]]]}},{"type":"Feature","properties":{"code":"342606","name":"นาห่อม","parentCode":"3426"},"geometry":{"type":"Polygon","coordinates":[[[104.88663798700009,14.796871077000048],[104.81794224800007,14.776988454000048],[104.83797212400003,14.739614919000076],[104.86100021800007,14.709127046000049],[104.88469674400005,14.776120043000049],[104.88663798700009,14.796871077000048]]]}},{"type":"Feature","properties":{"code":"342603","name":"นาเกษม","parentCode":"3426"},"geometry":{"type":"Polygon","coordinates":[[[104.96887931600008,14.709047371000054],[105.00160722200008,14.754493345000071],[104.99635576000009,14.78971608300003],[104.95410452100003,14.772466078000036],[104.90330989600005,14.721065730000078],[104.96185477000006,14.70336803400005],[104.96887931600008,14.709047371000054]]]}},{"type":"Feature","properties":{"code":"342005","name":"นาคาย","parentCode":"3420"},"geometry":{"type":"Polygon","coordinates":[[[105.13983514100005,15.458651016000033],[105.09951486100005,15.452702375000058],[105.05911703400005,15.420938014000058],[105.05960106900005,15.41811063700004],[105.07252601900007,15.369079183000053],[105.11023871500004,15.377276920000043],[105.15053866600005,15.414803195000047],[105.14751524500008,15.460349086000065],[105.13983514100005,15.458651016000033]]]}},{"type":"Feature","properties":{"code":"340201","name":"นาคำ","parentCode":"3402"},"geometry":{"type":"Polygon","coordinates":[[[105.41576414400004,15.551938072000041],[105.40323341200008,15.55339682400006],[105.25950158100005,15.516708735000066],[105.28172203100007,15.467802980000044],[105.29037555000008,15.45566311600004],[105.34509598700004,15.48118532500007],[105.41849392800003,15.547071016000075],[105.41576414400004,15.551938072000041]]]}},{"type":"Feature","properties":{"code":"340408","name":"นาคำใหญ่","parentCode":"3404"},"geometry":{"type":"Polygon","coordinates":[[[104.57653319700006,15.320373859000028],[104.53825089000009,15.329732532000037],[104.52501157700004,15.321710224000071],[104.52326882400007,15.252660624000043],[104.57608636300006,15.256015105000074],[104.60910997300005,15.282055916000047],[104.60920615500004,15.291822928000045],[104.57653319700006,15.320373859000028]]]}},{"type":"Feature","properties":{"code":"340717","name":"นากระแซง","parentCode":"3407"},"geometry":{"type":"Polygon","coordinates":[[[104.90246585900007,14.93919088000007],[104.84415654800006,14.864738973000044],[104.89974156400007,14.82858561300003],[104.96106963600005,14.829211744000077],[104.97304547700008,14.856834007000032],[104.90246585900007,14.93919088000007]]]}},{"type":"Feature","properties":{"code":"340210","name":"นาเลิน","parentCode":"3402"},"geometry":{"type":"Polygon","coordinates":[[[105.33293315900005,15.707156312000052],[105.28997577000007,15.692012661000035],[105.25110982700005,15.713426680000055],[105.26066113900004,15.688969659000065],[105.35459253400006,15.625130916000046],[105.36608983600007,15.57768969700004],[105.40323341200008,15.55339682400006],[105.41576414400004,15.551938072000041],[105.42849000300004,15.586003940000069],[105.38835045800005,15.648546879000037],[105.33293315900005,15.707156312000052]]]}},{"type":"Feature","properties":{"code":"341413","name":"นาเลิง","parentCode":"3414"},"geometry":{"type":"Polygon","coordinates":[[[104.64378244300008,15.563741118000053],[104.58591169900006,15.566692880000062],[104.56611250600008,15.556378805000065],[104.57989183800004,15.515761270000041],[104.59676795300004,15.510396645000071],[104.66633008600007,15.529573499000037],[104.64378244300008,15.563741118000053]]]}},{"type":"Feature","properties":{"code":"341108","name":"นาพิน","parentCode":"3411"},"geometry":{"type":"Polygon","coordinates":[[[105.06389706700008,15.586267750000047],[105.04231857000008,15.599226040000076],[105.00655751600004,15.570781573000033],[105.02236707700007,15.530277307000063],[105.03179702300008,15.535960810000063],[105.06045097400005,15.560539833000064],[105.06389706700008,15.586267750000047]]]}},{"type":"Feature","properties":{"code":"341004","name":"นาโพธิ์","parentCode":"3410"},"geometry":{"type":"Polygon","coordinates":[[[105.32728924600008,14.956153389000065],[105.30708439400007,14.953235748000054],[105.29673203700008,14.953929361000064],[105.26186462000004,14.900556873000028],[105.27048381900005,14.855957130000036],[105.26333817600005,14.834979728000064],[105.31600499700005,14.825672546000021],[105.32728924600008,14.956153389000065]]]}},{"type":"Feature","properties":{"code":"341906","name":"นาโพธิ์","parentCode":"3419"},"geometry":{"type":"Polygon","coordinates":[[[105.20558977600007,15.121984052000073],[105.20454893100003,15.138678607000031],[105.14037988700005,15.098962896000046],[105.05201708600003,15.114122774000066],[105.04242949800005,15.089210991000073],[105.06228558200007,15.057040006000022],[105.16294586600009,15.027248331000067],[105.16947170600008,15.078441226000052],[105.20558977600007,15.121984052000073]]]}},{"type":"Feature","properties":{"code":"340303","name":"นาโพธิ์กลาง","parentCode":"3403"},"geometry":{"type":"Polygon","coordinates":[[[105.59737397500004,15.446193528000038],[105.59307691800007,15.50998142800006],[105.62181499600007,15.557866327000056],[105.63217845000008,15.667035535000025],[105.49640766000005,15.569131481000056],[105.45926853500004,15.522228762000054],[105.52052981000008,15.502048033000051],[105.54379009300004,15.465165267000032],[105.52724989800004,15.430674563000025],[105.56793945900006,15.418010037000045],[105.59737397500004,15.446193528000038]]]}},{"type":"Feature","properties":{"code":"342903","name":"นาเรือง","parentCode":"3429"},"geometry":{"type":"Polygon","coordinates":[[[105.11841272000004,14.978729760000022],[105.05845689500006,15.037507508000033],[105.03316852500006,15.013191351000046],[105.03036142900004,15.002621442000077],[105.02348924600005,14.981639243000075],[105.07523075200004,14.944100414000047],[105.11308794000007,14.968358519000049],[105.11841272000004,14.978729760000022]]]}},{"type":"Feature","properties":{"code":"341109","name":"นาสะไม","parentCode":"3411"},"geometry":{"type":"Polygon","coordinates":[[[104.94228849500007,15.69122410400007],[104.90418721300006,15.720148041000073],[104.90044873600004,15.71554814700005],[104.89493616000004,15.65352426800007],[104.93314208500004,15.640393321000033],[104.91719628400006,15.600251823000065],[104.91827448500004,15.598265573000049],[104.96625202700005,15.600340275000065],[104.97272716300006,15.65061131300007],[104.94228849500007,15.69122410400007]]]}},{"type":"Feature","properties":{"code":"340702","name":"นาส่วง","parentCode":"3407"},"geometry":{"type":"Polygon","coordinates":[[[104.97239875600008,15.039490629000056],[104.94566145100003,15.028206607000072],[104.93105397100004,14.990808247000075],[105.03036142900004,15.002621442000077],[105.03316852500006,15.013191351000046],[105.00412161900005,15.032985874000076],[104.97239875600008,15.039490629000056]]]}},{"type":"Feature","properties":{"code":"343001","name":"นาตาล","parentCode":"3430"},"geometry":{"type":"Polygon","coordinates":[[[105.29273904900003,15.921905817000038],[105.24758339100003,15.934294952000073],[105.26376247500008,15.902742228000022],[105.31485687800006,15.86389894000007],[105.37529732600007,15.855148969000027],[105.34262293000006,15.920338951000076],[105.29273904900003,15.921905817000038]]]}},{"type":"Feature","properties":{"code":"340508","name":"นาแวง","parentCode":"3405"},"geometry":{"type":"Polygon","coordinates":[[[105.39330885000004,15.991567686000053],[105.40894689400005,16.016221082000072],[105.24844155600005,16.04442821600003],[105.24034740200005,16.003099599000052],[105.30582744600008,15.991407571000025],[105.39330885000004,15.991567686000053]]]}},{"type":"Feature","properties":{"code":"342901","name":"นาเยีย","parentCode":"3429"},"geometry":{"type":"Polygon","coordinates":[[[105.16294586600009,15.027248331000067],[105.06228558200007,15.057040006000022],[105.04242949800005,15.089210991000073],[105.00412161900005,15.032985874000076],[105.03316852500006,15.013191351000046],[105.05845689500006,15.037507508000033],[105.11841272000004,14.978729760000022],[105.19017871700004,15.027923810000061],[105.16294586600009,15.027248331000067]]]}},{"type":"Feature","properties":{"code":"340101","name":"ในเมือง","parentCode":"3401"},"geometry":{"type":"Polygon","coordinates":[[[104.88889076000004,15.252654822000068],[104.85595285200009,15.261189183000056],[104.83359557700004,15.265096172000028],[104.84263823300006,15.20838953200007],[104.87193882300005,15.22217235200003],[104.89121985100007,15.232653292000066],[104.88889076000004,15.252654822000068]]]}},{"type":"Feature","properties":{"code":"340209","name":"หนามแท่ง","parentCode":"3402"},"geometry":{"type":"Polygon","coordinates":[[[105.63217845000008,15.667035535000025],[105.59347430500009,15.726078838000035],[105.54583106800004,15.750341915000035],[105.53473557300003,15.698375891000069],[105.44474070400008,15.682572144000062],[105.41368170900006,15.635575834000065],[105.38835045800005,15.648546879000037],[105.42849000300004,15.586003940000069],[105.41576414400004,15.551938072000041],[105.41849392800003,15.547071016000075],[105.43889341900007,15.520676568000056],[105.45926853500004,15.522228762000054],[105.49640766000005,15.569131481000056],[105.63217845000008,15.667035535000025]]]}},{"type":"Feature","properties":{"code":"342504","name":"นิคมสร้างตนเองลำโดมน้อย","parentCode":"3425"},"geometry":{"type":"Polygon","coordinates":[[[105.42941981400008,15.194412518000036],[105.43427895400004,15.239508492000027],[105.35807846400007,15.279576379000048],[105.33652633900005,15.241243932000032],[105.37743000100005,15.215863493000029],[105.39236187100005,15.17057075100007],[105.42941981400008,15.194412518000036]]]}},{"type":"Feature","properties":{"code":"342205","name":"โนนกาเล็น","parentCode":"3422"},"geometry":{"type":"Polygon","coordinates":[[[104.72901017700008,15.053494029000035],[104.68617225300005,15.07066756000006],[104.67199106500004,15.021854965000045],[104.68439695700005,14.986140048000038],[104.76024839000007,15.005029653000065],[104.76941987100008,15.022934894000059],[104.72901017700008,15.053494029000035]]]}},{"type":"Feature","properties":{"code":"341918","name":"โนนกาหลง","parentCode":"3419"},"geometry":{"type":"Polygon","coordinates":[[[105.36936840900006,15.026284942000075],[105.30492147200005,15.024640158000068],[105.30708439400007,14.953235748000054],[105.32728924600008,14.956153389000065],[105.37338304000008,14.94069601600006],[105.36936840900006,15.026284942000075]]]}},{"type":"Feature","properties":{"code":"341006","name":"โนนค้อ","parentCode":"3410"},"geometry":{"type":"Polygon","coordinates":[[[105.33245625800004,14.704850445000034],[105.26012017400006,14.695786296000051],[105.30791863300004,14.609502779000024],[105.35113253900005,14.688874482000074],[105.33245625800004,14.704850445000034]]]}},{"type":"Feature","properties":{"code":"341907","name":"โนนกลาง","parentCode":"3419"},"geometry":{"type":"Polygon","coordinates":[[[105.38502652800008,15.099486442000057],[105.34432507300005,15.106857904000037],[105.29667271700004,15.097059502000036],[105.30492147200005,15.024640158000068],[105.36936840900006,15.026284942000075],[105.38756453600007,15.07286165100004],[105.38502652800008,15.099486442000057]]]}},{"type":"Feature","properties":{"code":"342207","name":"โนนกลาง","parentCode":"3422"},"geometry":{"type":"Polygon","coordinates":[[[104.76024839000007,15.005029653000065],[104.68439695700005,14.986140048000038],[104.68478665200007,14.95892991900007],[104.73486847000004,14.938227278000056],[104.76231288100007,15.000105003000044],[104.76024839000007,15.005029653000065]]]}},{"type":"Feature","properties":{"code":"342503","name":"โนนก่อ","parentCode":"3425"},"geometry":{"type":"Polygon","coordinates":[[[105.54875890800008,15.06505796700003],[105.48998637300008,15.02638485600005],[105.43973915600009,15.068832924000048],[105.38756453600007,15.07286165100004],[105.36936840900006,15.026284942000075],[105.37338304000008,14.94069601600006],[105.39337284700008,14.922486239000023],[105.46422720300006,14.920311957000024],[105.53578723800007,14.95803353100007],[105.55284435400006,14.949737740000046],[105.58344396300004,14.94078810600007],[105.62427641400006,14.974838291000026],[105.57443698400004,14.999086181000052],[105.54875890800008,15.06505796700003]]]}},{"type":"Feature","properties":{"code":"341110","name":"โนนกุง","parentCode":"3411"},"geometry":{"type":"Polygon","coordinates":[[[105.21244737200004,15.739288969000029],[105.19130921100003,15.734363171000041],[105.13838398400009,15.637172029000055],[105.10656906700007,15.590207332000034],[105.14892246700003,15.581436748000044],[105.16546637600004,15.613324301000034],[105.16250244200006,15.658881195000049],[105.22859331600006,15.729498130000025],[105.21244737200004,15.739288969000029]]]}},{"type":"Feature","properties":{"code":"341505","name":"โนนโหนน","parentCode":"3415"},"geometry":{"type":"Polygon","coordinates":[[[104.84726004000004,15.120489768000027],[104.79944116400009,15.133781910000039],[104.78760996300008,15.078492133000054],[104.80112785700004,15.08122127100006],[104.82496170300004,15.061456057000044],[104.84726004000004,15.120489768000027]]]}},{"type":"Feature","properties":{"code":"341521","name":"โนนผึ้ง","parentCode":"3415"},"geometry":{"type":"Polygon","coordinates":[[[104.83782342300009,15.176200512000037],[104.80886556400009,15.183327064000025],[104.79750472800004,15.164357821000067],[104.79366847100005,15.13658631900006],[104.79944116400009,15.133781910000039],[104.84726004000004,15.120489768000027],[104.85146356400008,15.131194015000062],[104.83782342300009,15.176200512000037]]]}},{"type":"Feature","properties":{"code":"340414","name":"โนนรัง","parentCode":"3404"},"geometry":{"type":"Polygon","coordinates":[[[104.53972493800006,15.548148362000063],[104.51201416400005,15.563932335000061],[104.48028916000004,15.536861950000059],[104.46936594100004,15.511753061000036],[104.48509908400007,15.487736991000077],[104.49361636400005,15.479711758000064],[104.53972493800006,15.548148362000063]]]}},{"type":"Feature","properties":{"code":"340806","name":"โนนสวรรค์","parentCode":"3408"},"geometry":{"type":"Polygon","coordinates":[[[105.16665046200006,14.619677067000055],[105.14655091400004,14.71925049400005],[105.09462136300004,14.711905129000058],[105.11894956700007,14.686612741000033],[105.11702960300005,14.61798974800007],[105.11959560600008,14.611148894000053],[105.16665046200006,14.619677067000055]]]}},{"type":"Feature","properties":{"code":"341202","name":"โนนสวาง","parentCode":"3412"},"geometry":{"type":"Polygon","coordinates":[[[105.08530048800009,15.887405153000032],[105.00420106100006,15.93715320800004],[104.98964733200006,15.910900393000077],[104.96704183800006,15.866667541000027],[104.98390294300003,15.825126691000037],[105.06351907400006,15.796327843000029],[105.05531446100008,15.842783930000053],[105.08084961100008,15.87473478100003],[105.08530048800009,15.887405153000032]]]}},{"type":"Feature","properties":{"code":"340723","name":"โนนสมบูรณ์","parentCode":"3407"},"geometry":{"type":"Polygon","coordinates":[[[105.07298229500009,14.783823665000057],[105.03380080300008,14.803131657000051],[104.99635576000009,14.78971608300003],[105.00160722200008,14.754493345000071],[104.96887931600008,14.709047371000054],[105.05877478400004,14.740923060000057],[105.07298229500009,14.783823665000057]]]}},{"type":"Feature","properties":{"code":"340802","name":"โนนสมบูรณ์","parentCode":"3408"},"geometry":{"type":"Polygon","coordinates":[[[105.21881068400006,14.642526995000026],[105.22269229700004,14.736093698000047],[105.20098265000007,14.726403914000059],[105.14964654800008,14.731309601000078],[105.18279459400009,14.690575171000035],[105.18438272000009,14.648233305000076],[105.21881068400006,14.642526995000026]]]}},{"type":"Feature","properties":{"code":"340111","name":"หนองบ่อ","parentCode":"3401"},"geometry":{"type":"Polygon","coordinates":[[[104.76151026200006,15.278732279000053],[104.70707687800007,15.284860173000027],[104.69938370400007,15.278829183000028],[104.69044941200008,15.22524984100005],[104.71420010500009,15.182596922000073],[104.74920981600008,15.204302512000027],[104.78057961200005,15.239416506000055],[104.76151026200006,15.278732279000053]]]}},{"type":"Feature","properties":{"code":"343104","name":"หนองบก","parentCode":"3431"},"geometry":{"type":"Polygon","coordinates":[[[105.00718590700006,15.416938516000073],[104.96400799000008,15.462966977000065],[104.91492105000003,15.355405680000047],[104.94063806300005,15.342324146000067],[104.94613756700005,15.380548072000067],[104.99481788900005,15.39739078100007],[105.00718590700006,15.416938516000073]]]}},{"type":"Feature","properties":{"code":"341913","name":"หนองบัวฮี","parentCode":"3419"},"geometry":{"type":"Polygon","coordinates":[[[105.25184611100008,15.095303224000077],[105.20558977600007,15.121984052000073],[105.16947170600008,15.078441226000052],[105.16294586600009,15.027248331000067],[105.19017871700004,15.027923810000061],[105.21782174800006,15.001723818000073],[105.23576934000005,15.076903509000033],[105.25757233700006,15.068639006000069],[105.25184611100008,15.095303224000077]]]}},{"type":"Feature","properties":{"code":"341404","name":"หนองช้างใหญ่","parentCode":"3414"},"geometry":{"type":"Polygon","coordinates":[[[104.86981367500005,15.538341982000077],[104.86169485000005,15.578528169000037],[104.80754981400008,15.603687571000023],[104.79429601500004,15.598425672000076],[104.78974146800005,15.595838425000068],[104.77147315800005,15.559426399000074],[104.84385236500003,15.531467880000037],[104.86981367500005,15.538341982000077]]]}},{"type":"Feature","properties":{"code":"342203","name":"หนองไฮ","parentCode":"3422"},"geometry":{"type":"Polygon","coordinates":[[[104.78462779300008,14.98374377600004],[104.76231288100007,15.000105003000044],[104.73486847000004,14.938227278000056],[104.75440686800005,14.920309183000029],[104.78348945500005,14.897311964000039],[104.78372269500005,14.978420243000073],[104.78462779300008,14.98374377600004]]]}},{"type":"Feature","properties":{"code":"341410","name":"หนองฮาง","parentCode":"3414"},"geometry":{"type":"Polygon","coordinates":[[[104.66633008600007,15.529573499000037],[104.59676795300004,15.510396645000071],[104.63966866200008,15.460494771000072],[104.67727682100008,15.484328517000051],[104.68101007800004,15.526930479000043],[104.66633008600007,15.529573499000037]]]}},{"type":"Feature","properties":{"code":"341408","name":"หนองไข่นก","parentCode":"3414"},"geometry":{"type":"Polygon","coordinates":[[[104.79047192800004,15.414113297000029],[104.78034749500006,15.427668726000036],[104.73332764600008,15.397897306000061],[104.75646433200006,15.362882073000037],[104.79390745900008,15.381168487000025],[104.79047192800004,15.414113297000029]]]}},{"type":"Feature","properties":{"code":"340105","name":"หนองขอน","parentCode":"3401"},"geometry":{"type":"Polygon","coordinates":[[[104.79678130500008,15.332213209000031],[104.75646433200006,15.362882073000037],[104.73912026300007,15.325321483000039],[104.67270854300006,15.33443371800007],[104.70707687800007,15.284860173000027],[104.76151026200006,15.278732279000053],[104.79303461500007,15.291002981000076],[104.79678130500008,15.332213209000031]]]}},{"type":"Feature","properties":{"code":"341520","name":"หนองกินเพล","parentCode":"3415"},"geometry":{"type":"Polygon","coordinates":[[[104.79868770800005,15.206338704000075],[104.78057961200005,15.239416506000055],[104.74920981600008,15.204302512000027],[104.79750472800004,15.164357821000067],[104.80886556400009,15.183327064000025],[104.79868770800005,15.206338704000075]]]}},{"type":"Feature","properties":{"code":"342004","name":"หนองกุง","parentCode":"3420"},"geometry":{"type":"Polygon","coordinates":[[[105.19133946900007,15.486401385000022],[105.14751524500008,15.460349086000065],[105.15053866600005,15.414803195000047],[105.20653474900007,15.40489632200007],[105.22411365000005,15.452318863000073],[105.19133946900007,15.486401385000022]]]}},{"type":"Feature","properties":{"code":"340418","name":"หนองเหล่า","parentCode":"3404"},"geometry":{"type":"Polygon","coordinates":[[[104.59676795300004,15.510396645000071],[104.57989183800004,15.515761270000041],[104.55289396800003,15.447175960000038],[104.55499597900007,15.425454314000035],[104.57567559600005,15.394403853000028],[104.63440521300004,15.443848028000048],[104.63966866200008,15.460494771000072],[104.59676795300004,15.510396645000071]]]}},{"type":"Feature","properties":{"code":"341409","name":"หนองเหล่า","parentCode":"3414"},"geometry":{"type":"Polygon","coordinates":[[[104.72314257400006,15.483122769000033],[104.67727682100008,15.484328517000051],[104.63966866200008,15.460494771000072],[104.63440521300004,15.443848028000048],[104.65597041600006,15.44325996300006],[104.66122348700009,15.384147574000053],[104.68685693000003,15.391688831000067],[104.70980055500007,15.405146768000066],[104.72314257400006,15.483122769000033]]]}},{"type":"Feature","properties":{"code":"341405","name":"หนองเมือง","parentCode":"3414"},"geometry":{"type":"Polygon","coordinates":[[[104.78974146800005,15.595838425000068],[104.69428072100004,15.586366182000063],[104.69031329000006,15.550161979000052],[104.75068299500003,15.542367854000076],[104.77147315800005,15.559426399000074],[104.78974146800005,15.595838425000068]]]}},{"type":"Feature","properties":{"code":"340511","name":"หนองนกทา","parentCode":"3405"},"geometry":{"type":"Polygon","coordinates":[[[105.14022801200008,16.020081424000068],[105.05974145500005,16.066468367000027],[105.06658749800005,15.992919912000048],[105.11469731600005,15.979555095000023],[105.14022801200008,16.020081424000068]]]}},{"type":"Feature","properties":{"code":"342602","name":"หนองอ้ม","parentCode":"3426"},"geometry":{"type":"Polygon","coordinates":[[[104.96106963600005,14.829211744000077],[104.89974156400007,14.82858561300003],[104.88663798700009,14.796871077000048],[104.88469674400005,14.776120043000049],[104.95696604500006,14.787304560000052],[104.96106963600005,14.829211744000077]]]}},{"type":"Feature","properties":{"code":"340507","name":"หนองผือ","parentCode":"3405"},"geometry":{"type":"Polygon","coordinates":[[[105.06658749800005,15.992919912000048],[105.01605109000008,15.99752849500004],[105.00420106100006,15.93715320800004],[105.08530048800009,15.887405153000032],[105.11634891100005,15.969385499000055],[105.11469731600005,15.979555095000023],[105.06658749800005,15.992919912000048]]]}},{"type":"Feature","properties":{"code":"340304","name":"หนองแสงใหญ่","parentCode":"3403"},"geometry":{"type":"Polygon","coordinates":[[[105.43162135700004,15.374184815000035],[105.39089918500008,15.395536691000075],[105.34450073800008,15.370926245000078],[105.36623067800008,15.31631333300004],[105.37071112400008,15.296495742000047],[105.40633088300007,15.303385741000056],[105.46227606500008,15.330300948000058],[105.43162135700004,15.374184815000035]]]}},{"type":"Feature","properties":{"code":"341005","name":"หนองสะโน","parentCode":"3410"},"geometry":{"type":"Polygon","coordinates":[[[105.39125451900009,14.787224793000064],[105.39227312200006,14.834199922000039],[105.34052681500003,14.82038030800004],[105.31600499700005,14.825672546000021],[105.26333817600005,14.834979728000064],[105.25351968300004,14.72047806300003],[105.26012017400006,14.695786296000051],[105.33245625800004,14.704850445000034],[105.35591314400006,14.72454586400005],[105.33987854400004,14.776480279000054],[105.39125451900009,14.787224793000064]]]}},{"type":"Feature","properties":{"code":"340512","name":"หนองสิม","parentCode":"3405"},"geometry":{"type":"Polygon","coordinates":[[[105.06658749800005,15.992919912000048],[105.05974145500005,16.066468367000027],[105.02552885400007,16.057780699000034],[105.00993760100005,15.99959560700006],[105.01605109000008,15.99752849500004],[105.06658749800005,15.992919912000048]]]}},{"type":"Feature","properties":{"code":"341117","name":"หนองเต่า","parentCode":"3411"},"geometry":{"type":"Polygon","coordinates":[[[104.96176714500007,15.735104205000027],[104.90739223900005,15.761424343000044],[104.90395328300008,15.748584701000027],[104.90418721300006,15.720148041000073],[104.94228849500007,15.69122410400007],[104.96176714500007,15.735104205000027]]]}},{"type":"Feature","properties":{"code":"341205","name":"หนองทันน้ำ","parentCode":"3412"},"geometry":{"type":"Polygon","coordinates":[[[105.08084961100008,15.87473478100003],[105.05531446100008,15.842783930000053],[105.06351907400006,15.796327843000029],[105.06416745000007,15.790846675000068],[105.14115041200006,15.829488429000037],[105.11186369700005,15.85780604200005],[105.08084961100008,15.87473478100003]]]}},{"type":"Feature","properties":{"code":"340120","name":"ปะอาว","parentCode":"3401"},"geometry":{"type":"Polygon","coordinates":[[[104.73332764600008,15.397897306000061],[104.70980055500007,15.405146768000066],[104.68685693000003,15.391688831000067],[104.67270854300006,15.33443371800007],[104.73912026300007,15.325321483000039],[104.75646433200006,15.362882073000037],[104.73332764600008,15.397897306000061]]]}},{"type":"Feature","properties":{"code":"340721","name":"ป่าโมง","parentCode":"3407"},"geometry":{"type":"Polygon","coordinates":[[[105.02348924600005,14.981639243000075],[105.03036142900004,15.002621442000077],[104.93105397100004,14.990808247000075],[104.92148648700004,14.954231484000047],[104.92996926700005,14.935089229000027],[105.00057099000009,14.943827209000062],[105.02348924600005,14.981639243000075]]]}},{"type":"Feature","properties":{"code":"341114","name":"เป้า","parentCode":"3411"},"geometry":{"type":"Polygon","coordinates":[[[105.01122927900008,15.707848452000064],[105.00083058000007,15.73444534400005],[104.96176714500007,15.735104205000027],[104.94228849500007,15.69122410400007],[104.97272716300006,15.65061131300007],[104.98486886600006,15.641349886000057],[105.00676364200007,15.658056826000063],[105.01122927900008,15.707848452000064]]]}},{"type":"Feature","properties":{"code":"340107","name":"ปทุม","parentCode":"3401"},"geometry":{"type":"Polygon","coordinates":[[[104.89740557100004,15.255280052000046],[104.88889076000004,15.252654822000068],[104.89121985100007,15.232653292000066],[104.89431937200004,15.233092795000061],[104.89740557100004,15.255280052000046]]]}},{"type":"Feature","properties":{"code":"343103","name":"แพงใหญ่","parentCode":"3431"},"geometry":{"type":"Polygon","coordinates":[[[104.90319378000004,15.358458658000075],[104.91017631100004,15.400464860000056],[104.84796129000006,15.423354156000073],[104.85058123900006,15.38572488400007],[104.88358573800008,15.369271210000022],[104.90319378000004,15.358458658000075]]]}},{"type":"Feature","properties":{"code":"341412","name":"ไผ่ใหญ่","parentCode":"3414"},"geometry":{"type":"Polygon","coordinates":[[[104.63743448300005,15.646958945000051],[104.59074943900004,15.609458646000064],[104.58591169900006,15.566692880000062],[104.64378244300008,15.563741118000053],[104.63743448300005,15.646958945000051]]]}},{"type":"Feature","properties":{"code":"343302","name":"ไพบูลย์","parentCode":"3433"},"geometry":{"type":"Polygon","coordinates":[[[104.89047839200003,14.651406331000032],[104.84836659000007,14.659076233000064],[104.83682555600006,14.629702253000062],[104.81896111700007,14.559403900000063],[104.82721164600008,14.534739064000064],[104.87745860900009,14.560978070000033],[104.88183261700004,14.579819961000055],[104.85648146700004,14.597825878000037],[104.89136569400006,14.647991919000049],[104.89047839200003,14.651406331000032]]]}},{"type":"Feature","properties":{"code":"343002","name":"พะลาน","parentCode":"3430"},"geometry":{"type":"Polygon","coordinates":[[[105.39330885000004,15.991567686000053],[105.30582744600008,15.991407571000025],[105.29273904900003,15.921905817000038],[105.34262293000006,15.920338951000076],[105.39330885000004,15.991567686000053]]]}},{"type":"Feature","properties":{"code":"343004","name":"พังเคน","parentCode":"3430"},"geometry":{"type":"Polygon","coordinates":[[[105.24758339100003,15.934294952000073],[105.22817986200005,15.976468431000058],[105.17204766500004,15.930379684000059],[105.12915610400006,15.90441729500003],[105.20801435800007,15.893370841000035],[105.25356924400006,15.893488510000054],[105.26376247500008,15.902742228000022],[105.24758339100003,15.934294952000073]]]}},{"type":"Feature","properties":{"code":"341901","name":"พิบูล","parentCode":"3419"},"geometry":{"type":"Polygon","coordinates":[[[105.22914992800008,15.259780988000045],[105.21446446400006,15.226054470000065],[105.24724837100007,15.242330090000053],[105.22914992800008,15.259780988000045]]]}},{"type":"Feature","properties":{"code":"341909","name":"โพธิ์ไทร","parentCode":"3419"},"geometry":{"type":"Polygon","coordinates":[[[105.20370665400009,15.30537189000006],[105.16270094900005,15.30780106700007],[105.17321079700008,15.28075801600005],[105.14545202900007,15.192676347000031],[105.19853808800008,15.168849292000061],[105.20288524600005,15.170004925000057],[105.21446446400006,15.226054470000065],[105.22914992800008,15.259780988000045],[105.20370665400009,15.30537189000006]]]}},{"type":"Feature","properties":{"code":"342101","name":"โพธิ์ไทร","parentCode":"3421"},"geometry":{"type":"Polygon","coordinates":[[[105.29569105200005,15.837262771000042],[105.21976615500006,15.848436202000073],[105.17253410300003,15.814175500000033],[105.28544320300006,15.792787131000068],[105.32966948500007,15.75903383800005],[105.34798961500007,15.792053401000032],[105.29569105200005,15.837262771000042]]]}},{"type":"Feature","properties":{"code":"341910","name":"โพธิ์ศรี","parentCode":"3419"},"geometry":{"type":"Polygon","coordinates":[[[105.22930171200005,15.326908932000038],[105.21261223900007,15.331081074000053],[105.20370665400009,15.30537189000006],[105.22914992800008,15.259780988000045],[105.24724837100007,15.242330090000053],[105.26658636400003,15.278400090000048],[105.22930171200005,15.326908932000038]]]}},{"type":"Feature","properties":{"code":"341516","name":"โพธิ์ใหญ่","parentCode":"3415"},"geometry":{"type":"Polygon","coordinates":[[[104.98864622100007,15.173302357000068],[104.96919482300007,15.179023318000077],[104.91991960300004,15.127547932000027],[104.92888588200009,15.076318369000035],[104.97833065300006,15.067396958000074],[105.00464995100003,15.096941351000055],[104.99210934700005,15.168163818000039],[104.98864622100007,15.173302357000068]]]}},{"type":"Feature","properties":{"code":"343102","name":"โพนเมือง","parentCode":"3431"},"geometry":{"type":"Polygon","coordinates":[[[104.88754400700009,15.545026620000044],[104.86981367500005,15.538341982000077],[104.84385236500003,15.531467880000037],[104.85424132900005,15.478218440000035],[104.83721647700008,15.443205181000053],[104.84796129000006,15.423354156000073],[104.94134567100008,15.488043478000066],[104.88754400700009,15.545026620000044]]]}},{"type":"Feature","properties":{"code":"340720","name":"โพนงาม","parentCode":"3407"},"geometry":{"type":"Polygon","coordinates":[[[105.14258077000005,14.906394901000056],[105.12203370100008,14.93869918300004],[105.08617928800004,14.886113615000056],[105.10674673900007,14.87298809300006],[105.13986678600008,14.872555999000042],[105.14258077000005,14.906394901000056]]]}},{"type":"Feature","properties":{"code":"341001","name":"โพนงาม","parentCode":"3410"},"geometry":{"type":"Polygon","coordinates":[[[105.52055278000006,14.82365182600006],[105.46098489200006,14.815020953000044],[105.39227312200006,14.834199922000039],[105.39125451900009,14.787224793000064],[105.40454770300005,14.728500631000031],[105.43949812700004,14.697696171000075],[105.52529996600003,14.68167778700007],[105.51286596400007,14.753295901000058],[105.52055278000006,14.82365182600006]]]}},{"type":"Feature","properties":{"code":"341414","name":"โพนแพง","parentCode":"3414"},"geometry":{"type":"Polygon","coordinates":[[[104.75431997900006,15.475355421000074],[104.72314257400006,15.483122769000033],[104.70980055500007,15.405146768000066],[104.73332764600008,15.397897306000061],[104.78034749500006,15.427668726000036],[104.75431997900006,15.475355421000074]]]}},{"type":"Feature","properties":{"code":"340803","name":"พรสวรรค์","parentCode":"3408"},"geometry":{"type":"Polygon","coordinates":[[[105.21881068400006,14.642526995000026],[105.18438272000009,14.648233305000076],[105.18279459400009,14.690575171000035],[105.14964654800008,14.731309601000078],[105.14655091400004,14.71925049400005],[105.16665046200006,14.619677067000055],[105.14814869300005,14.541391801000032],[105.18692288200003,14.570173271000044],[105.21881068400006,14.642526995000026]]]}},{"type":"Feature","properties":{"code":"340112","name":"ไร่น้อย","parentCode":"3401"},"geometry":{"type":"Polygon","coordinates":[[[104.90319378000004,15.358458658000075],[104.88358573800008,15.369271210000022],[104.87901796500006,15.338836309000044],[104.85595285200009,15.261189183000056],[104.88889076000004,15.252654822000068],[104.89740557100004,15.255280052000046],[104.91180353800007,15.280223693000039],[104.95302262000007,15.341190791000031],[104.94063806300005,15.342324146000067],[104.91492105000003,15.355405680000047],[104.90319378000004,15.358458658000075]]]}},{"type":"Feature","properties":{"code":"341912","name":"ไร่ใต้","parentCode":"3419"},"geometry":{"type":"Polygon","coordinates":[[[105.19853808800008,15.168849292000061],[105.14545202900007,15.192676347000031],[105.11716475000009,15.165110163000065],[105.06372625000006,15.185674126000038],[105.06045944300007,15.182849415000078],[105.05201708600003,15.114122774000066],[105.14037988700005,15.098962896000046],[105.20454893100003,15.138678607000031],[105.19853808800008,15.168849292000061]]]}},{"type":"Feature","properties":{"code":"341911","name":"ระเว","parentCode":"3419"},"geometry":{"type":"Polygon","coordinates":[[[105.26119480300008,15.371048324000071],[105.22930171200005,15.326908932000038],[105.26658636400003,15.278400090000048],[105.30759976300004,15.29019524000006],[105.30281549600005,15.319620109000027],[105.36623067800008,15.31631333300004],[105.34450073800008,15.370926245000078],[105.27524406100008,15.371137371000032],[105.26119480300008,15.371048324000071]]]}},{"type":"Feature","properties":{"code":"341508","name":"สระสมิง","parentCode":"3415"},"geometry":{"type":"Polygon","coordinates":[[[104.94566145100003,15.028206607000072],[104.92256874100008,15.045717688000025],[104.88351402900008,15.036662662000026],[104.85830167100005,14.986451376000048],[104.90460163000006,14.942308282000056],[104.92148648700004,14.954231484000047],[104.93105397100004,14.990808247000075],[104.94566145100003,15.028206607000072]]]}},{"type":"Feature","properties":{"code":"341518","name":"แสนสุข","parentCode":"3415"},"geometry":{"type":"Polygon","coordinates":[[[104.90717602300003,15.203100604000042],[104.86950939900004,15.193085951000057],[104.84913764000004,15.188111914000046],[104.83782342300009,15.176200512000037],[104.85146356400008,15.131194015000062],[104.89656654500004,15.160976624000057],[104.90717602300003,15.203100604000042]]]}},{"type":"Feature","properties":{"code":"340417","name":"สหธาตุ","parentCode":"3404"},"geometry":{"type":"Polygon","coordinates":[[[104.48587910300006,15.297195345000034],[104.46021196900006,15.390382468000041],[104.43758066200007,15.368908779000037],[104.42497827400007,15.325890627000035],[104.48587910300006,15.297195345000034]]]}},{"type":"Feature","properties":{"code":"341905","name":"ทรายมูล","parentCode":"3419"},"geometry":{"type":"Polygon","coordinates":[[[105.36623067800008,15.31631333300004],[105.30281549600005,15.319620109000027],[105.30759976300004,15.29019524000006],[105.26658636400003,15.278400090000048],[105.24724837100007,15.242330090000053],[105.28448728800004,15.240859232000048],[105.35601037600009,15.289524721000078],[105.37071112400008,15.296495742000047],[105.36623067800008,15.31631333300004]]]}},{"type":"Feature","properties":{"code":"342002","name":"สำโรง","parentCode":"3420"},"geometry":{"type":"Polygon","coordinates":[[[105.26119480300008,15.371048324000071],[105.22411365000005,15.452318863000073],[105.20653474900007,15.40489632200007],[105.17470621700005,15.350004108000064],[105.21261223900007,15.331081074000053],[105.22930171200005,15.326908932000038],[105.26119480300008,15.371048324000071]]]}},{"type":"Feature","properties":{"code":"342103","name":"สำโรง","parentCode":"3421"},"geometry":{"type":"Polygon","coordinates":[[[105.54583106800004,15.750341915000035],[105.49459433600003,15.765700969000022],[105.44682954100006,15.751573036000025],[105.41039729800008,15.720137760000057],[105.35954985800004,15.73247582600004],[105.33293315900005,15.707156312000052],[105.38835045800005,15.648546879000037],[105.41368170900006,15.635575834000065],[105.44474070400008,15.682572144000062],[105.53473557300003,15.698375891000069],[105.54583106800004,15.750341915000035]]]}},{"type":"Feature","properties":{"code":"342201","name":"สำโรง","parentCode":"3422"},"geometry":{"type":"Polygon","coordinates":[[[104.81543231700005,15.015519873000073],[104.78616977700005,15.049669583000025],[104.76941987100008,15.022934894000059],[104.76024839000007,15.005029653000065],[104.76231288100007,15.000105003000044],[104.78462779300008,14.98374377600004],[104.81543231700005,15.015519873000073]]]}},{"type":"Feature","properties":{"code":"340402","name":"สร้างถ่อ","parentCode":"3404"},"geometry":{"type":"Polygon","coordinates":[[[104.51702121600005,15.416385812000044],[104.47233587500006,15.413340238000046],[104.46021196900006,15.390382468000041],[104.48587910300006,15.297195345000034],[104.52501157700004,15.321710224000071],[104.53825089000009,15.329732532000037],[104.53863361400005,15.38946848200004],[104.51702121600005,15.416385812000044]]]}},{"type":"Feature","properties":{"code":"341116","name":"สะพือ","parentCode":"3411"},"geometry":{"type":"Polygon","coordinates":[[[105.05967061100006,15.500106426000059],[105.03179702300008,15.535960810000063],[105.02236707700007,15.530277307000063],[104.98634349400004,15.508854965000069],[105.05967061100006,15.500106426000059]]]}},{"type":"Feature","properties":{"code":"342105","name":"สารภี","parentCode":"3421"},"geometry":{"type":"Polygon","coordinates":[[[105.32966948500007,15.75903383800005],[105.28544320300006,15.792787131000068],[105.17253410300003,15.814175500000033],[105.16243798100004,15.80103249900003],[105.16527599500006,15.773853217000067],[105.19113267100005,15.773387868000043],[105.21244737200004,15.739288969000029],[105.22859331600006,15.729498130000025],[105.25110982700005,15.713426680000055],[105.28997577000007,15.692012661000035],[105.33293315900005,15.707156312000052],[105.30209350800004,15.736855540000022],[105.32966948500007,15.75903383800005]]]}},{"type":"Feature","properties":{"code":"343204","name":"สว่าง","parentCode":"3432"},"geometry":{"type":"Polygon","coordinates":[[[105.17321079700008,15.28075801600005],[105.16270094900005,15.30780106700007],[105.11221039600008,15.30668165700007],[105.05550379200008,15.283789472000024],[105.07299700500005,15.250608495000051],[105.14322975000005,15.239332310000066],[105.17321079700008,15.28075801600005]]]}},{"type":"Feature","properties":{"code":"341115","name":"เซเป็ด","parentCode":"3411"},"geometry":{"type":"Polygon","coordinates":[[[105.00655751600004,15.570781573000033],[104.98608983100007,15.585295250000058],[104.97553516200009,15.541255905000071],[104.98634349400004,15.508854965000069],[105.02236707700007,15.530277307000063],[105.00655751600004,15.570781573000033]]]}},{"type":"Feature","properties":{"code":"340416","name":"ศรีสุข","parentCode":"3404"},"geometry":{"type":"Polygon","coordinates":[[[104.56611250600008,15.556378805000065],[104.53972493800006,15.548148362000063],[104.49361636400005,15.479711758000064],[104.55289396800003,15.447175960000038],[104.57989183800004,15.515761270000041],[104.56611250600008,15.556378805000065]]]}},{"type":"Feature","properties":{"code":"340907","name":"สีวิเชียร","parentCode":"3409"},"geometry":{"type":"Polygon","coordinates":[[[105.09777610900005,14.502530053000044],[105.06241339800005,14.519404980000047],[104.98713677100005,14.51599783200004],[104.98668055400009,14.380385855000043],[104.99983899800009,14.367064535000054],[105.01693326100008,14.439439268000058],[105.05953328300006,14.45381023300007],[105.09777610900005,14.502530053000044]]]}},{"type":"Feature","properties":{"code":"340805","name":"โสกแสง","parentCode":"3408"},"geometry":{"type":"Polygon","coordinates":[[[105.25351968300004,14.72047806300003],[105.22269229700004,14.736093698000047],[105.21881068400006,14.642526995000026],[105.31115769900003,14.59548731600006],[105.30791863300004,14.609502779000024],[105.26012017400006,14.695786296000051],[105.25351968300004,14.72047806300003]]]}},{"type":"Feature","properties":{"code":"340708","name":"สมสะอาด","parentCode":"3407"},"geometry":{"type":"Polygon","coordinates":[[[105.00698276600008,14.862979031000066],[104.97304547700008,14.856834007000032],[104.96106963600005,14.829211744000077],[104.95696604500006,14.787304560000052],[104.95410452100003,14.772466078000036],[104.99635576000009,14.78971608300003],[105.03380080300008,14.803131657000051],[105.00698276600008,14.862979031000066]]]}},{"type":"Feature","properties":{"code":"340901","name":"โซง","parentCode":"3409"},"geometry":{"type":"Polygon","coordinates":[[[105.00598351700006,14.549139508000053],[104.96863457700005,14.573138314000062],[104.95469611300007,14.533559289000038],[104.90987384700009,14.514431797000043],[104.88580950400006,14.427106512000023],[104.90710547700007,14.399177843000075],[104.98668055400009,14.380385855000043],[104.98713677100005,14.51599783200004],[105.00598351700006,14.549139508000053]]]}},{"type":"Feature","properties":{"code":"342104","name":"สองคอน","parentCode":"3421"},"geometry":{"type":"Polygon","coordinates":[[[105.37529732600007,15.855148969000027],[105.31485687800006,15.86389894000007],[105.29569105200005,15.837262771000042],[105.34798961500007,15.792053401000032],[105.39267032800007,15.805427007000048],[105.37529732600007,15.855148969000027]]]}},{"type":"Feature","properties":{"code":"340206","name":"สงยาง","parentCode":"3402"},"geometry":{"type":"Polygon","coordinates":[[[105.35459253400006,15.625130916000046],[105.26066113900004,15.688969659000065],[105.21758673000005,15.656675827000072],[105.23188615700008,15.541813131000026],[105.24678916500005,15.519828919000076],[105.25950158100005,15.516708735000066],[105.26042442900007,15.560693322000077],[105.35459253400006,15.625130916000046]]]}},{"type":"Feature","properties":{"code":"343301","name":"ตาเกา","parentCode":"3433"},"geometry":{"type":"Polygon","coordinates":[[[104.98245612900007,14.62137623500007],[104.93929227200005,14.616026413000043],[104.88183261700004,14.579819961000055],[104.87745860900009,14.560978070000033],[104.90987384700009,14.514431797000043],[104.95469611300007,14.533559289000038],[104.96863457700005,14.573138314000062],[104.98245612900007,14.62137623500007]]]}},{"type":"Feature","properties":{"code":"340207","name":"ตะบ่าย","parentCode":"3402"},"geometry":{"type":"Polygon","coordinates":[[[105.23188615700008,15.541813131000026],[105.21758673000005,15.656675827000072],[105.20430693700007,15.601419406000048],[105.20078775600007,15.561200892000045],[105.23188615700008,15.541813131000026]]]}},{"type":"Feature","properties":{"code":"341112","name":"ตากแดด","parentCode":"3411"},"geometry":{"type":"Polygon","coordinates":[[[105.20430693700007,15.601419406000048],[105.16546637600004,15.613324301000034],[105.14892246700003,15.581436748000044],[105.11447165000004,15.547596694000049],[105.13618293400003,15.527582024000026],[105.15333033800005,15.565205286000037],[105.20123934800006,15.54543209600007],[105.20078775600007,15.561200892000045],[105.20430693700007,15.601419406000048]]]}},{"type":"Feature","properties":{"code":"342001","name":"ตาลสุม","parentCode":"3420"},"geometry":{"type":"Polygon","coordinates":[[[105.17470621700005,15.350004108000064],[105.14499904800005,15.359792807000076],[105.09245590700004,15.323721904000024],[105.11221039600008,15.30668165700007],[105.16270094900005,15.30780106700007],[105.20370665400009,15.30537189000006],[105.21261223900007,15.331081074000053],[105.17470621700005,15.350004108000064]]]}},{"type":"Feature","properties":{"code":"343202","name":"ท่าช้าง","parentCode":"3432"},"geometry":{"type":"Polygon","coordinates":[[[105.02794833500008,15.273433255000043],[105.00575622000008,15.279858610000076],[104.94115798200005,15.23358479600006],[104.98864622100007,15.173302357000068],[104.99210934700005,15.168163818000039],[105.03556118100005,15.183854617000065],[105.02794833500008,15.273433255000043]]]}},{"type":"Feature","properties":{"code":"340407","name":"ท่าไห","parentCode":"3404"},"geometry":{"type":"Polygon","coordinates":[[[104.63195284800008,15.340378844000043],[104.59584198200008,15.355871671000045],[104.57653319700006,15.320373859000028],[104.60920615500004,15.291822928000045],[104.62999842400006,15.333653560000073],[104.63195284800008,15.340378844000043]]]}},{"type":"Feature","properties":{"code":"341504","name":"ท่าลาด","parentCode":"3415"},"geometry":{"type":"Polygon","coordinates":[[[104.79366847100005,15.13658631900006],[104.75283768300005,15.124008572000037],[104.72877816400006,15.154344399000024],[104.70516280400005,15.131579351000028],[104.74334682100005,15.070616813000072],[104.78760996300008,15.078492133000054],[104.79944116400009,15.133781910000039],[104.79366847100005,15.13658631900006]]]}},{"type":"Feature","properties":{"code":"341119","name":"ท่าหลวง","parentCode":"3411"},"geometry":{"type":"Polygon","coordinates":[[[105.25110982700005,15.713426680000055],[105.22859331600006,15.729498130000025],[105.16250244200006,15.658881195000049],[105.16546637600004,15.613324301000034],[105.20430693700007,15.601419406000048],[105.21758673000005,15.656675827000072],[105.26066113900004,15.688969659000065],[105.25110982700005,15.713426680000055]]]}},{"type":"Feature","properties":{"code":"342403","name":"ท่าเมือง","parentCode":"3424"},"geometry":{"type":"Polygon","coordinates":[[[104.98576743900009,15.491792910000072],[104.94264127500008,15.487881263000077],[104.96400799000008,15.462966977000065],[105.00718590700006,15.416938516000073],[105.05960106900005,15.41811063700004],[105.05911703400005,15.420938014000058],[105.02510536900007,15.433326549000071],[105.01299525100006,15.485548337000068],[104.98576743900009,15.491792910000072]]]}},{"type":"Feature","properties":{"code":"340713","name":"ท่าโพธิ์ศรี","parentCode":"3407"},"geometry":{"type":"Polygon","coordinates":[[[105.10195272200008,14.860210345000041],[105.00721631800008,14.898791971000037],[105.00698276600008,14.862979031000066],[105.03380080300008,14.803131657000051],[105.07298229500009,14.783823665000057],[105.08837426900004,14.803166872000077],[105.10195272200008,14.860210345000041]]]}},{"type":"Feature","properties":{"code":"341118","name":"ถ้ำแข้","parentCode":"3411"},"geometry":{"type":"Polygon","coordinates":[[[105.21244737200004,15.739288969000029],[105.19113267100005,15.773387868000043],[105.18731806600005,15.743220327000074],[105.11242189400008,15.676977969000063],[105.11114074800008,15.65599680500003],[105.13838398400009,15.637172029000055],[105.19130921100003,15.734363171000041],[105.21244737200004,15.739288969000029]]]}},{"type":"Feature","properties":{"code":"341502","name":"ธาตุ","parentCode":"3415"},"geometry":{"type":"Polygon","coordinates":[[[104.90620677400005,15.130669454000042],[104.89656654500004,15.160976624000057],[104.85146356400008,15.131194015000062],[104.88073057600008,15.126051156000074],[104.90620677400005,15.130669454000042]]]}},{"type":"Feature","properties":{"code":"340410","name":"ธาตุน้อย","parentCode":"3404"},"geometry":{"type":"Polygon","coordinates":[[[104.42497827400007,15.325890627000035],[104.40672898900004,15.289305787000046],[104.43549357300009,15.283199254000067],[104.48280729500004,15.267853125000045],[104.50416235300008,15.267662294000047],[104.48587910300006,15.297195345000034],[104.42497827400007,15.325890627000035]]]}},{"type":"Feature","properties":{"code":"340706","name":"ทุ่งเทิง","parentCode":"3407"},"geometry":{"type":"Polygon","coordinates":[[[104.89974156400007,14.82858561300003],[104.84415654800006,14.864738973000044],[104.81447908500007,14.834552081000027],[104.79760925600004,14.810341085000061],[104.81794224800007,14.776988454000048],[104.88663798700009,14.796871077000048],[104.89974156400007,14.82858561300003]]]}},{"type":"Feature","properties":{"code":"341406","name":"เตย","parentCode":"3414"},"geometry":{"type":"Polygon","coordinates":[[[104.77147315800005,15.559426399000074],[104.75068299500003,15.542367854000076],[104.78056922200005,15.49652304700004],[104.83721647700008,15.443205181000053],[104.85424132900005,15.478218440000035],[104.84385236500003,15.531467880000037],[104.77147315800005,15.559426399000074]]]}},{"type":"Feature","properties":{"code":"340710","name":"ตบหู","parentCode":"3407"},"geometry":{"type":"Polygon","coordinates":[[[105.14964654800008,14.731309601000078],[105.11727272300004,14.741620800000021],[105.08837426900004,14.803166872000077],[105.07298229500009,14.783823665000057],[105.05877478400004,14.740923060000057],[105.03260400200008,14.674980796000057],[105.11702960300005,14.61798974800007],[105.11894956700007,14.686612741000033],[105.09462136300004,14.711905129000058],[105.14655091400004,14.71925049400005],[105.14964654800008,14.731309601000078]]]}},{"type":"Feature","properties":{"code":"341111","name":"ตระการ","parentCode":"3411"},"geometry":{"type":"Polygon","coordinates":[[[105.05967061100006,15.500106426000059],[104.98634349400004,15.508854965000069],[104.98576743900009,15.491792910000072],[105.01299525100006,15.485548337000068],[105.02510536900007,15.433326549000071],[105.05911703400005,15.420938014000058],[105.09951486100005,15.452702375000058],[105.05967061100006,15.500106426000059]]]}},{"type":"Feature","properties":{"code":"340203","name":"เอือดใหญ่","parentCode":"3402"},"geometry":{"type":"Polygon","coordinates":[[[105.23188615700008,15.541813131000026],[105.20078775600007,15.561200892000045],[105.20123934800006,15.54543209600007],[105.19736886000004,15.512324553000042],[105.24678916500005,15.519828919000076],[105.23188615700008,15.541813131000026]]]}},{"type":"Feature","properties":{"code":"340204","name":"วาริน","parentCode":"3402"},"geometry":{"type":"Polygon","coordinates":[[[105.27524406100008,15.371137371000032],[105.29631619600008,15.413509436000027],[105.29037555000008,15.45566311600004],[105.28172203100007,15.467802980000044],[105.22411365000005,15.452318863000073],[105.26119480300008,15.371048324000071],[105.27524406100008,15.371137371000032]]]}},{"type":"Feature","properties":{"code":"341501","name":"วารินชำราบ","parentCode":"3415"},"geometry":{"type":"Polygon","coordinates":[[[104.87193882300005,15.22217235200003],[104.84263823300006,15.20838953200007],[104.84913764000004,15.188111914000046],[104.86950939900004,15.193085951000057],[104.87193882300005,15.22217235200003]]]}},{"type":"Feature","properties":{"code":"340903","name":"ยาง","parentCode":"3409"},"geometry":{"type":"Polygon","coordinates":[[[105.03260400200008,14.674980796000057],[104.99543235900006,14.668941312000072],[104.98243760800005,14.624600301000044],[105.01567917800008,14.597697573000062],[105.07516932900006,14.591349321000052],[105.11959560600008,14.611148894000053],[105.11702960300005,14.61798974800007],[105.03260400200008,14.674980796000057]]]}},{"type":"Feature","properties":{"code":"340415","name":"ยางขี้นก","parentCode":"3404"},"geometry":{"type":"Polygon","coordinates":[[[104.49361636400005,15.479711758000064],[104.48509908400007,15.487736991000077],[104.46103776500007,15.46399454300007],[104.46864236700009,15.42101801800004],[104.47233587500006,15.413340238000046],[104.51702121600005,15.416385812000044],[104.55499597900007,15.425454314000035],[104.55289396800003,15.447175960000038],[104.49361636400005,15.479711758000064]]]}},{"type":"Feature","properties":{"code":"341407","name":"ยางสักกระโพหลุ่ม","parentCode":"3414"},"geometry":{"type":"Polygon","coordinates":[[[104.83721647700008,15.443205181000053],[104.78056922200005,15.49652304700004],[104.75431997900006,15.475355421000074],[104.78034749500006,15.427668726000036],[104.79047192800004,15.414113297000029],[104.80636573300006,15.414383931000032],[104.85058123900006,15.38572488400007],[104.84796129000006,15.423354156000073],[104.83721647700008,15.443205181000053]]]}},{"type":"Feature","properties":{"code":"340909","name":"ยางใหญ่","parentCode":"3409"},"geometry":{"type":"Polygon","coordinates":[[[105.14814869300005,14.541391801000032],[105.16665046200006,14.619677067000055],[105.11959560600008,14.611148894000053],[105.07516932900006,14.591349321000052],[105.06430259900009,14.56916977000003],[105.07469211600005,14.550497758000063],[105.15007991100003,14.534667766000041],[105.14814869300005,14.541391801000032]]]}},{"type":"Feature","properties":{"code":"341411","name":"ยางโยภาพ","parentCode":"3414"},"geometry":{"type":"Polygon","coordinates":[[[104.69075960900005,15.628059151000059],[104.63743448300005,15.646958945000051],[104.64378244300008,15.563741118000053],[104.66633008600007,15.529573499000037],[104.68101007800004,15.526930479000043],[104.69031329000006,15.550161979000052],[104.69428072100004,15.586366182000063],[104.69075960900005,15.628059151000059]]]}}]}