{"type":"FeatureCollection","features":[{"type":"Feature","properties":{"code":"350605","name":"บากเรือ","parentCode":"3506"},"geometry":{"type":"Polygon","coordinates":[[[104.28302935700003,15.596706656000038],[104.23533440800009,15.58082395100007],[104.24978483900009,15.561803011000052],[104.27584440000004,15.528223221000076],[104.32335301500007,15.570996404000027],[104.31465193900004,15.57965366600007],[104.28302935700003,15.596706656000038]]]}},{"type":"Feature","properties":{"code":"350608","name":"บึงแก","parentCode":"3506"},"geometry":{"type":"Polygon","coordinates":[[[104.35390700100004,15.561189753000065],[104.34572803800006,15.562313515000028],[104.31669770300005,15.515769454000065],[104.36979993600005,15.459023513000034],[104.37230066800004,15.457492201000036],[104.39039184800004,15.490415271000074],[104.38591622300004,15.53625071700003],[104.35390700100004,15.561189753000065]]]}},{"type":"Feature","properties":{"code":"350802","name":"บุ่งค้า","parentCode":"3508"},"geometry":{"type":"Polygon","coordinates":[[[104.76607414700004,16.196444264000036],[104.71646693900004,16.20393193500007],[104.66334631200004,16.243951980000077],[104.62705030800004,16.211229995000053],[104.63593049700006,16.122418692000053],[104.67206098700007,16.118500915000027],[104.75319165900004,16.10255935400005],[104.81385420500004,16.09867915600006],[104.82500423100004,16.155255647000047],[104.78924576100007,16.157434039000066],[104.76607414700004,16.196444264000036]]]}},{"type":"Feature","properties":{"code":"350504","name":"เชียงเพ็ง","parentCode":"3505"},"geometry":{"type":"Polygon","coordinates":[[[104.45637719700005,15.853546006000045],[104.42912898200007,15.855392646000041],[104.42300463000004,15.778165585000067],[104.39426142200006,15.777020079000067],[104.40063719900007,15.752333135000072],[104.41890576400004,15.745743803000039],[104.43348225000005,15.779258365000032],[104.45581552600004,15.84011255400003],[104.45637719700005,15.853546006000045]]]}},{"type":"Feature","properties":{"code":"350107","name":"เดิด","parentCode":"3501"},"geometry":{"type":"Polygon","coordinates":[[[104.09374782900005,15.977546450000034],[104.04942760000006,15.985993712000038],[104.02966027600007,15.980858234000038],[104.01522215500006,15.964533775000064],[104.02941628300005,15.925369663000026],[104.05429048200006,15.895424215000048],[104.08801085000005,15.90830470900005],[104.10114803000005,15.95818115700007],[104.09374782900005,15.977546450000034]]]}},{"type":"Feature","properties":{"code":"350413","name":"ดงเจริญ","parentCode":"3504"},"geometry":{"type":"Polygon","coordinates":[[[104.31397716000004,15.720528555000044],[104.27643804700006,15.71949771800007],[104.26027531400007,15.701718658000061],[104.28902282200005,15.670630114000062],[104.31397716000004,15.720528555000044]]]}},{"type":"Feature","properties":{"code":"350407","name":"ดงแคนใหญ่","parentCode":"3504"},"geometry":{"type":"Polygon","coordinates":[[[104.39958703300005,15.613305575000027],[104.37110554200007,15.621302170000035],[104.35390700100004,15.561189753000065],[104.38591622300004,15.53625071700003],[104.44143566100007,15.554481125000052],[104.39958703300005,15.613305575000027]]]}},{"type":"Feature","properties":{"code":"350203","name":"ดงมะไฟ","parentCode":"3502"},"geometry":{"type":"Polygon","coordinates":[[[104.13227431100006,16.03971808400007],[104.11367897700006,16.038205651000055],[104.09374782900005,15.977546450000034],[104.10114803000005,15.95818115700007],[104.15000567300007,15.937562871000068],[104.17163114800007,15.954264660000035],[104.17532388600006,16.012752762000048],[104.13227431100006,16.03971808400007]]]}},{"type":"Feature","properties":{"code":"350202","name":"ดู่ลาด","parentCode":"3502"},"geometry":{"type":"Polygon","coordinates":[[[104.21050816200005,16.054086590000054],[104.17532388600006,16.012752762000048],[104.17163114800007,15.954264660000035],[104.23035707800005,15.999778789000061],[104.22050203000003,16.050040551000052],[104.21050816200005,16.054086590000054]]]}},{"type":"Feature","properties":{"code":"350106","name":"ดู่ทุ่ง","parentCode":"3501"},"geometry":{"type":"Polygon","coordinates":[[[104.08801085000005,15.90830470900005],[104.05429048200006,15.895424215000048],[104.02941628300005,15.925369663000026],[104.01404198400007,15.91072521600006],[104.03653167400006,15.869322736000072],[104.08166920200006,15.860232538000048],[104.11664899700008,15.86305266200003],[104.08801085000005,15.90830470900005]]]}},{"type":"Feature","properties":{"code":"350701","name":"ฟ้าห่วน","parentCode":"3507"},"geometry":{"type":"Polygon","coordinates":[[[104.43758066200007,15.368908779000037],[104.38975796500006,15.38696591300004],[104.38017453400005,15.375883262000059],[104.36687053500003,15.32606428300005],[104.38222246900006,15.29466039700003],[104.40672898900004,15.289305787000046],[104.42497827400007,15.325890627000035],[104.43758066200007,15.368908779000037]]]}},{"type":"Feature","properties":{"code":"350601","name":"ฟ้าหยาด","parentCode":"3506"},"geometry":{"type":"Polygon","coordinates":[[[104.24978483900009,15.561803011000052],[104.21216474200008,15.529206779000049],[104.22345613400006,15.482318200000066],[104.23106666300004,15.478876226000068],[104.28304285500008,15.482498662000069],[104.28796034700008,15.506889541000078],[104.27584440000004,15.528223221000076],[104.24978483900009,15.561803011000052]]]}},{"type":"Feature","properties":{"code":"350805","name":"ห้องแซง","parentCode":"3508"},"geometry":{"type":"Polygon","coordinates":[[[104.43176475800004,16.276268877000064],[104.36721472000005,16.340916377000042],[104.34800461400005,16.323211225000023],[104.32803481900004,16.270370743000058],[104.29702546900006,16.245297476000076],[104.38410823700008,16.21557494600006],[104.40766978700009,16.216208510000058],[104.43176475800004,16.276268877000064]]]}},{"type":"Feature","properties":{"code":"350602","name":"หัวเมือง","parentCode":"3506"},"geometry":{"type":"Polygon","coordinates":[[[104.21216474200008,15.529206779000049],[104.24978483900009,15.561803011000052],[104.23533440800009,15.58082395100007],[104.20945809500006,15.608959412000047],[104.17219518000007,15.603949615000033],[104.18437230300003,15.554804219000061],[104.16213910300007,15.534842507000064],[104.21216474200008,15.529206779000049]]]}},{"type":"Feature","properties":{"code":"350305","name":"ห้วยแก้ง","parentCode":"3503"},"geometry":{"type":"Polygon","coordinates":[[[104.31458826200009,16.032242548000056],[104.27992813200007,16.024160726000048],[104.22050203000003,16.050040551000052],[104.23035707800005,15.999778789000061],[104.27269227700003,15.980021184000066],[104.31524967000007,16.000495261000026],[104.31458826200009,16.032242548000056]]]}},{"type":"Feature","properties":{"code":"350303","name":"กำแมด","parentCode":"3503"},"geometry":{"type":"Polygon","coordinates":[[[104.42380993700004,15.975591113000064],[104.33880062000009,15.968232466000075],[104.32031449800007,15.93550659500005],[104.33045762900008,15.901703582000039],[104.37823661600004,15.903435820000027],[104.43736533000003,15.967333933000077],[104.42380993700004,15.975591113000064]]]}},{"type":"Feature","properties":{"code":"350412","name":"แคนน้อย","parentCode":"3504"},"geometry":{"type":"Polygon","coordinates":[[[104.36576844600006,15.628257272000042],[104.31465193900004,15.57965366600007],[104.32335301500007,15.570996404000027],[104.34572803800006,15.562313515000028],[104.35390700100004,15.561189753000065],[104.37110554200007,15.621302170000035],[104.36576844600006,15.628257272000042]]]}},{"type":"Feature","properties":{"code":"350308","name":"คำน้ำสร้าง","parentCode":"3503"},"geometry":{"type":"Polygon","coordinates":[[[104.28760316900008,16.153125553000052],[104.21515342600009,16.096290272000033],[104.22292926900008,16.079258967000044],[104.30030480900007,16.090792988000032],[104.28760316900008,16.153125553000052]]]}},{"type":"Feature","properties":{"code":"350905","name":"คำไผ่","parentCode":"3509"},"geometry":{"type":"Polygon","coordinates":[[[104.54260898700005,16.07117774900007],[104.45972830900007,16.09572419600005],[104.44255811000005,16.049032023000052],[104.52547067800003,16.03639323300007],[104.54260898700005,16.07117774900007]]]}},{"type":"Feature","properties":{"code":"350904","name":"คำเตย","parentCode":"3509"},"geometry":{"type":"Polygon","coordinates":[[[104.38229922400006,16.13609831800005],[104.32172172500003,16.141016095000055],[104.35140129600006,16.123472040000024],[104.36918892100005,16.060643077000066],[104.39510715200004,16.038078547000055],[104.42742663100006,16.076304503000074],[104.43806553400009,16.128083866000054],[104.38229922400006,16.13609831800005]]]}},{"type":"Feature","properties":{"code":"350108","name":"ขั้นไดใหญ่","parentCode":"3501"},"geometry":{"type":"Polygon","coordinates":[[[104.15000567300007,15.937562871000068],[104.10114803000005,15.95818115700007],[104.08801085000005,15.90830470900005],[104.11664899700008,15.86305266200003],[104.13465700700004,15.869828375000054],[104.14879190500005,15.914687277000041],[104.15000567300007,15.937562871000068]]]}},{"type":"Feature","properties":{"code":"350105","name":"ค้อเหนือ","parentCode":"3501"},"geometry":{"type":"Polygon","coordinates":[[[104.08166920200006,15.860232538000048],[104.03653167400006,15.869322736000072],[104.00264981200007,15.802476929000022],[104.03337376000007,15.796086062000029],[104.05953966400006,15.811707891000026],[104.07804681300007,15.837911743000063],[104.08166920200006,15.860232538000048]]]}},{"type":"Feature","properties":{"code":"350704","name":"ค้อวัง","parentCode":"3507"},"geometry":{"type":"Polygon","coordinates":[[[104.38017453400005,15.375883262000059],[104.32650214000006,15.390291604000026],[104.28612166400006,15.356589920000033],[104.29362841700004,15.346960198000033],[104.34548914200008,15.34188105100003],[104.36687053500003,15.32606428300005],[104.38017453400005,15.375883262000059]]]}},{"type":"Feature","properties":{"code":"350503","name":"โคกนาโก","parentCode":"3505"},"geometry":{"type":"Polygon","coordinates":[[[104.50195090200003,15.976500546000068],[104.45192977500005,15.993931645000032],[104.42380993700004,15.975591113000064],[104.43736533000003,15.967333933000077],[104.37823661600004,15.903435820000027],[104.36263833400005,15.873525366000024],[104.42912898200007,15.855392646000041],[104.45637719700005,15.853546006000045],[104.46515500600003,15.91289275500003],[104.49615562000008,15.94404146000005],[104.50501519400007,15.965496461000043],[104.50195090200003,15.976500546000068]]]}},{"type":"Feature","properties":{"code":"350812","name":"โคกสำราญ","parentCode":"3508"},"geometry":{"type":"Polygon","coordinates":[[[104.62705030800004,16.211229995000053],[104.57132313800008,16.17649403000007],[104.54854471400006,16.126137264000022],[104.55837669500005,16.09000463900003],[104.60111381300004,16.108488382000075],[104.63593049700006,16.122418692000053],[104.62705030800004,16.211229995000053]]]}},{"type":"Feature","properties":{"code":"350603","name":"คูเมือง","parentCode":"3506"},"geometry":{"type":"Polygon","coordinates":[[[104.22345613400006,15.482318200000066],[104.21216474200008,15.529206779000049],[104.16213910300007,15.534842507000064],[104.14118661900005,15.528667011000039],[104.14117081300009,15.503356647000032],[104.17112029300006,15.472411446000024],[104.19342111500004,15.458590711000056],[104.22345613400006,15.482318200000066]]]}},{"type":"Feature","properties":{"code":"350112","name":"เขื่องคำ","parentCode":"3501"},"geometry":{"type":"Polygon","coordinates":[[[104.22160574100008,15.743750336000062],[104.15472824100004,15.784399758000063],[104.13782632300007,15.782807397000056],[104.12767260700008,15.717084770000042],[104.15864361400008,15.68926704100005],[104.19114577500005,15.737515548000033],[104.22160574100008,15.743750336000062]]]}},{"type":"Feature","properties":{"code":"350115","name":"ขุมเงิน","parentCode":"3501"},"geometry":{"type":"Polygon","coordinates":[[[104.23558691300008,15.729044542000054],[104.22160574100008,15.743750336000062],[104.19114577500005,15.737515548000033],[104.15864361400008,15.68926704100005],[104.16826576700004,15.675159010000073],[104.23558691300008,15.729044542000054]]]}},{"type":"Feature","properties":{"code":"350502","name":"กระจาย","parentCode":"3505"},"geometry":{"type":"Polygon","coordinates":[[[104.37552171700008,15.808973214000048],[104.35958870700006,15.86903508100005],[104.30826840000009,15.840548827000077],[104.28265176800005,15.825401943000031],[104.28310508100009,15.80114513600006],[104.26974732300005,15.762062875000026],[104.33187374800008,15.761346668000044],[104.32338639600005,15.803645274000075],[104.37552171700008,15.808973214000048]]]}},{"type":"Feature","properties":{"code":"350408","name":"กู่จาน","parentCode":"3504"},"geometry":{"type":"Polygon","coordinates":[[[104.44343466300006,15.683571240000049],[104.42516435400006,15.725217856000029],[104.37516645800008,15.709397842000044],[104.34860806900008,15.670390588000032],[104.38666581400008,15.639250597000057],[104.44602039900008,15.654603580000071],[104.44343466300006,15.683571240000049]]]}},{"type":"Feature","properties":{"code":"350807","name":"กุดเชียงหมี","parentCode":"3508"},"geometry":{"type":"Polygon","coordinates":[[[104.40004486300006,16.346589562000077],[104.36721472000005,16.340916377000042],[104.43176475800004,16.276268877000064],[104.48079368500004,16.261332568000057],[104.50661579300004,16.330438626000046],[104.45267968200005,16.34343741400005],[104.40004486300006,16.346589562000077]]]}},{"type":"Feature","properties":{"code":"350301","name":"กุดชุม","parentCode":"3503"},"geometry":{"type":"Polygon","coordinates":[[[104.32172172500003,16.141016095000055],[104.29162239800007,16.18222750800004],[104.28760316900008,16.153125553000052],[104.30030480900007,16.090792988000032],[104.31458826200009,16.032242548000056],[104.31524967000007,16.000495261000026],[104.35531793300004,16.018755335000037],[104.36918892100005,16.060643077000066],[104.35140129600006,16.123472040000024],[104.32172172500003,16.141016095000055]]]}},{"type":"Feature","properties":{"code":"350811","name":"กุดแห่","parentCode":"3508"},"geometry":{"type":"Polygon","coordinates":[[[104.53831308300005,16.31719484100006],[104.50661579300004,16.330438626000046],[104.48079368500004,16.261332568000057],[104.50401184700007,16.230372852000073],[104.52593269000005,16.215302722000047],[104.55674777900003,16.260521819000076],[104.56268434900005,16.283284998000056],[104.53831308300005,16.31719484100006]]]}},{"type":"Feature","properties":{"code":"350410","name":"กุดกุง","parentCode":"3504"},"geometry":{"type":"Polygon","coordinates":[[[104.28302935700003,15.596706656000038],[104.27764411100009,15.644308253000077],[104.20979700900006,15.618247949000022],[104.20945809500006,15.608959412000047],[104.23533440800009,15.58082395100007],[104.28302935700003,15.596706656000038]]]}},{"type":"Feature","properties":{"code":"350702","name":"กุดน้ำใส","parentCode":"3507"},"geometry":{"type":"Polygon","coordinates":[[[104.39143799800007,15.407783765000033],[104.37230066800004,15.457492201000036],[104.36979993600005,15.459023513000034],[104.30982349400006,15.440578814000048],[104.29854232900004,15.430385795000063],[104.32650214000006,15.390291604000026],[104.38017453400005,15.375883262000059],[104.38975796500006,15.38696591300004],[104.39143799800007,15.407783765000033]]]}},{"type":"Feature","properties":{"code":"350411","name":"เหล่าไฮ","parentCode":"3504"},"geometry":{"type":"Polygon","coordinates":[[[104.41890576400004,15.745743803000039],[104.40063719900007,15.752333135000072],[104.37532113700007,15.737722432000055],[104.33373228800008,15.718031375000066],[104.34860806900008,15.670390588000032],[104.37516645800008,15.709397842000044],[104.42516435400006,15.725217856000029],[104.43060701700006,15.73569770100005],[104.41890576400004,15.745743803000039]]]}},{"type":"Feature","properties":{"code":"350401","name":"ลุมพุก","parentCode":"3504"},"geometry":{"type":"Polygon","coordinates":[[[104.33373228800008,15.718031375000066],[104.31397716000004,15.720528555000044],[104.28902282200005,15.670630114000062],[104.27843455000004,15.649698667000052],[104.27764411100009,15.644308253000077],[104.28302935700003,15.596706656000038],[104.31465193900004,15.57965366600007],[104.36576844600006,15.628257272000042],[104.38666581400008,15.639250597000057],[104.34860806900008,15.670390588000032],[104.33373228800008,15.718031375000066]]]}},{"type":"Feature","properties":{"code":"350606","name":"ม่วง","parentCode":"3506"},"geometry":{"type":"Polygon","coordinates":[[[104.31669770300005,15.515769454000065],[104.28796034700008,15.506889541000078],[104.28304285500008,15.482498662000069],[104.30982349400006,15.440578814000048],[104.36979993600005,15.459023513000034],[104.31669770300005,15.515769454000065]]]}},{"type":"Feature","properties":{"code":"350409","name":"นาแก","parentCode":"3504"},"geometry":{"type":"Polygon","coordinates":[[[104.49435106900006,15.589934046000053],[104.44863538100009,15.618639263000034],[104.39958703300005,15.613305575000027],[104.44143566100007,15.554481125000052],[104.48028916000004,15.536861950000059],[104.51201416400005,15.563932335000061],[104.49435106900006,15.589934046000053]]]}},{"type":"Feature","properties":{"code":"350406","name":"นาคำ","parentCode":"3504"},"geometry":{"type":"Polygon","coordinates":[[[104.44602039900008,15.654603580000071],[104.38666581400008,15.639250597000057],[104.36576844600006,15.628257272000042],[104.37110554200007,15.621302170000035],[104.39958703300005,15.613305575000027],[104.44863538100009,15.618639263000034],[104.44602039900008,15.654603580000071]]]}},{"type":"Feature","properties":{"code":"350111","name":"นาสะไมย์","parentCode":"3501"},"geometry":{"type":"Polygon","coordinates":[[[104.25110550400007,15.93200960200005],[104.20985279400008,15.910010076000049],[104.21060185400006,15.884906533000049],[104.23323922300006,15.861273501000028],[104.29410860500008,15.900513020000062],[104.25110550400007,15.93200960200005]]]}},{"type":"Feature","properties":{"code":"350304","name":"นาโส่","parentCode":"3503"},"geometry":{"type":"Polygon","coordinates":[[[104.33880062000009,15.968232466000075],[104.31524967000007,16.000495261000026],[104.27269227700003,15.980021184000066],[104.28866200800007,15.962551528000063],[104.32031449800007,15.93550659500005],[104.33880062000009,15.968232466000075]]]}},{"type":"Feature","properties":{"code":"350204","name":"นาเวียง","parentCode":"3502"},"geometry":{"type":"Polygon","coordinates":[[[104.13227431100006,16.03971808400007],[104.17153262200009,16.084350311000037],[104.10692188400009,16.097593071000063],[104.11367897700006,16.038205651000055],[104.13227431100006,16.03971808400007]]]}},{"type":"Feature","properties":{"code":"350101","name":"ในเมือง","parentCode":"3501"},"geometry":{"type":"Polygon","coordinates":[[[104.16063395800006,15.801099066000063],[104.13248260200004,15.818405650000045],[104.12577918300008,15.802238316000057],[104.13782632300007,15.782807397000056],[104.15472824100004,15.784399758000063],[104.16063395800006,15.801099066000063]]]}},{"type":"Feature","properties":{"code":"350902","name":"น้ำคำ","parentCode":"3509"},"geometry":{"type":"Polygon","coordinates":[[[104.52547067800003,16.03639323300007],[104.44255811000005,16.049032023000052],[104.44893710700006,16.01473465400005],[104.45192977500005,15.993931645000032],[104.50195090200003,15.976500546000068],[104.53137100700008,16.003802165000025],[104.52547067800003,16.03639323300007]]]}},{"type":"Feature","properties":{"code":"350102","name":"น้ำคำใหญ่","parentCode":"3501"},"geometry":{"type":"Polygon","coordinates":[[[104.18068732500006,15.847629293000068],[104.14052365100008,15.859742513000072],[104.13248260200004,15.818405650000045],[104.16063395800006,15.801099066000063],[104.20698982700009,15.80494421800006],[104.19528061300008,15.833380888000022],[104.18068732500006,15.847629293000068]]]}},{"type":"Feature","properties":{"code":"350703","name":"น้ำอ้อม","parentCode":"3507"},"geometry":{"type":"Polygon","coordinates":[[[104.29854232900004,15.430385795000063],[104.24894166000007,15.413282142000071],[104.23286340900006,15.403150238000023],[104.25913762300007,15.371844013000043],[104.28612166400006,15.356589920000033],[104.32650214000006,15.390291604000026],[104.29854232900004,15.430385795000063]]]}},{"type":"Feature","properties":{"code":"350302","name":"โนนเปือย","parentCode":"3503"},"geometry":{"type":"Polygon","coordinates":[[[104.39510715200004,16.038078547000055],[104.36918892100005,16.060643077000066],[104.35531793300004,16.018755335000037],[104.31524967000007,16.000495261000026],[104.33880062000009,15.968232466000075],[104.42380993700004,15.975591113000064],[104.45192977500005,15.993931645000032],[104.44893710700006,16.01473465400005],[104.39510715200004,16.038078547000055]]]}},{"type":"Feature","properties":{"code":"350607","name":"โนนทราย","parentCode":"3506"},"geometry":{"type":"Polygon","coordinates":[[[104.34572803800006,15.562313515000028],[104.32335301500007,15.570996404000027],[104.27584440000004,15.528223221000076],[104.28796034700008,15.506889541000078],[104.31669770300005,15.515769454000065],[104.34572803800006,15.562313515000028]]]}},{"type":"Feature","properties":{"code":"350113","name":"หนองหิน","parentCode":"3501"},"geometry":{"type":"Polygon","coordinates":[[[104.31256677700009,15.888206964000062],[104.29410860500008,15.900513020000062],[104.23323922300006,15.861273501000028],[104.23368826300003,15.852012341000034],[104.28265176800005,15.825401943000031],[104.30826840000009,15.840548827000077],[104.31256677700009,15.888206964000062]]]}},{"type":"Feature","properties":{"code":"350114","name":"หนองคู","parentCode":"3501"},"geometry":{"type":"Polygon","coordinates":[[[104.28310508100009,15.80114513600006],[104.22742631400007,15.796676239000021],[104.25626216300009,15.755494164000027],[104.26974732300005,15.762062875000026],[104.28310508100009,15.80114513600006]]]}},{"type":"Feature","properties":{"code":"350306","name":"หนองหมี","parentCode":"3503"},"geometry":{"type":"Polygon","coordinates":[[[104.31458826200009,16.032242548000056],[104.30030480900007,16.090792988000032],[104.22292926900008,16.079258967000044],[104.21050816200005,16.054086590000054],[104.22050203000003,16.050040551000052],[104.27992813200007,16.024160726000048],[104.31458826200009,16.032242548000056]]]}},{"type":"Feature","properties":{"code":"350309","name":"หนองแหน","parentCode":"3503"},"geometry":{"type":"Polygon","coordinates":[[[104.27350715400007,16.225666835000027],[104.24914967600006,16.210296922000055],[104.19297394200004,16.14868942000004],[104.21515342600009,16.096290272000033],[104.28760316900008,16.153125553000052],[104.29162239800007,16.18222750800004],[104.27350715400007,16.225666835000027]]]}},{"type":"Feature","properties":{"code":"350118","name":"หนองเป็ด","parentCode":"3501"},"geometry":{"type":"Polygon","coordinates":[[[104.37823661600004,15.903435820000027],[104.33045762900008,15.901703582000039],[104.31256677700009,15.888206964000062],[104.30826840000009,15.840548827000077],[104.35958870700006,15.86903508100005],[104.36263833400005,15.873525366000024],[104.37823661600004,15.903435820000027]]]}},{"type":"Feature","properties":{"code":"350117","name":"หนองเรือ","parentCode":"3501"},"geometry":{"type":"Polygon","coordinates":[[[104.23323922300006,15.861273501000028],[104.21060185400006,15.884906533000049],[104.19474678900008,15.864372918000072],[104.18068732500006,15.847629293000068],[104.19528061300008,15.833380888000022],[104.23368826300003,15.852012341000034],[104.23323922300006,15.861273501000028]]]}},{"type":"Feature","properties":{"code":"350205","name":"ไผ่","parentCode":"3502"},"geometry":{"type":"Polygon","coordinates":[[[104.32031449800007,15.93550659500005],[104.28866200800007,15.962551528000063],[104.25110550400007,15.93200960200005],[104.29410860500008,15.900513020000062],[104.31256677700009,15.888206964000062],[104.33045762900008,15.901703582000039],[104.32031449800007,15.93550659500005]]]}},{"type":"Feature","properties":{"code":"350501","name":"โพธิ์ไทร","parentCode":"3505"},"geometry":{"type":"Polygon","coordinates":[[[104.42912898200007,15.855392646000041],[104.36263833400005,15.873525366000024],[104.35958870700006,15.86903508100005],[104.37552171700008,15.808973214000048],[104.39426142200006,15.777020079000067],[104.42300463000004,15.778165585000067],[104.42912898200007,15.855392646000041]]]}},{"type":"Feature","properties":{"code":"350307","name":"โพนงาม","parentCode":"3503"},"geometry":{"type":"Polygon","coordinates":[[[104.19297394200004,16.14868942000004],[104.17851651000007,16.149304028000074],[104.11185065700005,16.107749007000052],[104.10692188400009,16.097593071000063],[104.17153262200009,16.084350311000037],[104.13227431100006,16.03971808400007],[104.17532388600006,16.012752762000048],[104.21050816200005,16.054086590000054],[104.22292926900008,16.079258967000044],[104.21515342600009,16.096290272000033],[104.19297394200004,16.14868942000004]]]}},{"type":"Feature","properties":{"code":"350404","name":"โพนทัน","parentCode":"3504"},"geometry":{"type":"Polygon","coordinates":[[[104.28902282200005,15.670630114000062],[104.26027531400007,15.701718658000061],[104.24034814700008,15.675102281000022],[104.27843455000004,15.649698667000052],[104.28902282200005,15.670630114000062]]]}},{"type":"Feature","properties":{"code":"350609","name":"พระเสาร์","parentCode":"3506"},"geometry":{"type":"Polygon","coordinates":[[[104.16213910300007,15.534842507000064],[104.18437230300003,15.554804219000061],[104.17219518000007,15.603949615000033],[104.15912898600004,15.601579280000067],[104.12202872600005,15.577795887000036],[104.12173508800004,15.563130354000066],[104.14118661900005,15.528667011000039],[104.16213910300007,15.534842507000064]]]}},{"type":"Feature","properties":{"code":"350604","name":"ผือฮี","parentCode":"3506"},"geometry":{"type":"Polygon","coordinates":[[[104.30982349400006,15.440578814000048],[104.28304285500008,15.482498662000069],[104.23106666300004,15.478876226000068],[104.25742108600008,15.452993265000032],[104.24894166000007,15.413282142000071],[104.29854232900004,15.430385795000063],[104.30982349400006,15.440578814000048]]]}},{"type":"Feature","properties":{"code":"350201","name":"ทรายมูล","parentCode":"3502"},"geometry":{"type":"Polygon","coordinates":[[[104.27269227700003,15.980021184000066],[104.23035707800005,15.999778789000061],[104.17163114800007,15.954264660000035],[104.20985279400008,15.910010076000049],[104.25110550400007,15.93200960200005],[104.28866200800007,15.962551528000063],[104.27269227700003,15.980021184000066]]]}},{"type":"Feature","properties":{"code":"350810","name":"สามแยก","parentCode":"3508"},"geometry":{"type":"Polygon","coordinates":[[[104.62705030800004,16.211229995000053],[104.55674777900003,16.260521819000076],[104.52593269000005,16.215302722000047],[104.52655854800008,16.17913017500007],[104.57132313800008,16.17649403000007],[104.62705030800004,16.211229995000053]]]}},{"type":"Feature","properties":{"code":"350806","name":"สามัคคี","parentCode":"3508"},"geometry":{"type":"Polygon","coordinates":[[[104.48079368500004,16.261332568000057],[104.43176475800004,16.276268877000064],[104.40766978700009,16.216208510000058],[104.44402946700006,16.180289507000055],[104.50401184700007,16.230372852000073],[104.48079368500004,16.261332568000057]]]}},{"type":"Feature","properties":{"code":"350104","name":"สำราญ","parentCode":"3501"},"geometry":{"type":"Polygon","coordinates":[[[104.14052365100008,15.859742513000072],[104.13465700700004,15.869828375000054],[104.11664899700008,15.86305266200003],[104.08166920200006,15.860232538000048],[104.07804681300007,15.837911743000063],[104.10927799300003,15.808867371000076],[104.12577918300008,15.802238316000057],[104.13248260200004,15.818405650000045],[104.14052365100008,15.859742513000072]]]}},{"type":"Feature","properties":{"code":"350813","name":"สร้างมิ่ง","parentCode":"3508"},"geometry":{"type":"Polygon","coordinates":[[[104.54854471400006,16.126137264000022],[104.51725403500006,16.111604235000073],[104.46968025500007,16.132804322000027],[104.45972830900007,16.09572419600005],[104.54260898700005,16.07117774900007],[104.55254558400009,16.082581665000077],[104.55837669500005,16.09000463900003],[104.54854471400006,16.126137264000022]]]}},{"type":"Feature","properties":{"code":"350803","name":"สวาท","parentCode":"3508"},"geometry":{"type":"Polygon","coordinates":[[[104.52593269000005,16.215302722000047],[104.50401184700007,16.230372852000073],[104.44402946700006,16.180289507000055],[104.45053064600006,16.133036813000047],[104.46968025500007,16.132804322000027],[104.51725403500006,16.111604235000073],[104.54854471400006,16.126137264000022],[104.57132313800008,16.17649403000007],[104.52655854800008,16.17913017500007],[104.52593269000005,16.215302722000047]]]}},{"type":"Feature","properties":{"code":"350814","name":"ศรีแก้ว","parentCode":"3508"},"geometry":{"type":"Polygon","coordinates":[[[104.38410823700008,16.21557494600006],[104.29702546900006,16.245297476000076],[104.27350715400007,16.225666835000027],[104.29162239800007,16.18222750800004],[104.32172172500003,16.141016095000055],[104.38229922400006,16.13609831800005],[104.38410823700008,16.21557494600006]]]}},{"type":"Feature","properties":{"code":"350505","name":"ศรีฐาน","parentCode":"3505"},"geometry":{"type":"Polygon","coordinates":[[[104.39426142200006,15.777020079000067],[104.37552171700008,15.808973214000048],[104.32338639600005,15.803645274000075],[104.33187374800008,15.761346668000044],[104.37532113700007,15.737722432000055],[104.40063719900007,15.752333135000072],[104.39426142200006,15.777020079000067]]]}},{"type":"Feature","properties":{"code":"350110","name":"สิงห์","parentCode":"3501"},"geometry":{"type":"Polygon","coordinates":[[[104.28265176800005,15.825401943000031],[104.23368826300003,15.852012341000034],[104.19528061300008,15.833380888000022],[104.20698982700009,15.80494421800006],[104.22742631400007,15.796676239000021],[104.28310508100009,15.80114513600006],[104.28265176800005,15.825401943000031]]]}},{"type":"Feature","properties":{"code":"350903","name":"ส้มผ่อ","parentCode":"3509"},"geometry":{"type":"Polygon","coordinates":[[[104.40766978700009,16.216208510000058],[104.38410823700008,16.21557494600006],[104.38229922400006,16.13609831800005],[104.43806553400009,16.128083866000054],[104.45053064600006,16.133036813000047],[104.44402946700006,16.180289507000055],[104.40766978700009,16.216208510000058]]]}},{"type":"Feature","properties":{"code":"350403","name":"สงเปือย","parentCode":"3504"},"geometry":{"type":"Polygon","coordinates":[[[104.24034814700008,15.675102281000022],[104.18652062500007,15.667329291000044],[104.20979700900006,15.618247949000022],[104.27764411100009,15.644308253000077],[104.27843455000004,15.649698667000052],[104.24034814700008,15.675102281000022]]]}},{"type":"Feature","properties":{"code":"350610","name":"สงยาง","parentCode":"3506"},"geometry":{"type":"Polygon","coordinates":[[[104.23106666300004,15.478876226000068],[104.22345613400006,15.482318200000066],[104.19342111500004,15.458590711000056],[104.20589666300003,15.438825884000039],[104.23286340900006,15.403150238000023],[104.24894166000007,15.413282142000071],[104.25742108600008,15.452993265000032],[104.23106666300004,15.478876226000068]]]}},{"type":"Feature","properties":{"code":"350103","name":"ตาดทอง","parentCode":"3501"},"geometry":{"type":"Polygon","coordinates":[[[104.20698982700009,15.80494421800006],[104.16063395800006,15.801099066000063],[104.15472824100004,15.784399758000063],[104.22160574100008,15.743750336000062],[104.23558691300008,15.729044542000054],[104.25626216300009,15.755494164000027],[104.22742631400007,15.796676239000021],[104.20698982700009,15.80494421800006]]]}},{"type":"Feature","properties":{"code":"350901","name":"ไทยเจริญ","parentCode":"3509"},"geometry":{"type":"Polygon","coordinates":[[[104.46968025500007,16.132804322000027],[104.45053064600006,16.133036813000047],[104.43806553400009,16.128083866000054],[104.42742663100006,16.076304503000074],[104.39510715200004,16.038078547000055],[104.44893710700006,16.01473465400005],[104.44255811000005,16.049032023000052],[104.45972830900007,16.09572419600005],[104.46968025500007,16.132804322000027]]]}},{"type":"Feature","properties":{"code":"350405","name":"ทุ่งมน","parentCode":"3504"},"geometry":{"type":"Polygon","coordinates":[[[104.33187374800008,15.761346668000044],[104.26974732300005,15.762062875000026],[104.25626216300009,15.755494164000027],[104.27643804700006,15.71949771800007],[104.31397716000004,15.720528555000044],[104.33373228800008,15.718031375000066],[104.37532113700007,15.737722432000055],[104.33187374800008,15.761346668000044]]]}},{"type":"Feature","properties":{"code":"350116","name":"ทุ่งนางโอก","parentCode":"3501"},"geometry":{"type":"Polygon","coordinates":[[[104.14879190500005,15.914687277000041],[104.13465700700004,15.869828375000054],[104.14052365100008,15.859742513000072],[104.18068732500006,15.847629293000068],[104.19474678900008,15.864372918000072],[104.14879190500005,15.914687277000041]]]}},{"type":"Feature","properties":{"code":"350109","name":"ทุ่งแต้","parentCode":"3501"},"geometry":{"type":"Polygon","coordinates":[[[104.17163114800007,15.954264660000035],[104.15000567300007,15.937562871000068],[104.14879190500005,15.914687277000041],[104.19474678900008,15.864372918000072],[104.21060185400006,15.884906533000049],[104.20985279400008,15.910010076000049],[104.17163114800007,15.954264660000035]]]}},{"type":"Feature","properties":{"code":"350402","name":"ย่อ","parentCode":"3504"},"geometry":{"type":"Polygon","coordinates":[[[104.27643804700006,15.71949771800007],[104.25626216300009,15.755494164000027],[104.23558691300008,15.729044542000054],[104.16826576700004,15.675159010000073],[104.18652062500007,15.667329291000044],[104.24034814700008,15.675102281000022],[104.26027531400007,15.701718658000061],[104.27643804700006,15.71949771800007]]]}}]}