{"type":"FeatureCollection","features":[{"type":"Feature","properties":{"code":"360410","name":"บ้านบัว","parentCode":"3604"},"geometry":{"type":"Polygon","coordinates":[[[101.95236279300008,16.268780089000074],[101.85043100400009,16.259552771000074],[101.85893397200005,16.22368652600005],[101.92044683200004,16.201688528000034],[101.94005686400004,16.215325734000032],[101.95236279300008,16.268780089000074]]]}},{"type":"Feature","properties":{"code":"361401","name":"บ้านเจียง","parentCode":"3614"},"geometry":{"type":"Polygon","coordinates":[[[101.37720956200008,16.185362330000032],[101.33729489400008,16.113032798000063],[101.36497552600008,16.075004079000053],[101.40866387700004,16.069342342000027],[101.48745834100004,15.996311430000048],[101.47715235800007,15.958417213000075],[101.53221891800007,15.948418567000033],[101.55017136000004,15.950787837000064],[101.50754402700005,16.006121182000072],[101.50648226100009,16.053449683000053],[101.46251052100007,16.125030882000033],[101.43213734100004,16.118366120000076],[101.38773368600005,16.16914688600002],[101.37720956200008,16.185362330000032]]]}},{"type":"Feature","properties":{"code":"360701","name":"บ้านชวน","parentCode":"3607"},"geometry":{"type":"Polygon","coordinates":[[[101.61619447900006,15.558533619000059],[101.55081130600007,15.564949253000066],[101.57752833300003,15.538393863000067],[101.61462567100006,15.538223378000055],[101.65304316600003,15.452678392000053],[101.72355696900007,15.489099534000047],[101.71363736100005,15.539763685000025],[101.61619447900006,15.558533619000059]]]}},{"type":"Feature","properties":{"code":"361011","name":"บ้านดอน","parentCode":"3610"},"geometry":{"type":"Polygon","coordinates":[[[102.31486181100007,16.35527465800004],[102.26896355200006,16.30964953700004],[102.29682546600009,16.25741371500004],[102.35315592200004,16.287216743000045],[102.31566036000004,16.33253462400006],[102.31340901600004,16.350324009000076],[102.31486181100007,16.35527465800004]]]}},{"type":"Feature","properties":{"code":"360403","name":"บ้านเดื่อ","parentCode":"3604"},"geometry":{"type":"Polygon","coordinates":[[[101.99078242300004,16.110055328000044],[101.89590704500006,16.159855227000037],[101.86300998400009,16.102489683000044],[101.82496431600003,16.086648498000045],[101.84988939300007,16.04981031600005],[101.91990848500006,16.026780905000066],[101.94171236900007,16.03792244600004],[101.94562430000008,16.039512401000025],[101.99078242300004,16.110055328000044]]]}},{"type":"Feature","properties":{"code":"360402","name":"บ้านหัน","parentCode":"3604"},"geometry":{"type":"Polygon","coordinates":[[[102.04231354800004,16.366845778000027],[102.00734530700004,16.37029606400006],[101.98687999700007,16.344584059000056],[101.98463657100007,16.324519889000044],[101.97801200600009,16.28834974600005],[102.02549132100006,16.251539571000023],[102.05312061100005,16.251481429000023],[102.09158005500007,16.25655431900003],[102.06138375900008,16.29295667300005],[102.04231354800004,16.366845778000027]]]}},{"type":"Feature","properties":{"code":"361004","name":"บ้านแก้ง","parentCode":"3610"},"geometry":{"type":"Polygon","coordinates":[[[102.04397095900003,16.460796197000036],[101.96688054100008,16.46672760000007],[101.98699494200008,16.413058893000027],[102.00734530700004,16.37029606400006],[102.04231354800004,16.366845778000027],[102.11705804900004,16.399304869000048],[102.13223088700005,16.416422907000026],[102.12198140600003,16.45503513400007],[102.08247522700003,16.434970157000066],[102.04397095900003,16.460796197000036]]]}},{"type":"Feature","properties":{"code":"361204","name":"บ้านแก้ง","parentCode":"3612"},"geometry":{"type":"Polygon","coordinates":[[[102.37091685300004,16.195800846000054],[102.31098321000007,16.212607036000065],[102.27546400400007,16.176533946000063],[102.32656121500008,16.129184569000074],[102.34532220400007,16.160563678000074],[102.37091685300004,16.195800846000054]]]}},{"type":"Feature","properties":{"code":"360105","name":"บ้านค่าย","parentCode":"3601"},"geometry":{"type":"Polygon","coordinates":[[[101.99518379200003,15.706659425000055],[101.99056560500009,15.703837447000069],[101.97925329200007,15.690318919000049],[101.99221225300005,15.688872538000055],[102.07203984600005,15.622120915000039],[102.05773616100004,15.677803852000068],[102.01473582200003,15.701684788000023],[101.99518379200003,15.706659425000055]]]}},{"type":"Feature","properties":{"code":"360603","name":"บ้านขาม","parentCode":"3606"},"geometry":{"type":"Polygon","coordinates":[[[101.82148185000005,15.492150020000054],[101.73342783000004,15.536788201000036],[101.73052194800005,15.537338590000047],[101.80022323900005,15.442347733000076],[101.80819190900007,15.438467901000024],[101.82148185000005,15.492150020000054]]]}},{"type":"Feature","properties":{"code":"360201","name":"บ้านเขว้า","parentCode":"3602"},"geometry":{"type":"Polygon","coordinates":[[[101.93994836300004,15.783550468000044],[101.88326372900008,15.774756422000053],[101.81555908400009,15.748353933000033],[101.81656382800008,15.742453174000048],[101.85745723800005,15.725252460000036],[101.93903178700003,15.720173771000077],[101.94032308100009,15.746425935000048],[101.93994836300004,15.783550468000044]]]}},{"type":"Feature","properties":{"code":"360601","name":"บ้านกอก","parentCode":"3606"},"geometry":{"type":"Polygon","coordinates":[[[101.89134462800007,15.629291410000064],[101.90187877700004,15.64790673500005],[101.82083882600006,15.641673474000072],[101.80859010200004,15.620051490000037],[101.86767639700008,15.507974109000031],[101.85087222200008,15.507567408000057],[101.91101479800005,15.433449114000041],[101.93736260000009,15.456432178000057],[101.92029129600007,15.517915841000047],[101.92065096000005,15.518452259000071],[101.89003748600004,15.517085226000063],[101.84949766500006,15.578536104000023],[101.89134462800007,15.629291410000064]]]}},{"type":"Feature","properties":{"code":"360108","name":"บ้านเล่า","parentCode":"3601"},"geometry":{"type":"Polygon","coordinates":[[[102.10715999700005,15.889527496000028],[102.05072130000008,15.889467576000072],[102.01904605500005,15.861379298000031],[102.06205503400008,15.841519793000032],[102.10715999700005,15.889527496000028]]]}},{"type":"Feature","properties":{"code":"360404","name":"บ้านเป้า","parentCode":"3604"},"geometry":{"type":"Polygon","coordinates":[[[101.98699494200008,16.413058893000027],[101.93908966500004,16.410745543000075],[101.89241750300005,16.377937290000034],[101.90410395800006,16.35750064800004],[101.93543776600006,16.330023092000033],[101.98687999700007,16.344584059000056],[102.00734530700004,16.37029606400006],[101.98699494200008,16.413058893000027]]]}},{"type":"Feature","properties":{"code":"360702","name":"บ้านเพชร","parentCode":"3607"},"geometry":{"type":"Polygon","coordinates":[[[101.72355696900007,15.489099534000047],[101.65304316600003,15.452678392000053],[101.65106972600006,15.447467674000052],[101.66885490600004,15.399658742000042],[101.72601680700006,15.384284616000059],[101.72251591500009,15.46090838400005],[101.72355696900007,15.489099534000047]]]}},{"type":"Feature","properties":{"code":"361006","name":"บ้านเพชร","parentCode":"3610"},"geometry":{"type":"Polygon","coordinates":[[[102.30625658700006,16.372583907000035],[102.22235807100009,16.38873497900005],[102.20930937400004,16.372892549000028],[102.23050036300003,16.32203513500002],[102.26896355200006,16.30964953700004],[102.31486181100007,16.35527465800004],[102.30625658700006,16.372583907000035]]]}},{"type":"Feature","properties":{"code":"360904","name":"บ้านไร่","parentCode":"3609"},"geometry":{"type":"Polygon","coordinates":[[[101.47679186700009,15.631637449000038],[101.41679490900003,15.648790215000076],[101.39377022200006,15.677216376000047],[101.37002838000006,15.59276466800003],[101.37345562300004,15.54036181500004],[101.42488955200008,15.519529015000046],[101.50067915800008,15.528969069000027],[101.51742297900006,15.562400170000046],[101.53877594400007,15.566979318000051],[101.47679186700009,15.631637449000038]]]}},{"type":"Feature","properties":{"code":"360306","name":"บ้านโสก","parentCode":"3603"},"geometry":{"type":"Polygon","coordinates":[[[102.27129951600006,15.912683231000074],[102.23067570800004,15.934828234000065],[102.17891787900004,15.921083663000047],[102.18449133200005,15.902434461000041],[102.20853276700007,15.876589495000076],[102.28007436300004,15.868291017000047],[102.28852593700009,15.90616643800007],[102.27129951600006,15.912683231000074]]]}},{"type":"Feature","properties":{"code":"360703","name":"บ้านตาล","parentCode":"3607"},"geometry":{"type":"Polygon","coordinates":[[[101.73052194800005,15.537338590000047],[101.71363736100005,15.539763685000025],[101.72355696900007,15.489099534000047],[101.72251591500009,15.46090838400005],[101.80022323900005,15.442347733000076],[101.73052194800005,15.537338590000047]]]}},{"type":"Feature","properties":{"code":"361104","name":"บ้านเต่า","parentCode":"3611"},"geometry":{"type":"Polygon","coordinates":[[[102.38458810500003,16.393205351000063],[102.31340901600004,16.350324009000076],[102.31566036000004,16.33253462400006],[102.42628173500003,16.313656133000052],[102.44584301100008,16.35308879200005],[102.38458810500003,16.393205351000063]]]}},{"type":"Feature","properties":{"code":"361101","name":"บ้านแท่น","parentCode":"3611"},"geometry":{"type":"Polygon","coordinates":[[[102.39818899400007,16.446641768000063],[102.32311579400005,16.445323216000077],[102.30625658700006,16.372583907000035],[102.31486181100007,16.35527465800004],[102.31340901600004,16.350324009000076],[102.38458810500003,16.393205351000063],[102.39818899400007,16.446641768000063]]]}},{"type":"Feature","properties":{"code":"360401","name":"บ้านยาง","parentCode":"3604"},"geometry":{"type":"Polygon","coordinates":[[[101.98463657100007,16.324519889000044],[101.94436478500006,16.284507053000027],[101.89458258800005,16.30085787200005],[101.83149883500005,16.303726681000057],[101.85043100400009,16.259552771000074],[101.95236279300008,16.268780089000074],[101.97801200600009,16.28834974600005],[101.98463657100007,16.324519889000044]]]}},{"type":"Feature","properties":{"code":"360118","name":"บุ่งคล้า","parentCode":"3601"},"geometry":{"type":"Polygon","coordinates":[[[102.15077775300006,15.739480492000041],[102.09558885400008,15.795338911000044],[102.05319952100007,15.791639670000052],[102.02731886500004,15.78391866800007],[102.04879551000005,15.735991157000058],[102.15077775300006,15.739480492000041]]]}},{"type":"Feature","properties":{"code":"361402","name":"เจาทอง","parentCode":"3614"},"geometry":{"type":"Polygon","coordinates":[[[101.42755616300008,15.831261439000059],[101.45434670000009,15.888089902000047],[101.45909829300007,15.927839855000059],[101.41946745100006,15.921648439000023],[101.37201794200007,15.95436752300003],[101.36425765200005,15.930975459000024],[101.32865011300004,15.857937027000048],[101.42755616300008,15.831261439000059]]]}},{"type":"Feature","properties":{"code":"360204","name":"ชีบน","parentCode":"3602"},"geometry":{"type":"Polygon","coordinates":[[[101.80657082100004,15.842191684000056],[101.80197331800008,15.87381655400003],[101.75181830700006,15.933297467000045],[101.70506708700003,15.917018214000052],[101.74413339200004,15.811511513000028],[101.78673291300004,15.78608975700007],[101.80657082100004,15.842191684000056]]]}},{"type":"Feature","properties":{"code":"360107","name":"ชีลอง","parentCode":"3601"},"geometry":{"type":"Polygon","coordinates":[[[101.99168717200007,15.773755287000029],[101.94426090300004,15.803794947000029],[101.93994836300004,15.783550468000044],[101.94032308100009,15.746425935000048],[101.99056560500009,15.703837447000069],[101.99518379200003,15.706659425000055],[102.01884868700006,15.733484304000058],[102.00085155700003,15.77372298000006],[101.99168717200007,15.773755287000029]]]}},{"type":"Feature","properties":{"code":"360303","name":"ช่องสามหมอ","parentCode":"3603"},"geometry":{"type":"Polygon","coordinates":[[[102.32616990000008,16.030480913000076],[102.27991297900007,16.072024037000062],[102.27564785500005,15.978823207000062],[102.30097861200005,15.967574058000025],[102.32616990000008,16.030480913000076]]]}},{"type":"Feature","properties":{"code":"361201","name":"ช่องสามหมอ","parentCode":"3612"},"geometry":{"type":"Polygon","coordinates":[[[102.22273278800009,16.165913956000054],[102.21838940500004,16.171185241000046],[102.24416583200008,16.129442212000072],[102.21681292200009,16.107038698000054],[102.22919160400005,16.093866890000072],[102.24220187300006,16.052962811000043],[102.27991297900007,16.072024037000062],[102.22273278800009,16.165913956000054]]]}},{"type":"Feature","properties":{"code":"361306","name":"ดงบัง","parentCode":"3613"},"geometry":{"type":"Polygon","coordinates":[[[101.95491019400004,16.630265923000024],[101.93677255600005,16.632297462000054],[101.92200478400008,16.586698683000066],[101.91727700900009,16.57804578500003],[101.95418879400006,16.55096228900004],[101.98812737400004,16.566267675000063],[101.95442446500005,16.62272262700003],[101.95491019400004,16.630265923000024]]]}},{"type":"Feature","properties":{"code":"361308","name":"ดงกลาง","parentCode":"3613"},"geometry":{"type":"Polygon","coordinates":[[[102.03228227400007,16.541203861000042],[101.98812737400004,16.566267675000063],[101.95418879400006,16.55096228900004],[101.95609962000003,16.50098881400004],[102.02998213300003,16.524825371000077],[102.03228227400007,16.541203861000042]]]}},{"type":"Feature","properties":{"code":"360704","name":"หัวทะเล","parentCode":"3607"},"geometry":{"type":"Polygon","coordinates":[[[101.80022323900005,15.442347733000076],[101.72251591500009,15.46090838400005],[101.72601680700006,15.384284616000059],[101.78467074500008,15.38826823200003],[101.80226731700009,15.420457437000039],[101.80819190900007,15.438467901000024],[101.80022323900005,15.442347733000076]]]}},{"type":"Feature","properties":{"code":"360115","name":"ห้วยบง","parentCode":"3601"},"geometry":{"type":"Polygon","coordinates":[[[102.20853276700007,15.876589495000076],[102.18449133200005,15.902434461000041],[102.16931603600005,15.90050099900003],[102.16214318800007,15.859700659000055],[102.11973517500007,15.832503389000067],[102.16770509000008,15.801440937000052],[102.20882737100004,15.859702981000055],[102.20853276700007,15.876589495000076]]]}},{"type":"Feature","properties":{"code":"360305","name":"ห้วยไร่","parentCode":"3603"},"geometry":{"type":"Polygon","coordinates":[[[102.27564785500005,15.978823207000062],[102.27991297900007,16.072024037000062],[102.24220187300006,16.052962811000043],[102.18167090300005,15.988430590000064],[102.14122659900005,15.981694377000053],[102.17891787900004,15.921083663000047],[102.23067570800004,15.934828234000065],[102.22655352200007,15.987998727000047],[102.27564785500005,15.978823207000062]]]}},{"type":"Feature","properties":{"code":"360114","name":"ห้วยต้อน","parentCode":"3601"},"geometry":{"type":"Polygon","coordinates":[[[101.94874031700004,15.983496864000074],[101.94171236900007,16.03792244600004],[101.91990848500006,16.026780905000066],[101.79381159500008,15.975080305000063],[101.75274127800009,15.974783471000023],[101.85338843800008,15.911576061000062],[101.85722972800005,15.909836140000039],[101.88618547500005,15.916536460000032],[101.91110030400006,15.875507210000023],[101.95736606800006,15.866847342000028],[101.96502775300007,15.949254216000043],[101.94874031700004,15.983496864000074]]]}},{"type":"Feature","properties":{"code":"360803","name":"ห้วยแย้","parentCode":"3608"},"geometry":{"type":"Polygon","coordinates":[[[101.68652264700006,15.957936722000056],[101.58954860500006,15.976865686000053],[101.55017136000004,15.950787837000064],[101.53221891800007,15.948418567000033],[101.62573632900006,15.86212325300005],[101.67156036300008,15.871323765000056],[101.71218122500005,15.813723818000028],[101.74413339200004,15.811511513000028],[101.70506708700003,15.917018214000052],[101.69161238800007,15.952897990000054],[101.68652264700006,15.957936722000056]]]}},{"type":"Feature","properties":{"code":"360902","name":"ห้วยยายจิ๋ว","parentCode":"3609"},"geometry":{"type":"Polygon","coordinates":[[[101.51742297900006,15.562400170000046],[101.50067915800008,15.528969069000027],[101.42488955200008,15.519529015000046],[101.48183820700007,15.485607218000041],[101.51073940200007,15.392914462000022],[101.54318008600006,15.402361373000076],[101.58899911700007,15.41810904700003],[101.54293145400004,15.456600890000061],[101.50376457200008,15.517433574000052],[101.51742297900006,15.562400170000046]]]}},{"type":"Feature","properties":{"code":"361304","name":"ห้วยยาง","parentCode":"3613"},"geometry":{"type":"Polygon","coordinates":[[[101.91727700900009,16.57804578500003],[101.83971119000006,16.54700174800007],[101.85277082100004,16.492973404000054],[101.95628414500004,16.482733972000062],[101.95609962000003,16.50098881400004],[101.95418879400006,16.55096228900004],[101.91727700900009,16.57804578500003]]]}},{"type":"Feature","properties":{"code":"361503","name":"กะฮาด","parentCode":"3615"},"geometry":{"type":"Polygon","coordinates":[[[102.07335415600005,15.620297452000045],[102.07203984600005,15.622120915000039],[101.99221225300005,15.688872538000055],[101.98097868900004,15.614610587000072],[102.00781826100007,15.589134430000058],[102.07076472600005,15.601644272000044],[102.07335415600005,15.620297452000045]]]}},{"type":"Feature","properties":{"code":"361208","name":"เก่าย่าดี","parentCode":"3612"},"geometry":{"type":"Polygon","coordinates":[[[102.10809939700005,16.088932356000043],[102.07301382900005,16.099853406000022],[102.04079597400005,16.06696702100004],[102.03885425600004,16.020317672000033],[102.09798990000007,16.04109089700006],[102.10289205800007,16.080404977000057],[102.10809939700005,16.088932356000043]]]}},{"type":"Feature","properties":{"code":"361207","name":"โคกกุง","parentCode":"3612"},"geometry":{"type":"Polygon","coordinates":[[[102.21681292200009,16.107038698000054],[102.16322876600003,16.157511493000072],[102.11808282000004,16.163476968000055],[102.10809939700005,16.088932356000043],[102.10289205800007,16.080404977000057],[102.13731311400005,16.064195866000034],[102.22919160400005,16.093866890000072],[102.21681292200009,16.107038698000054]]]}},{"type":"Feature","properties":{"code":"360307","name":"โคกมั่งงอย","parentCode":"3603"},"geometry":{"type":"Polygon","coordinates":[[[102.27564785500005,15.978823207000062],[102.22655352200007,15.987998727000047],[102.23067570800004,15.934828234000065],[102.27129951600006,15.912683231000074],[102.31804759700003,15.965824741000063],[102.30097861200005,15.967574058000025],[102.27564785500005,15.978823207000062]]]}},{"type":"Feature","properties":{"code":"360707","name":"โคกเพชรพัฒนา","parentCode":"3607"},"geometry":{"type":"Polygon","coordinates":[[[101.55081130600007,15.564949253000066],[101.53877594400007,15.566979318000051],[101.51742297900006,15.562400170000046],[101.50376457200008,15.517433574000052],[101.54293145400004,15.456600890000061],[101.58899911700007,15.41810904700003],[101.65106972600006,15.447467674000052],[101.59153446400006,15.474640479000072],[101.57752833300003,15.538393863000067],[101.55081130600007,15.564949253000066]]]}},{"type":"Feature","properties":{"code":"360705","name":"โคกเริงรมย์","parentCode":"3607"},"geometry":{"type":"Polygon","coordinates":[[[101.66885490600004,15.399658742000042],[101.65106972600006,15.447467674000052],[101.58899911700007,15.41810904700003],[101.54318008600006,15.402361373000076],[101.56605521700004,15.37196061800006],[101.61910164200003,15.370439562000058],[101.66885490600004,15.399658742000042]]]}},{"type":"Feature","properties":{"code":"360804","name":"โคกสะอาด","parentCode":"3608"},"geometry":{"type":"Polygon","coordinates":[[[101.74413339200004,15.811511513000028],[101.71218122500005,15.813723818000028],[101.65327965800009,15.805475050000041],[101.64685779900009,15.774176878000048],[101.60072184400008,15.750687973000026],[101.63195756400006,15.734600905000036],[101.66696770900006,15.756501290000074],[101.73416271200006,15.755167073000052],[101.78888147600009,15.779697934000069],[101.78673291300004,15.78608975700007],[101.74413339200004,15.811511513000028]]]}},{"type":"Feature","properties":{"code":"361007","name":"โคกสะอาด","parentCode":"3610"},"geometry":{"type":"Polygon","coordinates":[[[102.20514430200006,16.50010691400007],[102.17895106300006,16.500764240000024],[102.12454608100006,16.49496592400004],[102.06732343900006,16.494557591000046],[102.04397095900003,16.460796197000036],[102.08247522700003,16.434970157000066],[102.12198140600003,16.45503513400007],[102.14849203700004,16.453116029000057],[102.20514430200006,16.50010691400007]]]}},{"type":"Feature","properties":{"code":"360117","name":"โคกสูง","parentCode":"3601"},"geometry":{"type":"Polygon","coordinates":[[[101.95736606800006,15.866847342000028],[101.91110030400006,15.875507210000023],[101.88618547500005,15.916536460000032],[101.85722972800005,15.909836140000039],[101.93429612400007,15.822451428000022],[101.94426090300004,15.803794947000029],[101.99168717200007,15.773755287000029],[101.99263526900006,15.855687370000055],[101.95736606800006,15.866847342000028]]]}},{"type":"Feature","properties":{"code":"361301","name":"คอนสาร","parentCode":"3613"},"geometry":{"type":"Polygon","coordinates":[[[101.93677255600005,16.632297462000054],[101.91391280800008,16.633897064000053],[101.91066606200008,16.629504780000048],[101.91238932300007,16.62442756400003],[101.92200478400008,16.586698683000066],[101.93677255600005,16.632297462000054]]]}},{"type":"Feature","properties":{"code":"360301","name":"คอนสวรรค์","parentCode":"3603"},"geometry":{"type":"Polygon","coordinates":[[[102.36642873200009,15.962542091000046],[102.31804759700003,15.965824741000063],[102.27129951600006,15.912683231000074],[102.28852593700009,15.90616643800007],[102.34138254700008,15.887751356000024],[102.35336161300006,15.90084683200007],[102.36747064100007,15.943914434000021],[102.36642873200009,15.962542091000046]]]}},{"type":"Feature","properties":{"code":"360508","name":"คูเมือง","parentCode":"3605"},"geometry":{"type":"Polygon","coordinates":[[[101.75000002900003,16.070964050000043],[101.67290971700004,16.041132849000064],[101.66136272300008,16.020030725000026],[101.68652264700006,15.957936722000056],[101.69161238800007,15.952897990000054],[101.75274127800009,15.974783471000023],[101.79381159500008,15.975080305000063],[101.76269710400004,16.014380109000058],[101.75000002900003,16.070964050000043]]]}},{"type":"Feature","properties":{"code":"360706","name":"เกาะมะนาว","parentCode":"3607"},"geometry":{"type":"Polygon","coordinates":[[[101.65304316600003,15.452678392000053],[101.61462567100006,15.538223378000055],[101.57752833300003,15.538393863000067],[101.59153446400006,15.474640479000072],[101.65106972600006,15.447467674000052],[101.65304316600003,15.452678392000053]]]}},{"type":"Feature","properties":{"code":"360502","name":"กุดชุมแสง","parentCode":"3605"},"geometry":{"type":"Polygon","coordinates":[[[101.84988939300007,16.04981031600005],[101.82737684200004,16.033740271000056],[101.75000002900003,16.070964050000043],[101.76269710400004,16.014380109000058],[101.79381159500008,15.975080305000063],[101.91990848500006,16.026780905000066],[101.84988939300007,16.04981031600005]]]}},{"type":"Feature","properties":{"code":"360405","name":"กุดเลาะ","parentCode":"3604"},"geometry":{"type":"Polygon","coordinates":[[[101.98687999700007,16.344584059000056],[101.93543776600006,16.330023092000033],[101.90410395800006,16.35750064800004],[101.92004557200005,16.29674779100003],[101.89458258800005,16.30085787200005],[101.94436478500006,16.284507053000027],[101.98463657100007,16.324519889000044],[101.98687999700007,16.344584059000056]]]}},{"type":"Feature","properties":{"code":"360605","name":"กุดน้ำใส","parentCode":"3606"},"geometry":{"type":"Polygon","coordinates":[[[101.80859010200004,15.620051490000037],[101.76064471700005,15.657667934000074],[101.74676653600005,15.646891351000022],[101.73482268200007,15.604790886000046],[101.82518287400006,15.517838538000035],[101.85087222200008,15.507567408000057],[101.86767639700008,15.507974109000031],[101.80859010200004,15.620051490000037]]]}},{"type":"Feature","properties":{"code":"360106","name":"กุดตุ้ม","parentCode":"3601"},"geometry":{"type":"Polygon","coordinates":[[[102.11973517500007,15.832503389000067],[102.08132808400006,15.833663934000072],[102.09558885400008,15.795338911000044],[102.15077775300006,15.739480492000041],[102.15573120400006,15.740567869000074],[102.20544047900006,15.75722275000004],[102.16770509000008,15.801440937000052],[102.11973517500007,15.832503389000067]]]}},{"type":"Feature","properties":{"code":"361005","name":"กุดยม","parentCode":"3610"},"geometry":{"type":"Polygon","coordinates":[[[102.24062273200008,16.449676543000066],[102.21314151000007,16.461917664000055],[102.16682783800007,16.403831768000032],[102.20930937400004,16.372892549000028],[102.22235807100009,16.38873497900005],[102.24062273200008,16.449676543000066]]]}},{"type":"Feature","properties":{"code":"361002","name":"กวางโจน","parentCode":"3610"},"geometry":{"type":"Polygon","coordinates":[[[102.26896355200006,16.30964953700004],[102.23050036300003,16.32203513500002],[102.15835369000007,16.291386943000077],[102.14494153100009,16.282253086000026],[102.14522595700004,16.281613262000064],[102.28488687000004,16.237813215000074],[102.28998955400004,16.237709124000048],[102.29682546600009,16.25741371500004],[102.26896355200006,16.30964953700004]]]}},{"type":"Feature","properties":{"code":"361404","name":"แหลมทอง","parentCode":"3614"},"geometry":{"type":"Polygon","coordinates":[[[101.47715235800007,15.958417213000075],[101.48745834100004,15.996311430000048],[101.40866387700004,16.069342342000027],[101.36497552600008,16.075004079000053],[101.37201794200007,15.95436752300003],[101.41946745100006,15.921648439000023],[101.45909829300007,15.927839855000059],[101.47715235800007,15.958417213000075]]]}},{"type":"Feature","properties":{"code":"360607","name":"ละหาน","parentCode":"3606"},"geometry":{"type":"Polygon","coordinates":[[[101.97925329200007,15.690318919000049],[101.92521980700008,15.657254255000055],[101.90187877700004,15.64790673500005],[101.89134462800007,15.629291410000064],[101.90923615700007,15.581521351000049],[101.98097868900004,15.614610587000072],[101.99221225300005,15.688872538000055],[101.97925329200007,15.690318919000049]]]}},{"type":"Feature","properties":{"code":"360111","name":"ลาดใหญ่","parentCode":"3601"},"geometry":{"type":"Polygon","coordinates":[[[102.22102931700005,15.826293230000033],[102.20882737100004,15.859702981000055],[102.16770509000008,15.801440937000052],[102.20544047900006,15.75722275000004],[102.23230387400008,15.743375140000069],[102.25253649500007,15.77028069000005],[102.22102931700005,15.826293230000033]]]}},{"type":"Feature","properties":{"code":"360203","name":"ลุ่มลำชี","parentCode":"3602"},"geometry":{"type":"Polygon","coordinates":[[[101.94032308100009,15.746425935000048],[101.93903178700003,15.720173771000077],[101.85745723800005,15.725252460000036],[101.87579979700007,15.706431416000044],[101.92521980700008,15.657254255000055],[101.97925329200007,15.690318919000049],[101.99056560500009,15.703837447000069],[101.94032308100009,15.746425935000048]]]}},{"type":"Feature","properties":{"code":"361206","name":"หลุบคา","parentCode":"3612"},"geometry":{"type":"Polygon","coordinates":[[[102.31098321000007,16.212607036000065],[102.28998955400004,16.237709124000048],[102.28488687000004,16.237813215000074],[102.24999756600005,16.23762369900004],[102.20801463400005,16.198232872000062],[102.21838940500004,16.171185241000046],[102.22273278800009,16.165913956000054],[102.27546400400007,16.176533946000063],[102.31098321000007,16.212607036000065]]]}},{"type":"Feature","properties":{"code":"360104","name":"นาฝาย","parentCode":"3601"},"geometry":{"type":"Polygon","coordinates":[[[102.07261741900004,15.992631948000053],[102.09798990000007,16.04109089700006],[102.03885425600004,16.020317672000033],[102.00005434600007,15.962159298000074],[101.94874031700004,15.983496864000074],[101.96502775300007,15.949254216000043],[101.95736606800006,15.866847342000028],[101.99263526900006,15.855687370000055],[102.01904605500005,15.861379298000031],[102.05072130000008,15.889467576000072],[102.03047366200008,15.91934930800005],[102.07261741900004,15.992631948000053]]]}},{"type":"Feature","properties":{"code":"361203","name":"นาหนองทุ่ม","parentCode":"3612"},"geometry":{"type":"Polygon","coordinates":[[[102.24220187300006,16.052962811000043],[102.22919160400005,16.093866890000072],[102.13731311400005,16.064195866000034],[102.10289205800007,16.080404977000057],[102.09798990000007,16.04109089700006],[102.07261741900004,15.992631948000053],[102.14122659900005,15.981694377000053],[102.18167090300005,15.988430590000064],[102.24220187300006,16.052962811000043]]]}},{"type":"Feature","properties":{"code":"360109","name":"นาเสียว","parentCode":"3601"},"geometry":{"type":"Polygon","coordinates":[[[102.14122659900005,15.981694377000053],[102.07261741900004,15.992631948000053],[102.03047366200008,15.91934930800005],[102.05072130000008,15.889467576000072],[102.10715999700005,15.889527496000028],[102.16931603600005,15.90050099900003],[102.18449133200005,15.902434461000041],[102.17891787900004,15.921083663000047],[102.14122659900005,15.981694377000053]]]}},{"type":"Feature","properties":{"code":"360903","name":"นายางกลัก","parentCode":"3609"},"geometry":{"type":"Polygon","coordinates":[[[101.63195756400006,15.734600905000036],[101.58146009800004,15.741984265000042],[101.53730047800008,15.720957793000025],[101.40671234900009,15.741952512000069],[101.40442895400008,15.739287339000043],[101.39377022200006,15.677216376000047],[101.41679490900003,15.648790215000076],[101.47679186700009,15.631637449000038],[101.58181111500005,15.632449695000048],[101.60649415300009,15.67469273000006],[101.64123940600007,15.684796198000072],[101.63195756400006,15.734600905000036]]]}},{"type":"Feature","properties":{"code":"360101","name":"ในเมือง","parentCode":"3601"},"geometry":{"type":"Polygon","coordinates":[[[102.05843198200006,15.83234335000003],[102.01777550400004,15.83900860600005],[102.02607452500007,15.782313053000053],[102.02731886500004,15.78391866800007],[102.05319952100007,15.791639670000052],[102.05843198200006,15.83234335000003]]]}},{"type":"Feature","properties":{"code":"360504","name":"นางแดด","parentCode":"3605"},"geometry":{"type":"Polygon","coordinates":[[[101.58307877600004,16.394079502000068],[101.55855903600008,16.38071990000003],[101.44948499900005,16.452124240000046],[101.41735043600005,16.410764049000022],[101.39291008200007,16.37281520500005],[101.37040931100006,16.275789904000078],[101.35481047300004,16.260871352000038],[101.37889689700006,16.18761951500005],[101.37720956200008,16.185362330000032],[101.38773368600005,16.16914688600002],[101.41039628700008,16.19723171100003],[101.47981987100007,16.17765995800005],[101.57790845200009,16.170082553000043],[101.59134762300005,16.137347557000055],[101.64250171900005,16.12896452600006],[101.63247082500004,16.151570394000032],[101.70562953000007,16.18984296900004],[101.70390716000009,16.228195501000073],[101.64441541000008,16.29060146000006],[101.60874727400005,16.29941565300004],[101.62348852000008,16.348483698000052],[101.58307877600004,16.394079502000068]]]}},{"type":"Feature","properties":{"code":"360206","name":"โนนแดง","parentCode":"3602"},"geometry":{"type":"Polygon","coordinates":[[[101.93429612400007,15.822451428000022],[101.88326372900008,15.774756422000053],[101.93994836300004,15.783550468000044],[101.94426090300004,15.803794947000029],[101.93429612400007,15.822451428000022]]]}},{"type":"Feature","properties":{"code":"361303","name":"โนนคูณ","parentCode":"3613"},"geometry":{"type":"Polygon","coordinates":[[[102.06732343900006,16.494557591000046],[102.02998213300003,16.524825371000077],[101.95609962000003,16.50098881400004],[101.95628414500004,16.482733972000062],[101.96688054100008,16.46672760000007],[102.04397095900003,16.460796197000036],[102.06732343900006,16.494557591000046]]]}},{"type":"Feature","properties":{"code":"360406","name":"โนนกอก","parentCode":"3604"},"geometry":{"type":"Polygon","coordinates":[[[101.99525892500009,16.205699693000042],[101.94005686400004,16.215325734000032],[101.92044683200004,16.201688528000034],[101.89590704500006,16.159855227000037],[101.99078242300004,16.110055328000044],[101.99525892500009,16.205699693000042]]]}},{"type":"Feature","properties":{"code":"360304","name":"โนนสะอาด","parentCode":"3603"},"geometry":{"type":"Polygon","coordinates":[[[102.32024198900007,15.82537301700006],[102.29122899400005,15.852307987000074],[102.22102931700005,15.826293230000033],[102.25253649500007,15.77028069000005],[102.28354584400006,15.782879411000067],[102.32756241300007,15.803414540000063],[102.32024198900007,15.82537301700006]]]}},{"type":"Feature","properties":{"code":"360116","name":"โนนสำราญ","parentCode":"3601"},"geometry":{"type":"Polygon","coordinates":[[[102.13211786100004,15.674906067000052],[102.08314503800005,15.694960000000037],[102.05773616100004,15.677803852000068],[102.07203984600005,15.622120915000039],[102.07335415600005,15.620297452000045],[102.12131454100006,15.64615154300003],[102.13211786100004,15.674906067000052]]]}},{"type":"Feature","properties":{"code":"360412","name":"โนนทอง","parentCode":"3604"},"geometry":{"type":"Polygon","coordinates":[[[101.75051313700004,16.461979846000077],[101.70412598600007,16.468073986000036],[101.67585846600008,16.42292119700005],[101.71077491500006,16.419166473000075],[101.75684070400007,16.362617717000035],[101.83149883500005,16.303726681000057],[101.89458258800005,16.30085787200005],[101.92004557200005,16.29674779100003],[101.90410395800006,16.35750064800004],[101.89241750300005,16.377937290000034],[101.85510137900008,16.35451707900006],[101.83747053800005,16.386597178000045],[101.75051313700004,16.461979846000077]]]}},{"type":"Feature","properties":{"code":"360602","name":"หนองบัวบาน","parentCode":"3606"},"geometry":{"type":"Polygon","coordinates":[[[101.92521980700008,15.657254255000055],[101.87579979700007,15.706431416000044],[101.82852568600003,15.67423844800004],[101.76064471700005,15.657667934000074],[101.80859010200004,15.620051490000037],[101.82083882600006,15.641673474000072],[101.90187877700004,15.64790673500005],[101.92521980700008,15.657254255000055]]]}},{"type":"Feature","properties":{"code":"360501","name":"หนองบัวแดง","parentCode":"3605"},"geometry":{"type":"Polygon","coordinates":[[[101.83149883500005,16.303726681000057],[101.75684070400007,16.362617717000035],[101.71077491500006,16.419166473000075],[101.67585846600008,16.42292119700005],[101.71066341300008,16.304143397000075],[101.75479889300004,16.264208634000056],[101.77055572300009,16.189553774000046],[101.74553527600006,16.121258384000043],[101.75000002900003,16.070964050000043],[101.82737684200004,16.033740271000056],[101.84988939300007,16.04981031600005],[101.82496431600003,16.086648498000045],[101.84596353300009,16.146155754000063],[101.81726272300006,16.162852670000063],[101.85893397200005,16.22368652600005],[101.85043100400009,16.259552771000074],[101.83149883500005,16.303726681000057]]]}},{"type":"Feature","properties":{"code":"360611","name":"หนองบัวโคก","parentCode":"3606"},"geometry":{"type":"Polygon","coordinates":[[[101.85087222200008,15.507567408000057],[101.82518287400006,15.517838538000035],[101.82148185000005,15.492150020000054],[101.80819190900007,15.438467901000024],[101.80226731700009,15.420457437000039],[101.83854254500005,15.414719767000065],[101.87849963900004,15.389251178000052],[101.90037409600006,15.410647078000068],[101.91101479800005,15.433449114000041],[101.85087222200008,15.507567408000057]]]}},{"type":"Feature","properties":{"code":"360801","name":"หนองบัวระเหว","parentCode":"3608"},"geometry":{"type":"Polygon","coordinates":[[[101.81555908400009,15.748353933000033],[101.78888147600009,15.779697934000069],[101.73416271200006,15.755167073000052],[101.77712199800004,15.722470113000043],[101.81656382800008,15.742453174000048],[101.81555908400009,15.748353933000033]]]}},{"type":"Feature","properties":{"code":"360610","name":"หนองบัวใหญ่","parentCode":"3606"},"geometry":{"type":"Polygon","coordinates":[[[101.89134462800007,15.629291410000064],[101.84949766500006,15.578536104000023],[101.89003748600004,15.517085226000063],[101.92065096000005,15.518452259000071],[101.90923615700007,15.581521351000049],[101.89134462800007,15.629291410000064]]]}},{"type":"Feature","properties":{"code":"361501","name":"หนองฉิม","parentCode":"3615"},"geometry":{"type":"Polygon","coordinates":[[[102.00781826100007,15.589134430000058],[101.98097868900004,15.614610587000072],[101.90923615700007,15.581521351000049],[101.92065096000005,15.518452259000071],[101.92029129600007,15.517915841000047],[101.98993230200006,15.508224036000058],[102.00781826100007,15.589134430000058]]]}},{"type":"Feature","properties":{"code":"360606","name":"หนองโดน","parentCode":"3606"},"geometry":{"type":"Polygon","coordinates":[[[101.82518287400006,15.517838538000035],[101.73482268200007,15.604790886000046],[101.70862095500007,15.567679648000023],[101.73342783000004,15.536788201000036],[101.82148185000005,15.492150020000054],[101.82518287400006,15.517838538000035]]]}},{"type":"Feature","properties":{"code":"360408","name":"หนองข่า","parentCode":"3604"},"geometry":{"type":"Polygon","coordinates":[[[101.92044683200004,16.201688528000034],[101.85893397200005,16.22368652600005],[101.81726272300006,16.162852670000063],[101.84596353300009,16.146155754000063],[101.82496431600003,16.086648498000045],[101.86300998400009,16.102489683000044],[101.89590704500006,16.159855227000037],[101.92044683200004,16.201688528000034]]]}},{"type":"Feature","properties":{"code":"360308","name":"หนองขาม","parentCode":"3603"},"geometry":{"type":"Polygon","coordinates":[[[102.28007436300004,15.868291017000047],[102.20853276700007,15.876589495000076],[102.20882737100004,15.859702981000055],[102.22102931700005,15.826293230000033],[102.29122899400005,15.852307987000074],[102.32024198900007,15.82537301700006],[102.31696571700007,15.845425473000034],[102.32568555600005,15.867820169000026],[102.28007436300004,15.868291017000047]]]}},{"type":"Feature","properties":{"code":"361202","name":"หนองขาม","parentCode":"3612"},"geometry":{"type":"Polygon","coordinates":[[[102.20801463400005,16.198232872000062],[102.19614599300007,16.172771245000035],[102.12284307400006,16.214380523000045],[102.11808282000004,16.163476968000055],[102.16322876600003,16.157511493000072],[102.21681292200009,16.107038698000054],[102.24416583200008,16.129442212000072],[102.21838940500004,16.171185241000046],[102.20801463400005,16.198232872000062]]]}},{"type":"Feature","properties":{"code":"361003","name":"หนองคอนไทย","parentCode":"3610"},"geometry":{"type":"Polygon","coordinates":[[[102.24033579500008,16.481552945000033],[102.20514430200006,16.50010691400007],[102.14849203700004,16.453116029000057],[102.12198140600003,16.45503513400007],[102.13223088700005,16.416422907000026],[102.16135047500006,16.40842746900006],[102.16682783800007,16.403831768000032],[102.21314151000007,16.461917664000055],[102.24062273200008,16.449676543000066],[102.25533055300008,16.461070560000053],[102.24033579500008,16.481552945000033]]]}},{"type":"Feature","properties":{"code":"361105","name":"หนองคู","parentCode":"3611"},"geometry":{"type":"Polygon","coordinates":[[[102.42628173500003,16.313656133000052],[102.31566036000004,16.33253462400006],[102.35315592200004,16.287216743000045],[102.41799384000007,16.25417698800004],[102.41735105700008,16.28832107200003],[102.42628173500003,16.313656133000052]]]}},{"type":"Feature","properties":{"code":"360110","name":"หนองนาแซง","parentCode":"3601"},"geometry":{"type":"Polygon","coordinates":[[[102.04879551000005,15.735991157000058],[102.02731886500004,15.78391866800007],[102.02607452500007,15.782313053000053],[102.00085155700003,15.77372298000006],[102.01884868700006,15.733484304000058],[101.99518379200003,15.706659425000055],[102.01473582200003,15.701684788000023],[102.04879551000005,15.735991157000058]]]}},{"type":"Feature","properties":{"code":"360112","name":"หนองไผ่","parentCode":"3601"},"geometry":{"type":"Polygon","coordinates":[[[102.15077775300006,15.739480492000041],[102.04879551000005,15.735991157000058],[102.01473582200003,15.701684788000023],[102.05773616100004,15.677803852000068],[102.08314503800005,15.694960000000037],[102.13211786100004,15.674906067000052],[102.15309470700004,15.71701590400005],[102.15573120400006,15.740567869000074],[102.15077775300006,15.739480492000041]]]}},{"type":"Feature","properties":{"code":"361210","name":"หนองไผ่","parentCode":"3612"},"geometry":{"type":"Polygon","coordinates":[[[102.27546400400007,16.176533946000063],[102.22273278800009,16.165913956000054],[102.27991297900007,16.072024037000062],[102.31869595700005,16.12054663300006],[102.32656121500008,16.129184569000074],[102.27546400400007,16.176533946000063]]]}},{"type":"Feature","properties":{"code":"360409","name":"หนองโพนงาม","parentCode":"3604"},"geometry":{"type":"Polygon","coordinates":[[[101.95628414500004,16.482733972000062],[101.85277082100004,16.492973404000054],[101.81050992400009,16.444843243000037],[101.74874755700006,16.48424247300005],[101.75051313700004,16.461979846000077],[101.83747053800005,16.386597178000045],[101.85510137900008,16.35451707900006],[101.89241750300005,16.377937290000034],[101.93908966500004,16.410745543000075],[101.98699494200008,16.413058893000027],[101.96688054100008,16.46672760000007],[101.95628414500004,16.482733972000062]]]}},{"type":"Feature","properties":{"code":"361205","name":"หนองสังข์","parentCode":"3612"},"geometry":{"type":"Polygon","coordinates":[[[102.41799384000007,16.25417698800004],[102.35315592200004,16.287216743000045],[102.29682546600009,16.25741371500004],[102.28998955400004,16.237709124000048],[102.31098321000007,16.212607036000065],[102.37091685300004,16.195800846000054],[102.41799384000007,16.25417698800004]]]}},{"type":"Feature","properties":{"code":"361008","name":"หนองตูม","parentCode":"3610"},"geometry":{"type":"Polygon","coordinates":[[[102.11705804900004,16.399304869000048],[102.04231354800004,16.366845778000027],[102.06138375900008,16.29295667300005],[102.09158005500007,16.25655431900003],[102.14522595700004,16.281613262000064],[102.14494153100009,16.282253086000026],[102.10991627900006,16.29754385500007],[102.11705804900004,16.399304869000048]]]}},{"type":"Feature","properties":{"code":"360507","name":"หนองแวง","parentCode":"3605"},"geometry":{"type":"Polygon","coordinates":[[[101.67585846600008,16.42292119700005],[101.58307877600004,16.394079502000068],[101.62348852000008,16.348483698000052],[101.60874727400005,16.29941565300004],[101.64441541000008,16.29060146000006],[101.70390716000009,16.228195501000073],[101.70562953000007,16.18984296900004],[101.63247082500004,16.151570394000032],[101.64250171900005,16.12896452600006],[101.66318355700008,16.07658809800006],[101.67290971700004,16.041132849000064],[101.75000002900003,16.070964050000043],[101.74553527600006,16.121258384000043],[101.77055572300009,16.189553774000046],[101.75479889300004,16.264208634000056],[101.71066341300008,16.304143397000075],[101.67585846600008,16.42292119700005]]]}},{"type":"Feature","properties":{"code":"361009","name":"โอโล","parentCode":"3610"},"geometry":{"type":"Polygon","coordinates":[[[102.16682783800007,16.403831768000032],[102.16135047500006,16.40842746900006],[102.15835369000007,16.291386943000077],[102.23050036300003,16.32203513500002],[102.20930937400004,16.372892549000028],[102.16682783800007,16.403831768000032]]]}},{"type":"Feature","properties":{"code":"361001","name":"ผักปัง","parentCode":"3610"},"geometry":{"type":"Polygon","coordinates":[[[102.16135047500006,16.40842746900006],[102.13223088700005,16.416422907000026],[102.11705804900004,16.399304869000048],[102.10991627900006,16.29754385500007],[102.14494153100009,16.282253086000026],[102.15835369000007,16.291386943000077],[102.16135047500006,16.40842746900006]]]}},{"type":"Feature","properties":{"code":"360103","name":"โพนทอง","parentCode":"3601"},"geometry":{"type":"Polygon","coordinates":[[[102.16931603600005,15.90050099900003],[102.10715999700005,15.889527496000028],[102.06205503400008,15.841519793000032],[102.05843198200006,15.83234335000003],[102.05319952100007,15.791639670000052],[102.09558885400008,15.795338911000044],[102.08132808400006,15.833663934000072],[102.11973517500007,15.832503389000067],[102.16214318800007,15.859700659000055],[102.16931603600005,15.90050099900003]]]}},{"type":"Feature","properties":{"code":"360205","name":"ภูแลนคา","parentCode":"3602"},"geometry":{"type":"Polygon","coordinates":[[[101.75274127800009,15.974783471000023],[101.69161238800007,15.952897990000054],[101.70506708700003,15.917018214000052],[101.75181830700006,15.933297467000045],[101.80197331800008,15.87381655400003],[101.80657082100004,15.842191684000056],[101.85338843800008,15.911576061000062],[101.75274127800009,15.974783471000023]]]}},{"type":"Feature","properties":{"code":"360905","name":"โป่งนก","parentCode":"3609"},"geometry":{"type":"Polygon","coordinates":[[[101.60072184400008,15.750687973000026],[101.50909096500004,15.796171272000038],[101.50383267000007,15.834781969000062],[101.45434670000009,15.888089902000047],[101.42755616300008,15.831261439000059],[101.40671234900009,15.741952512000069],[101.53730047800008,15.720957793000025],[101.58146009800004,15.741984265000042],[101.63195756400006,15.734600905000036],[101.60072184400008,15.750687973000026]]]}},{"type":"Feature","properties":{"code":"361504","name":"รังงาม","parentCode":"3615"},"geometry":{"type":"Polygon","coordinates":[[[101.98993230200006,15.508224036000058],[101.92029129600007,15.517915841000047],[101.93736260000009,15.456432178000057],[102.00999897700007,15.458219990000032],[102.02397729300009,15.470350153000027],[101.98993230200006,15.508224036000058]]]}},{"type":"Feature","properties":{"code":"360102","name":"รอบเมือง","parentCode":"3601"},"geometry":{"type":"Polygon","coordinates":[[[102.06205503400008,15.841519793000032],[102.01904605500005,15.861379298000031],[101.99263526900006,15.855687370000055],[101.99168717200007,15.773755287000029],[102.00085155700003,15.77372298000006],[102.02607452500007,15.782313053000053],[102.01777550400004,15.83900860600005],[102.05843198200006,15.83234335000003],[102.06205503400008,15.841519793000032]]]}},{"type":"Feature","properties":{"code":"361103","name":"สระพัง","parentCode":"3611"},"geometry":{"type":"Polygon","coordinates":[[[102.40531557800006,16.46022563300005],[102.39818899400007,16.446641768000063],[102.38458810500003,16.393205351000063],[102.44584301100008,16.35308879200005],[102.45886768900004,16.39468781100004],[102.41809890000007,16.420337818000064],[102.40531557800006,16.46022563300005]]]}},{"type":"Feature","properties":{"code":"360407","name":"สระโพนทอง","parentCode":"3604"},"geometry":{"type":"Polygon","coordinates":[[[102.02549132100006,16.251539571000023],[101.97801200600009,16.28834974600005],[101.95236279300008,16.268780089000074],[101.94005686400004,16.215325734000032],[101.99525892500009,16.205699693000042],[102.02865619500005,16.193060842000023],[102.02549132100006,16.251539571000023]]]}},{"type":"Feature","properties":{"code":"361102","name":"สามสวน","parentCode":"3611"},"geometry":{"type":"Polygon","coordinates":[[[102.30096173800007,16.44824280200004],[102.25533055300008,16.461070560000053],[102.24062273200008,16.449676543000066],[102.22235807100009,16.38873497900005],[102.30625658700006,16.372583907000035],[102.32311579400005,16.445323216000077],[102.30096173800007,16.44824280200004]]]}},{"type":"Feature","properties":{"code":"360119","name":"ซับสีทอง","parentCode":"3601"},"geometry":{"type":"Polygon","coordinates":[[[102.08689667200008,16.190715643000033],[102.05312061100005,16.251481429000023],[102.02549132100006,16.251539571000023],[102.02865619500005,16.193060842000023],[101.99525892500009,16.205699693000042],[101.99078242300004,16.110055328000044],[101.94562430000008,16.039512401000025],[102.04079597400005,16.06696702100004],[102.07301382900005,16.099853406000022],[102.08689667200008,16.190715643000033]]]}},{"type":"Feature","properties":{"code":"361601","name":"ซับใหญ่","parentCode":"3616"},"geometry":{"type":"Polygon","coordinates":[[[101.60649415300009,15.67469273000006],[101.58181111500005,15.632449695000048],[101.47679186700009,15.631637449000038],[101.53877594400007,15.566979318000051],[101.55081130600007,15.564949253000066],[101.61619447900006,15.558533619000059],[101.64960519800007,15.602927806000025],[101.60649415300009,15.67469273000006]]]}},{"type":"Feature","properties":{"code":"360309","name":"ศรีสำราญ","parentCode":"3603"},"geometry":{"type":"Polygon","coordinates":[[[102.34394497400007,16.035500504000026],[102.32616990000008,16.030480913000076],[102.30097861200005,15.967574058000025],[102.31804759700003,15.965824741000063],[102.36642873200009,15.962542091000046],[102.38520413200007,15.985892602000035],[102.34394497400007,16.035500504000026]]]}},{"type":"Feature","properties":{"code":"360805","name":"โสกปลาดุก","parentCode":"3608"},"geometry":{"type":"Polygon","coordinates":[[[101.77712199800004,15.722470113000043],[101.73416271200006,15.755167073000052],[101.66696770900006,15.756501290000074],[101.63195756400006,15.734600905000036],[101.64123940600007,15.684796198000072],[101.68844441900006,15.69153050400007],[101.73792728900008,15.672114769000075],[101.77712199800004,15.722470113000043]]]}},{"type":"Feature","properties":{"code":"360613","name":"ส้มป่อย","parentCode":"3606"},"geometry":{"type":"Polygon","coordinates":[[[101.81656382800008,15.742453174000048],[101.77712199800004,15.722470113000043],[101.73792728900008,15.672114769000075],[101.74676653600005,15.646891351000022],[101.76064471700005,15.657667934000074],[101.82852568600003,15.67423844800004],[101.87579979700007,15.706431416000044],[101.85745723800005,15.725252460000036],[101.81656382800008,15.742453174000048]]]}},{"type":"Feature","properties":{"code":"361502","name":"ตาเนิน","parentCode":"3615"},"geometry":{"type":"Polygon","coordinates":[[[102.07076472600005,15.601644272000044],[102.00781826100007,15.589134430000058],[101.98993230200006,15.508224036000058],[102.02397729300009,15.470350153000027],[102.03306332200003,15.501768955000045],[102.06133769800005,15.583928572000048],[102.07076472600005,15.601644272000044]]]}},{"type":"Feature","properties":{"code":"361603","name":"ตะโกทอง","parentCode":"3616"},"geometry":{"type":"Polygon","coordinates":[[[101.70862095500007,15.567679648000023],[101.64960519800007,15.602927806000025],[101.61619447900006,15.558533619000059],[101.71363736100005,15.539763685000025],[101.73052194800005,15.537338590000047],[101.73342783000004,15.536788201000036],[101.70862095500007,15.567679648000023]]]}},{"type":"Feature","properties":{"code":"360202","name":"ตลาดแร้ง","parentCode":"3602"},"geometry":{"type":"Polygon","coordinates":[[[101.93429612400007,15.822451428000022],[101.85722972800005,15.909836140000039],[101.85338843800008,15.911576061000062],[101.80657082100004,15.842191684000056],[101.78673291300004,15.78608975700007],[101.78888147600009,15.779697934000069],[101.81555908400009,15.748353933000033],[101.88326372900008,15.774756422000053],[101.93429612400007,15.822451428000022]]]}},{"type":"Feature","properties":{"code":"360113","name":"ท่าหินโงม","parentCode":"3601"},"geometry":{"type":"Polygon","coordinates":[[[102.04079597400005,16.06696702100004],[101.94562430000008,16.039512401000025],[101.94171236900007,16.03792244600004],[101.94874031700004,15.983496864000074],[102.00005434600007,15.962159298000074],[102.03885425600004,16.020317672000033],[102.04079597400005,16.06696702100004]]]}},{"type":"Feature","properties":{"code":"361602","name":"ท่ากูบ","parentCode":"3616"},"geometry":{"type":"Polygon","coordinates":[[[101.73792728900008,15.672114769000075],[101.68844441900006,15.69153050400007],[101.64123940600007,15.684796198000072],[101.60649415300009,15.67469273000006],[101.64960519800007,15.602927806000025],[101.70862095500007,15.567679648000023],[101.73482268200007,15.604790886000046],[101.74676653600005,15.646891351000022],[101.73792728900008,15.672114769000075]]]}},{"type":"Feature","properties":{"code":"361209","name":"ท่ามะไฟหวาน","parentCode":"3612"},"geometry":{"type":"Polygon","coordinates":[[[102.11808282000004,16.163476968000055],[102.12284307400006,16.214380523000045],[102.08689667200008,16.190715643000033],[102.07301382900005,16.099853406000022],[102.10809939700005,16.088932356000043],[102.11808282000004,16.163476968000055]]]}},{"type":"Feature","properties":{"code":"360509","name":"ท่าใหญ่","parentCode":"3605"},"geometry":{"type":"Polygon","coordinates":[[[101.66318355700008,16.07658809800006],[101.57624896300007,16.08686362800006],[101.56807290800003,16.025671309000074],[101.58954860500006,15.976865686000053],[101.68652264700006,15.957936722000056],[101.66136272300008,16.020030725000026],[101.67290971700004,16.041132849000064],[101.66318355700008,16.07658809800006]]]}},{"type":"Feature","properties":{"code":"360503","name":"ถ้ำวัวแดง","parentCode":"3605"},"geometry":{"type":"Polygon","coordinates":[[[101.47981987100007,16.17765995800005],[101.41039628700008,16.19723171100003],[101.38773368600005,16.16914688600002],[101.43213734100004,16.118366120000076],[101.46251052100007,16.125030882000033],[101.50648226100009,16.053449683000053],[101.50754402700005,16.006121182000072],[101.55017136000004,15.950787837000064],[101.58954860500006,15.976865686000053],[101.56807290800003,16.025671309000074],[101.57624896300007,16.08686362800006],[101.49623635900008,16.135149803000047],[101.47981987100007,16.17765995800005]]]}},{"type":"Feature","properties":{"code":"361010","name":"ธาตุทอง","parentCode":"3610"},"geometry":{"type":"Polygon","coordinates":[[[102.28488687000004,16.237813215000074],[102.14522595700004,16.281613262000064],[102.09158005500007,16.25655431900003],[102.05312061100005,16.251481429000023],[102.08689667200008,16.190715643000033],[102.12284307400006,16.214380523000045],[102.19614599300007,16.172771245000035],[102.20801463400005,16.198232872000062],[102.24999756600005,16.23762369900004],[102.28488687000004,16.237813215000074]]]}},{"type":"Feature","properties":{"code":"361305","name":"ทุ่งลุยลาย","parentCode":"3613"},"geometry":{"type":"Polygon","coordinates":[[[101.57174879700005,16.648255541000026],[101.51342721600008,16.68113119700007],[101.51051927000003,16.676995076000026],[101.52624842100005,16.621723245000055],[101.49874710000006,16.579158866000057],[101.51953684400007,16.54958823100003],[101.46475970100005,16.514653294000027],[101.44948499900005,16.452124240000046],[101.55855903600008,16.38071990000003],[101.58307877600004,16.394079502000068],[101.67585846600008,16.42292119700005],[101.70412598600007,16.468073986000036],[101.75051313700004,16.461979846000077],[101.74874755700006,16.48424247300005],[101.81050992400009,16.444843243000037],[101.85277082100004,16.492973404000054],[101.83971119000006,16.54700174800007],[101.81206311400007,16.576217891000056],[101.73185010300006,16.61373696900006],[101.66152448000008,16.61039157500005],[101.57174879700005,16.648255541000026]]]}},{"type":"Feature","properties":{"code":"361307","name":"ทุ่งนาเลา","parentCode":"3613"},"geometry":{"type":"Polygon","coordinates":[[[101.91727700900009,16.57804578500003],[101.92200478400008,16.586698683000066],[101.91238932300007,16.62442756400003],[101.83346448300006,16.62266315900007],[101.81206311400007,16.576217891000056],[101.83971119000006,16.54700174800007],[101.91727700900009,16.57804578500003]]]}},{"type":"Feature","properties":{"code":"361302","name":"ทุ่งพระ","parentCode":"3613"},"geometry":{"type":"Polygon","coordinates":[[[101.60379474900009,16.707034770000064],[101.55324888200005,16.727594218000036],[101.57174879700005,16.648255541000026],[101.66152448000008,16.61039157500005],[101.73185010300006,16.61373696900006],[101.81206311400007,16.576217891000056],[101.83346448300006,16.62266315900007],[101.91238932300007,16.62442756400003],[101.91066606200008,16.629504780000048],[101.88408175300003,16.644981608000023],[101.82628692800006,16.65767222900007],[101.77365306200005,16.631554127000072],[101.75081656800006,16.667821305000075],[101.61886921000007,16.685437037000042],[101.60379474900009,16.707034770000064]]]}},{"type":"Feature","properties":{"code":"360901","name":"วะตะแบก","parentCode":"3609"},"geometry":{"type":"Polygon","coordinates":[[[101.42488955200008,15.519529015000046],[101.37345562300004,15.54036181500004],[101.38570709900006,15.486544810000055],[101.37753607200005,15.399426650000066],[101.38163145500005,15.38802430100003],[101.38574495200004,15.346047781000038],[101.38202449100004,15.33140254600005],[101.46073486600005,15.350565231000076],[101.50069985400006,15.356443951000074],[101.51073940200007,15.392914462000022],[101.48183820700007,15.485607218000041],[101.42488955200008,15.519529015000046]]]}},{"type":"Feature","properties":{"code":"360511","name":"วังชมภู","parentCode":"3605"},"geometry":{"type":"Polygon","coordinates":[[[101.64250171900005,16.12896452600006],[101.59134762300005,16.137347557000055],[101.57790845200009,16.170082553000043],[101.47981987100007,16.17765995800005],[101.49623635900008,16.135149803000047],[101.57624896300007,16.08686362800006],[101.66318355700008,16.07658809800006],[101.64250171900005,16.12896452600006]]]}},{"type":"Feature","properties":{"code":"360802","name":"วังตะเฆ่","parentCode":"3608"},"geometry":{"type":"Polygon","coordinates":[[[101.53221891800007,15.948418567000033],[101.47715235800007,15.958417213000075],[101.45909829300007,15.927839855000059],[101.45434670000009,15.888089902000047],[101.50383267000007,15.834781969000062],[101.50909096500004,15.796171272000038],[101.60072184400008,15.750687973000026],[101.64685779900009,15.774176878000048],[101.65327965800009,15.805475050000041],[101.71218122500005,15.813723818000028],[101.67156036300008,15.871323765000056],[101.62573632900006,15.86212325300005],[101.53221891800007,15.948418567000033]]]}},{"type":"Feature","properties":{"code":"361403","name":"วังทอง","parentCode":"3614"},"geometry":{"type":"Polygon","coordinates":[[[101.32865011300004,15.857937027000048],[101.32669867100009,15.851395489000026],[101.31963413200003,15.788739503000045],[101.33632334300006,15.75302154600007],[101.40442895400008,15.739287339000043],[101.40671234900009,15.741952512000069],[101.42755616300008,15.831261439000059],[101.32865011300004,15.857937027000048]]]}},{"type":"Feature","properties":{"code":"360302","name":"ยางหวาย","parentCode":"3603"},"geometry":{"type":"Polygon","coordinates":[[[102.34138254700008,15.887751356000024],[102.28852593700009,15.90616643800007],[102.28007436300004,15.868291017000047],[102.32568555600005,15.867820169000026],[102.34138254700008,15.887751356000024]]]}}]}