{"type":"FeatureCollection","features":[{"type":"Feature","properties":{"code":"370701","name":"อำนาจ","parentCode":"3707"},"geometry":{"type":"Polygon","coordinates":[[[104.70220830100004,15.733042085000022],[104.67290006800005,15.744090571000072],[104.63911635400007,15.710408708000045],[104.64069750100003,15.687239373000068],[104.65734348200004,15.678349795000031],[104.70220830100004,15.733042085000022]]]}},{"type":"Feature","properties":{"code":"370101","name":"บุ่ง","parentCode":"3701"},"geometry":{"type":"Polygon","coordinates":[[[104.69497317900004,15.91134149000004],[104.67800130500007,15.905793686000038],[104.59140156800004,15.903365794000024],[104.58329010000006,15.84806990100003],[104.58921331500005,15.846180975000038],[104.65775212900007,15.835431463000077],[104.69725545900008,15.910091409000074],[104.69497317900004,15.91134149000004]]]}},{"type":"Feature","properties":{"code":"370402","name":"จานลาน","parentCode":"3704"},"geometry":{"type":"Polygon","coordinates":[[[104.89493616000004,15.65352426800007],[104.83178641200004,15.627412742000047],[104.80767553400005,15.61779137600007],[104.80754981400008,15.603687571000023],[104.86169485000005,15.578528169000037],[104.86981367500005,15.538341982000077],[104.88754400700009,15.545026620000044],[104.91719628400006,15.600251823000065],[104.93314208500004,15.640393321000033],[104.89493616000004,15.65352426800007]]]}},{"type":"Feature","properties":{"code":"370201","name":"ชานุมาน","parentCode":"3702"},"geometry":{"type":"Polygon","coordinates":[[[104.97872389200006,16.279131600000028],[104.95636219200009,16.27787944100004],[104.88558782700005,16.23516308300003],[104.87320060900004,16.20900933000007],[104.89911561800005,16.176440399000057],[104.94108947300003,16.209792841000024],[104.96708168200007,16.183485666000024],[105.01399919300007,16.187857305000023],[105.01621418500008,16.243273470000076],[104.97872389200006,16.279131600000028]]]}},{"type":"Feature","properties":{"code":"370607","name":"จิกดู่","parentCode":"3706"},"geometry":{"type":"Polygon","coordinates":[[[104.59074943900004,15.609458646000064],[104.53932080100009,15.623478686000055],[104.49435106900006,15.589934046000053],[104.51201416400005,15.563932335000061],[104.53972493800006,15.548148362000063],[104.56611250600008,15.556378805000065],[104.58591169900006,15.566692880000062],[104.59074943900004,15.609458646000064]]]}},{"type":"Feature","properties":{"code":"370117","name":"ดอนเมย","parentCode":"3701"},"geometry":{"type":"Polygon","coordinates":[[[104.57695106900007,15.845307649000063],[104.54578110900007,15.824579189000076],[104.51413373400004,15.776821300000051],[104.54812421600008,15.767757675000041],[104.57695106900007,15.845307649000063]]]}},{"type":"Feature","properties":{"code":"370704","name":"ดงบัง","parentCode":"3707"},"geometry":{"type":"Polygon","coordinates":[[[104.76347478100007,15.750467009000033],[104.71292033900005,15.790582020000045],[104.72030399100004,15.739563124000028],[104.73318932200004,15.655497946000025],[104.74375327900003,15.651697941000066],[104.78269590300005,15.707397995000065],[104.77637890300008,15.733692805000032],[104.76347478100007,15.750467009000033]]]}},{"type":"Feature","properties":{"code":"370702","name":"ดงมะยาง","parentCode":"3707"},"geometry":{"type":"Polygon","coordinates":[[[104.63911635400007,15.710408708000045],[104.59066228400008,15.748199389000035],[104.59496176200008,15.712898847000076],[104.62006736500007,15.687008168000034],[104.64069750100003,15.687239373000068],[104.63911635400007,15.710408708000045]]]}},{"type":"Feature","properties":{"code":"370601","name":"หัวตะพาน","parentCode":"3706"},"geometry":{"type":"Polygon","coordinates":[[[104.47100650700008,15.687774082000033],[104.49193693000007,15.751578681000069],[104.43060701700006,15.73569770100005],[104.42516435400006,15.725217856000029],[104.44343466300006,15.683571240000049],[104.47100650700008,15.687774082000033]]]}},{"type":"Feature","properties":{"code":"370305","name":"ห้วย","parentCode":"3703"},"geometry":{"type":"Polygon","coordinates":[[[104.98964733200006,15.910900393000077],[104.97182264300005,15.913278286000036],[104.92829375100007,15.878821248000065],[104.92586303700006,15.830955795000023],[104.91756859400004,15.808210469000073],[104.92228061100008,15.769008750000069],[104.94585982300003,15.780985222000027],[104.96704183800006,15.866667541000027],[104.98964733200006,15.910900393000077]]]}},{"type":"Feature","properties":{"code":"370114","name":"ห้วยไร่","parentCode":"3701"},"geometry":{"type":"Polygon","coordinates":[[[104.71374695800006,15.903633944000035],[104.69725545900008,15.910091409000074],[104.65775212900007,15.835431463000077],[104.69001978000006,15.793826599000056],[104.69103075200007,15.798155588000043],[104.71374695800006,15.903633944000035]]]}},{"type":"Feature","properties":{"code":"370102","name":"ไก่คำ","parentCode":"3701"},"geometry":{"type":"Polygon","coordinates":[[[104.65775212900007,15.835431463000077],[104.58921331500005,15.846180975000038],[104.60425153100005,15.78486302500005],[104.60513090000006,15.766060053000047],[104.66416875000004,15.787083216000042],[104.69001978000006,15.793826599000056],[104.65775212900007,15.835431463000077]]]}},{"type":"Feature","properties":{"code":"370203","name":"คำเขื่อนแก้ว","parentCode":"3702"},"geometry":{"type":"Polygon","coordinates":[[[104.96708168200007,16.183485666000024],[104.94108947300003,16.209792841000024],[104.89911561800005,16.176440399000057],[104.87320060900004,16.20900933000007],[104.77732234400008,16.197769188000052],[104.76607414700004,16.196444264000036],[104.78924576100007,16.157434039000066],[104.82500423100004,16.155255647000047],[104.81385420500004,16.09867915600006],[104.88591308100007,16.094140079000056],[104.96904732200005,16.121619145000068],[104.96708168200007,16.183485666000024]]]}},{"type":"Feature","properties":{"code":"370302","name":"คำโพน","parentCode":"3703"},"geometry":{"type":"Polygon","coordinates":[[[105.00993760100005,15.99959560700006],[104.96208567600007,16.022113878000027],[104.92544824000004,16.00460780700007],[104.90903433700004,15.930046391000076],[104.97182264300005,15.913278286000036],[104.98964733200006,15.910900393000077],[105.00420106100006,15.93715320800004],[105.01605109000008,15.99752849500004],[105.00993760100005,15.99959560700006]]]}},{"type":"Feature","properties":{"code":"370602","name":"คำพระ","parentCode":"3706"},"geometry":{"type":"Polygon","coordinates":[[[104.51413373400004,15.776821300000051],[104.43348225000005,15.779258365000032],[104.41890576400004,15.745743803000039],[104.43060701700006,15.73569770100005],[104.49193693000007,15.751578681000069],[104.52475624400006,15.745322834000035],[104.54812421600008,15.767757675000041],[104.51413373400004,15.776821300000051]]]}},{"type":"Feature","properties":{"code":"370603","name":"เค็งใหญ่","parentCode":"3706"},"geometry":{"type":"Polygon","coordinates":[[[104.60513090000006,15.766060053000047],[104.60425153100005,15.78486302500005],[104.54812421600008,15.767757675000041],[104.52475624400006,15.745322834000035],[104.52200124100005,15.711893108000027],[104.59496176200008,15.712898847000076],[104.59066228400008,15.748199389000035],[104.60513090000006,15.766060053000047]]]}},{"type":"Feature","properties":{"code":"370707","name":"โคกกลาง","parentCode":"3707"},"geometry":{"type":"Polygon","coordinates":[[[104.66416875000004,15.787083216000042],[104.60513090000006,15.766060053000047],[104.59066228400008,15.748199389000035],[104.63911635400007,15.710408708000045],[104.67290006800005,15.744090571000072],[104.66416875000004,15.787083216000042]]]}},{"type":"Feature","properties":{"code":"370204","name":"โคกก่ง","parentCode":"3702"},"geometry":{"type":"Polygon","coordinates":[[[105.03882976500006,16.118421278000028],[104.96904732200005,16.121619145000068],[104.88591308100007,16.094140079000056],[104.92190423300008,16.01192803200007],[104.92544824000004,16.00460780700007],[104.96208567600007,16.022113878000027],[105.00993760100005,15.99959560700006],[105.02552885400007,16.057780699000034],[105.06026078000008,16.09814908000004],[105.03882976500006,16.118421278000028]]]}},{"type":"Feature","properties":{"code":"370202","name":"โคกสาร","parentCode":"3702"},"geometry":{"type":"Polygon","coordinates":[[[105.01399919300007,16.187857305000023],[104.96708168200007,16.183485666000024],[104.96904732200005,16.121619145000068],[105.03882976500006,16.118421278000028],[105.01399919300007,16.187857305000023]]]}},{"type":"Feature","properties":{"code":"370107","name":"คึมใหญ่","parentCode":"3701"},"geometry":{"type":"Polygon","coordinates":[[[104.73990794000008,15.99148630600007],[104.71345375400006,16.010246663000032],[104.72425390500007,15.972510976000024],[104.69497317900004,15.91134149000004],[104.69725545900008,15.910091409000074],[104.71374695800006,15.903633944000035],[104.74259759800009,15.890308901000026],[104.76921353100005,15.905110432000072],[104.79374485700004,15.915850915000021],[104.78402757100008,15.96536710600003],[104.73990794000008,15.99148630600007]]]}},{"type":"Feature","properties":{"code":"370116","name":"กุดปลาดุก","parentCode":"3701"},"geometry":{"type":"Polygon","coordinates":[[[104.61269894200007,15.959208311000054],[104.60518349200004,15.995768697000074],[104.58368855200007,15.97486800300004],[104.50501519400007,15.965496461000043],[104.49615562000008,15.94404146000005],[104.50911487100007,15.935197131000052],[104.53927219600007,15.91931498100007],[104.56915154300003,15.918207953000035],[104.61269894200007,15.959208311000054]]]}},{"type":"Feature","properties":{"code":"370105","name":"เหล่าพรวน","parentCode":"3701"},"geometry":{"type":"Polygon","coordinates":[[[104.80717951800005,15.903095933000031],[104.79374485700004,15.915850915000021],[104.76921353100005,15.905110432000072],[104.77504272000004,15.821869609000032],[104.81201111000007,15.821143909000057],[104.80717951800005,15.903095933000031]]]}},{"type":"Feature","properties":{"code":"370304","name":"ลือ","parentCode":"3703"},"geometry":{"type":"Polygon","coordinates":[[[104.91756859400004,15.808210469000073],[104.85402103300004,15.857217176000063],[104.82455649400003,15.805698072000041],[104.82149853300007,15.786249188000056],[104.86691739800006,15.75828314000006],[104.90395328300008,15.748584701000027],[104.90739223900005,15.761424343000044],[104.92228061100008,15.769008750000069],[104.91756859400004,15.808210469000073]]]}},{"type":"Feature","properties":{"code":"370706","name":"แมด","parentCode":"3707"},"geometry":{"type":"Polygon","coordinates":[[[104.71292033900005,15.790582020000045],[104.69103075200007,15.798155588000043],[104.69001978000006,15.793826599000056],[104.66416875000004,15.787083216000042],[104.67290006800005,15.744090571000072],[104.70220830100004,15.733042085000022],[104.72030399100004,15.739563124000028],[104.71292033900005,15.790582020000045]]]}},{"type":"Feature","properties":{"code":"370403","name":"ไม้กลอน","parentCode":"3704"},"geometry":{"type":"Polygon","coordinates":[[[104.86691739800006,15.75828314000006],[104.82149853300007,15.786249188000056],[104.77637890300008,15.733692805000032],[104.78269590300005,15.707397995000065],[104.81360587000006,15.65428214900004],[104.82717655800008,15.712934715000074],[104.86691739800006,15.75828314000006]]]}},{"type":"Feature","properties":{"code":"370103","name":"นาจิก","parentCode":"3701"},"geometry":{"type":"Polygon","coordinates":[[[104.58921331500005,15.846180975000038],[104.58329010000006,15.84806990100003],[104.57695106900007,15.845307649000063],[104.54812421600008,15.767757675000041],[104.60425153100005,15.78486302500005],[104.58921331500005,15.846180975000038]]]}},{"type":"Feature","properties":{"code":"370111","name":"นาหมอม้า","parentCode":"3701"},"geometry":{"type":"Polygon","coordinates":[[[104.50911487100007,15.935197131000052],[104.49615562000008,15.94404146000005],[104.46515500600003,15.91289275500003],[104.45637719700005,15.853546006000045],[104.45581552600004,15.84011255400003],[104.47418347100006,15.836278165000067],[104.50911487100007,15.935197131000052]]]}},{"type":"Feature","properties":{"code":"370307","name":"นาป่าแซง","parentCode":"3703"},"geometry":{"type":"Polygon","coordinates":[[[104.92586303700006,15.830955795000023],[104.90203286000008,15.847128517000044],[104.87847093000005,15.94090232900004],[104.83259961700008,15.921809814000028],[104.85402103300004,15.857217176000063],[104.91756859400004,15.808210469000073],[104.92586303700006,15.830955795000023]]]}},{"type":"Feature","properties":{"code":"370108","name":"นาผือ","parentCode":"3701"},"geometry":{"type":"Polygon","coordinates":[[[104.69723277500003,16.009638250000023],[104.60940803000005,16.003385042000048],[104.60268491800008,16.00157282300006],[104.60518349200004,15.995768697000074],[104.61269894200007,15.959208311000054],[104.66572014100007,15.970816058000025],[104.69723277500003,16.009638250000023]]]}},{"type":"Feature","properties":{"code":"370119","name":"นาแต้","parentCode":"3701"},"geometry":{"type":"Polygon","coordinates":[[[104.70977358900006,16.015119370000036],[104.69723277500003,16.009638250000023],[104.66572014100007,15.970816058000025],[104.67800130500007,15.905793686000038],[104.69497317900004,15.91134149000004],[104.72425390500007,15.972510976000024],[104.71345375400006,16.010246663000032],[104.70977358900006,16.015119370000036]]]}},{"type":"Feature","properties":{"code":"370303","name":"นาหว้า","parentCode":"3703"},"geometry":{"type":"Polygon","coordinates":[[[104.90903433700004,15.930046391000076],[104.87847093000005,15.94090232900004],[104.90203286000008,15.847128517000044],[104.92586303700006,15.830955795000023],[104.92829375100007,15.878821248000065],[104.97182264300005,15.913278286000036],[104.90903433700004,15.930046391000076]]]}},{"type":"Feature","properties":{"code":"370110","name":"นาวัง","parentCode":"3701"},"geometry":{"type":"Polygon","coordinates":[[[104.60268491800008,16.00157282300006],[104.53137100700008,16.003802165000025],[104.50195090200003,15.976500546000068],[104.50501519400007,15.965496461000043],[104.58368855200007,15.97486800300004],[104.60518349200004,15.995768697000074],[104.60268491800008,16.00157282300006]]]}},{"type":"Feature","properties":{"code":"370504","name":"นาเวียง","parentCode":"3705"},"geometry":{"type":"Polygon","coordinates":[[[104.55254558400009,16.082581665000077],[104.54260898700005,16.07117774900007],[104.52547067800003,16.03639323300007],[104.53137100700008,16.003802165000025],[104.60268491800008,16.00157282300006],[104.60940803000005,16.003385042000048],[104.61883369900005,16.032333693000055],[104.55254558400009,16.082581665000077]]]}},{"type":"Feature","properties":{"code":"370118","name":"นายม","parentCode":"3701"},"geometry":{"type":"Polygon","coordinates":[[[104.53927219600007,15.91931498100007],[104.50911487100007,15.935197131000052],[104.47418347100006,15.836278165000067],[104.52148426400004,15.838229539000054],[104.53927219600007,15.91931498100007]]]}},{"type":"Feature","properties":{"code":"370109","name":"น้ำปลีก","parentCode":"3701"},"geometry":{"type":"Polygon","coordinates":[[[104.47418347100006,15.836278165000067],[104.45581552600004,15.84011255400003],[104.43348225000005,15.779258365000032],[104.51413373400004,15.776821300000051],[104.54578110900007,15.824579189000076],[104.52148426400004,15.838229539000054],[104.47418347100006,15.836278165000067]]]}},{"type":"Feature","properties":{"code":"370113","name":"โนนหนามแท่ง","parentCode":"3701"},"geometry":{"type":"Polygon","coordinates":[[[104.66572014100007,15.970816058000025],[104.61269894200007,15.959208311000054],[104.56915154300003,15.918207953000035],[104.59140156800004,15.903365794000024],[104.67800130500007,15.905793686000038],[104.66572014100007,15.970816058000025]]]}},{"type":"Feature","properties":{"code":"370306","name":"โนนงาม","parentCode":"3703"},"geometry":{"type":"Polygon","coordinates":[[[104.85402103300004,15.857217176000063],[104.83259961700008,15.921809814000028],[104.80717951800005,15.903095933000031],[104.81201111000007,15.821143909000057],[104.82455649400003,15.805698072000041],[104.85402103300004,15.857217176000063]]]}},{"type":"Feature","properties":{"code":"370112","name":"โนนโพธิ์","parentCode":"3701"},"geometry":{"type":"Polygon","coordinates":[[[104.56915154300003,15.918207953000035],[104.53927219600007,15.91931498100007],[104.52148426400004,15.838229539000054],[104.54578110900007,15.824579189000076],[104.57695106900007,15.845307649000063],[104.58329010000006,15.84806990100003],[104.59140156800004,15.903365794000024],[104.56915154300003,15.918207953000035]]]}},{"type":"Feature","properties":{"code":"370505","name":"หนองไฮ","parentCode":"3705"},"geometry":{"type":"Polygon","coordinates":[[[104.81836996500004,16.00862573300003],[104.81385420500004,16.09867915600006],[104.73990794000008,15.99148630600007],[104.78402757100008,15.96536710600003],[104.81836996500004,16.00862573300003]]]}},{"type":"Feature","properties":{"code":"370604","name":"หนองแก้ว","parentCode":"3706"},"geometry":{"type":"Polygon","coordinates":[[[104.62006736500007,15.687008168000034],[104.59496176200008,15.712898847000076],[104.52200124100005,15.711893108000027],[104.50228169300004,15.68725581600006],[104.52831772300004,15.677449554000077],[104.61064291500008,15.682482463000042],[104.62006736500007,15.687008168000034]]]}},{"type":"Feature","properties":{"code":"370301","name":"หนองข่า","parentCode":"3703"},"geometry":{"type":"Polygon","coordinates":[[[104.92190423300008,16.01192803200007],[104.81836996500004,16.00862573300003],[104.78402757100008,15.96536710600003],[104.79374485700004,15.915850915000021],[104.80717951800005,15.903095933000031],[104.83259961700008,15.921809814000028],[104.87847093000005,15.94090232900004],[104.90903433700004,15.930046391000076],[104.92544824000004,16.00460780700007],[104.92190423300008,16.01192803200007]]]}},{"type":"Feature","properties":{"code":"370115","name":"หนองมะแซว","parentCode":"3701"},"geometry":{"type":"Polygon","coordinates":[[[104.74259759800009,15.890308901000026],[104.71374695800006,15.903633944000035],[104.69103075200007,15.798155588000043],[104.71292033900005,15.790582020000045],[104.76347478100007,15.750467009000033],[104.75564028400004,15.778325177000056],[104.71933837100005,15.81969254300003],[104.74259759800009,15.890308901000026]]]}},{"type":"Feature","properties":{"code":"370506","name":"หนองสามสี","parentCode":"3705"},"geometry":{"type":"Polygon","coordinates":[[[104.63658192500009,16.039876286000037],[104.60111381300004,16.108488382000075],[104.55837669500005,16.09000463900003],[104.55254558400009,16.082581665000077],[104.61883369900005,16.032333693000055],[104.63658192500009,16.039876286000037]]]}},{"type":"Feature","properties":{"code":"370205","name":"ป่าก่อ","parentCode":"3702"},"geometry":{"type":"Polygon","coordinates":[[[104.88591308100007,16.094140079000056],[104.81385420500004,16.09867915600006],[104.81836996500004,16.00862573300003],[104.92190423300008,16.01192803200007],[104.88591308100007,16.094140079000056]]]}},{"type":"Feature","properties":{"code":"370401","name":"พนา","parentCode":"3704"},"geometry":{"type":"Polygon","coordinates":[[[104.90044873600004,15.71554814700005],[104.87328656800008,15.721424713000033],[104.83178641200004,15.627412742000047],[104.89493616000004,15.65352426800007],[104.90044873600004,15.71554814700005]]]}},{"type":"Feature","properties":{"code":"370605","name":"โพนเมืองน้อย","parentCode":"3706"},"geometry":{"type":"Polygon","coordinates":[[[104.61064291500008,15.682482463000042],[104.52831772300004,15.677449554000077],[104.53932080100009,15.623478686000055],[104.59074943900004,15.609458646000064],[104.63743448300005,15.646958945000051],[104.61064291500008,15.682482463000042]]]}},{"type":"Feature","properties":{"code":"370502","name":"โพนทอง","parentCode":"3705"},"geometry":{"type":"Polygon","coordinates":[[[104.81385420500004,16.09867915600006],[104.75319165900004,16.10255935400005],[104.70977358900006,16.015119370000036],[104.71345375400006,16.010246663000032],[104.73990794000008,15.99148630600007],[104.81385420500004,16.09867915600006]]]}},{"type":"Feature","properties":{"code":"370404","name":"พระเหลา","parentCode":"3704"},"geometry":{"type":"Polygon","coordinates":[[[104.90395328300008,15.748584701000027],[104.86691739800006,15.75828314000006],[104.82717655800008,15.712934715000074],[104.81360587000006,15.65428214900004],[104.80767553400005,15.61779137600007],[104.83178641200004,15.627412742000047],[104.87328656800008,15.721424713000033],[104.90044873600004,15.71554814700005],[104.90418721300006,15.720148041000073],[104.90395328300008,15.748584701000027]]]}},{"type":"Feature","properties":{"code":"370104","name":"ปลาค้าว","parentCode":"3701"},"geometry":{"type":"Polygon","coordinates":[[[104.81201111000007,15.821143909000057],[104.77504272000004,15.821869609000032],[104.75564028400004,15.778325177000056],[104.76347478100007,15.750467009000033],[104.77637890300008,15.733692805000032],[104.82149853300007,15.786249188000056],[104.82455649400003,15.805698072000041],[104.81201111000007,15.821143909000057]]]}},{"type":"Feature","properties":{"code":"370703","name":"เปือย","parentCode":"3707"},"geometry":{"type":"Polygon","coordinates":[[[104.73318932200004,15.655497946000025],[104.72030399100004,15.739563124000028],[104.70220830100004,15.733042085000022],[104.65734348200004,15.678349795000031],[104.72165354400005,15.651722079000024],[104.73318932200004,15.655497946000025]]]}},{"type":"Feature","properties":{"code":"370705","name":"ไร่ขี","parentCode":"3707"},"geometry":{"type":"Polygon","coordinates":[[[104.81360587000006,15.65428214900004],[104.78269590300005,15.707397995000065],[104.74375327900003,15.651697941000066],[104.79429601500004,15.598425672000076],[104.80754981400008,15.603687571000023],[104.80767553400005,15.61779137600007],[104.81360587000006,15.65428214900004]]]}},{"type":"Feature","properties":{"code":"370503","name":"ไร่สีสุก","parentCode":"3705"},"geometry":{"type":"Polygon","coordinates":[[[104.67206098700007,16.118500915000027],[104.63593049700006,16.122418692000053],[104.60111381300004,16.108488382000075],[104.63658192500009,16.039876286000037],[104.67206098700007,16.118500915000027]]]}},{"type":"Feature","properties":{"code":"370608","name":"รัตนวารี","parentCode":"3706"},"geometry":{"type":"Polygon","coordinates":[[[104.52475624400006,15.745322834000035],[104.49193693000007,15.751578681000069],[104.47100650700008,15.687774082000033],[104.50228169300004,15.68725581600006],[104.52200124100005,15.711893108000027],[104.52475624400006,15.745322834000035]]]}},{"type":"Feature","properties":{"code":"370106","name":"สร้างนกทา","parentCode":"3701"},"geometry":{"type":"Polygon","coordinates":[[[104.77504272000004,15.821869609000032],[104.76921353100005,15.905110432000072],[104.74259759800009,15.890308901000026],[104.71933837100005,15.81969254300003],[104.75564028400004,15.778325177000056],[104.77504272000004,15.821869609000032]]]}},{"type":"Feature","properties":{"code":"370606","name":"สร้างถ่อน้อย","parentCode":"3706"},"geometry":{"type":"Polygon","coordinates":[[[104.50228169300004,15.68725581600006],[104.47100650700008,15.687774082000033],[104.44343466300006,15.683571240000049],[104.44602039900008,15.654603580000071],[104.44863538100009,15.618639263000034],[104.49435106900006,15.589934046000053],[104.53932080100009,15.623478686000055],[104.52831772300004,15.677449554000077],[104.50228169300004,15.68725581600006]]]}},{"type":"Feature","properties":{"code":"370501","name":"เสนางคนิคม","parentCode":"3705"},"geometry":{"type":"Polygon","coordinates":[[[104.75319165900004,16.10255935400005],[104.67206098700007,16.118500915000027],[104.63658192500009,16.039876286000037],[104.61883369900005,16.032333693000055],[104.60940803000005,16.003385042000048],[104.69723277500003,16.009638250000023],[104.70977358900006,16.015119370000036],[104.75319165900004,16.10255935400005]]]}}]}