{"type":"FeatureCollection","features":[{"type":"Feature","properties":{"code":"380404","name":"บ้านต้อง","parentCode":"3804"},"geometry":{"type":"Polygon","coordinates":[[[103.92998890300004,18.188062347000027],[103.89539390100003,18.22923391100005],[103.87277782900009,18.218482081000047],[103.91850725200004,18.134623033000025],[103.89344736900006,18.12026091900003],[103.88373185700004,18.112815519000037],[103.92025233700008,18.046225028000038],[103.99247363300009,18.000123599000062],[104.01606094100003,18.028843641000037],[103.98878081000004,18.051030119000075],[103.98974251300007,18.122037116000058],[103.95520038400008,18.160984305000056],[103.92998890300004,18.188062347000027]]]}},{"type":"Feature","properties":{"code":"380305","name":"บัวตูม","parentCode":"3803"},"geometry":{"type":"Polygon","coordinates":[[[103.42126358800004,18.077351300000032],[103.39695450000005,18.079048877000048],[103.33660710000004,18.147744877000036],[103.29596584600006,18.120379895000042],[103.31444491100007,18.056604682000057],[103.35347381400004,18.026960861000077],[103.42126358800004,18.077351300000032]]]}},{"type":"Feature","properties":{"code":"380101","name":"บึงกาฬ","parentCode":"3801"},"geometry":{"type":"Polygon","coordinates":[[[103.76280301600008,18.341452864000075],[103.70614962300004,18.342278668000063],[103.65905714100006,18.37385457700003],[103.62643914900008,18.355695577000063],[103.60660295700006,18.306064469000034],[103.60660354200007,18.306064527000046],[103.65097132600005,18.32481559100006],[103.69696127200007,18.298847831000046],[103.76280301600008,18.341452864000075]]]}},{"type":"Feature","properties":{"code":"380601","name":"บึงโขงหลง","parentCode":"3806"},"geometry":{"type":"Polygon","coordinates":[[[104.08728219300008,18.05563296200006],[104.03518229900004,18.056519238000078],[104.01606094100003,18.028843641000037],[103.99247363300009,18.000123599000062],[104.00341311500006,17.940727496000022],[104.03800306500005,17.946316108000076],[104.09937975300005,18.013431814000057],[104.08728219300008,18.05563296200006]]]}},{"type":"Feature","properties":{"code":"380801","name":"บุ่งคล้า","parentCode":"3808"},"geometry":{"type":"Polygon","coordinates":[[[104.02586410300006,18.265946719000056],[103.98422056400005,18.32607682400004],[103.98837685100006,18.303635730000053],[103.89539390100003,18.22923391100005],[103.92998890300004,18.188062347000027],[103.99669524400008,18.228225509000026],[104.02586410300006,18.265946719000056]]]}},{"type":"Feature","properties":{"code":"380109","name":"ชัยพร","parentCode":"3801"},"geometry":{"type":"Polygon","coordinates":[[[103.87277782900009,18.218482081000047],[103.88476029300006,18.293176046000042],[103.85172338300004,18.289040319000037],[103.81009098900006,18.25005975600004],[103.83505474600008,18.195048013000076],[103.87158850400004,18.15011821300004],[103.89344736900006,18.12026091900003],[103.91850725200004,18.134623033000025],[103.87277782900009,18.218482081000047]]]}},{"type":"Feature","properties":{"code":"380702","name":"ชุมภูพร","parentCode":"3807"},"geometry":{"type":"Polygon","coordinates":[[[103.76806790100005,18.156929005000052],[103.68502864500005,18.195592360000035],[103.64761469900009,18.173744569000064],[103.64819904500007,18.16769146400003],[103.68781385800008,18.123317760000077],[103.73433685200007,18.093514597000024],[103.78113135500007,18.106186544000025],[103.76806790100005,18.156929005000052]]]}},{"type":"Feature","properties":{"code":"380202","name":"ดอนหญ้านาง","parentCode":"3802"},"geometry":{"type":"Polygon","coordinates":[[[103.68101666400008,18.07469112800004],[103.67396836000006,18.08772169300005],[103.60987632200005,18.076238111000066],[103.59454247400004,18.05009312800007],[103.63936669600008,18.014048935000062],[103.68101666400008,18.07469112800004]]]}},{"type":"Feature","properties":{"code":"380603","name":"ดงบัง","parentCode":"3806"},"geometry":{"type":"Polygon","coordinates":[[[104.14997842600008,18.066833734000056],[104.08728219300008,18.05563296200006],[104.09937975300005,18.013431814000057],[104.11171349400007,17.999453458000062],[104.18998160400008,18.023739802000023],[104.14997842600008,18.066833734000056]]]}},{"type":"Feature","properties":{"code":"380104","name":"หอคำ","parentCode":"3801"},"geometry":{"type":"Polygon","coordinates":[[[103.46197014600006,18.42557832800003],[103.41489389200007,18.447984935000022],[103.32705318700005,18.434135260000062],[103.30611213500003,18.382338967000067],[103.36243235300009,18.365432817000055],[103.42221600400006,18.38777961200003],[103.45200701800007,18.39450976100005],[103.46197014600006,18.42557832800003]]]}},{"type":"Feature","properties":{"code":"380108","name":"ไคสี","parentCode":"3801"},"geometry":{"type":"Polygon","coordinates":[[[103.57194835700005,18.405886441000064],[103.52059600900009,18.42678472800003],[103.46197014600006,18.42557832800003],[103.45200701800007,18.39450976100005],[103.51668096000009,18.37099867300003],[103.53472880300006,18.358797561000074],[103.57194835700005,18.405886441000064]]]}},{"type":"Feature","properties":{"code":"380304","name":"คำแก้ว","parentCode":"3803"},"geometry":{"type":"Polygon","coordinates":[[[103.58463584900005,18.198884672000077],[103.56425039900006,18.209302236000042],[103.49621830500007,18.179277596000077],[103.48053146600006,18.148796998000023],[103.46592776500006,18.12244977000006],[103.49666732200006,18.06518952500005],[103.52755350700005,18.06637375500003],[103.54244245900009,18.08804716000003],[103.53407530500004,18.150845837000077],[103.58463584900005,18.198884672000077]]]}},{"type":"Feature","properties":{"code":"380111","name":"คำนาดี","parentCode":"3801"},"geometry":{"type":"Polygon","coordinates":[[[103.68502864500005,18.195592360000035],[103.66251609600005,18.25187496700005],[103.63306202500007,18.24216613300007],[103.56166820700008,18.21163669500004],[103.56425039900006,18.209302236000042],[103.58463584900005,18.198884672000077],[103.64761469900009,18.173744569000064],[103.68502864500005,18.195592360000035]]]}},{"type":"Feature","properties":{"code":"380106","name":"โคกก่อง","parentCode":"3801"},"geometry":{"type":"Polygon","coordinates":[[[103.85172338300004,18.289040319000037],[103.82385109900008,18.33628998100005],[103.76280301600008,18.341452864000075],[103.69696127200007,18.298847831000046],[103.70928271200006,18.260393263000026],[103.75546758300004,18.25602784800003],[103.81009098900006,18.25005975600004],[103.85172338300004,18.289040319000037]]]}},{"type":"Feature","properties":{"code":"380803","name":"โคกกว้าง","parentCode":"3808"},"geometry":{"type":"Polygon","coordinates":[[[104.08405467100005,18.170359964000056],[104.02586410300006,18.265946719000056],[103.99669524400008,18.228225509000026],[103.92998890300004,18.188062347000027],[103.95520038400008,18.160984305000056],[103.99430374600007,18.182201805000034],[104.08405467100005,18.170359964000056]]]}},{"type":"Feature","properties":{"code":"380307","name":"เหล่าทอง","parentCode":"3803"},"geometry":{"type":"Polygon","coordinates":[[[103.42873223200007,18.189925450000032],[103.41088233500005,18.157467948000033],[103.41671714800003,18.094233447000022],[103.46592776500006,18.12244977000006],[103.48053146600006,18.148796998000023],[103.42873223200007,18.189925450000032]]]}},{"type":"Feature","properties":{"code":"380506","name":"นาดง","parentCode":"3805"},"geometry":{"type":"Polygon","coordinates":[[[103.35224525100006,18.253212509000036],[103.29835863500006,18.289575822000074],[103.26466984800004,18.24107606700005],[103.28459364400004,18.230957845000034],[103.31058312500005,18.220270853000045],[103.35286581200006,18.250648170000034],[103.35224525100006,18.253212509000036]]]}},{"type":"Feature","properties":{"code":"380503","name":"นากั้ง","parentCode":"3805"},"geometry":{"type":"Polygon","coordinates":[[[103.32705318700005,18.434135260000062],[103.29560098300004,18.424453191000055],[103.24391095800007,18.368351353000037],[103.25132584700003,18.339747771000077],[103.30611213500003,18.382338967000067],[103.32705318700005,18.434135260000062]]]}},{"type":"Feature","properties":{"code":"380704","name":"นาสะแบง","parentCode":"3807"},"geometry":{"type":"Polygon","coordinates":[[[103.87158850400004,18.15011821300004],[103.83505474600008,18.195048013000076],[103.77482931500003,18.167941850000034],[103.76806790100005,18.156929005000052],[103.78113135500007,18.106186544000025],[103.77451321000007,18.08419619400007],[103.79519791800004,18.077395465000052],[103.87158850400004,18.15011821300004]]]}},{"type":"Feature","properties":{"code":"380703","name":"นาแสง","parentCode":"3807"},"geometry":{"type":"Polygon","coordinates":[[[103.89344736900006,18.12026091900003],[103.87158850400004,18.15011821300004],[103.79519791800004,18.077395465000052],[103.81157043300004,18.04357968100004],[103.85557714500004,18.045377818000077],[103.88373185700004,18.112815519000037],[103.89344736900006,18.12026091900003]]]}},{"type":"Feature","properties":{"code":"380107","name":"นาสวรรค์","parentCode":"3801"},"geometry":{"type":"Polygon","coordinates":[[[103.60660295700006,18.306064469000034],[103.56085295400004,18.31097036600005],[103.53144172800006,18.295453518000045],[103.53623941000006,18.273998042000073],[103.56166820700008,18.21163669500004],[103.63306202500007,18.24216613300007],[103.60660354200007,18.306064527000046],[103.60660295700006,18.306064469000034]]]}},{"type":"Feature","properties":{"code":"380705","name":"นาสิงห์","parentCode":"3807"},"geometry":{"type":"Polygon","coordinates":[[[103.81009098900006,18.25005975600004],[103.75546758300004,18.25602784800003],[103.75303097800008,18.199754005000045],[103.77482931500003,18.167941850000034],[103.83505474600008,18.195048013000076],[103.81009098900006,18.25005975600004]]]}},{"type":"Feature","properties":{"code":"380406","name":"น้ำจั้น","parentCode":"3804"},"geometry":{"type":"Polygon","coordinates":[[[103.92025233700008,18.046225028000038],[103.88373185700004,18.112815519000037],[103.85557714500004,18.045377818000077],[103.81157043300004,18.04357968100004],[103.82320399200006,18.017313883000043],[103.87697387600008,18.00726830700006],[103.92025233700008,18.046225028000038]]]}},{"type":"Feature","properties":{"code":"380103","name":"โนนสว่าง","parentCode":"3801"},"geometry":{"type":"Polygon","coordinates":[[[103.51668096000009,18.37099867300003],[103.45200701800007,18.39450976100005],[103.42221600400006,18.38777961200003],[103.42637992400006,18.31378131200006],[103.50527978900004,18.313765903000046],[103.51668096000009,18.37099867300003]]]}},{"type":"Feature","properties":{"code":"380504","name":"โนนศิลา","parentCode":"3805"},"geometry":{"type":"Polygon","coordinates":[[[103.40004637500004,18.28107635600003],[103.36214197800007,18.330373767000026],[103.29651404800006,18.294132793000074],[103.29835863500006,18.289575822000074],[103.35224525100006,18.253212509000036],[103.38978750500007,18.274916546000043],[103.40004637500004,18.28107635600003]]]}},{"type":"Feature","properties":{"code":"380102","name":"โนนสมบูรณ์","parentCode":"3801"},"geometry":{"type":"Polygon","coordinates":[[[103.69696127200007,18.298847831000046],[103.65097132600005,18.32481559100006],[103.60660354200007,18.306064527000046],[103.63306202500007,18.24216613300007],[103.66251609600005,18.25187496700005],[103.68502864500005,18.195592360000035],[103.71975988500009,18.21293702500003],[103.70928271200006,18.260393263000026],[103.69696127200007,18.298847831000046]]]}},{"type":"Feature","properties":{"code":"380802","name":"หนองเดิ่น","parentCode":"3808"},"geometry":{"type":"Polygon","coordinates":[[[103.98422056400005,18.32607682400004],[103.94946588100004,18.338582991000067],[103.88476029300006,18.293176046000042],[103.87277782900009,18.218482081000047],[103.89539390100003,18.22923391100005],[103.98837685100006,18.303635730000053],[103.98422056400005,18.32607682400004]]]}},{"type":"Feature","properties":{"code":"380204","name":"หนองหัวช้าง","parentCode":"3802"},"geometry":{"type":"Polygon","coordinates":[[[103.64761469900009,18.173744569000064],[103.58463584900005,18.198884672000077],[103.53407530500004,18.150845837000077],[103.54244245900009,18.08804716000003],[103.59454247400004,18.05009312800007],[103.60987632200005,18.076238111000066],[103.60552137500008,18.101550372000077],[103.64819904500007,18.16769146400003],[103.64761469900009,18.173744569000064]]]}},{"type":"Feature","properties":{"code":"380105","name":"หนองเลิง","parentCode":"3801"},"geometry":{"type":"Polygon","coordinates":[[[103.42221600400006,18.38777961200003],[103.36243235300009,18.365432817000055],[103.36214197800007,18.330373767000026],[103.40004637500004,18.28107635600003],[103.42637992400006,18.31378131200006],[103.42221600400006,18.38777961200003]]]}},{"type":"Feature","properties":{"code":"380302","name":"หนองพันทา","parentCode":"3803"},"geometry":{"type":"Polygon","coordinates":[[[103.39443876000007,18.17907593500007],[103.36638776100006,18.164330981000035],[103.33660710000004,18.147744877000036],[103.39695450000005,18.079048877000048],[103.42126358800004,18.077351300000032],[103.41671714800003,18.094233447000022],[103.41088233500005,18.157467948000033],[103.39443876000007,18.17907593500007]]]}},{"type":"Feature","properties":{"code":"380408","name":"หนองทุ่ม","parentCode":"3804"},"geometry":{"type":"Polygon","coordinates":[[[103.92717655100006,17.91834847800004],[103.91523153900005,17.955370962000075],[103.85145901500005,17.943766538000034],[103.86032055100009,17.88201473400005],[103.90581604400006,17.880158950000066],[103.92717655100006,17.91834847800004]]]}},{"type":"Feature","properties":{"code":"380502","name":"หนองยอง","parentCode":"3805"},"geometry":{"type":"Polygon","coordinates":[[[103.35286581200006,18.250648170000034],[103.31058312500005,18.220270853000045],[103.36638776100006,18.164330981000035],[103.39443876000007,18.17907593500007],[103.35286581200006,18.250648170000034]]]}},{"type":"Feature","properties":{"code":"380206","name":"ป่าแฝก","parentCode":"3802"},"geometry":{"type":"Polygon","coordinates":[[[103.78113135500007,18.106186544000025],[103.73433685200007,18.093514597000024],[103.68781385800008,18.123317760000077],[103.67396836000006,18.08772169300005],[103.68101666400008,18.07469112800004],[103.69267145900005,18.07436271800003],[103.74176703800003,18.040476709000075],[103.77451321000007,18.08419619400007],[103.78113135500007,18.106186544000025]]]}},{"type":"Feature","properties":{"code":"380501","name":"ปากคาด","parentCode":"3805"},"geometry":{"type":"Polygon","coordinates":[[[103.36243235300009,18.365432817000055],[103.30611213500003,18.382338967000067],[103.25132584700003,18.339747771000077],[103.29858912300006,18.305247632000032],[103.29651404800006,18.294132793000074],[103.36214197800007,18.330373767000026],[103.36243235300009,18.365432817000055]]]}},{"type":"Feature","properties":{"code":"380602","name":"โพธิ์หมากแข้ง","parentCode":"3806"},"geometry":{"type":"Polygon","coordinates":[[[104.11171349400007,17.999453458000062],[104.09937975300005,18.013431814000057],[104.03800306500005,17.946316108000076],[104.00341311500006,17.940727496000022],[103.99928523500006,17.89304935100006],[104.05722469900007,17.90569405100007],[104.06945912000003,17.878159667000034],[104.12349390900005,17.921602508000035],[104.13413812400006,17.955929068000046],[104.11171349400007,17.999453458000062]]]}},{"type":"Feature","properties":{"code":"380203","name":"พรเจริญ","parentCode":"3802"},"geometry":{"type":"Polygon","coordinates":[[[103.74176703800003,18.040476709000075],[103.69267145900005,18.07436271800003],[103.69433801800005,18.008601098000042],[103.72756352700009,18.009658262000073],[103.74176703800003,18.040476709000075]]]}},{"type":"Feature","properties":{"code":"380405","name":"ป่งไฮ","parentCode":"3804"},"geometry":{"type":"Polygon","coordinates":[[[103.79519791800004,18.077395465000052],[103.77451321000007,18.08419619400007],[103.74176703800003,18.040476709000075],[103.75750562200005,18.00503310700003],[103.81573936500007,17.986843805000035],[103.84228446100008,17.95382341900006],[103.85145901500005,17.943766538000034],[103.91523153900005,17.955370962000075],[103.87697387600008,18.00726830700006],[103.82320399200006,18.017313883000043],[103.81157043300004,18.04357968100004],[103.79519791800004,18.077395465000052]]]}},{"type":"Feature","properties":{"code":"380112","name":"โป่งเปือย","parentCode":"3801"},"geometry":{"type":"Polygon","coordinates":[[[103.53472880300006,18.358797561000074],[103.51668096000009,18.37099867300003],[103.50527978900004,18.313765903000046],[103.53144172800006,18.295453518000045],[103.56085295400004,18.31097036600005],[103.53472880300006,18.358797561000074]]]}},{"type":"Feature","properties":{"code":"380402","name":"ซาง","parentCode":"3804"},"geometry":{"type":"Polygon","coordinates":[[[103.92717655100006,17.91834847800004],[103.90581604400006,17.880158950000066],[103.91813412300007,17.82228226600006],[103.97940158000006,17.770859407000046],[104.01223071700008,17.810801542000036],[103.98916815800004,17.875534341000048],[103.92717655100006,17.91834847800004]]]}},{"type":"Feature","properties":{"code":"380401","name":"เซกา","parentCode":"3804"},"geometry":{"type":"Polygon","coordinates":[[[103.99247363300009,18.000123599000062],[103.92025233700008,18.046225028000038],[103.87697387600008,18.00726830700006],[103.91523153900005,17.955370962000075],[103.92717655100006,17.91834847800004],[103.98916815800004,17.875534341000048],[103.99928523500006,17.89304935100006],[104.00341311500006,17.940727496000022],[103.99247363300009,18.000123599000062]]]}},{"type":"Feature","properties":{"code":"380201","name":"ศรีชมภู","parentCode":"3802"},"geometry":{"type":"Polygon","coordinates":[[[103.69267145900005,18.07436271800003],[103.68101666400008,18.07469112800004],[103.63936669600008,18.014048935000062],[103.63790441800006,17.976693923000028],[103.66948582800006,18.024272093000036],[103.69433801800005,18.008601098000042],[103.69267145900005,18.07436271800003]]]}},{"type":"Feature","properties":{"code":"380303","name":"ศรีชมภู","parentCode":"3803"},"geometry":{"type":"Polygon","coordinates":[[[103.50527978900004,18.313765903000046],[103.42637992400006,18.31378131200006],[103.40004637500004,18.28107635600003],[103.38978750500007,18.274916546000043],[103.43738739300005,18.209741535000035],[103.53623941000006,18.273998042000073],[103.53144172800006,18.295453518000045],[103.50527978900004,18.313765903000046]]]}},{"type":"Feature","properties":{"code":"380207","name":"ศรีสำราญ","parentCode":"3802"},"geometry":{"type":"Polygon","coordinates":[[[103.68781385800008,18.123317760000077],[103.64819904500007,18.16769146400003],[103.60552137500008,18.101550372000077],[103.60987632200005,18.076238111000066],[103.67396836000006,18.08772169300005],[103.68781385800008,18.123317760000077]]]}},{"type":"Feature","properties":{"code":"380701","name":"ศรีวิไล","parentCode":"3807"},"geometry":{"type":"Polygon","coordinates":[[[103.75546758300004,18.25602784800003],[103.70928271200006,18.260393263000026],[103.71975988500009,18.21293702500003],[103.68502864500005,18.195592360000035],[103.76806790100005,18.156929005000052],[103.77482931500003,18.167941850000034],[103.75303097800008,18.199754005000045],[103.75546758300004,18.25602784800003]]]}},{"type":"Feature","properties":{"code":"380301","name":"โซ่","parentCode":"3803"},"geometry":{"type":"Polygon","coordinates":[[[103.46592776500006,18.12244977000006],[103.41671714800003,18.094233447000022],[103.42126358800004,18.077351300000032],[103.35347381400004,18.026960861000077],[103.40515220900005,17.99225767200005],[103.44653413700007,17.97524143800007],[103.48054598700008,18.000570769000035],[103.50385269100008,17.996696881000048],[103.49666732200006,18.06518952500005],[103.46592776500006,18.12244977000006]]]}},{"type":"Feature","properties":{"code":"380409","name":"โสกก่าม","parentCode":"3804"},"geometry":{"type":"Polygon","coordinates":[[[104.08728219300008,18.05563296200006],[104.08995927500007,18.076219222000077],[103.98974251300007,18.122037116000058],[103.98878081000004,18.051030119000075],[104.01606094100003,18.028843641000037],[104.03518229900004,18.056519238000078],[104.08728219300008,18.05563296200006]]]}},{"type":"Feature","properties":{"code":"380505","name":"สมสนุก","parentCode":"3805"},"geometry":{"type":"Polygon","coordinates":[[[103.38978750500007,18.274916546000043],[103.35224525100006,18.253212509000036],[103.35286581200006,18.250648170000034],[103.39443876000007,18.17907593500007],[103.41088233500005,18.157467948000033],[103.42873223200007,18.189925450000032],[103.43738739300005,18.209741535000035],[103.38978750500007,18.274916546000043]]]}},{"type":"Feature","properties":{"code":"380604","name":"ท่าดอกคำ","parentCode":"3806"},"geometry":{"type":"Polygon","coordinates":[[[104.08405467100005,18.170359964000056],[103.99430374600007,18.182201805000034],[103.95520038400008,18.160984305000056],[103.98974251300007,18.122037116000058],[104.08995927500007,18.076219222000077],[104.08728219300008,18.05563296200006],[104.14997842600008,18.066833734000056],[104.10944114400007,18.11093939500006],[104.08405467100005,18.170359964000056]]]}},{"type":"Feature","properties":{"code":"380403","name":"ท่ากกแดง","parentCode":"3804"},"geometry":{"type":"Polygon","coordinates":[[[103.84228446100008,17.95382341900006],[103.77819582000006,17.931570876000023],[103.76424602900005,17.886228947000063],[103.79540215900005,17.841910607000045],[103.79338595300004,17.87259503100006],[103.86032055100009,17.88201473400005],[103.85145901500005,17.943766538000034],[103.84228446100008,17.95382341900006]]]}},{"type":"Feature","properties":{"code":"380407","name":"ท่าสะอาด","parentCode":"3804"},"geometry":{"type":"Polygon","coordinates":[[[103.84228446100008,17.95382341900006],[103.81573936500007,17.986843805000035],[103.75750562200005,18.00503310700003],[103.74176703800003,18.040476709000075],[103.72756352700009,18.009658262000073],[103.70894168400008,17.940503767000052],[103.74635813800006,17.91133455800008],[103.77819582000006,17.931570876000023],[103.84228446100008,17.95382341900006]]]}},{"type":"Feature","properties":{"code":"380306","name":"ถ้ำเจริญ","parentCode":"3803"},"geometry":{"type":"Polygon","coordinates":[[[103.56166820700008,18.21163669500004],[103.53623941000006,18.273998042000073],[103.43738739300005,18.209741535000035],[103.42873223200007,18.189925450000032],[103.48053146600006,18.148796998000023],[103.49621830500007,18.179277596000077],[103.56425039900006,18.209302236000042],[103.56166820700008,18.21163669500004]]]}},{"type":"Feature","properties":{"code":"380205","name":"วังชมภู","parentCode":"3802"},"geometry":{"type":"Polygon","coordinates":[[[103.69433801800005,18.008601098000042],[103.66948582800006,18.024272093000036],[103.63790441800006,17.976693923000028],[103.63853032300005,17.96527947800007],[103.70350282800007,17.941563193000036],[103.70894168400008,17.940503767000052],[103.72756352700009,18.009658262000073],[103.69433801800005,18.008601098000042]]]}},{"type":"Feature","properties":{"code":"380110","name":"วิศิษฐ์","parentCode":"3801"},"geometry":{"type":"Polygon","coordinates":[[[103.65905714100006,18.37385457700003],[103.57194835700005,18.405886441000064],[103.53472880300006,18.358797561000074],[103.56085295400004,18.31097036600005],[103.60660295700006,18.306064469000034],[103.62643914900008,18.355695577000063],[103.65905714100006,18.37385457700003]]]}}]}