{"type":"FeatureCollection","features":[{"type":"Feature","properties":{"code":"390106","name":"บ้านขาม","parentCode":"3901"},"geometry":{"type":"Polygon","coordinates":[[[102.50703075900009,17.13860344400007],[102.49639224400005,17.158756550000078],[102.43979135700005,17.13950413400005],[102.43962252400007,17.07730311200004],[102.43260629800005,17.05790983000003],[102.51757820700004,17.103728558000057],[102.50703075900009,17.13860344400007]]]}},{"type":"Feature","properties":{"code":"390305","name":"บ้านค้อ","parentCode":"3903"},"geometry":{"type":"Polygon","coordinates":[[[102.67235488000006,16.94482697600006],[102.60070020600006,16.912767187000043],[102.58525357500008,16.838986472000045],[102.59639775800008,16.773336542000038],[102.60615611600008,16.771996036000075],[102.61517283800003,16.779613169000072],[102.62449288000005,16.84254797500006],[102.65299412300004,16.90456862800005],[102.67235488000006,16.94482697600006]]]}},{"type":"Feature","properties":{"code":"390502","name":"บ้านโคก","parentCode":"3905"},"geometry":{"type":"Polygon","coordinates":[[[102.26428730900005,17.599907483000038],[102.18349421500005,17.576291344000026],[102.16734359600008,17.527717685000027],[102.12883218200005,17.498590970000066],[102.12917542900004,17.49785743700005],[102.21731150900007,17.47789692200007],[102.24721029000006,17.527038227000048],[102.25258688100007,17.56559117200004],[102.26428730900005,17.599907483000038]]]}},{"type":"Feature","properties":{"code":"390108","name":"บ้านพร้าว","parentCode":"3901"},"geometry":{"type":"Polygon","coordinates":[[[102.43979135700005,17.13950413400005],[102.36582611900008,17.125101349000033],[102.33171598900009,17.088428113000077],[102.33134429100005,17.070344157000022],[102.43962252400007,17.07730311200004],[102.43979135700005,17.13950413400005]]]}},{"type":"Feature","properties":{"code":"390302","name":"บ้านถิ่น","parentCode":"3903"},"geometry":{"type":"Polygon","coordinates":[[[102.54350677400004,17.01350956300007],[102.49999751100006,16.99986494600006],[102.47112404400008,17.028477318000057],[102.47916548100005,16.988723957000047],[102.55561039300005,16.946664858000076],[102.59270391800004,16.958227402000034],[102.54350677400004,17.01350956300007]]]}},{"type":"Feature","properties":{"code":"390507","name":"บุญทัน","parentCode":"3905"},"geometry":{"type":"Polygon","coordinates":[[[102.18349421500005,17.576291344000026],[102.14162927900009,17.65455643400003],[102.10578102800008,17.646605135000073],[102.08322637300006,17.634323248000044],[102.13537707400008,17.552272738000056],[102.12883218200005,17.498590970000066],[102.16734359600008,17.527717685000027],[102.18349421500005,17.576291344000026]]]}},{"type":"Feature","properties":{"code":"390202","name":"ด่านช้าง","parentCode":"3902"},"geometry":{"type":"Polygon","coordinates":[[[102.15838475700008,17.341163237000046],[102.13215674400004,17.36810828700004],[102.11385137400003,17.348557370000037],[102.13874133800005,17.272622066000054],[102.18912811300004,17.27876185100007],[102.18831807500004,17.292560216000027],[102.15838475700008,17.341163237000046]]]}},{"type":"Feature","properties":{"code":"390505","name":"ดงมะไฟ","parentCode":"3905"},"geometry":{"type":"Polygon","coordinates":[[[102.26940727500005,17.662668223000026],[102.24508205200004,17.65067217400002],[102.14162927900009,17.65455643400003],[102.18349421500005,17.576291344000026],[102.26428730900005,17.599907483000038],[102.26940727500005,17.662668223000026]]]}},{"type":"Feature","properties":{"code":"390211","name":"ดงสวรรค์","parentCode":"3902"},"geometry":{"type":"Polygon","coordinates":[[[102.21731150900007,17.47789692200007],[102.12917542900004,17.49785743700005],[102.12704722300003,17.456894702000056],[102.16677603700003,17.40977004800004],[102.19817945800008,17.42453725300004],[102.25055951100006,17.379075343000068],[102.26591277300008,17.40347217900006],[102.26726554000004,17.421400147000043],[102.21731150900007,17.47789692200007]]]}},{"type":"Feature","properties":{"code":"390206","name":"ฝั่งแดง","parentCode":"3902"},"geometry":{"type":"Polygon","coordinates":[[[102.26273683400007,17.286961619000067],[102.23303586800006,17.27146703300002],[102.18831807500004,17.292560216000027],[102.18912811300004,17.27876185100007],[102.17091977100006,17.208094111000037],[102.24767282900007,17.19126196600007],[102.25508939800005,17.217824837000023],[102.28507445800005,17.23298771000003],[102.26273683400007,17.286961619000067]]]}},{"type":"Feature","properties":{"code":"390412","name":"หันนางาม","parentCode":"3904"},"geometry":{"type":"Polygon","coordinates":[[[102.26864176700008,16.94683719300002],[102.25369238400003,17.020437322000078],[102.22705302600008,17.006062824000026],[102.22201378500006,16.991837049000026],[102.22369964300003,16.97311851300003],[102.26864176700008,16.94683719300002]]]}},{"type":"Feature","properties":{"code":"390105","name":"หัวนา","parentCode":"3901"},"geometry":{"type":"Polygon","coordinates":[[[102.43260629800005,17.05790983000003],[102.43962252400007,17.07730311200004],[102.33134429100005,17.070344157000022],[102.33011238700004,17.042728339000064],[102.33061620800004,17.027595031000033],[102.42074975800006,16.96300651400003],[102.44868098100005,17.015286391000075],[102.43260629800005,17.05790983000003]]]}},{"type":"Feature","properties":{"code":"390207","name":"เก่ากลอย","parentCode":"3902"},"geometry":{"type":"Polygon","coordinates":[[[102.39860857800005,17.414633237000032],[102.34233231300004,17.448935731000063],[102.31607021400004,17.43200820800007],[102.26726554000004,17.421400147000043],[102.26591277300008,17.40347217900006],[102.32485176000006,17.34008579500005],[102.37985510700008,17.384565547000022],[102.42118316300008,17.375820901000054],[102.40595005300008,17.401085786000067],[102.39860857800005,17.414633237000032]]]}},{"type":"Feature","properties":{"code":"390308","name":"โคกม่วง","parentCode":"3903"},"geometry":{"type":"Polygon","coordinates":[[[102.50242194700007,16.91053043900007],[102.47916548100005,16.988723957000047],[102.47112404400008,17.028477318000057],[102.44868098100005,17.015286391000075],[102.42074975800006,16.96300651400003],[102.38505925200008,16.92641647100004],[102.37730858600008,16.871539234000068],[102.38997620700007,16.852853855000035],[102.47667785300007,16.897441241000024],[102.50242194700007,16.91053043900007]]]}},{"type":"Feature","properties":{"code":"390307","name":"โคกใหญ่","parentCode":"3903"},"geometry":{"type":"Polygon","coordinates":[[[102.59639775800008,16.773336542000038],[102.58525357500008,16.838986472000045],[102.55333297100003,16.838699964000057],[102.53810724600004,16.78454464400005],[102.55027577400006,16.781193177000034],[102.59639775800008,16.773336542000038]]]}},{"type":"Feature","properties":{"code":"390111","name":"กุดจิก","parentCode":"3901"},"geometry":{"type":"Polygon","coordinates":[[[102.42118316300008,17.375820901000054],[102.37985510700008,17.384565547000022],[102.32485176000006,17.34008579500005],[102.32080261500005,17.336037694000026],[102.34264024000004,17.29009695700006],[102.43710614000008,17.28056472700007],[102.43774850500006,17.28235084100004],[102.43773393600009,17.338332094000066],[102.42118316300008,17.375820901000054]]]}},{"type":"Feature","properties":{"code":"390205","name":"กุดดินจี่","parentCode":"3902"},"geometry":{"type":"Polygon","coordinates":[[[102.26591277300008,17.40347217900006],[102.25055951100006,17.379075343000068],[102.19817945800008,17.42453725300004],[102.16677603700003,17.40977004800004],[102.20977052500007,17.351898735000077],[102.23833854700007,17.34237448400006],[102.26910891600005,17.313502197000048],[102.32080261500005,17.336037694000026],[102.32485176000006,17.34008579500005],[102.26591277300008,17.40347217900006]]]}},{"type":"Feature","properties":{"code":"390304","name":"กุดดู่","parentCode":"3903"},"geometry":{"type":"Polygon","coordinates":[[[102.66933312300006,16.993749911000066],[102.64771340100003,17.000521785000046],[102.59270391800004,16.958227402000034],[102.55561039300005,16.946664858000076],[102.57558322700004,16.912386206000065],[102.60070020600006,16.912767187000043],[102.67235488000006,16.94482697600006],[102.67899023600006,16.966093427000033],[102.66970640000005,16.993461841000055],[102.66933312300006,16.993749911000066]]]}},{"type":"Feature","properties":{"code":"390213","name":"กุดแห่","parentCode":"3902"},"geometry":{"type":"Polygon","coordinates":[[[102.12704722300003,17.456894702000056],[102.10505463100009,17.446807810000053],[102.13215674400004,17.36810828700004],[102.15838475700008,17.341163237000046],[102.20977052500007,17.351898735000077],[102.16677603700003,17.40977004800004],[102.12704722300003,17.456894702000056]]]}},{"type":"Feature","properties":{"code":"390508","name":"กุดผึ้ง","parentCode":"3905"},"geometry":{"type":"Polygon","coordinates":[[[102.33337143900008,17.57901352700003],[102.28541820200007,17.590465555000037],[102.28645003400004,17.526786836000042],[102.30476569300004,17.513708376000068],[102.34729083100007,17.530565113000023],[102.33230902000008,17.551708242000075],[102.33337143900008,17.57901352700003]]]}},{"type":"Feature","properties":{"code":"390404","name":"กุดสะเทียน","parentCode":"3904"},"geometry":{"type":"Polygon","coordinates":[[[102.27888782000008,17.02921032100005],[102.25323705500006,17.111626068000078],[102.20280268200008,17.06542550100005],[102.22705302600008,17.006062824000026],[102.25369238400003,17.020437322000078],[102.27888782000008,17.02921032100005]]]}},{"type":"Feature","properties":{"code":"390110","name":"ลำภู","parentCode":"3901"},"geometry":{"type":"Polygon","coordinates":[[[102.46919309200007,17.20270453200004],[102.43710614000008,17.28056472700007],[102.42270384300008,17.236495673000036],[102.42653679400007,17.192540165000025],[102.46919309200007,17.20270453200004]]]}},{"type":"Feature","properties":{"code":"390401","name":"เมืองใหม่","parentCode":"3904"},"geometry":{"type":"Polygon","coordinates":[[[102.33061620800004,17.027595031000033],[102.33011238700004,17.042728339000064],[102.27888782000008,17.02921032100005],[102.25369238400003,17.020437322000078],[102.26864176700008,16.94683719300002],[102.32693478600004,16.956858478000072],[102.33061620800004,17.027595031000033]]]}},{"type":"Feature","properties":{"code":"390504","name":"นาด่าน","parentCode":"3905"},"geometry":{"type":"Polygon","coordinates":[[[102.38490303400005,17.45218862100006],[102.34729083100007,17.530565113000023],[102.30476569300004,17.513708376000068],[102.31607021400004,17.43200820800007],[102.34233231300004,17.448935731000063],[102.39860857800005,17.414633237000032],[102.38490303400005,17.45218862100006]]]}},{"type":"Feature","properties":{"code":"390503","name":"นาดี","parentCode":"3905"},"geometry":{"type":"Polygon","coordinates":[[[102.28645003400004,17.526786836000042],[102.24721029000006,17.527038227000048],[102.21731150900007,17.47789692200007],[102.26726554000004,17.421400147000043],[102.31607021400004,17.43200820800007],[102.30476569300004,17.513708376000068],[102.28645003400004,17.526786836000042]]]}},{"type":"Feature","properties":{"code":"390602","name":"นาแก","parentCode":"3906"},"geometry":{"type":"Polygon","coordinates":[[[102.10505463100009,17.446807810000053],[102.08215575600008,17.461304830000074],[102.03694554900005,17.392574997000054],[102.00718198400006,17.386734096000055],[102.01802537100008,17.37391334600005],[102.05777907300006,17.364833129000033],[102.08867370000007,17.323762757000054],[102.11385137400003,17.348557370000037],[102.13215674400004,17.36810828700004],[102.10505463100009,17.446807810000053]]]}},{"type":"Feature","properties":{"code":"390113","name":"นาคำไฮ","parentCode":"3901"},"geometry":{"type":"Polygon","coordinates":[[[102.32080261500005,17.336037694000026],[102.26910891600005,17.313502197000048],[102.23833854700007,17.34237448400006],[102.26273683400007,17.286961619000067],[102.28507445800005,17.23298771000003],[102.34163166900004,17.222545626000056],[102.36146582100008,17.258734617000073],[102.34264024000004,17.29009695700006],[102.32080261500005,17.336037694000026]]]}},{"type":"Feature","properties":{"code":"390201","name":"นากลาง","parentCode":"3902"},"geometry":{"type":"Polygon","coordinates":[[[102.23833854700007,17.34237448400006],[102.20977052500007,17.351898735000077],[102.15838475700008,17.341163237000046],[102.18831807500004,17.292560216000027],[102.23303586800006,17.27146703300002],[102.26273683400007,17.286961619000067],[102.23833854700007,17.34237448400006]]]}},{"type":"Feature","properties":{"code":"390405","name":"นากอก","parentCode":"3904"},"geometry":{"type":"Polygon","coordinates":[[[102.25372617800008,16.89367455200005],[102.22204926400008,16.965252304000046],[102.15945176400004,16.912548998000034],[102.05541543000004,16.90086005300003],[102.06851828800006,16.88951912300007],[102.13752932100005,16.87884927600004],[102.21309201200006,16.86038270100005],[102.25372617800008,16.89367455200005]]]}},{"type":"Feature","properties":{"code":"390601","name":"นาเหล่า","parentCode":"3906"},"geometry":{"type":"Polygon","coordinates":[[[102.08867370000007,17.323762757000054],[102.05777907300006,17.364833129000033],[102.04161605000007,17.26549773200003],[102.08454635200007,17.252589047000072],[102.09953372900009,17.17955844000005],[102.12311286300007,17.18196352800004],[102.09284473300005,17.250709614000073],[102.08867370000007,17.323762757000054]]]}},{"type":"Feature","properties":{"code":"390107","name":"นามะเฟือง","parentCode":"3901"},"geometry":{"type":"Polygon","coordinates":[[[102.57938673500007,17.04081631100007],[102.51925168400004,17.100184295000076],[102.51757820700004,17.103728558000057],[102.43260629800005,17.05790983000003],[102.44868098100005,17.015286391000075],[102.47112404400008,17.028477318000057],[102.49999751100006,16.99986494600006],[102.54350677400004,17.01350956300007],[102.57938673500007,17.04081631100007]]]}},{"type":"Feature","properties":{"code":"390501","name":"นาสี","parentCode":"3905"},"geometry":{"type":"Polygon","coordinates":[[[102.31811639400007,17.676841384000056],[102.26203678500008,17.682179907000034],[102.26940727500005,17.662668223000026],[102.26428730900005,17.599907483000038],[102.25258688100007,17.56559117200004],[102.28541820200007,17.590465555000037],[102.33337143900008,17.57901352700003],[102.32395285000007,17.617908466000074],[102.31811639400007,17.676841384000056]]]}},{"type":"Feature","properties":{"code":"390309","name":"นิคมพัฒนา","parentCode":"3903"},"geometry":{"type":"Polygon","coordinates":[[[102.55561039300005,16.946664858000076],[102.47916548100005,16.988723957000047],[102.50242194700007,16.91053043900007],[102.51805487200005,16.878275872000074],[102.57558322700004,16.912386206000065],[102.55561039300005,16.946664858000076]]]}},{"type":"Feature","properties":{"code":"390109","name":"โนนขมิ้น","parentCode":"3901"},"geometry":{"type":"Polygon","coordinates":[[[102.32722807200008,17.172750461000078],[102.25508939800005,17.217824837000023],[102.24767282900007,17.19126196600007],[102.25425911700006,17.146640538000042],[102.26602009700008,17.132512845000065],[102.31971952600009,17.11770976400004],[102.32722807200008,17.172750461000078]]]}},{"type":"Feature","properties":{"code":"390408","name":"โนนม่วง","parentCode":"3904"},"geometry":{"type":"Polygon","coordinates":[[[102.25425911700006,17.146640538000042],[102.23672163300006,17.131240442000035],[102.12311286300007,17.18196352800004],[102.09953372900009,17.17955844000005],[102.09747956500007,17.172623162000036],[102.11461598500006,17.117610849000073],[102.16766997800005,17.10217338500007],[102.20280268200008,17.06542550100005],[102.25323705500006,17.111626068000078],[102.26602009700008,17.132512845000065],[102.25425911700006,17.146640538000042]]]}},{"type":"Feature","properties":{"code":"390209","name":"โนนเมือง","parentCode":"3902"},"geometry":{"type":"Polygon","coordinates":[[[102.17091977100006,17.208094111000037],[102.12311286300007,17.18196352800004],[102.23672163300006,17.131240442000035],[102.25425911700006,17.146640538000042],[102.24767282900007,17.19126196600007],[102.17091977100006,17.208094111000037]]]}},{"type":"Feature","properties":{"code":"390306","name":"โนนเมือง","parentCode":"3903"},"geometry":{"type":"Polygon","coordinates":[[[102.45508690100007,16.806862500000022],[102.47667785300007,16.897441241000024],[102.38997620700007,16.852853855000035],[102.40516123100008,16.815266877000056],[102.43357896900005,16.78337656800005],[102.45327970400007,16.795265865000033],[102.45508690100007,16.806862500000022]]]}},{"type":"Feature","properties":{"code":"390406","name":"โนนสะอาด","parentCode":"3904"},"geometry":{"type":"Polygon","coordinates":[[[102.22201378500006,16.991837049000026],[102.18846711500004,17.029342236000048],[102.15540467900007,17.024565831000075],[102.06272702600006,16.96328687700003],[102.02921120600007,16.950674611000068],[102.05541543000004,16.90086005300003],[102.15945176400004,16.912548998000034],[102.22204926400008,16.965252304000046],[102.22369964300003,16.97311851300003],[102.22201378500006,16.991837049000026]]]}},{"type":"Feature","properties":{"code":"390301","name":"โนนสัง","parentCode":"3903"},"geometry":{"type":"Polygon","coordinates":[[[102.60070020600006,16.912767187000043],[102.57558322700004,16.912386206000065],[102.51805487200005,16.878275872000074],[102.55333297100003,16.838699964000057],[102.58525357500008,16.838986472000045],[102.60070020600006,16.912767187000043]]]}},{"type":"Feature","properties":{"code":"390112","name":"โนนทัน","parentCode":"3901"},"geometry":{"type":"Polygon","coordinates":[[[102.52263580400006,17.27240770900005],[102.43774850500006,17.28235084100004],[102.43710614000008,17.28056472700007],[102.46919309200007,17.20270453200004],[102.50139588800005,17.229786470000022],[102.57641409200005,17.237476526000023],[102.59269452700005,17.265869052000028],[102.52263580400006,17.27240770900005]]]}},{"type":"Feature","properties":{"code":"390101","name":"หนองบัว","parentCode":"3901"},"geometry":{"type":"Polygon","coordinates":[[[102.46919309200007,17.20270453200004],[102.42653679400007,17.192540165000025],[102.38871810000006,17.163887464000027],[102.36582611900008,17.125101349000033],[102.43979135700005,17.13950413400005],[102.49639224400005,17.158756550000078],[102.46919309200007,17.20270453200004]]]}},{"type":"Feature","properties":{"code":"390403","name":"หนองบัวใต้","parentCode":"3904"},"geometry":{"type":"Polygon","coordinates":[[[102.38505925200008,16.92641647100004],[102.33078698200006,16.957931047000045],[102.31283796900004,16.909808574000067],[102.37730858600008,16.871539234000068],[102.38505925200008,16.92641647100004]]]}},{"type":"Feature","properties":{"code":"390410","name":"หนองแก","parentCode":"3904"},"geometry":{"type":"Polygon","coordinates":[[[102.26602009700008,17.132512845000065],[102.25323705500006,17.111626068000078],[102.27888782000008,17.02921032100005],[102.33011238700004,17.042728339000064],[102.33134429100005,17.070344157000022],[102.33171598900009,17.088428113000077],[102.31971952600009,17.11770976400004],[102.26602009700008,17.132512845000065]]]}},{"type":"Feature","properties":{"code":"390409","name":"หนองกุงแก้ว","parentCode":"3904"},"geometry":{"type":"Polygon","coordinates":[[[102.09747956500007,17.172623162000036],[102.04265503500005,17.167222561000074],[102.03505159700006,17.149273652000034],[102.09966234600006,17.09825515800003],[102.10605999500007,17.06160017600007],[102.11764444500005,17.057613936000052],[102.11461598500006,17.117610849000073],[102.09747956500007,17.172623162000036]]]}},{"type":"Feature","properties":{"code":"390102","name":"หนองภัยศูนย์","parentCode":"3901"},"geometry":{"type":"Polygon","coordinates":[[[102.43710614000008,17.28056472700007],[102.34264024000004,17.29009695700006],[102.36146582100008,17.258734617000073],[102.40360967800007,17.22018828000006],[102.42270384300008,17.236495673000036],[102.43710614000008,17.28056472700007]]]}},{"type":"Feature","properties":{"code":"390303","name":"หนองเรือ","parentCode":"3903"},"geometry":{"type":"Polygon","coordinates":[[[102.51805487200005,16.878275872000074],[102.50242194700007,16.91053043900007],[102.47667785300007,16.897441241000024],[102.45508690100007,16.806862500000022],[102.51417620000007,16.795357786000068],[102.53810724600004,16.78454464400005],[102.55333297100003,16.838699964000057],[102.51805487200005,16.878275872000074]]]}},{"type":"Feature","properties":{"code":"390104","name":"หนองสวรรค์","parentCode":"3901"},"geometry":{"type":"Polygon","coordinates":[[[102.34163166900004,17.222545626000056],[102.28507445800005,17.23298771000003],[102.25508939800005,17.217824837000023],[102.32722807200008,17.172750461000078],[102.36128128500008,17.19529718800004],[102.34163166900004,17.222545626000056]]]}},{"type":"Feature","properties":{"code":"390115","name":"หนองหว้า","parentCode":"3901"},"geometry":{"type":"Polygon","coordinates":[[[102.38871810000006,17.163887464000027],[102.36128128500008,17.19529718800004],[102.32722807200008,17.172750461000078],[102.31971952600009,17.11770976400004],[102.33171598900009,17.088428113000077],[102.36582611900008,17.125101349000033],[102.38871810000006,17.163887464000027]]]}},{"type":"Feature","properties":{"code":"390114","name":"ป่าไม้งาม","parentCode":"3901"},"geometry":{"type":"Polygon","coordinates":[[[102.42074975800006,16.96300651400003],[102.33061620800004,17.027595031000033],[102.32693478600004,16.956858478000072],[102.33078698200006,16.957931047000045],[102.38505925200008,16.92641647100004],[102.42074975800006,16.96300651400003]]]}},{"type":"Feature","properties":{"code":"390310","name":"ปางกู่","parentCode":"3903"},"geometry":{"type":"Polygon","coordinates":[[[102.64771340100003,17.000521785000046],[102.60908404600008,17.027428862000022],[102.57938673500007,17.04081631100007],[102.54350677400004,17.01350956300007],[102.59270391800004,16.958227402000034],[102.64771340100003,17.000521785000046]]]}},{"type":"Feature","properties":{"code":"390103","name":"โพธิ์ชัย","parentCode":"3901"},"geometry":{"type":"Polygon","coordinates":[[[102.42270384300008,17.236495673000036],[102.40360967800007,17.22018828000006],[102.36146582100008,17.258734617000073],[102.34163166900004,17.222545626000056],[102.36128128500008,17.19529718800004],[102.38871810000006,17.163887464000027],[102.42653679400007,17.192540165000025],[102.42270384300008,17.236495673000036]]]}},{"type":"Feature","properties":{"code":"390411","name":"ทรายทอง","parentCode":"3904"},"geometry":{"type":"Polygon","coordinates":[[[102.37730858600008,16.871539234000068],[102.31283796900004,16.909808574000067],[102.29634669300003,16.891205325000044],[102.33957550100007,16.823649248000038],[102.37663059200008,16.81081667600006],[102.40516123100008,16.815266877000056],[102.38997620700007,16.852853855000035],[102.37730858600008,16.871539234000068]]]}},{"type":"Feature","properties":{"code":"390402","name":"ศรีบุญเรือง","parentCode":"3904"},"geometry":{"type":"Polygon","coordinates":[[[102.26864176700008,16.94683719300002],[102.22369964300003,16.97311851300003],[102.22204926400008,16.965252304000046],[102.25372617800008,16.89367455200005],[102.29634669300003,16.891205325000044],[102.31283796900004,16.909808574000067],[102.33078698200006,16.957931047000045],[102.32693478600004,16.956858478000072],[102.26864176700008,16.94683719300002]]]}},{"type":"Feature","properties":{"code":"390506","name":"สุวรรณคูหา","parentCode":"3905"},"geometry":{"type":"Polygon","coordinates":[[[102.28541820200007,17.590465555000037],[102.25258688100007,17.56559117200004],[102.24721029000006,17.527038227000048],[102.28645003400004,17.526786836000042],[102.28541820200007,17.590465555000037]]]}},{"type":"Feature","properties":{"code":"390605","name":"เทพคีรี","parentCode":"3906"},"geometry":{"type":"Polygon","coordinates":[[[102.11385137400003,17.348557370000037],[102.08867370000007,17.323762757000054],[102.09284473300005,17.250709614000073],[102.13874133800005,17.272622066000054],[102.11385137400003,17.348557370000037]]]}},{"type":"Feature","properties":{"code":"390210","name":"อุทัยสวรรค์","parentCode":"3902"},"geometry":{"type":"Polygon","coordinates":[[[102.18912811300004,17.27876185100007],[102.13874133800005,17.272622066000054],[102.09284473300005,17.250709614000073],[102.12311286300007,17.18196352800004],[102.17091977100006,17.208094111000037],[102.18912811300004,17.27876185100007]]]}},{"type":"Feature","properties":{"code":"390604","name":"วังปลาป้อม","parentCode":"3906"},"geometry":{"type":"Polygon","coordinates":[[[102.08215575600008,17.461304830000074],[101.98749858300005,17.454091351000045],[101.98220881400005,17.414812382000036],[101.98930524700006,17.403618039000037],[101.99464055100003,17.398253268000076],[102.00718198400006,17.386734096000055],[102.03694554900005,17.392574997000054],[102.08215575600008,17.461304830000074]]]}},{"type":"Feature","properties":{"code":"390603","name":"วังทอง","parentCode":"3906"},"geometry":{"type":"Polygon","coordinates":[[[102.01802537100008,17.37391334600005],[102.02026137300004,17.341204650000066],[101.98378893600005,17.316050173000065],[102.01342621000003,17.278370791000043],[102.07706919300006,17.248203948000025],[102.09677992100006,17.177071660000024],[102.03536729700005,17.219347148000054],[102.03194845300004,17.196213374000024],[102.04265503500005,17.167222561000074],[102.09747956500007,17.172623162000036],[102.09953372900009,17.17955844000005],[102.08454635200007,17.252589047000072],[102.04161605000007,17.26549773200003],[102.05777907300006,17.364833129000033],[102.01802537100008,17.37391334600005]]]}},{"type":"Feature","properties":{"code":"390407","name":"ยางหล่อ","parentCode":"3904"},"geometry":{"type":"Polygon","coordinates":[[[102.20280268200008,17.06542550100005],[102.16766997800005,17.10217338500007],[102.11461598500006,17.117610849000073],[102.11764444500005,17.057613936000052],[102.15540467900007,17.024565831000075],[102.18846711500004,17.029342236000048],[102.22201378500006,16.991837049000026],[102.22705302600008,17.006062824000026],[102.20280268200008,17.06542550100005]]]}}]}