{"type":"FeatureCollection","features":[{"type":"Feature","properties":{"code":"400802","name":"บ้านดง","parentCode":"4008"},"geometry":{"type":"Polygon","coordinates":[[[102.72823794100003,16.823299142000053],[102.62449288000005,16.84254797500006],[102.61517283800003,16.779613169000072],[102.65401118200003,16.76471538100003],[102.71119285600008,16.73690785100007],[102.73575447400003,16.736119521000035],[102.73243443400008,16.818465639000067],[102.72823794100003,16.823299142000053]]]}},{"type":"Feature","properties":{"code":"400206","name":"บ้านฝาง","parentCode":"4002"},"geometry":{"type":"Polygon","coordinates":[[[102.64405372900006,16.477995125000064],[102.63838336000003,16.525407769000026],[102.61358685700009,16.513006852000046],[102.61438990500005,16.454193540000063],[102.57617186900006,16.45604505800003],[102.61846258800006,16.415563794000036],[102.66828496900007,16.428397321000034],[102.64405372900006,16.477995125000064]]]}},{"type":"Feature","properties":{"code":"400907","name":"บ้านฝาง","parentCode":"4009"},"geometry":{"type":"Polygon","coordinates":[[[103.09900136100003,16.77922031600002],[103.10320826800006,16.79752442700004],[103.01613163300004,16.794284124000058],[103.00249483600004,16.751292258000035],[103.07454669300006,16.74298912300003],[103.09900136100003,16.77922031600002]]]}},{"type":"Feature","properties":{"code":"402401","name":"บ้านแฮด","parentCode":"4024"},"geometry":{"type":"Polygon","coordinates":[[[102.72875600200007,16.241327932000047],[102.72603143800006,16.18734988500006],[102.75636453600004,16.164325189000067],[102.84447405900005,16.208176429000048],[102.84615162200004,16.21793694300004],[102.83407202300003,16.232695359000047],[102.72875600200007,16.241327932000047]]]}},{"type":"Feature","properties":{"code":"402503","name":"บ้านหัน","parentCode":"4025"},"geometry":{"type":"Polygon","coordinates":[[[102.73525824600006,15.981483911000055],[102.71121418600006,16.01174115500004],[102.69834740300007,15.976991781000038],[102.66151399100005,15.902630834000036],[102.69524041400007,15.90234323900006],[102.69628211400004,15.903545832000077],[102.75694880700007,15.895361820000062],[102.76655094000006,15.956367556000032],[102.73525824600006,15.981483911000055]]]}},{"type":"Feature","properties":{"code":"400707","name":"บ้านขาม","parentCode":"4007"},"geometry":{"type":"Polygon","coordinates":[[[102.99709833600008,16.55562450900004],[103.00445457300003,16.60545841000004],[102.90201396900005,16.586502024000026],[102.90418794200008,16.54546509900007],[102.95982129500004,16.53242632900003],[102.99709833600008,16.55562450900004]]]}},{"type":"Feature","properties":{"code":"400110","name":"บ้านค้อ","parentCode":"4001"},"geometry":{"type":"Polygon","coordinates":[[[102.79330573600004,16.62709446100007],[102.73269292200007,16.606623883000054],[102.71856961900005,16.636692037000046],[102.69702715100004,16.633401453000033],[102.67861134900005,16.598599467000042],[102.74176124100006,16.530110741000044],[102.79467800500004,16.483622641000068],[102.80380873800004,16.498912262000033],[102.79572365700005,16.586855252000078],[102.79330573600004,16.62709446100007]]]}},{"type":"Feature","properties":{"code":"402201","name":"บ้านโคก","parentCode":"4022"},"geometry":{"type":"Polygon","coordinates":[[[102.41294795500005,16.107228760000055],[102.38070905000006,16.156124986000066],[102.34532220400007,16.160563678000074],[102.32656121500008,16.129184569000074],[102.31869595700005,16.12054663300006],[102.39269868200006,16.071447024000065],[102.44587909600006,16.053830584000025],[102.41294795500005,16.107228760000055]]]}},{"type":"Feature","properties":{"code":"402302","name":"บ้านโคก","parentCode":"4023"},"geometry":{"type":"Polygon","coordinates":[[[102.37663059200008,16.81081667600006],[102.33957550100007,16.823649248000038],[102.29133155300008,16.778792227000054],[102.29945826500006,16.773421858000063],[102.34104300000007,16.758430016000034],[102.37663059200008,16.81081667600006]]]}},{"type":"Feature","properties":{"code":"400403","name":"บ้านกง","parentCode":"4004"},"geometry":{"type":"Polygon","coordinates":[[[102.52884228000005,16.551573011000073],[102.49077286000005,16.53704225100006],[102.50663960700007,16.48441548900007],[102.56834072200007,16.48415126900005],[102.57353729300007,16.50554104200006],[102.52884228000005,16.551573011000073]]]}},{"type":"Feature","properties":{"code":"401009","name":"บ้านลาน","parentCode":"4010"},"geometry":{"type":"Polygon","coordinates":[[[102.90556517400006,15.981525548000036],[102.81441098000005,16.032726852000053],[102.78322686700005,16.027158103000033],[102.82021865100006,15.961804219000044],[102.84642536700005,15.94787890300006],[102.90134402500007,15.970035756000073],[102.90556517400006,15.981525548000036]]]}},{"type":"Feature","properties":{"code":"400204","name":"บ้านเหล่า","parentCode":"4002"},"geometry":{"type":"Polygon","coordinates":[[[102.68232029500007,16.41836082100002],[102.66828496900007,16.428397321000034],[102.61846258800006,16.415563794000036],[102.62155543200004,16.381556510000053],[102.65205355000006,16.373816068000053],[102.67434324700008,16.380640930000027],[102.68232029500007,16.41836082100002]]]}},{"type":"Feature","properties":{"code":"400609","name":"บ้านใหม่","parentCode":"4006"},"geometry":{"type":"Polygon","coordinates":[[[102.12221107500005,16.771309418000044],[102.02144882800008,16.802653775000067],[102.01866984000009,16.754106526000044],[102.08526497900004,16.715246871000033],[102.08967217400004,16.715782787000023],[102.11796596600004,16.733911866000028],[102.12139058400004,16.759504588000027],[102.12221107500005,16.771309418000044]]]}},{"type":"Feature","properties":{"code":"400402","name":"บ้านเม็ง","parentCode":"4004"},"geometry":{"type":"Polygon","coordinates":[[[102.51494998900006,16.472582234000072],[102.41895887500004,16.48109856700006],[102.40531557800006,16.46022563300005],[102.41809890000007,16.420337818000064],[102.45886768900004,16.39468781100004],[102.47789796100005,16.38797090500003],[102.50538469500003,16.438426855000046],[102.51494998900006,16.472582234000072]]]}},{"type":"Feature","properties":{"code":"402103","name":"บ้านโนน","parentCode":"4021"},"geometry":{"type":"Polygon","coordinates":[[[103.03578701400005,16.52094469900004],[103.05160691300006,16.580428776000076],[103.02984611700003,16.595709534000036],[102.99709833600008,16.55562450900004],[102.95982129500004,16.53242632900003],[102.96550085800004,16.509382953000056],[102.97997253400007,16.504447068000047],[103.01309200000009,16.537861151000072],[103.03578701400005,16.52094469900004]]]}},{"type":"Feature","properties":{"code":"400115","name":"บ้านเป็ด","parentCode":"4001"},"geometry":{"type":"Polygon","coordinates":[[[102.79644638100007,16.473443744000065],[102.75187677300005,16.450949095000055],[102.75314466600008,16.410678501000064],[102.81503824900005,16.412518213000055],[102.80435586300007,16.471731736000038],[102.79644638100007,16.473443744000065]]]}},{"type":"Feature","properties":{"code":"401001","name":"บ้านไผ่","parentCode":"4010"},"geometry":{"type":"Polygon","coordinates":[[[102.74830409000003,16.137077788000056],[102.68767511800007,16.15054766700007],[102.69991121500004,16.10192990300004],[102.71275261400007,16.082276672000035],[102.74830409000003,16.137077788000056]]]}},{"type":"Feature","properties":{"code":"400410","name":"บ้านผือ","parentCode":"4004"},"geometry":{"type":"Polygon","coordinates":[[[102.57810534500004,16.54198816400003],[102.57633493000009,16.627315444000033],[102.55818271400005,16.62356221300007],[102.54547329300004,16.60270861500004],[102.52884228000005,16.551573011000073],[102.57353729300007,16.50554104200006],[102.57810534500004,16.54198816400003]]]}},{"type":"Feature","properties":{"code":"401601","name":"บ้านเรือ","parentCode":"4016"},"geometry":{"type":"Polygon","coordinates":[[[102.43186483600005,16.71044722000005],[102.39668671400005,16.735683161000054],[102.36067596500004,16.733485089000055],[102.36132114800006,16.700230614000077],[102.38963951800008,16.654477245000066],[102.42914094300005,16.70379041900003],[102.43186483600005,16.71044722000005]]]}},{"type":"Feature","properties":{"code":"401805","name":"บ้านแท่น","parentCode":"4018"},"geometry":{"type":"Polygon","coordinates":[[[102.63104860600004,15.955448661000048],[102.60204062700006,16.003105086000062],[102.56652453400005,15.976091801000052],[102.63770911100005,15.93749346800007],[102.63104860600004,15.955448661000048]]]}},{"type":"Feature","properties":{"code":"400105","name":"บ้านทุ่ม","parentCode":"4001"},"geometry":{"type":"Polygon","coordinates":[[[102.72190216000007,16.478404803000046],[102.71054861900006,16.495190171000047],[102.64405372900006,16.477995125000064],[102.66828496900007,16.428397321000034],[102.68232029500007,16.41836082100002],[102.75314466600008,16.410678501000064],[102.75187677300005,16.450949095000055],[102.72190216000007,16.478404803000046]]]}},{"type":"Feature","properties":{"code":"400303","name":"บ้านโต้น","parentCode":"4003"},"geometry":{"type":"Polygon","coordinates":[[[102.77219232700008,16.298451111000077],[102.69110103600008,16.29820970800006],[102.69110558000006,16.28908986500005],[102.72999736700007,16.24817900100004],[102.77219232700008,16.298451111000077]]]}},{"type":"Feature","properties":{"code":"400109","name":"บ้านหว้า","parentCode":"4001"},"geometry":{"type":"Polygon","coordinates":[[[102.75314466600008,16.410678501000064],[102.68232029500007,16.41836082100002],[102.67434324700008,16.380640930000027],[102.69390310100005,16.344301200000075],[102.73141562300003,16.335650933000068],[102.72174285000006,16.366892249000045],[102.75561539100005,16.403197675000058],[102.75314466600008,16.410678501000064]]]}},{"type":"Feature","properties":{"code":"400608","name":"บริบูรณ์","parentCode":"4006"},"geometry":{"type":"Polygon","coordinates":[[[102.13752932100005,16.87884927600004],[102.06851828800006,16.88951912300007],[102.06606495600005,16.88666893800007],[102.05949756400008,16.821929174000047],[102.10997098700005,16.811830420000035],[102.13752932100005,16.87884927600004]]]}},{"type":"Feature","properties":{"code":"400708","name":"บัวเงิน","parentCode":"4007"},"geometry":{"type":"Polygon","coordinates":[[[103.01613163300004,16.794284124000058],[103.00192928600006,16.864928680000048],[102.92899095500007,16.83790547800004],[102.95014074800008,16.80463119600006],[102.96064839700006,16.760534791000055],[102.94046012800004,16.714102629000024],[102.95614345600006,16.671089210000048],[102.98790486300004,16.667135577000067],[102.98788985000004,16.706043300000033],[103.00249483600004,16.751292258000035],[103.01613163300004,16.794284124000058]]]}},{"type":"Feature","properties":{"code":"400704","name":"บัวใหญ่","parentCode":"4007"},"geometry":{"type":"Polygon","coordinates":[[[102.95614345600006,16.671089210000048],[102.93049530900004,16.67176058700005],[102.93446304900004,16.623409190000075],[102.89876292600007,16.608477889000028],[102.90201396900005,16.586502024000026],[103.00445457300003,16.60545841000004],[102.98987140100007,16.634754620000024],[102.98790486300004,16.667135577000067],[102.95614345600006,16.671089210000048]]]}},{"type":"Feature","properties":{"code":"400117","name":"บึงเนียม","parentCode":"4001"},"geometry":{"type":"Polygon","coordinates":[[[102.94766300100008,16.43958770100005],[102.90324612300009,16.46842699000007],[102.87532853200008,16.453055577000043],[102.92241259700006,16.419475292000072],[102.93410753700005,16.383567414000026],[102.94949736900008,16.43669864000003],[102.94766300100008,16.43958770100005]]]}},{"type":"Feature","properties":{"code":"400507","name":"ไชยสอ","parentCode":"4005"},"geometry":{"type":"Polygon","coordinates":[[[102.16233233200006,16.52024847100006],[102.10843722600004,16.54113619000003],[102.12454608100006,16.49496592400004],[102.17895106300006,16.500764240000024],[102.16968164700006,16.520537061000027],[102.16233233200006,16.52024847100006]]]}},{"type":"Feature","properties":{"code":"401801","name":"ชนบท","parentCode":"4018"},"geometry":{"type":"Polygon","coordinates":[[[102.58015917100005,16.12130942500005],[102.57200021200003,16.107073470000046],[102.58238218000008,16.08964742300003],[102.58659351700004,16.059220159000063],[102.63395293400004,16.03670145700005],[102.64504269500009,16.061332529000026],[102.65540710200008,16.088643739000076],[102.58015917100005,16.12130942500005]]]}},{"type":"Feature","properties":{"code":"400405","name":"จระเข้","parentCode":"4004"},"geometry":{"type":"Polygon","coordinates":[[[102.56184448600004,16.46214801900004],[102.56834072200007,16.48415126900005],[102.50663960700007,16.48441548900007],[102.51494998900006,16.472582234000072],[102.50538469500003,16.438426855000046],[102.55190531900007,16.427562457000022],[102.56184448600004,16.46214801900004]]]}},{"type":"Feature","properties":{"code":"401203","name":"โจดหนองแก","parentCode":"4012"},"geometry":{"type":"Polygon","coordinates":[[[102.69524041400007,15.90234323900006],[102.66151399100005,15.902630834000036],[102.63187288200004,15.862357028000076],[102.60784455800007,15.829708073000063],[102.61094133400007,15.814613766000036],[102.65433015200006,15.820460948000061],[102.69524041400007,15.90234323900006]]]}},{"type":"Feature","properties":{"code":"400501","name":"ชุมแพ","parentCode":"4005"},"geometry":{"type":"Polygon","coordinates":[[[102.12454608100006,16.49496592400004],[102.10843722600004,16.54113619000003],[102.04613309000007,16.568762839000044],[102.03228227400007,16.541203861000042],[102.02998213300003,16.524825371000077],[102.06732343900006,16.494557591000046],[102.12454608100006,16.49496592400004]]]}},{"type":"Feature","properties":{"code":"400111","name":"แดงใหญ่","parentCode":"4001"},"geometry":{"type":"Polygon","coordinates":[[[102.79467800500004,16.483622641000068],[102.74176124100006,16.530110741000044],[102.72190216000007,16.478404803000046],[102.75187677300005,16.450949095000055],[102.79644638100007,16.473443744000065],[102.79467800500004,16.483622641000068]]]}},{"type":"Feature","properties":{"code":"401616","name":"ดินดำ","parentCode":"4016"},"geometry":{"type":"Polygon","coordinates":[[[102.43186483600005,16.71044722000005],[102.45327970400007,16.795265865000033],[102.43357896900005,16.78337656800005],[102.39668671400005,16.735683161000054],[102.43186483600005,16.71044722000005]]]}},{"type":"Feature","properties":{"code":"400112","name":"ดอนช้าง","parentCode":"4001"},"geometry":{"type":"Polygon","coordinates":[[[102.79084623100005,16.358042644000022],[102.75561539100005,16.403197675000058],[102.72174285000006,16.366892249000045],[102.73141562300003,16.335650933000068],[102.77982393500008,16.326639487000023],[102.79084623100005,16.358042644000022]]]}},{"type":"Feature","properties":{"code":"401510","name":"ดอนดั่ง","parentCode":"4015"},"geometry":{"type":"Polygon","coordinates":[[[102.83193317400008,15.784803080000074],[102.75516710100004,15.787371584000027],[102.75481029800005,15.75339871400007],[102.80329060900004,15.751770530000044],[102.83120316000009,15.77852450000006],[102.83193317400008,15.784803080000074]]]}},{"type":"Feature","properties":{"code":"401507","name":"ดอนดู่","parentCode":"4015"},"geometry":{"type":"Polygon","coordinates":[[[102.86032522800008,15.859028218000049],[102.85117119400007,15.85155549600006],[102.83193317400008,15.784803080000074],[102.83120316000009,15.77852450000006],[102.87776027300004,15.76894517900007],[102.93046269600006,15.795826058000046],[102.92688094800008,15.816932889000043],[102.86032522800008,15.859028218000049]]]}},{"type":"Feature","properties":{"code":"400113","name":"ดอนหัน","parentCode":"4001"},"geometry":{"type":"Polygon","coordinates":[[[102.91919856000004,16.373384394000027],[102.85970404200003,16.377858123000067],[102.84731895500005,16.37381498900004],[102.82482207200007,16.30095321400006],[102.84748472200005,16.273924779000026],[102.89406300200005,16.315241485000058],[102.91984159600008,16.365120683000043],[102.91919856000004,16.373384394000027]]]}},{"type":"Feature","properties":{"code":"401508","name":"ดงเค็ง","parentCode":"4015"},"geometry":{"type":"Polygon","coordinates":[[[102.80219426000008,15.721588527000051],[102.77136536100005,15.654030187000046],[102.77659426100007,15.633593717000053],[102.83820827400007,15.63674448300003],[102.84873502600004,15.636744063000037],[102.80219426000008,15.721588527000051]]]}},{"type":"Feature","properties":{"code":"400607","name":"ดงลาน","parentCode":"4006"},"geometry":{"type":"Polygon","coordinates":[[[102.10997098700005,16.811830420000035],[102.05949756400008,16.821929174000047],[102.06606495600005,16.88666893800007],[102.02788715100007,16.861693409000054],[102.02144882800008,16.802653775000067],[102.12221107500005,16.771309418000044],[102.13081084100008,16.809383515000036],[102.10997098700005,16.811830420000035]]]}},{"type":"Feature","properties":{"code":"401902","name":"ดงเมืองแอม","parentCode":"4019"},"geometry":{"type":"Polygon","coordinates":[[[102.78954981200008,16.885385989000042],[102.73433818600006,16.92699254200005],[102.73051108200008,16.879902092000066],[102.72823794100003,16.823299142000053],[102.73243443400008,16.818465639000067],[102.81841131600004,16.815600507000056],[102.81748743300005,16.834089383000048],[102.78954981200008,16.885385989000042]]]}},{"type":"Feature","properties":{"code":"400909","name":"ดูนสาด","parentCode":"4009"},"geometry":{"type":"Polygon","coordinates":[[[103.17292982500004,16.864139429000033],[103.13389832800004,16.87017569900007],[103.12201719100005,16.818523234000054],[103.10585581200007,16.80631895500005],[103.10320826800006,16.79752442700004],[103.09900136100003,16.77922031600002],[103.15147908300008,16.762660693000043],[103.17136768500006,16.771122873000024],[103.17951094200004,16.78619587000003],[103.17292982500004,16.864139429000033]]]}},{"type":"Feature","properties":{"code":"401509","name":"หันโจด","parentCode":"4015"},"geometry":{"type":"Polygon","coordinates":[[[102.75479000800004,15.741656780000028],[102.68695613300008,15.791405195000038],[102.67463940200008,15.75572223200004],[102.67905688600007,15.727672864000056],[102.69134401000008,15.724087098000041],[102.74995630700005,15.730110056000058],[102.75479000800004,15.741656780000028]]]}},{"type":"Feature","properties":{"code":"401014","name":"หินตั้ง","parentCode":"4010"},"geometry":{"type":"Polygon","coordinates":[[[102.84807491200007,16.072323135000033],[102.79740080400006,16.066829875000053],[102.77645298400006,16.060774784000046],[102.76606054600006,16.028793688000064],[102.78322686700005,16.027158103000033],[102.81441098000005,16.032726852000053],[102.90556517400006,15.981525548000036],[102.89793518400006,16.00078000600007],[102.84807491200007,16.072323135000033]]]}},{"type":"Feature","properties":{"code":"400912","name":"หัวนาคำ","parentCode":"4009"},"geometry":{"type":"Polygon","coordinates":[[[103.10585581200007,16.80631895500005],[103.03591189200006,16.883807902000058],[103.00192928600006,16.864928680000048],[103.01613163300004,16.794284124000058],[103.10320826800006,16.79752442700004],[103.10585581200007,16.80631895500005]]]}},{"type":"Feature","properties":{"code":"401017","name":"หัวหนอง","parentCode":"4010"},"geometry":{"type":"Polygon","coordinates":[[[102.71275261400007,16.082276672000035],[102.69991121500004,16.10192990300004],[102.67988551700006,16.04059878100003],[102.71254178500004,16.016232583000033],[102.71454683300004,16.02303226600003],[102.71275261400007,16.082276672000035]]]}},{"type":"Feature","properties":{"code":"401213","name":"หัวทุ่ง","parentCode":"4012"},"geometry":{"type":"Polygon","coordinates":[[[102.59242289500008,15.876474925000025],[102.56253199100007,15.89595558600007],[102.55102284400004,15.894143016000044],[102.53553250600004,15.88471905800003],[102.56711104400006,15.849011850000068],[102.59242289500008,15.876474925000025]]]}},{"type":"Feature","properties":{"code":"400905","name":"ห้วยโจด","parentCode":"4009"},"geometry":{"type":"Polygon","coordinates":[[[103.06323935400007,16.69391358300004],[102.98788985000004,16.706043300000033],[102.98790486300004,16.667135577000067],[102.98987140100007,16.634754620000024],[103.02782704500004,16.626603266000075],[103.07003451300005,16.684220723000067],[103.06323935400007,16.69391358300004]]]}},{"type":"Feature","properties":{"code":"401804","name":"ห้วยแก","parentCode":"4018"},"geometry":{"type":"Polygon","coordinates":[[[102.60310649100006,16.00966893700007],[102.55541554900009,16.02814350600005],[102.49733925800007,15.977350080000065],[102.56099066100006,15.962687628000026],[102.56652453400005,15.976091801000052],[102.60204062700006,16.003105086000062],[102.60310649100006,16.00966893700007]]]}},{"type":"Feature","properties":{"code":"402005","name":"ห้วยม่วง","parentCode":"4020"},"geometry":{"type":"Polygon","coordinates":[[[101.95291329000008,16.68781875700006],[101.93244410700004,16.753486143000032],[101.94050979700006,16.83570025000006],[101.86474393000003,16.793205484000055],[101.86474206400004,16.79320213400007],[101.86733395800007,16.72685438700006],[101.95291329000008,16.68781875700006]]]}},{"type":"Feature","properties":{"code":"402105","name":"ห้วยเตย","parentCode":"4021"},"geometry":{"type":"Polygon","coordinates":[[[103.12008571400008,16.592239505000066],[103.07756401700004,16.621606256000064],[103.06333988500006,16.623428532000048],[103.05601928400006,16.592947276000075],[103.09365097800008,16.53532403300005],[103.10132402400006,16.54176339000003],[103.12029862500003,16.582417145000022],[103.12008571400008,16.592239505000066]]]}},{"type":"Feature","properties":{"code":"400906","name":"ห้วยยาง","parentCode":"4009"},"geometry":{"type":"Polygon","coordinates":[[[103.12201719100005,16.818523234000054],[103.10181121800008,16.83965694500006],[103.12324526300006,16.899114019000024],[103.09811585400007,16.912621710000053],[103.03591189200006,16.883807902000058],[103.10585581200007,16.80631895500005],[103.12201719100005,16.818523234000054]]]}},{"type":"Feature","properties":{"code":"401402","name":"ก้านเหลือง","parentCode":"4014"},"geometry":{"type":"Polygon","coordinates":[[[102.51645089400006,15.881118315000037],[102.44419309700004,15.882115555000041],[102.44022747100007,15.877426817000071],[102.42249521000008,15.844566172000043],[102.44660850700006,15.816551201000038],[102.50561094500006,15.810264520000032],[102.50887663700007,15.821362410000063],[102.51645089400006,15.881118315000037]]]}},{"type":"Feature","properties":{"code":"401204","name":"เก่างิ้ว","parentCode":"4012"},"geometry":{"type":"Polygon","coordinates":[[[102.63187288200004,15.862357028000076],[102.59242289500008,15.876474925000025],[102.56711104400006,15.849011850000068],[102.59782386800003,15.816070423000042],[102.60784455800007,15.829708073000063],[102.63187288200004,15.862357028000076]]]}},{"type":"Feature","properties":{"code":"401010","name":"แคนเหนือ","parentCode":"4010"},"geometry":{"type":"Polygon","coordinates":[[[102.78322686700005,16.027158103000033],[102.76606054600006,16.028793688000064],[102.73525824600006,15.981483911000055],[102.76655094000006,15.956367556000032],[102.82021865100006,15.961804219000044],[102.78322686700005,16.027158103000033]]]}},{"type":"Feature","properties":{"code":"401705","name":"คำแคน","parentCode":"4017"},"geometry":{"type":"Polygon","coordinates":[[[102.47789796100005,16.38797090500003],[102.45886768900004,16.39468781100004],[102.44584301100008,16.35308879200005],[102.42628173500003,16.313656133000052],[102.41735105700008,16.28832107200003],[102.43519557900004,16.267817430000036],[102.50395651700006,16.24023948000007],[102.52454133900005,16.296064470000033],[102.52647731300004,16.31212835100007],[102.52691222200008,16.342969821000054],[102.52232298500007,16.35504543600007],[102.47789796100005,16.38797090500003]]]}},{"type":"Feature","properties":{"code":"402102","name":"คำแมด","parentCode":"4021"},"geometry":{"type":"Polygon","coordinates":[[[103.15048679000006,16.626500822000025],[103.07756401700004,16.621606256000064],[103.12008571400008,16.592239505000066],[103.15048679000006,16.626500822000025]]]}},{"type":"Feature","properties":{"code":"401905","name":"คำม่วง","parentCode":"4019"},"geometry":{"type":"Polygon","coordinates":[[[102.89894199200006,16.85461237100003],[102.86198031000004,16.871186907000038],[102.81748743300005,16.834089383000048],[102.81841131600004,16.815600507000056],[102.83278060400005,16.80563042500006],[102.87297167200006,16.785700450000036],[102.90898566000004,16.791735119000066],[102.95014074800008,16.80463119600006],[102.92899095500007,16.83790547800004],[102.89894199200006,16.85461237100003]]]}},{"type":"Feature","properties":{"code":"400305","name":"ขามป้อม","parentCode":"4003"},"geometry":{"type":"Polygon","coordinates":[[[102.68999167600003,16.32879654000004],[102.65643612400004,16.33254566100004],[102.60470720700005,16.285844062000024],[102.66365578200003,16.267988466000077],[102.69110558000006,16.28908986500005],[102.69110103600008,16.29820970800006],[102.68999167600003,16.32879654000004]]]}},{"type":"Feature","properties":{"code":"401103","name":"ขามป้อม","parentCode":"4011"},"geometry":{"type":"Polygon","coordinates":[[[102.90134402500007,15.970035756000073],[102.84642536700005,15.94787890300006],[102.83491951800005,15.928391431000023],[102.86547598000004,15.900744273000043],[102.90291465600006,15.902893561000042],[102.90116517300004,15.91077814700003],[102.90100742000004,15.910834383000065],[102.90049837000004,15.91114804800003],[102.90033134900006,15.91131940300005],[102.89987974200005,15.911532727000065],[102.89928623300005,15.913976657000035],[102.90020642200005,15.915096945000073],[102.89680598500007,15.918076130000031],[102.88988673200004,15.940624294000031],[102.90134402500007,15.970035756000073]]]}},{"type":"Feature","properties":{"code":"402303","name":"ขนวน","parentCode":"4023"},"geometry":{"type":"Polygon","coordinates":[[[102.43357896900005,16.78337656800005],[102.40516123100008,16.815266877000056],[102.37663059200008,16.81081667600006],[102.34104300000007,16.758430016000034],[102.36067596500004,16.733485089000055],[102.39668671400005,16.735683161000054],[102.43357896900005,16.78337656800005]]]}},{"type":"Feature","properties":{"code":"402903","name":"เขาน้อย","parentCode":"4029"},"geometry":{"type":"Polygon","coordinates":[[[102.34104300000007,16.758430016000034],[102.29945826500006,16.773421858000063],[102.32100455400007,16.68637689600007],[102.35165040400005,16.681240854000066],[102.36132114800006,16.700230614000077],[102.36067596500004,16.733485089000055],[102.34104300000007,16.758430016000034]]]}},{"type":"Feature","properties":{"code":"401901","name":"เขาสวนกวาง","parentCode":"4019"},"geometry":{"type":"Polygon","coordinates":[[[102.81511024800005,16.88420874600007],[102.78954981200008,16.885385989000042],[102.81748743300005,16.834089383000048],[102.86198031000004,16.871186907000038],[102.89894199200006,16.85461237100003],[102.87512433900008,16.87621481800005],[102.81511024800005,16.88420874600007]]]}},{"type":"Feature","properties":{"code":"400207","name":"โคกงาม","parentCode":"4002"},"geometry":{"type":"Polygon","coordinates":[[[102.63077946800007,16.53494954300004],[102.59153788800006,16.64916276100007],[102.57633493000009,16.627315444000033],[102.57810534500004,16.54198816400003],[102.61358685700009,16.513006852000046],[102.63838336000003,16.525407769000026],[102.63077946800007,16.53494954300004]]]}},{"type":"Feature","properties":{"code":"401208","name":"โคกสง่า","parentCode":"4012"},"geometry":{"type":"Polygon","coordinates":[[[102.53309252100007,15.771910803000026],[102.50647448300003,15.786546740000063],[102.46135848600005,15.781906633000062],[102.45325139100004,15.716650874000038],[102.51254834800005,15.728309014000047],[102.53309252100007,15.771910803000026]]]}},{"type":"Feature","properties":{"code":"402402","name":"โคกสำราญ","parentCode":"4024"},"geometry":{"type":"Polygon","coordinates":[[[102.72936066800008,16.243669271000044],[102.68679797200008,16.244247190000067],[102.66762020000004,16.21788892400002],[102.68199126100006,16.187046543000065],[102.68767511800007,16.15054766700007],[102.74830409000003,16.137077788000056],[102.75075627700005,16.14534820700004],[102.75636453600004,16.164325189000067],[102.72603143800006,16.18734988500006],[102.72875600200007,16.241327932000047],[102.72936066800008,16.243669271000044]]]}},{"type":"Feature","properties":{"code":"400103","name":"โคกสี","parentCode":"4001"},"geometry":{"type":"Polygon","coordinates":[[[102.97997253400007,16.504447068000047],[102.96550085800004,16.509382953000056],[102.91231776800004,16.50136612500006],[102.90324612300009,16.46842699000007],[102.94766300100008,16.43958770100005],[103.00921873900006,16.46971442100005],[103.02077007300005,16.47648352400006],[102.97997253400007,16.504447068000047]]]}},{"type":"Feature","properties":{"code":"400801","name":"โคกสูง","parentCode":"4008"},"geometry":{"type":"Polygon","coordinates":[[[102.74155515600006,16.735316454000042],[102.73575447400003,16.736119521000035],[102.71119285600008,16.73690785100007],[102.65171257000009,16.695064713000022],[102.65119689600004,16.659064829000044],[102.69702715100004,16.633401453000033],[102.71856961900005,16.636692037000046],[102.73688358600003,16.678629314000034],[102.75196301300008,16.72800912200006],[102.74155515600006,16.735316454000042]]]}},{"type":"Feature","properties":{"code":"401301","name":"คอนฉิม","parentCode":"4013"},"geometry":{"type":"Polygon","coordinates":[[[102.48746170500004,15.967466057000024],[102.47465956600007,15.96238564600003],[102.46313661700003,15.945880643000066],[102.55102284400004,15.894143016000044],[102.56253199100007,15.89595558600007],[102.56707250200009,15.905457887000068],[102.48746170500004,15.967466057000024]]]}},{"type":"Feature","properties":{"code":"402104","name":"คูคำ","parentCode":"4021"},"geometry":{"type":"Polygon","coordinates":[[[103.03578701400005,16.52094469900004],[103.01309200000009,16.537861151000072],[102.97997253400007,16.504447068000047],[103.02077007300005,16.47648352400006],[103.05656858900005,16.499230805000025],[103.03578701400005,16.52094469900004]]]}},{"type":"Feature","properties":{"code":"400505","name":"ขัวเรียง","parentCode":"4005"},"geometry":{"type":"Polygon","coordinates":[[[102.24202610200007,16.529293563000067],[102.26542897500008,16.611221580000063],[102.18182649400006,16.594279836000055],[102.16233233200006,16.52024847100006],[102.16968164700006,16.520537061000027],[102.24202610200007,16.529293563000067]]]}},{"type":"Feature","properties":{"code":"400803","name":"เขื่อนอุบลรัตน์","parentCode":"4008"},"geometry":{"type":"Polygon","coordinates":[[[102.65401118200003,16.76471538100003],[102.61517283800003,16.779613169000072],[102.60615611600008,16.771996036000075],[102.60871349600006,16.71352902600006],[102.56739113000003,16.656194545000062],[102.55818271400005,16.62356221300007],[102.57633493000009,16.627315444000033],[102.59153788800006,16.64916276100007],[102.65119689600004,16.659064829000044],[102.65171257000009,16.695064713000022],[102.65401118200003,16.76471538100003]]]}},{"type":"Feature","properties":{"code":"401502","name":"คึมชาด","parentCode":"4015"},"geometry":{"type":"Polygon","coordinates":[[[102.85117119400007,15.85155549600006],[102.79277439600008,15.859650397000053],[102.75105316800006,15.803877373000034],[102.75516710100004,15.787371584000027],[102.83193317400008,15.784803080000074],[102.85117119400007,15.85155549600006]]]}},{"type":"Feature","properties":{"code":"402101","name":"กระนวน","parentCode":"4021"},"geometry":{"type":"Polygon","coordinates":[[[103.02782704500004,16.626603266000075],[102.98987140100007,16.634754620000024],[103.00445457300003,16.60545841000004],[102.99709833600008,16.55562450900004],[103.02984611700003,16.595709534000036],[103.05160691300006,16.580428776000076],[103.03578701400005,16.52094469900004],[103.05656858900005,16.499230805000025],[103.08523930600006,16.51573263100005],[103.09365097800008,16.53532403300005],[103.05601928400006,16.592947276000075],[103.06333988500006,16.623428532000048],[103.02782704500004,16.626603266000075]]]}},{"type":"Feature","properties":{"code":"401701","name":"กุดเค้า","parentCode":"4017"},"geometry":{"type":"Polygon","coordinates":[[[102.51919692400008,16.147490823000055],[102.46223884500006,16.12141862800007],[102.49289079600004,16.079242527000076],[102.58238218000008,16.08964742300003],[102.57200021200003,16.107073470000046],[102.51919692400008,16.147490823000055]]]}},{"type":"Feature","properties":{"code":"401605","name":"กุดขอนแก่น","parentCode":"4016"},"geometry":{"type":"Polygon","coordinates":[[[102.54547329300004,16.60270861500004],[102.46578991600006,16.62200664100004],[102.44934774700005,16.59790197600006],[102.48976455300004,16.537567721000073],[102.49077286000005,16.53704225100006],[102.52884228000005,16.551573011000073],[102.54547329300004,16.60270861500004]]]}},{"type":"Feature","properties":{"code":"400407","name":"กุดกว้าง","parentCode":"4004"},"geometry":{"type":"Polygon","coordinates":[[[102.41912971400006,16.488754404000076],[102.33924172600007,16.49754021800004],[102.29082130100005,16.51734447800004],[102.30096173800007,16.44824280200004],[102.32311579400005,16.445323216000077],[102.39818899400007,16.446641768000063],[102.40531557800006,16.46022563300005],[102.41895887500004,16.48109856700006],[102.41912971400006,16.488754404000076]]]}},{"type":"Feature","properties":{"code":"400712","name":"กุดน้ำใส","parentCode":"4007"},"geometry":{"type":"Polygon","coordinates":[[[102.83668418100007,16.711619882000036],[102.83560876600006,16.738667785000075],[102.75196301300008,16.72800912200006],[102.73688358600003,16.678629314000034],[102.82160817100004,16.678454308000028],[102.83668418100007,16.711619882000036]]]}},{"type":"Feature","properties":{"code":"401802","name":"กุดเพียขอม","parentCode":"4018"},"geometry":{"type":"Polygon","coordinates":[[[102.63395293400004,16.03670145700005],[102.58659351700004,16.059220159000063],[102.55512426200005,16.028395688000046],[102.55541554900009,16.02814350600005],[102.60310649100006,16.00966893700007],[102.61984970400005,16.01913696400004],[102.63395293400004,16.03670145700005]]]}},{"type":"Feature","properties":{"code":"402301","name":"กุดธาตุ","parentCode":"4023"},"geometry":{"type":"Polygon","coordinates":[[[102.29634669300003,16.891205325000044],[102.25372617800008,16.89367455200005],[102.21309201200006,16.86038270100005],[102.21534389100003,16.858550279000042],[102.23086000500007,16.853389641000035],[102.27141362800006,16.827351282000052],[102.29133155300008,16.778792227000054],[102.33957550100007,16.823649248000038],[102.29634669300003,16.891205325000044]]]}},{"type":"Feature","properties":{"code":"401404","name":"ละหานนา","parentCode":"4014"},"geometry":{"type":"Polygon","coordinates":[[[102.39877832200006,15.84663665200003],[102.31696571700007,15.845425473000034],[102.32024198900007,15.82537301700006],[102.32756241300007,15.803414540000063],[102.36404882600004,15.763960585000063],[102.39333142900006,15.771644258000038],[102.39877832200006,15.84663665200003]]]}},{"type":"Feature","properties":{"code":"401210","name":"ลอมคอม","parentCode":"4012"},"geometry":{"type":"Polygon","coordinates":[[[102.59337509000005,15.808487971000034],[102.50887663700007,15.821362410000063],[102.50561094500006,15.810264520000032],[102.50647448300003,15.786546740000063],[102.53309252100007,15.771910803000026],[102.58647484000005,15.79409279600003],[102.59188232400004,15.805399040000054],[102.59337509000005,15.808487971000034]]]}},{"type":"Feature","properties":{"code":"401302","name":"ใหม่นาเพียง","parentCode":"4013"},"geometry":{"type":"Polygon","coordinates":[[[102.55102284400004,15.894143016000044],[102.46313661700003,15.945880643000066],[102.44861024200009,15.90504947100004],[102.44419309700004,15.882115555000041],[102.51645089400006,15.881118315000037],[102.53553250600004,15.88471905800003],[102.55102284400004,15.894143016000044]]]}},{"type":"Feature","properties":{"code":"400706","name":"ม่วงหวาน","parentCode":"4007"},"geometry":{"type":"Polygon","coordinates":[[[102.79330573600004,16.62709446100007],[102.83602071000007,16.634708173000035],[102.82364749000004,16.653043816000036],[102.82160817100004,16.678454308000028],[102.73688358600003,16.678629314000034],[102.71856961900005,16.636692037000046],[102.73269292200007,16.606623883000054],[102.79330573600004,16.62709446100007]]]}},{"type":"Feature","properties":{"code":"400106","name":"เมืองเก่า","parentCode":"4001"},"geometry":{"type":"Polygon","coordinates":[[[102.85127335600004,16.407455992000052],[102.81503824900005,16.412518213000055],[102.75314466600008,16.410678501000064],[102.75561539100005,16.403197675000058],[102.79084623100005,16.358042644000022],[102.84731895500005,16.37381498900004],[102.85970404200003,16.377858123000067],[102.85127335600004,16.407455992000052]]]}},{"type":"Feature","properties":{"code":"402902","name":"เมืองเก่าพัฒนา","parentCode":"4029"},"geometry":{"type":"Polygon","coordinates":[[[102.35165040400005,16.681240854000066],[102.32100455400007,16.68637689600007],[102.25673634800006,16.642809158000034],[102.18819234800009,16.64949430200005],[102.15746504400005,16.61816092500004],[102.15772198400003,16.60555606300005],[102.18182649400006,16.594279836000055],[102.26542897500008,16.611221580000063],[102.27830364600004,16.615432724000073],[102.32649628300004,16.645034802000055],[102.35165040400005,16.681240854000066]]]}},{"type":"Feature","properties":{"code":"401005","name":"เมืองเพีย","parentCode":"4010"},"geometry":{"type":"Polygon","coordinates":[[[102.68199126100006,16.187046543000065],[102.63881269400008,16.136656385000038],[102.65540710200008,16.088643739000076],[102.64504269500009,16.061332529000026],[102.67592597300006,16.039993621000065],[102.67988551700006,16.04059878100003],[102.69991121500004,16.10192990300004],[102.68767511800007,16.15054766700007],[102.68199126100006,16.187046543000065]]]}},{"type":"Feature","properties":{"code":"401201","name":"เมืองพล","parentCode":"4012"},"geometry":{"type":"Polygon","coordinates":[[[102.61094133400007,15.814613766000036],[102.60784455800007,15.829708073000063],[102.59782386800003,15.816070423000042],[102.59337509000005,15.808487971000034],[102.59188232400004,15.805399040000054],[102.63190051300006,15.779895468000063],[102.67463940200008,15.75572223200004],[102.68695613300008,15.791405195000038],[102.61094133400007,15.814613766000036]]]}},{"type":"Feature","properties":{"code":"400603","name":"นาจาน","parentCode":"4006"},"geometry":{"type":"Polygon","coordinates":[[[102.21413894700004,16.710143549000065],[102.18205908700008,16.714580667000064],[102.13774258900008,16.68636268100005],[102.08046283800007,16.657079973000066],[102.15746504400005,16.61816092500004],[102.18819234800009,16.64949430200005],[102.21413894700004,16.710143549000065]]]}},{"type":"Feature","properties":{"code":"401606","name":"นาชุมแสง","parentCode":"4016"},"geometry":{"type":"Polygon","coordinates":[[[102.39014731400005,16.58212468200003],[102.32649628300004,16.645034802000055],[102.27830364600004,16.615432724000073],[102.30079950600003,16.56733209400005],[102.33212692400008,16.569463131000077],[102.34971180800005,16.573254845000065],[102.39014731400005,16.58212468200003]]]}},{"type":"Feature","properties":{"code":"402002","name":"นาฝาย","parentCode":"4020"},"geometry":{"type":"Polygon","coordinates":[[[101.87216011000004,16.714781858000038],[101.82628692800006,16.65767222900007],[101.88408175300003,16.644981608000023],[101.87216011000004,16.714781858000038]]]}},{"type":"Feature","properties":{"code":"401706","name":"นาข่า","parentCode":"4017"},"geometry":{"type":"Polygon","coordinates":[[[102.50395651700006,16.24023948000007],[102.43519557900004,16.267817430000036],[102.48221641600009,16.197933422000062],[102.44742632200007,16.153797200000042],[102.46223884500006,16.12141862800007],[102.51919692400008,16.147490823000055],[102.52426495900005,16.18092705400005],[102.50395651700006,16.24023948000007]]]}},{"type":"Feature","properties":{"code":"400804","name":"นาคำ","parentCode":"4008"},"geometry":{"type":"Polygon","coordinates":[[[102.73051108200008,16.879902092000066],[102.68499482000004,16.875417181000046],[102.65299412300004,16.90456862800005],[102.62449288000005,16.84254797500006],[102.72823794100003,16.823299142000053],[102.73051108200008,16.879902092000066]]]}},{"type":"Feature","properties":{"code":"401707","name":"นางาม","parentCode":"4017"},"geometry":{"type":"Polygon","coordinates":[[[102.43519557900004,16.267817430000036],[102.41735105700008,16.28832107200003],[102.41799384000007,16.25417698800004],[102.37091685300004,16.195800846000054],[102.34532220400007,16.160563678000074],[102.38070905000006,16.156124986000066],[102.41294795500005,16.107228760000055],[102.41524038200004,16.15321893400005],[102.44742632200007,16.153797200000042],[102.48221641600009,16.197933422000062],[102.43519557900004,16.267817430000036]]]}},{"type":"Feature","properties":{"code":"401903","name":"นางิ้ว","parentCode":"4019"},"geometry":{"type":"Polygon","coordinates":[[[102.80453852300008,16.956466178000028],[102.72256853200008,16.989043456000047],[102.66970640000005,16.993461841000055],[102.67899023600006,16.966093427000033],[102.73433818600006,16.92699254200005],[102.78954981200008,16.885385989000042],[102.81511024800005,16.88420874600007],[102.81589711800007,16.925325557000065],[102.80453852300008,16.956466178000028]]]}},{"type":"Feature","properties":{"code":"400503","name":"นาหนองทุ่ม","parentCode":"4005"},"geometry":{"type":"Polygon","coordinates":[[[102.02788715100007,16.861693409000054],[101.94051974900003,16.83570579900004],[101.94050979700006,16.83570025000006],[101.93244410700004,16.753486143000032],[101.95291329000008,16.68781875700006],[101.95352113100006,16.674764468000035],[101.95341827600004,16.658266901000047],[102.01277592000008,16.704319096000063],[102.01866984000009,16.754106526000044],[102.02144882800008,16.802653775000067],[102.02788715100007,16.861693409000054]]]}},{"type":"Feature","properties":{"code":"402204","name":"นาแพง","parentCode":"4022"},"geometry":{"type":"Polygon","coordinates":[[[102.46223884500006,16.12141862800007],[102.44742632200007,16.153797200000042],[102.41524038200004,16.15321893400005],[102.41294795500005,16.107228760000055],[102.44587909600006,16.053830584000025],[102.48968390200008,16.065654340000037],[102.49289079600004,16.079242527000076],[102.46223884500006,16.12141862800007]]]}},{"type":"Feature","properties":{"code":"400509","name":"นาเพียง","parentCode":"4005"},"geometry":{"type":"Polygon","coordinates":[[[102.30096173800007,16.44824280200004],[102.29082130100005,16.51734447800004],[102.28950227500007,16.51788607900005],[102.25215595600008,16.52824405100006],[102.24033579500008,16.481552945000033],[102.25533055300008,16.461070560000053],[102.30096173800007,16.44824280200004]]]}},{"type":"Feature","properties":{"code":"401607","name":"นาหว้า","parentCode":"4016"},"geometry":{"type":"Polygon","coordinates":[[[102.59639775800008,16.773336542000038],[102.55027577400006,16.781193177000034],[102.53924230400008,16.74292428600006],[102.45432240300005,16.686801573000025],[102.49397616400006,16.65802874800005],[102.56739113000003,16.656194545000062],[102.60871349600006,16.71352902600006],[102.60615611600008,16.771996036000075],[102.59639775800008,16.773336542000038]]]}},{"type":"Feature","properties":{"code":"400101","name":"ในเมือง","parentCode":"4001"},"geometry":{"type":"Polygon","coordinates":[[[102.85824872100005,16.461372355000037],[102.80435586300007,16.471731736000038],[102.81503824900005,16.412518213000055],[102.85127335600004,16.407455992000052],[102.85824872100005,16.461372355000037]]]}},{"type":"Feature","properties":{"code":"401002","name":"ในเมือง","parentCode":"4010"},"geometry":{"type":"Polygon","coordinates":[[[102.79516340700008,16.151763682000023],[102.75075627700005,16.14534820700004],[102.74830409000003,16.137077788000056],[102.71275261400007,16.082276672000035],[102.71454683300004,16.02303226600003],[102.77645298400006,16.060774784000046],[102.79740080400006,16.066829875000053],[102.79516340700008,16.151763682000023]]]}},{"type":"Feature","properties":{"code":"402901","name":"ในเมือง","parentCode":"4029"},"geometry":{"type":"Polygon","coordinates":[[[102.29133155300008,16.778792227000054],[102.27141362800006,16.827351282000052],[102.23086000500007,16.853389641000035],[102.22940628700007,16.790624597000033],[102.21413894700004,16.710143549000065],[102.18819234800009,16.64949430200005],[102.25673634800006,16.642809158000034],[102.32100455400007,16.68637689600007],[102.29945826500006,16.773421858000063],[102.29133155300008,16.778792227000054]]]}},{"type":"Feature","properties":{"code":"400911","name":"น้ำอ้อม","parentCode":"4009"},"geometry":{"type":"Polygon","coordinates":[[[103.15504465600009,16.68365356700002],[103.09561247000005,16.677654021000023],[103.15279600000008,16.648033292000036],[103.15703476000004,16.677295065000067],[103.15504465600009,16.68365356700002]]]}},{"type":"Feature","properties":{"code":"400701","name":"น้ำพอง","parentCode":"4007"},"geometry":{"type":"Polygon","coordinates":[[[102.87297167200006,16.785700450000036],[102.83278060400005,16.80563042500006],[102.83297545900007,16.781854139000075],[102.77720898900009,16.781002238000042],[102.74155515600006,16.735316454000042],[102.75196301300008,16.72800912200006],[102.83560876600006,16.738667785000075],[102.83668418100007,16.711619882000036],[102.87323498100005,16.751231311000026],[102.87297167200006,16.785700450000036]]]}},{"type":"Feature","properties":{"code":"402505","name":"โนนแดง","parentCode":"4025"},"geometry":{"type":"Polygon","coordinates":[[[102.71254178500004,16.016232583000033],[102.67988551700006,16.04059878100003],[102.67592597300006,16.039993621000065],[102.66629605100007,15.989404585000045],[102.66147023300005,15.971259017000023],[102.69834740300007,15.976991781000038],[102.71121418600006,16.01174115500004],[102.71254178500004,16.016232583000033]]]}},{"type":"Feature","properties":{"code":"400502","name":"โนนหัน","parentCode":"4005"},"geometry":{"type":"Polygon","coordinates":[[[102.04759486300009,16.617483702000072],[101.98612622900004,16.626251522000075],[102.00026959200005,16.588723596000023],[102.04613309000007,16.568762839000044],[102.06269369500006,16.605367545000036],[102.04759486300009,16.617483702000072]]]}},{"type":"Feature","properties":{"code":"401211","name":"โนนข่า","parentCode":"4012"},"geometry":{"type":"Polygon","coordinates":[[[102.63190051300006,15.779895468000063],[102.59188232400004,15.805399040000054],[102.58647484000005,15.79409279600003],[102.54611856600008,15.71605788000005],[102.63190051300006,15.779895468000063]]]}},{"type":"Feature","properties":{"code":"402001","name":"โนนคอม","parentCode":"4020"},"geometry":{"type":"Polygon","coordinates":[[[101.95341827600004,16.658266901000047],[101.95352113100006,16.674764468000035],[101.91391280800008,16.633897064000053],[101.93677255600005,16.632297462000054],[101.95491019400004,16.630265923000024],[101.95341827600004,16.658266901000047]]]}},{"type":"Feature","properties":{"code":"400203","name":"โนนฆ้อง","parentCode":"4002"},"geometry":{"type":"Polygon","coordinates":[[[102.57617186900006,16.45604505800003],[102.56184448600004,16.46214801900004],[102.55190531900007,16.427562457000022],[102.55082852500004,16.401644919000034],[102.62155543200004,16.381556510000053],[102.61846258800006,16.415563794000036],[102.57617186900006,16.45604505800003]]]}},{"type":"Feature","properties":{"code":"401807","name":"โนนพะยอม","parentCode":"4018"},"geometry":{"type":"Polygon","coordinates":[[[102.58659351700004,16.059220159000063],[102.58238218000008,16.08964742300003],[102.49289079600004,16.079242527000076],[102.48968390200008,16.065654340000037],[102.55512426200005,16.028395688000046],[102.58659351700004,16.059220159000063]]]}},{"type":"Feature","properties":{"code":"400409","name":"โนนสะอาด","parentCode":"4004"},"geometry":{"type":"Polygon","coordinates":[[[102.33924172600007,16.49754021800004],[102.33212692400008,16.569463131000077],[102.30079950600003,16.56733209400005],[102.28950227500007,16.51788607900005],[102.29082130100005,16.51734447800004],[102.33924172600007,16.49754021800004]]]}},{"type":"Feature","properties":{"code":"400512","name":"โนนสะอาด","parentCode":"4005"},"geometry":{"type":"Polygon","coordinates":[[[101.98612622900004,16.626251522000075],[101.95442446500005,16.62272262700003],[101.98812737400004,16.566267675000063],[102.03228227400007,16.541203861000042],[102.04613309000007,16.568762839000044],[102.00026959200005,16.588723596000023],[101.98612622900004,16.626251522000075]]]}},{"type":"Feature","properties":{"code":"401305","name":"โนนสะอาด","parentCode":"4013"},"geometry":{"type":"Polygon","coordinates":[[[102.42689817700006,15.994839976000037],[102.38520413200007,15.985892602000035],[102.36642873200009,15.962542091000046],[102.36747064100007,15.943914434000021],[102.44861024200009,15.90504947100004],[102.46313661700003,15.945880643000066],[102.47465956600007,15.96238564600003],[102.42689817700006,15.994839976000037]]]}},{"type":"Feature","properties":{"code":"402501","name":"โนนศิลา","parentCode":"4025"},"geometry":{"type":"Polygon","coordinates":[[[102.69834740300007,15.976991781000038],[102.66147023300005,15.971259017000023],[102.63104860600004,15.955448661000048],[102.63770911100005,15.93749346800007],[102.65310404300004,15.907967756000062],[102.66151399100005,15.902630834000036],[102.69834740300007,15.976991781000038]]]}},{"type":"Feature","properties":{"code":"401904","name":"โนนสมบูรณ์","parentCode":"4019"},"geometry":{"type":"Polygon","coordinates":[[[102.70970462200006,17.087009188000025],[102.70004704800004,17.086895766000055],[102.66933312300006,16.993749911000066],[102.66970640000005,16.993461841000055],[102.72256853200008,16.989043456000047],[102.80453852300008,16.956466178000028],[102.82032612600005,16.973981082000023],[102.79496838400007,17.00815410100006],[102.72317309400006,17.049576966000075],[102.70970462200006,17.087009188000025]]]}},{"type":"Feature","properties":{"code":"402403","name":"โนนสมบูรณ์","parentCode":"4024"},"geometry":{"type":"Polygon","coordinates":[[[102.77569739500007,16.292470828000035],[102.77219232700008,16.298451111000077],[102.72999736700007,16.24817900100004],[102.72936066800008,16.243669271000044],[102.72875600200007,16.241327932000047],[102.83407202300003,16.232695359000047],[102.82311852100008,16.26537878700003],[102.77569739500007,16.292470828000035]]]}},{"type":"Feature","properties":{"code":"400408","name":"โนนทัน","parentCode":"4004"},"geometry":{"type":"Polygon","coordinates":[[[102.42207949200008,16.520713604000036],[102.35412931700006,16.54117689700007],[102.34971180800005,16.573254845000065],[102.33212692400008,16.569463131000077],[102.33924172600007,16.49754021800004],[102.41912971400006,16.488754404000076],[102.42207949200008,16.520713604000036]]]}},{"type":"Feature","properties":{"code":"401503","name":"โนนธาตุ","parentCode":"4015"},"geometry":{"type":"Polygon","coordinates":[[[102.74995630700005,15.730110056000058],[102.69134401000008,15.724087098000041],[102.73398379800005,15.666160878000028],[102.74777428700008,15.670026922000034],[102.74995630700005,15.730110056000058]]]}},{"type":"Feature","properties":{"code":"400118","name":"โนนท่อน","parentCode":"4001"},"geometry":{"type":"Polygon","coordinates":[[[102.84399327800008,16.634386607000067],[102.83602071000007,16.634708173000035],[102.79330573600004,16.62709446100007],[102.79572365700005,16.586855252000078],[102.88016054100007,16.54850348900004],[102.84399327800008,16.634386607000067]]]}},{"type":"Feature","properties":{"code":"400406","name":"โนนทอง","parentCode":"4004"},"geometry":{"type":"Polygon","coordinates":[[[102.44934774700005,16.59790197600006],[102.41649714300007,16.593525743000043],[102.39014731400005,16.58212468200003],[102.34971180800005,16.573254845000065],[102.35412931700006,16.54117689700007],[102.42207949200008,16.520713604000036],[102.48976455300004,16.537567721000073],[102.44934774700005,16.59790197600006]]]}},{"type":"Feature","properties":{"code":"401303","name":"โนนทอง","parentCode":"4013"},"geometry":{"type":"Polygon","coordinates":[[[102.44861024200009,15.90504947100004],[102.36747064100007,15.943914434000021],[102.35336161300006,15.90084683200007],[102.44022747100007,15.877426817000071],[102.44419309700004,15.882115555000041],[102.44861024200009,15.90504947100004]]]}},{"type":"Feature","properties":{"code":"400504","name":"โนนอุดม","parentCode":"4005"},"geometry":{"type":"Polygon","coordinates":[[[102.24033579500008,16.481552945000033],[102.25215595600008,16.52824405100006],[102.24202610200007,16.529293563000067],[102.16968164700006,16.520537061000027],[102.17895106300006,16.500764240000024],[102.20514430200006,16.50010691400007],[102.24033579500008,16.481552945000033]]]}},{"type":"Feature","properties":{"code":"400201","name":"หนองบัว","parentCode":"4002"},"geometry":{"type":"Polygon","coordinates":[[[102.61358685700009,16.513006852000046],[102.57810534500004,16.54198816400003],[102.57353729300007,16.50554104200006],[102.56834072200007,16.48415126900005],[102.56184448600004,16.46214801900004],[102.57617186900006,16.45604505800003],[102.61438990500005,16.454193540000063],[102.61358685700009,16.513006852000046]]]}},{"type":"Feature","properties":{"code":"400606","name":"หนองแดง","parentCode":"4006"},"geometry":{"type":"Polygon","coordinates":[[[102.11796596600004,16.733911866000028],[102.08967217400004,16.715782787000023],[102.13774258900008,16.68636268100005],[102.18205908700008,16.714580667000064],[102.11796596600004,16.733911866000028]]]}},{"type":"Feature","properties":{"code":"400510","name":"หนองเขียด","parentCode":"4005"},"geometry":{"type":"Polygon","coordinates":[[[102.04364306000008,16.69675816700004],[102.01277592000008,16.704319096000063],[101.95341827600004,16.658266901000047],[101.95491019400004,16.630265923000024],[101.95442446500005,16.62272262700003],[101.98612622900004,16.626251522000075],[102.04759486300009,16.617483702000072],[102.06873431000008,16.66049019600007],[102.04364306000008,16.69675816700004]]]}},{"type":"Feature","properties":{"code":"400901","name":"หนองโก","parentCode":"4009"},"geometry":{"type":"Polygon","coordinates":[[[103.15147908300008,16.762660693000043],[103.09900136100003,16.77922031600002],[103.07454669300006,16.74298912300003],[103.06323935400007,16.69391358300004],[103.07003451300005,16.684220723000067],[103.09561247000005,16.677654021000023],[103.15504465600009,16.68365356700002],[103.14510714500005,16.701411224000026],[103.15147908300008,16.762660693000043]]]}},{"type":"Feature","properties":{"code":"400703","name":"หนองกุง","parentCode":"4007"},"geometry":{"type":"Polygon","coordinates":[[[102.91776081500007,16.707749557000056],[102.90898566000004,16.791735119000066],[102.87297167200006,16.785700450000036],[102.87323498100005,16.751231311000026],[102.82364749000004,16.653043816000036],[102.83602071000007,16.634708173000035],[102.84399327800008,16.634386607000067],[102.87815840600007,16.668335666000075],[102.88489732700003,16.708129659000065],[102.91776081500007,16.707749557000056]]]}},{"type":"Feature","properties":{"code":"401612","name":"หนองกุงเซิน","parentCode":"4016"},"geometry":{"type":"Polygon","coordinates":[[[102.56739113000003,16.656194545000062],[102.49397616400006,16.65802874800005],[102.46578991600006,16.62200664100004],[102.54547329300004,16.60270861500004],[102.55818271400005,16.62356221300007],[102.56739113000003,16.656194545000062]]]}},{"type":"Feature","properties":{"code":"401610","name":"หนองกุงธนสาร","parentCode":"4016"},"geometry":{"type":"Polygon","coordinates":[[[102.42914094300005,16.70379041900003],[102.38963951800008,16.654477245000066],[102.38260133600005,16.64662793100007],[102.41649714300007,16.593525743000043],[102.44934774700005,16.59790197600006],[102.46578991600006,16.62200664100004],[102.49397616400006,16.65802874800005],[102.45432240300005,16.686801573000025],[102.44389520300007,16.692731070000036],[102.42914094300005,16.70379041900003]]]}},{"type":"Feature","properties":{"code":"400902","name":"หนองกุงใหญ่","parentCode":"4009"},"geometry":{"type":"Polygon","coordinates":[[[103.15279600000008,16.648033292000036],[103.09561247000005,16.677654021000023],[103.07003451300005,16.684220723000067],[103.02782704500004,16.626603266000075],[103.06333988500006,16.623428532000048],[103.07756401700004,16.621606256000064],[103.15048679000006,16.626500822000025],[103.15239866900004,16.643603950000056],[103.15279600000008,16.648033292000036]]]}},{"type":"Feature","properties":{"code":"401205","name":"หนองมะเขือ","parentCode":"4012"},"geometry":{"type":"Polygon","coordinates":[[[102.58647484000005,15.79409279600003],[102.53309252100007,15.771910803000026],[102.51254834800005,15.728309014000047],[102.53068878000005,15.71138309500003],[102.54611856600008,15.71605788000005],[102.58647484000005,15.79409279600003]]]}},{"type":"Feature","properties":{"code":"401506","name":"หนองเม็ก","parentCode":"4015"},"geometry":{"type":"Polygon","coordinates":[[[102.75105316800006,15.803877373000034],[102.69461877500004,15.843418621000069],[102.68695613300008,15.791405195000038],[102.75479000800004,15.741656780000028],[102.75481029800005,15.75339871400007],[102.75516710100004,15.787371584000027],[102.75105316800006,15.803877373000034]]]}},{"type":"Feature","properties":{"code":"401016","name":"หนองน้ำใส","parentCode":"4010"},"geometry":{"type":"Polygon","coordinates":[[[102.77645298400006,16.060774784000046],[102.71454683300004,16.02303226600003],[102.71254178500004,16.016232583000033],[102.71121418600006,16.01174115500004],[102.73525824600006,15.981483911000055],[102.76606054600006,16.028793688000064],[102.77645298400006,16.060774784000046]]]}},{"type":"Feature","properties":{"code":"400910","name":"หนองโน","parentCode":"4009"},"geometry":{"type":"Polygon","coordinates":[[[103.07454669300006,16.74298912300003],[103.00249483600004,16.751292258000035],[102.98788985000004,16.706043300000033],[103.06323935400007,16.69391358300004],[103.07454669300006,16.74298912300003]]]}},{"type":"Feature","properties":{"code":"401703","name":"หนองแปน","parentCode":"4017"},"geometry":{"type":"Polygon","coordinates":[[[102.66762020000004,16.21788892400002],[102.63618853600008,16.23582471700007],[102.59522614300005,16.18275237100005],[102.58669670500007,16.129920730000038],[102.63881269400008,16.136656385000038],[102.68199126100006,16.187046543000065],[102.66762020000004,16.21788892400002]]]}},{"type":"Feature","properties":{"code":"400506","name":"หนองไผ่","parentCode":"4005"},"geometry":{"type":"Polygon","coordinates":[[[102.18182649400006,16.594279836000055],[102.15772198400003,16.60555606300005],[102.06269369500006,16.605367545000036],[102.04613309000007,16.568762839000044],[102.10843722600004,16.54113619000003],[102.16233233200006,16.52024847100006],[102.18182649400006,16.594279836000055]]]}},{"type":"Feature","properties":{"code":"401512","name":"หนองไผ่ล้อม","parentCode":"4015"},"geometry":{"type":"Polygon","coordinates":[[[102.87776027300004,15.76894517900007],[102.83120316000009,15.77852450000006],[102.80329060900004,15.751770530000044],[102.81120488000005,15.736003027000038],[102.87467375800009,15.734924200000023],[102.87385764500004,15.73835735700004],[102.87776027300004,15.76894517900007]]]}},{"type":"Feature","properties":{"code":"402502","name":"หนองปลาหมอ","parentCode":"4025"},"geometry":{"type":"Polygon","coordinates":[[[102.66629605100007,15.989404585000045],[102.61984970400005,16.01913696400004],[102.60310649100006,16.00966893700007],[102.60204062700006,16.003105086000062],[102.63104860600004,15.955448661000048],[102.66147023300005,15.971259017000023],[102.66629605100007,15.989404585000045]]]}},{"type":"Feature","properties":{"code":"400401","name":"หนองเรือ","parentCode":"4004"},"geometry":{"type":"Polygon","coordinates":[[[102.48976455300004,16.537567721000073],[102.42207949200008,16.520713604000036],[102.41912971400006,16.488754404000076],[102.41895887500004,16.48109856700006],[102.51494998900006,16.472582234000072],[102.50663960700007,16.48441548900007],[102.49077286000005,16.53704225100006],[102.48976455300004,16.537567721000073]]]}},{"type":"Feature","properties":{"code":"402404","name":"หนองแซง","parentCode":"4024"},"geometry":{"type":"Polygon","coordinates":[[[102.84556647000005,16.189357724000047],[102.84447405900005,16.208176429000048],[102.75636453600004,16.164325189000067],[102.75075627700005,16.14534820700004],[102.79516340700008,16.151763682000023],[102.84385778600006,16.150881351000066],[102.84556647000005,16.189357724000047]]]}},{"type":"Feature","properties":{"code":"400511","name":"หนองเสาเล้า","parentCode":"4005"},"geometry":{"type":"Polygon","coordinates":[[[102.30079950600003,16.56733209400005],[102.27830364600004,16.615432724000073],[102.26542897500008,16.611221580000063],[102.24202610200007,16.529293563000067],[102.25215595600008,16.52824405100006],[102.28950227500007,16.51788607900005],[102.30079950600003,16.56733209400005]]]}},{"type":"Feature","properties":{"code":"401501","name":"หนองสองห้อง","parentCode":"4015"},"geometry":{"type":"Polygon","coordinates":[[[102.80329060900004,15.751770530000044],[102.75481029800005,15.75339871400007],[102.75479000800004,15.741656780000028],[102.74995630700005,15.730110056000058],[102.74777428700008,15.670026922000034],[102.77136536100005,15.654030187000046],[102.80219426000008,15.721588527000051],[102.81120488000005,15.736003027000038],[102.80329060900004,15.751770530000044]]]}},{"type":"Feature","properties":{"code":"400116","name":"หนองตูม","parentCode":"4001"},"geometry":{"type":"Polygon","coordinates":[[[102.90418794200008,16.54546509900007],[102.90505767300004,16.52979134700007],[102.91231776800004,16.50136612500006],[102.96550085800004,16.509382953000056],[102.95982129500004,16.53242632900003],[102.90418794200008,16.54546509900007]]]}},{"type":"Feature","properties":{"code":"400304","name":"หนองแวง","parentCode":"4003"},"geometry":{"type":"Polygon","coordinates":[[[102.69390310100005,16.344301200000075],[102.68999167600003,16.32879654000004],[102.69110103600008,16.29820970800006],[102.77219232700008,16.298451111000077],[102.77569739500007,16.292470828000035],[102.77982393500008,16.326639487000023],[102.73141562300003,16.335650933000068],[102.69390310100005,16.344301200000075]]]}},{"type":"Feature","properties":{"code":"401209","name":"หนองแวงนางเบ้า","parentCode":"4012"},"geometry":{"type":"Polygon","coordinates":[[[102.65310404300004,15.907967756000062],[102.57144427300005,15.932870706000074],[102.56707250200009,15.905457887000068],[102.56253199100007,15.89595558600007],[102.59242289500008,15.876474925000025],[102.63187288200004,15.862357028000076],[102.66151399100005,15.902630834000036],[102.65310404300004,15.907967756000062]]]}},{"type":"Feature","properties":{"code":"401206","name":"หนองแวงโสกพระ","parentCode":"4012"},"geometry":{"type":"Polygon","coordinates":[[[102.67463940200008,15.75572223200004],[102.63190051300006,15.779895468000063],[102.54611856600008,15.71605788000005],[102.53068878000005,15.71138309500003],[102.55541717700004,15.70435370000007],[102.59780691900005,15.712458140000024],[102.66662522000007,15.715343160000032],[102.67905688600007,15.727672864000056],[102.67463940200008,15.75572223200004]]]}},{"type":"Feature","properties":{"code":"400205","name":"ป่ามะนาว","parentCode":"4002"},"geometry":{"type":"Polygon","coordinates":[[[102.62155543200004,16.381556510000053],[102.55082852500004,16.401644919000034],[102.52232298500007,16.35504543600007],[102.52691222200008,16.342969821000054],[102.60560546100004,16.349197211000046],[102.65205355000006,16.373816068000053],[102.62155543200004,16.381556510000053]]]}},{"type":"Feature","properties":{"code":"401013","name":"ป่าปอ","parentCode":"4010"},"geometry":{"type":"Polygon","coordinates":[[[102.82021865100006,15.961804219000044],[102.76655094000006,15.956367556000032],[102.75694880700007,15.895361820000062],[102.78112431500006,15.87700697400004],[102.83491951800005,15.928391431000023],[102.84642536700005,15.94787890300006],[102.82021865100006,15.961804219000044]]]}},{"type":"Feature","properties":{"code":"400202","name":"ป่าหวายนั่ง","parentCode":"4002"},"geometry":{"type":"Polygon","coordinates":[[[102.65119689600004,16.659064829000044],[102.59153788800006,16.64916276100007],[102.63077946800007,16.53494954300004],[102.67861134900005,16.598599467000042],[102.69702715100004,16.633401453000033],[102.65119689600004,16.659064829000044]]]}},{"type":"Feature","properties":{"code":"400711","name":"พังทุย","parentCode":"4007"},"geometry":{"type":"Polygon","coordinates":[[[102.95614345600006,16.671089210000048],[102.94046012800004,16.714102629000024],[102.96064839700006,16.760534791000055],[102.95014074800008,16.80463119600006],[102.90898566000004,16.791735119000066],[102.91776081500007,16.707749557000056],[102.93049530900004,16.67176058700005],[102.95614345600006,16.671089210000048]]]}},{"type":"Feature","properties":{"code":"401207","name":"เพ็กใหญ่","parentCode":"4012"},"geometry":{"type":"Polygon","coordinates":[[[102.53553250600004,15.88471905800003],[102.51645089400006,15.881118315000037],[102.50887663700007,15.821362410000063],[102.59337509000005,15.808487971000034],[102.59782386800003,15.816070423000042],[102.56711104400006,15.849011850000068],[102.53553250600004,15.88471905800003]]]}},{"type":"Feature","properties":{"code":"402202","name":"โพธิ์ไชย","parentCode":"4022"},"geometry":{"type":"Polygon","coordinates":[[[102.44587909600006,16.053830584000025],[102.39269868200006,16.071447024000065],[102.34394497400007,16.035500504000026],[102.38520413200007,15.985892602000035],[102.42689817700006,15.994839976000037],[102.44587909600006,16.053830584000025]]]}},{"type":"Feature","properties":{"code":"401704","name":"โพนเพ็ก","parentCode":"4017"},"geometry":{"type":"Polygon","coordinates":[[[102.63618853600008,16.23582471700007],[102.52454133900005,16.296064470000033],[102.50395651700006,16.24023948000007],[102.52426495900005,16.18092705400005],[102.55456932300007,16.22969239100007],[102.59522614300005,16.18275237100005],[102.63618853600008,16.23582471700007]]]}},{"type":"Feature","properties":{"code":"400302","name":"พระบุ","parentCode":"4003"},"geometry":{"type":"Polygon","coordinates":[[[102.69110558000006,16.28908986500005],[102.66365578200003,16.267988466000077],[102.68679797200008,16.244247190000067],[102.72936066800008,16.243669271000044],[102.72999736700007,16.24817900100004],[102.69110558000006,16.28908986500005]]]}},{"type":"Feature","properties":{"code":"400107","name":"พระลับ","parentCode":"4001"},"geometry":{"type":"Polygon","coordinates":[[[102.87532853200008,16.453055577000043],[102.85824872100005,16.461372355000037],[102.85127335600004,16.407455992000052],[102.85970404200003,16.377858123000067],[102.91919856000004,16.373384394000027],[102.93785882300006,16.377014487000054],[102.93410753700005,16.383567414000026],[102.92241259700006,16.419475292000072],[102.87532853200008,16.453055577000043]]]}},{"type":"Feature","properties":{"code":"400301","name":"พระยืน","parentCode":"4003"},"geometry":{"type":"Polygon","coordinates":[[[102.69390310100005,16.344301200000075],[102.67434324700008,16.380640930000027],[102.65205355000006,16.373816068000053],[102.60560546100004,16.349197211000046],[102.52691222200008,16.342969821000054],[102.52647731300004,16.31212835100007],[102.56904613000006,16.316402417000063],[102.60470720700005,16.285844062000024],[102.65643612400004,16.33254566100004],[102.68999167600003,16.32879654000004],[102.69390310100005,16.344301200000075]]]}},{"type":"Feature","properties":{"code":"400610","name":"ภูห่าน","parentCode":"4006"},"geometry":{"type":"Polygon","coordinates":[[[102.08526497900004,16.715246871000033],[102.01866984000009,16.754106526000044],[102.01277592000008,16.704319096000063],[102.04364306000008,16.69675816700004],[102.08526497900004,16.715246871000033]]]}},{"type":"Feature","properties":{"code":"401011","name":"ภูเหล็ก","parentCode":"4010"},"geometry":{"type":"Polygon","coordinates":[[[102.84385778600006,16.150881351000066],[102.79516340700008,16.151763682000023],[102.79740080400006,16.066829875000053],[102.84807491200007,16.072323135000033],[102.86763321300003,16.125375844000075],[102.84385778600006,16.150881351000066]]]}},{"type":"Feature","properties":{"code":"402003","name":"ภูผาม่าน","parentCode":"4020"},"geometry":{"type":"Polygon","coordinates":[[[101.95291329000008,16.68781875700006],[101.86733395800007,16.72685438700006],[101.87216011000004,16.714781858000038],[101.88408175300003,16.644981608000023],[101.91066606200008,16.629504780000048],[101.91391280800008,16.633897064000053],[101.95352113100006,16.674764468000035],[101.95291329000008,16.68781875700006]]]}},{"type":"Feature","properties":{"code":"401617","name":"ภูเวียง","parentCode":"4016"},"geometry":{"type":"Polygon","coordinates":[[[102.38963951800008,16.654477245000066],[102.36132114800006,16.700230614000077],[102.35165040400005,16.681240854000066],[102.38260133600005,16.64662793100007],[102.38963951800008,16.654477245000066]]]}},{"type":"Feature","properties":{"code":"401808","name":"ปอแดง","parentCode":"4018"},"geometry":{"type":"Polygon","coordinates":[[[102.63770911100005,15.93749346800007],[102.56652453400005,15.976091801000052],[102.56099066100006,15.962687628000026],[102.57144427300005,15.932870706000074],[102.65310404300004,15.907967756000062],[102.63770911100005,15.93749346800007]]]}},{"type":"Feature","properties":{"code":"401101","name":"เปือยน้อย","parentCode":"4011"},"geometry":{"type":"Polygon","coordinates":[[[102.90291465600006,15.902893561000042],[102.86547598000004,15.900744273000043],[102.87606208100004,15.886823450000065],[102.91992216900007,15.843263034000074],[102.92321065500005,15.851085848000025],[102.90291465600006,15.902893561000042]]]}},{"type":"Feature","properties":{"code":"402504","name":"เปือยใหญ่","parentCode":"4025"},"geometry":{"type":"Polygon","coordinates":[[[102.67592597300006,16.039993621000065],[102.64504269500009,16.061332529000026],[102.63395293400004,16.03670145700005],[102.61984970400005,16.01913696400004],[102.66629605100007,15.989404585000045],[102.67592597300006,16.039993621000065]]]}},{"type":"Feature","properties":{"code":"400705","name":"สะอาด","parentCode":"4007"},"geometry":{"type":"Polygon","coordinates":[[[102.81841131600004,16.815600507000056],[102.73243443400008,16.818465639000067],[102.73575447400003,16.736119521000035],[102.74155515600006,16.735316454000042],[102.77720898900009,16.781002238000042],[102.83297545900007,16.781854139000075],[102.83278060400005,16.80563042500006],[102.81841131600004,16.815600507000056]]]}},{"type":"Feature","properties":{"code":"401104","name":"สระแก้ว","parentCode":"4011"},"geometry":{"type":"Polygon","coordinates":[[[102.91992216900007,15.843263034000074],[102.87606208100004,15.886823450000065],[102.86032522800008,15.859028218000049],[102.92688094800008,15.816932889000043],[102.91992216900007,15.843263034000074]]]}},{"type":"Feature","properties":{"code":"400709","name":"ทรายมูล","parentCode":"4007"},"geometry":{"type":"Polygon","coordinates":[[[102.93049530900004,16.67176058700005],[102.91776081500007,16.707749557000056],[102.88489732700003,16.708129659000065],[102.87815840600007,16.668335666000075],[102.89876292600007,16.608477889000028],[102.93446304900004,16.623409190000075],[102.93049530900004,16.67176058700005]]]}},{"type":"Feature","properties":{"code":"400605","name":"ซำยาง","parentCode":"4006"},"geometry":{"type":"Polygon","coordinates":[[[102.13774258900008,16.68636268100005],[102.08967217400004,16.715782787000023],[102.08526497900004,16.715246871000033],[102.04364306000008,16.69675816700004],[102.06873431000008,16.66049019600007],[102.08046283800007,16.657079973000066],[102.13774258900008,16.68636268100005]]]}},{"type":"Feature","properties":{"code":"400102","name":"สำราญ","parentCode":"4001"},"geometry":{"type":"Polygon","coordinates":[[[102.88016054100007,16.54850348900004],[102.79572365700005,16.586855252000078],[102.80380873800004,16.498912262000033],[102.80931344800007,16.51442339400006],[102.90505767300004,16.52979134700007],[102.88016054100007,16.54850348900004]]]}},{"type":"Feature","properties":{"code":"401505","name":"สำโรง","parentCode":"4015"},"geometry":{"type":"Polygon","coordinates":[[[102.75105316800006,15.803877373000034],[102.79277439600008,15.859650397000053],[102.78943857600007,15.862035613000046],[102.71718617600004,15.833798147000039],[102.69934753700005,15.849158338000052],[102.69461877500004,15.843418621000069],[102.75105316800006,15.803877373000034]]]}},{"type":"Feature","properties":{"code":"402203","name":"ซับสมบูรณ์","parentCode":"4022"},"geometry":{"type":"Polygon","coordinates":[[[102.34394497400007,16.035500504000026],[102.39269868200006,16.071447024000065],[102.31869595700005,16.12054663300006],[102.27991297900007,16.072024037000062],[102.32616990000008,16.030480913000076],[102.34394497400007,16.035500504000026]]]}},{"type":"Feature","properties":{"code":"400108","name":"สาวะถี","parentCode":"4001"},"geometry":{"type":"Polygon","coordinates":[[[102.67861134900005,16.598599467000042],[102.63077946800007,16.53494954300004],[102.63838336000003,16.525407769000026],[102.64405372900006,16.477995125000064],[102.71054861900006,16.495190171000047],[102.72190216000007,16.478404803000046],[102.74176124100006,16.530110741000044],[102.67861134900005,16.598599467000042]]]}},{"type":"Feature","properties":{"code":"401806","name":"ศรีบุญเรือง","parentCode":"4018"},"geometry":{"type":"Polygon","coordinates":[[[102.63881269400008,16.136656385000038],[102.58669670500007,16.129920730000038],[102.58015917100005,16.12130942500005],[102.65540710200008,16.088643739000076],[102.63881269400008,16.136656385000038]]]}},{"type":"Feature","properties":{"code":"400601","name":"สีชมพู","parentCode":"4006"},"geometry":{"type":"Polygon","coordinates":[[[102.21309201200006,16.86038270100005],[102.13752932100005,16.87884927600004],[102.10997098700005,16.811830420000035],[102.13081084100008,16.809383515000036],[102.18625043200007,16.82205005700007],[102.21534389100003,16.858550279000042],[102.21309201200006,16.86038270100005]]]}},{"type":"Feature","properties":{"code":"400602","name":"ศรีสุข","parentCode":"4006"},"geometry":{"type":"Polygon","coordinates":[[[102.21413894700004,16.710143549000065],[102.22940628700007,16.790624597000033],[102.12139058400004,16.759504588000027],[102.11796596600004,16.733911866000028],[102.18205908700008,16.714580667000064],[102.21413894700004,16.710143549000065]]]}},{"type":"Feature","properties":{"code":"400805","name":"ศรีสุขสำราญ","parentCode":"4008"},"geometry":{"type":"Polygon","coordinates":[[[102.73433818600006,16.92699254200005],[102.67899023600006,16.966093427000033],[102.67235488000006,16.94482697600006],[102.65299412300004,16.90456862800005],[102.68499482000004,16.875417181000046],[102.73051108200008,16.879902092000066],[102.73433818600006,16.92699254200005]]]}},{"type":"Feature","properties":{"code":"400114","name":"ศิลา","parentCode":"4001"},"geometry":{"type":"Polygon","coordinates":[[[102.91231776800004,16.50136612500006],[102.90505767300004,16.52979134700007],[102.80931344800007,16.51442339400006],[102.80380873800004,16.498912262000033],[102.79467800500004,16.483622641000068],[102.79644638100007,16.473443744000065],[102.80435586300007,16.471731736000038],[102.85824872100005,16.461372355000037],[102.87532853200008,16.453055577000043],[102.90324612300009,16.46842699000007],[102.91231776800004,16.50136612500006]]]}},{"type":"Feature","properties":{"code":"401212","name":"โสกนกเต็น","parentCode":"4012"},"geometry":{"type":"Polygon","coordinates":[[[102.69934753700005,15.849158338000052],[102.69628211400004,15.903545832000077],[102.69524041400007,15.90234323900006],[102.65433015200006,15.820460948000061],[102.61094133400007,15.814613766000036],[102.68695613300008,15.791405195000038],[102.69461877500004,15.843418621000069],[102.69934753700005,15.849158338000052]]]}},{"type":"Feature","properties":{"code":"401613","name":"สงเปือย","parentCode":"4016"},"geometry":{"type":"Polygon","coordinates":[[[102.38260133600005,16.64662793100007],[102.35165040400005,16.681240854000066],[102.32649628300004,16.645034802000055],[102.39014731400005,16.58212468200003],[102.41649714300007,16.593525743000043],[102.38260133600005,16.64662793100007]]]}},{"type":"Feature","properties":{"code":"401702","name":"สวนหม่อน","parentCode":"4017"},"geometry":{"type":"Polygon","coordinates":[[[102.59522614300005,16.18275237100005],[102.55456932300007,16.22969239100007],[102.52426495900005,16.18092705400005],[102.51919692400008,16.147490823000055],[102.57200021200003,16.107073470000046],[102.58015917100005,16.12130942500005],[102.58669670500007,16.129920730000038],[102.59522614300005,16.18275237100005]]]}},{"type":"Feature","properties":{"code":"401504","name":"ตะกั่วป่า","parentCode":"4015"},"geometry":{"type":"Polygon","coordinates":[[[102.87467375800009,15.734924200000023],[102.81120488000005,15.736003027000038],[102.80219426000008,15.721588527000051],[102.84873502600004,15.636744063000037],[102.88297611300004,15.666777495000076],[102.87339499700005,15.681287852000025],[102.87467375800009,15.734924200000023]]]}},{"type":"Feature","properties":{"code":"400710","name":"ท่ากระเสริม","parentCode":"4007"},"geometry":{"type":"Polygon","coordinates":[[[102.87815840600007,16.668335666000075],[102.84399327800008,16.634386607000067],[102.88016054100007,16.54850348900004],[102.90505767300004,16.52979134700007],[102.90418794200008,16.54546509900007],[102.90201396900005,16.586502024000026],[102.89876292600007,16.608477889000028],[102.87815840600007,16.668335666000075]]]}},{"type":"Feature","properties":{"code":"401403","name":"ท่านางแนว","parentCode":"4014"},"geometry":{"type":"Polygon","coordinates":[[[102.44022747100007,15.877426817000071],[102.35336161300006,15.90084683200007],[102.34138254700008,15.887751356000024],[102.32568555600005,15.867820169000026],[102.31696571700007,15.845425473000034],[102.39877832200006,15.84663665200003],[102.42249521000008,15.844566172000043],[102.44022747100007,15.877426817000071]]]}},{"type":"Feature","properties":{"code":"400104","name":"ท่าพระ","parentCode":"4001"},"geometry":{"type":"Polygon","coordinates":[[[102.84731895500005,16.37381498900004],[102.79084623100005,16.358042644000022],[102.77982393500008,16.326639487000023],[102.77569739500007,16.292470828000035],[102.82311852100008,16.26537878700003],[102.83407202300003,16.232695359000047],[102.84615162200004,16.21793694300004],[102.84748472200005,16.273924779000026],[102.82482207200007,16.30095321400006],[102.84731895500005,16.37381498900004]]]}},{"type":"Feature","properties":{"code":"401710","name":"ท่าศาลา","parentCode":"4017"},"geometry":{"type":"Polygon","coordinates":[[[102.60470720700005,16.285844062000024],[102.56904613000006,16.316402417000063],[102.52647731300004,16.31212835100007],[102.52454133900005,16.296064470000033],[102.63618853600008,16.23582471700007],[102.66762020000004,16.21788892400002],[102.68679797200008,16.244247190000067],[102.66365578200003,16.267988466000077],[102.60470720700005,16.285844062000024]]]}},{"type":"Feature","properties":{"code":"401405","name":"ท่าวัด","parentCode":"4014"},"geometry":{"type":"Polygon","coordinates":[[[102.39333142900006,15.771644258000038],[102.36404882600004,15.763960585000063],[102.36278951800006,15.729769327000042],[102.42069466900006,15.69505154500007],[102.42940066400007,15.70244069100005],[102.39720493700008,15.76989614100006],[102.39333142900006,15.771644258000038]]]}},{"type":"Feature","properties":{"code":"401406","name":"ทางขวาง","parentCode":"4014"},"geometry":{"type":"Polygon","coordinates":[[[102.46135848600005,15.781906633000062],[102.39720493700008,15.76989614100006],[102.42940066400007,15.70244069100005],[102.45325139100004,15.716650874000038],[102.46135848600005,15.781906633000062]]]}},{"type":"Feature","properties":{"code":"401614","name":"ทุ่งชมพู","parentCode":"4016"},"geometry":{"type":"Polygon","coordinates":[[[102.45432240300005,16.686801573000025],[102.53924230400008,16.74292428600006],[102.55027577400006,16.781193177000034],[102.53810724600004,16.78454464400005],[102.51417620000007,16.795357786000068],[102.44389520300007,16.692731070000036],[102.45432240300005,16.686801573000025]]]}},{"type":"Feature","properties":{"code":"400806","name":"ทุ่งโป่ง","parentCode":"4008"},"geometry":{"type":"Polygon","coordinates":[[[102.71119285600008,16.73690785100007],[102.65401118200003,16.76471538100003],[102.65171257000009,16.695064713000022],[102.71119285600008,16.73690785100007]]]}},{"type":"Feature","properties":{"code":"401604","name":"หว้าทอง","parentCode":"4016"},"geometry":{"type":"Polygon","coordinates":[[[102.51417620000007,16.795357786000068],[102.45508690100007,16.806862500000022],[102.45327970400007,16.795265865000033],[102.43186483600005,16.71044722000005],[102.42914094300005,16.70379041900003],[102.44389520300007,16.692731070000036],[102.51417620000007,16.795357786000068]]]}},{"type":"Feature","properties":{"code":"401401","name":"แวงน้อย","parentCode":"4014"},"geometry":{"type":"Polygon","coordinates":[[[102.42249521000008,15.844566172000043],[102.39877832200006,15.84663665200003],[102.39333142900006,15.771644258000038],[102.39720493700008,15.76989614100006],[102.46135848600005,15.781906633000062],[102.50647448300003,15.786546740000063],[102.50561094500006,15.810264520000032],[102.44660850700006,15.816551201000038],[102.42249521000008,15.844566172000043]]]}},{"type":"Feature","properties":{"code":"401304","name":"แวงใหญ่","parentCode":"4013"},"geometry":{"type":"Polygon","coordinates":[[[102.56099066100006,15.962687628000026],[102.49733925800007,15.977350080000065],[102.48746170500004,15.967466057000024],[102.56707250200009,15.905457887000068],[102.57144427300005,15.932870706000074],[102.56099066100006,15.962687628000026]]]}},{"type":"Feature","properties":{"code":"400702","name":"วังชัย","parentCode":"4007"},"geometry":{"type":"Polygon","coordinates":[[[102.87323498100005,16.751231311000026],[102.83668418100007,16.711619882000036],[102.82160817100004,16.678454308000028],[102.82364749000004,16.653043816000036],[102.87323498100005,16.751231311000026]]]}},{"type":"Feature","properties":{"code":"401511","name":"วังหิน","parentCode":"4015"},"geometry":{"type":"Polygon","coordinates":[[[102.75694880700007,15.895361820000062],[102.69628211400004,15.903545832000077],[102.69934753700005,15.849158338000052],[102.71718617600004,15.833798147000039],[102.78943857600007,15.862035613000046],[102.78112431500006,15.87700697400004],[102.75694880700007,15.895361820000062]]]}},{"type":"Feature","properties":{"code":"400508","name":"วังหินลาด","parentCode":"4005"},"geometry":{"type":"Polygon","coordinates":[[[102.08046283800007,16.657079973000066],[102.06873431000008,16.66049019600007],[102.04759486300009,16.617483702000072],[102.06269369500006,16.605367545000036],[102.15772198400003,16.60555606300005],[102.15746504400005,16.61816092500004],[102.08046283800007,16.657079973000066]]]}},{"type":"Feature","properties":{"code":"401102","name":"วังม่วง","parentCode":"4011"},"geometry":{"type":"Polygon","coordinates":[[[102.86547598000004,15.900744273000043],[102.83491951800005,15.928391431000023],[102.78112431500006,15.87700697400004],[102.78943857600007,15.862035613000046],[102.79277439600008,15.859650397000053],[102.85117119400007,15.85155549600006],[102.86032522800008,15.859028218000049],[102.87606208100004,15.886823450000065],[102.86547598000004,15.900744273000043]]]}},{"type":"Feature","properties":{"code":"400604","name":"วังเพิ่ม","parentCode":"4006"},"geometry":{"type":"Polygon","coordinates":[[[102.21534389100003,16.858550279000042],[102.18625043200007,16.82205005700007],[102.13081084100008,16.809383515000036],[102.12221107500005,16.771309418000044],[102.12139058400004,16.759504588000027],[102.22940628700007,16.790624597000033],[102.23086000500007,16.853389641000035],[102.21534389100003,16.858550279000042]]]}},{"type":"Feature","properties":{"code":"401803","name":"วังแสง","parentCode":"4018"},"geometry":{"type":"Polygon","coordinates":[[[102.55512426200005,16.028395688000046],[102.48968390200008,16.065654340000037],[102.44587909600006,16.053830584000025],[102.42689817700006,15.994839976000037],[102.47465956600007,15.96238564600003],[102.48746170500004,15.967466057000024],[102.49733925800007,15.977350080000065],[102.55541554900009,16.02814350600005],[102.55512426200005,16.028395688000046]]]}},{"type":"Feature","properties":{"code":"402004","name":"วังสวาบ","parentCode":"4020"},"geometry":{"type":"Polygon","coordinates":[[[101.86733395800007,16.72685438700006],[101.86474206400004,16.79320213400007],[101.79724812800004,16.76901172500004],[101.77196985600006,16.685968055000046],[101.75081656800006,16.667821305000075],[101.77365306200005,16.631554127000072],[101.82628692800006,16.65767222900007],[101.87216011000004,16.714781858000038],[101.86733395800007,16.72685438700006]]]}},{"type":"Feature","properties":{"code":"400404","name":"ยางคำ","parentCode":"4004"},"geometry":{"type":"Polygon","coordinates":[[[102.50538469500003,16.438426855000046],[102.47789796100005,16.38797090500003],[102.52232298500007,16.35504543600007],[102.55082852500004,16.401644919000034],[102.55190531900007,16.427562457000022],[102.50538469500003,16.438426855000046]]]}}]}