{"type":"FeatureCollection","features":[{"type":"Feature","properties":{"code":"411107","name":"บ้านชัย","parentCode":"4111"},"geometry":{"type":"Polygon","coordinates":[[[103.19080476300007,17.66580926100005],[103.16458779600003,17.667790101000037],[103.14151642000007,17.619367792000048],[103.15590714600006,17.591651655000078],[103.22704422100009,17.581847096000047],[103.23490686100007,17.62465021500003],[103.21865312500006,17.655052674000046],[103.19080476300007,17.66580926100005]]]}},{"type":"Feature","properties":{"code":"410117","name":"บ้านจั่น","parentCode":"4101"},"geometry":{"type":"Polygon","coordinates":[[[102.79296514900005,17.39449085900003],[102.78197185700009,17.397048032000043],[102.75913165800006,17.33747200700003],[102.80996312400003,17.298839343000054],[102.84918595500005,17.32739576700004],[102.79296514900005,17.39449085900003]]]}},{"type":"Feature","properties":{"code":"411106","name":"บ้านจันทน์","parentCode":"4111"},"geometry":{"type":"Polygon","coordinates":[[[103.39971421400008,17.904579917000035],[103.35890542900006,17.856837622000057],[103.32983676200007,17.824585368000044],[103.27562276500004,17.844632554000043],[103.25977449800007,17.78905720000006],[103.28178130600008,17.753178777000073],[103.31514675700004,17.790598700000032],[103.36505108800009,17.778663866000045],[103.36842442600005,17.77917672700005],[103.41454208900007,17.842592379000052],[103.41100251600005,17.89304110000006],[103.39971421400008,17.904579917000035]]]}},{"type":"Feature","properties":{"code":"410609","name":"บ้านเชียง","parentCode":"4106"},"geometry":{"type":"Polygon","coordinates":[[[103.26951483000005,17.430277770000032],[103.20789936500006,17.438556019000032],[103.18420221000008,17.41700485800004],[103.20269957100004,17.41433509600006],[103.20672029100007,17.343833782000047],[103.21939366400005,17.339657097000043],[103.24264171300007,17.364701997000054],[103.26951483000005,17.430277770000032]]]}},{"type":"Feature","properties":{"code":"412401","name":"บ้านจีต","parentCode":"4124"},"geometry":{"type":"Polygon","coordinates":[[[103.20301078000006,17.114169993000075],[103.20818906000005,17.14438771700003],[103.15737228700004,17.202169507000065],[103.14579188700009,17.202353389000052],[103.14593943400007,17.128651572000024],[103.16792437400005,17.102880949000053],[103.17346815700006,17.104495564000047],[103.20301078000006,17.114169993000075]]]}},{"type":"Feature","properties":{"code":"412301","name":"บ้านแดง","parentCode":"4123"},"geometry":{"type":"Polygon","coordinates":[[[103.09325809100005,17.582592161000036],[103.02800236500008,17.556515166000054],[103.00485257800005,17.51916069600003],[103.08299013100009,17.487770472000022],[103.09522712600005,17.50631037900007],[103.09325809100005,17.582592161000036]]]}},{"type":"Feature","properties":{"code":"411102","name":"บ้านดุง","parentCode":"4111"},"geometry":{"type":"Polygon","coordinates":[[[103.25977449800007,17.78905720000006],[103.22517771900004,17.795374219000053],[103.21365859000008,17.723299633000067],[103.15758310600006,17.729934440000022],[103.15865099100006,17.706080215000043],[103.19080476300007,17.66580926100005],[103.21865312500006,17.655052674000046],[103.23020065000009,17.662702085000035],[103.27158907900008,17.728399528000068],[103.28178130600008,17.753178777000073],[103.25977449800007,17.78905720000006]]]}},{"type":"Feature","properties":{"code":"412006","name":"บ้านหินโงม","parentCode":"4120"},"geometry":{"type":"Polygon","coordinates":[[[103.11664862000003,17.70894794000003],[103.10783704700003,17.774497260000032],[103.07939774800008,17.760447240000076],[103.08182370700007,17.70672250800004],[103.11675591000005,17.695988294000074],[103.11664862000003,17.70894794000003]]]}},{"type":"Feature","properties":{"code":"410103","name":"บ้านขาว","parentCode":"4101"},"geometry":{"type":"Polygon","coordinates":[[[102.80273239100006,17.57764271900004],[102.72924556600009,17.556483842000034],[102.69326517500008,17.57184200000006],[102.67718845800005,17.537780546000022],[102.78161051200004,17.525984393000044],[102.79232454000004,17.522664130000067],[102.80286174300005,17.577626166000073],[102.80273239100006,17.57764271900004]]]}},{"type":"Feature","properties":{"code":"411712","name":"บ้านค้อ","parentCode":"4117"},"geometry":{"type":"Polygon","coordinates":[[[102.47671052300007,17.757187096000052],[102.43440151400006,17.78757965500006],[102.41499189300004,17.737636004000024],[102.41066420100009,17.71512751700004],[102.48317274000004,17.730746201000045],[102.49093442500003,17.755908343000044],[102.47671052300007,17.757187096000052]]]}},{"type":"Feature","properties":{"code":"412004","name":"บ้านโคก","parentCode":"4120"},"geometry":{"type":"Polygon","coordinates":[[[103.00431032600005,17.842445265000038],[102.96928710800006,17.823692950000066],[102.97007153400006,17.802517919000024],[102.95066124600004,17.770072998000046],[102.98075109800004,17.74833608600005],[103.07939774800008,17.760447240000076],[103.04215229600004,17.816269952000027],[103.00431032600005,17.842445265000038]]]}},{"type":"Feature","properties":{"code":"412202","name":"บ้านก้อง","parentCode":"4122"},"geometry":{"type":"Polygon","coordinates":[[[102.12514904000005,17.967363136000074],[102.09206430200004,17.911874699000066],[102.09959488800007,17.850858753000068],[102.05165065900007,17.84871991800003],[102.03921710900005,17.80122395500007],[102.09115363700005,17.790847451000047],[102.14746050200006,17.819216761000064],[102.20426718800007,17.85875846500005],[102.15270233400008,17.921970174000023],[102.12514904000005,17.967363136000074]]]}},{"type":"Feature","properties":{"code":"411907","name":"บ้านเหล่า","parentCode":"4119"},"geometry":{"type":"Polygon","coordinates":[[[103.08182370700007,17.70672250800004],[103.00706356400008,17.726126400000055],[102.99116293900005,17.711343898000052],[102.99050378300007,17.674956231000067],[103.02002123000005,17.645284170000025],[103.10037221400006,17.671792975000074],[103.11675591000005,17.695988294000074],[103.08182370700007,17.70672250800004]]]}},{"type":"Feature","properties":{"code":"410112","name":"บ้านเลื่อม","parentCode":"4101"},"geometry":{"type":"Polygon","coordinates":[[[102.78274671100007,17.436427398000035],[102.74998293500005,17.46127677900006],[102.74371800800009,17.436318339000024],[102.75383674100004,17.392941626000038],[102.78197185700009,17.397048032000043],[102.78438652900007,17.430404574000022],[102.78274671100007,17.436427398000035]]]}},{"type":"Feature","properties":{"code":"411111","name":"บ้านม่วง","parentCode":"4111"},"geometry":{"type":"Polygon","coordinates":[[[103.40314380800004,17.751599890000023],[103.36842442600005,17.77917672700005],[103.36505108800009,17.778663866000045],[103.32606623000004,17.735280413000055],[103.30620734900003,17.674650978000045],[103.35755976200005,17.650501607000024],[103.40145125200007,17.69024040900007],[103.40314380800004,17.751599890000023]]]}},{"type":"Feature","properties":{"code":"411701","name":"บ้านผือ","parentCode":"4117"},"geometry":{"type":"Polygon","coordinates":[[[102.48979429800005,17.663847383000075],[102.48317274000004,17.730746201000045],[102.41066420100009,17.71512751700004],[102.40708085500006,17.67770465800004],[102.43414240100009,17.653151722000075],[102.44808855500008,17.649426954000035],[102.48979429800005,17.663847383000075]]]}},{"type":"Feature","properties":{"code":"410903","name":"บ้านโปร่ง","parentCode":"4109"},"geometry":{"type":"Polygon","coordinates":[[[103.15509686100006,17.03101637700007],[103.06722708100006,17.00184008800005],[103.06917818600004,16.985324250000076],[103.11729689700007,16.961118657000043],[103.12283813500005,16.95940233500005],[103.15509686100006,17.03101637700007]]]}},{"type":"Feature","properties":{"code":"410105","name":"บ้านตาด","parentCode":"4101"},"geometry":{"type":"Polygon","coordinates":[[[102.80996312400003,17.298839343000054],[102.75913165800006,17.33747200700003],[102.72041006900008,17.313762729000075],[102.73882452800007,17.220247974000074],[102.78440581800004,17.21538961500005],[102.79967238600005,17.244512352000072],[102.82491202700004,17.26284878100006],[102.80996312400003,17.298839343000054]]]}},{"type":"Feature","properties":{"code":"411112","name":"บ้านตาด","parentCode":"4111"},"geometry":{"type":"Polygon","coordinates":[[[103.26607123500008,17.619491093000022],[103.23490686100007,17.62465021500003],[103.22704422100009,17.581847096000047],[103.24399121500005,17.519591989000048],[103.26660838400005,17.555412234000073],[103.26607123500008,17.619491093000022]]]}},{"type":"Feature","properties":{"code":"411902","name":"บ้านธาตุ","parentCode":"4119"},"geometry":{"type":"Polygon","coordinates":[[[102.92063875300005,17.790540700000065],[102.85263480800006,17.772292425000046],[102.84546028500006,17.76162686200007],[102.83074508700008,17.69362841800006],[102.79699195100005,17.685889090000046],[102.78342362300003,17.680648767000037],[102.77490160500008,17.651464962000034],[102.78640942800007,17.64774463200007],[102.88669487200008,17.663885567000023],[102.89265484300006,17.709923460000027],[102.92063875300005,17.790540700000065]]]}},{"type":"Feature","properties":{"code":"410610","name":"บ้านยา","parentCode":"4106"},"geometry":{"type":"Polygon","coordinates":[[[103.27616605000009,17.43676797100005],[103.26951483000005,17.430277770000032],[103.24264171300007,17.364701997000054],[103.28814041000004,17.371392615000047],[103.29543837700004,17.385761942000045],[103.27616605000009,17.43676797100005]]]}},{"type":"Feature","properties":{"code":"411806","name":"บ้านหยวก","parentCode":"4118"},"geometry":{"type":"Polygon","coordinates":[[[102.19369969100006,17.72293040900007],[102.14121404500008,17.730922027000076],[102.10578102800008,17.646605135000073],[102.14162927900009,17.65455643400003],[102.24508205200004,17.65067217400002],[102.26940727500005,17.662668223000026],[102.26203678500008,17.682179907000034],[102.25988350100005,17.696691154000064],[102.19369969100006,17.72293040900007]]]}},{"type":"Feature","properties":{"code":"412003","name":"บ้านยวด","parentCode":"4120"},"geometry":{"type":"Polygon","coordinates":[[[103.07939774800008,17.760447240000076],[102.98075109800004,17.74833608600005],[103.00706356400008,17.726126400000055],[103.08182370700007,17.70672250800004],[103.07939774800008,17.760447240000076]]]}},{"type":"Feature","properties":{"code":"411003","name":"บะยาว","parentCode":"4110"},"geometry":{"type":"Polygon","coordinates":[[[103.48890631600005,17.076795255000036],[103.43923695400008,17.180198232000066],[103.41076236300006,17.19085050600006],[103.37281819200007,17.152702015000045],[103.34671872200005,17.04758436000003],[103.34838645200006,17.018380585000045],[103.42310482500005,16.970873108000035],[103.41442832100006,17.015580383000042],[103.43687957400005,17.05098980200006],[103.48890631600005,17.076795255000036]]]}},{"type":"Feature","properties":{"code":"410502","name":"บุ่งแก้ว","parentCode":"4105"},"geometry":{"type":"Polygon","coordinates":[[[103.03388382400004,16.956330867000077],[103.00537911400005,17.011783426000022],[102.92710559900007,17.000121259000025],[102.94108462900004,16.960197564000055],[102.93500873700003,16.93018506800007],[103.02128050700009,16.93053386200006],[103.03388382400004,16.956330867000077]]]}},{"type":"Feature","properties":{"code":"410404","name":"แชแล","parentCode":"4104"},"geometry":{"type":"Polygon","coordinates":[[[103.13252488100005,17.123205676000055],[103.08856333600005,17.203280102000065],[103.04589364600008,17.193397584000024],[103.02934429700008,17.151261023000075],[103.02528301900009,17.121845674000042],[103.13252488100005,17.123205676000055]]]}},{"type":"Feature","properties":{"code":"410801","name":"ไชยวาน","parentCode":"4108"},"geometry":{"type":"Polygon","coordinates":[[[103.21939366400005,17.339657097000043],[103.20672029100007,17.343833782000047],[103.17542684400007,17.298714331000042],[103.24990481000003,17.24026378600007],[103.27509140300003,17.215693960000067],[103.28116911300003,17.266657443000042],[103.25379723900005,17.31794883200007],[103.21939366400005,17.339657097000043]]]}},{"type":"Feature","properties":{"code":"411707","name":"จำปาโมง","parentCode":"4117"},"geometry":{"type":"Polygon","coordinates":[[[102.43414240100009,17.653151722000075],[102.40708085500006,17.67770465800004],[102.37570872700007,17.62603194600007],[102.32395285000007,17.617908466000074],[102.33337143900008,17.57901352700003],[102.33230902000008,17.551708242000075],[102.38498178400005,17.572312775000057],[102.43414240100009,17.653151722000075]]]}},{"type":"Feature","properties":{"code":"410902","name":"จำปี","parentCode":"4109"},"geometry":{"type":"Polygon","coordinates":[[[103.20301078000006,17.114169993000075],[103.17346815700006,17.104495564000047],[103.18450354100008,17.056245868000076],[103.15509686100006,17.03101637700007],[103.12283813500005,16.95940233500005],[103.16779234800003,16.951629109000066],[103.18198273100006,16.95241418300003],[103.18907166600007,17.021725874000026],[103.21228002600009,17.098915030000057],[103.20301078000006,17.114169993000075]]]}},{"type":"Feature","properties":{"code":"412002","name":"เชียงดา","parentCode":"4120"},"geometry":{"type":"Polygon","coordinates":[[[103.07800458400004,17.885741689000042],[103.00442989400005,17.861726219000047],[103.00431032600005,17.842445265000038],[103.07498330000004,17.858479256000066],[103.09580745000005,17.865868283000054],[103.07800458400004,17.885741689000042]]]}},{"type":"Feature","properties":{"code":"410204","name":"เชียงเพ็ง","parentCode":"4102"},"geometry":{"type":"Polygon","coordinates":[[[102.67166988400004,17.531287589000044],[102.60732495900004,17.534033925000074],[102.62145423700008,17.440928188000044],[102.70067851500005,17.468549775000042],[102.69321800800009,17.506326854000065],[102.67166988400004,17.531287589000044]]]}},{"type":"Feature","properties":{"code":"410113","name":"เชียงพิณ","parentCode":"4101"},"geometry":{"type":"Polygon","coordinates":[[[102.74371800800009,17.436318339000024],[102.70416933000007,17.438209390000054],[102.65306866300006,17.405595601000073],[102.61901008100006,17.41783082200004],[102.62018139900005,17.395452872000078],[102.64799759600004,17.390322411000056],[102.69872308300006,17.402676211000028],[102.72938569700005,17.381646318000037],[102.75383674100004,17.392941626000038],[102.74371800800009,17.436318339000024]]]}},{"type":"Feature","properties":{"code":"410406","name":"เชียงแหว","parentCode":"4104"},"geometry":{"type":"Polygon","coordinates":[[[103.04589364600008,17.193397584000024],[103.02082520000005,17.246876349000047],[102.99567794100005,17.200692708000076],[102.96789657800008,17.199482140000043],[102.96922997100006,17.198177178000037],[102.97734973900003,17.16038665800005],[102.99751062900003,17.155545220000022],[103.02934429700008,17.151261023000075],[103.04589364600008,17.193397584000024]]]}},{"type":"Feature","properties":{"code":"411904","name":"เชียงหวาง","parentCode":"4119"},"geometry":{"type":"Polygon","coordinates":[[[102.91228362000004,17.632559161000074],[102.88669487200008,17.663885567000023],[102.78640942800007,17.64774463200007],[102.80273239100006,17.57764271900004],[102.80286174300005,17.577626166000073],[102.89672177600005,17.56418006100006],[102.91228362000004,17.632559161000074]]]}},{"type":"Feature","properties":{"code":"410108","name":"เชียงยืน","parentCode":"4101"},"geometry":{"type":"Polygon","coordinates":[[[102.73696640600008,17.483829847000038],[102.69321800800009,17.506326854000065],[102.70067851500005,17.468549775000042],[102.62145423700008,17.440928188000044],[102.61398822800004,17.436114459000066],[102.61901008100006,17.41783082200004],[102.65306866300006,17.405595601000073],[102.70416933000007,17.438209390000054],[102.74371800800009,17.436318339000024],[102.74998293500005,17.46127677900006],[102.73696640600008,17.483829847000038]]]}},{"type":"Feature","properties":{"code":"411908","name":"จอมศรี","parentCode":"4119"},"geometry":{"type":"Polygon","coordinates":[[[102.95277104600007,17.846773549000034],[102.92744563100007,17.893046680000054],[102.88435982900006,17.898208878000048],[102.86861885000008,17.880792908000046],[102.84217266100006,17.80191665800004],[102.85263480800006,17.772292425000046],[102.92063875300005,17.790540700000065],[102.97007153400006,17.802517919000024],[102.96928710800006,17.823692950000066],[102.95277104600007,17.846773549000034]]]}},{"type":"Feature","properties":{"code":"410617","name":"ดอนหายโศก","parentCode":"4106"},"geometry":{"type":"Polygon","coordinates":[[[103.02616746900009,17.452266739000038],[102.95485179600007,17.45489520600006],[102.95334885100004,17.422603852000066],[102.97520647400006,17.383216426000047],[103.00947894100005,17.405031922000035],[103.03287053500009,17.40412731300006],[103.05167158000006,17.398845278000067],[103.02616746900009,17.452266739000038]]]}},{"type":"Feature","properties":{"code":"412303","name":"ดอนกลอย","parentCode":"4123"},"geometry":{"type":"Polygon","coordinates":[[[103.08299013100009,17.487770472000022],[103.00485257800005,17.51916069600003],[102.99320725700005,17.485738923000042],[102.96221879500007,17.47059822500006],[102.95485179600007,17.45489520600006],[103.02616746900009,17.452266739000038],[103.08391223600006,17.469127687000025],[103.08299013100009,17.487770472000022]]]}},{"type":"Feature","properties":{"code":"411103","name":"ดงเย็น","parentCode":"4111"},"geometry":{"type":"Polygon","coordinates":[[[103.40145125200007,17.69024040900007],[103.35755976200005,17.650501607000024],[103.34610318100005,17.628645620000043],[103.36055641700005,17.591685545000075],[103.37515743200004,17.579319002000034],[103.40774231200004,17.591489152000065],[103.40381173500003,17.68399583000007],[103.40145125200007,17.69024040900007]]]}},{"type":"Feature","properties":{"code":"411702","name":"หายโศก","parentCode":"4117"},"geometry":{"type":"Polygon","coordinates":[[[102.57352996200007,17.716701595000075],[102.50835055400006,17.760156891000065],[102.49093442500003,17.755908343000044],[102.48317274000004,17.730746201000045],[102.48979429800005,17.663847383000075],[102.51576691700006,17.62218418200007],[102.57893413300008,17.653553353000063],[102.59837472900006,17.665211115000034],[102.61187369600003,17.683474919000048],[102.57352996200007,17.716701595000075]]]}},{"type":"Feature","properties":{"code":"410904","name":"หัวนาคำ","parentCode":"4109"},"geometry":{"type":"Polygon","coordinates":[[[103.34217404200007,17.156306087000075],[103.26331553000006,17.15628358200007],[103.28106059600003,17.130790639000054],[103.24462808500004,17.112033014000076],[103.21228002600009,17.098915030000057],[103.18907166600007,17.021725874000026],[103.23450767700007,16.997071059000064],[103.27180410700004,17.01564230100007],[103.29948700600005,17.049997552000036],[103.34671872200005,17.04758436000003],[103.37281819200007,17.152702015000045],[103.34217404200007,17.156306087000075]]]}},{"type":"Feature","properties":{"code":"410407","name":"ห้วยเกิ้ง","parentCode":"4104"},"geometry":{"type":"Polygon","coordinates":[[[102.95789251200006,17.051958308000053],[102.92732607200008,17.071789307000074],[102.92653461300006,17.037204144000043],[102.95789251200006,17.051958308000053]]]}},{"type":"Feature","properties":{"code":"412502","name":"ห้วยสามพาด","parentCode":"4125"},"geometry":{"type":"Polygon","coordinates":[[[102.96789657800008,17.199482140000043],[102.95034990200008,17.277862473000027],[102.91132592300005,17.270529113000066],[102.90055851500006,17.243738509000025],[102.93432483900006,17.20403958600002],[102.96922997100006,17.198177178000037],[102.96789657800008,17.199482140000043]]]}},{"type":"Feature","properties":{"code":"411704","name":"คำบง","parentCode":"4117"},"geometry":{"type":"Polygon","coordinates":[[[102.57893413300008,17.653553353000063],[102.51576691700006,17.62218418200007],[102.47345845800004,17.539498563000052],[102.47423319700005,17.500127814000052],[102.52300866000007,17.524819610000065],[102.56875174200007,17.525312592000034],[102.57307290800009,17.548836945000062],[102.53476854500008,17.594675379000023],[102.58490841300005,17.594284843000025],[102.57893413300008,17.653553353000063]]]}},{"type":"Feature","properties":{"code":"411710","name":"คำด้วง","parentCode":"4117"},"geometry":{"type":"Polygon","coordinates":[[[102.35595659600006,17.922744519000048],[102.27592842700005,17.980617410000036],[102.25921949600007,17.956091323000066],[102.25568599200005,17.88496876800002],[102.28574409800007,17.843695124000078],[102.40591147800006,17.797622856000032],[102.44142441900004,17.819934105000073],[102.40035974400007,17.843474964000052],[102.38979929200008,17.894741554000063],[102.35595659600006,17.922744519000048]]]}},{"type":"Feature","properties":{"code":"411005","name":"คำโคกสูง","parentCode":"4110"},"geometry":{"type":"Polygon","coordinates":[[[103.41151797400005,16.94341492700005],[103.38019802800005,16.906294825000032],[103.40076142800007,16.854806452000048],[103.41366030300009,16.807004590000076],[103.42162529600006,16.803074037000044],[103.46018545500004,16.869955006000055],[103.47004902300006,16.878111699000044],[103.41151797400005,16.94341492700005]]]}},{"type":"Feature","properties":{"code":"410803","name":"คำเลาะ","parentCode":"4108"},"geometry":{"type":"Polygon","coordinates":[[[103.44048773200007,17.213253829000053],[103.29969806800005,17.269534340000064],[103.28116911300003,17.266657443000042],[103.27509140300003,17.215693960000067],[103.34217404200007,17.156306087000075],[103.37281819200007,17.152702015000045],[103.41076236300006,17.19085050600006],[103.44048773200007,17.213253829000053]]]}},{"type":"Feature","properties":{"code":"411706","name":"ข้าวสาร","parentCode":"4117"},"geometry":{"type":"Polygon","coordinates":[[[102.43414240100009,17.653151722000075],[102.38498178400005,17.572312775000057],[102.39570671000007,17.55902324500005],[102.44882484400006,17.62075052000006],[102.44808855500008,17.649426954000035],[102.43414240100009,17.653151722000075]]]}},{"type":"Feature","properties":{"code":"412403","name":"ค้อใหญ่","parentCode":"4124"},"geometry":{"type":"Polygon","coordinates":[[[103.18685792600007,17.222869099000036],[103.17058821300009,17.23623160300002],[103.16157094200008,17.21451352200006],[103.10210441600009,17.212988327000062],[103.14579188700009,17.202353389000052],[103.15737228700004,17.202169507000065],[103.18685792600007,17.222869099000036]]]}},{"type":"Feature","properties":{"code":"410506","name":"โคกกลาง","parentCode":"4105"},"geometry":{"type":"Polygon","coordinates":[[[102.93500873700003,16.93018506800007],[102.94108462900004,16.960197564000055],[102.86094390100004,16.94356044400007],[102.81589711800007,16.925325557000065],[102.81511024800005,16.88420874600007],[102.87512433900008,16.87621481800005],[102.93500873700003,16.93018506800007]]]}},{"type":"Feature","properties":{"code":"411910","name":"โคกกลาง","parentCode":"4119"},"geometry":{"type":"Polygon","coordinates":[[[102.92063875300005,17.790540700000065],[102.89265484300006,17.709923460000027],[102.99116293900005,17.711343898000052],[103.00706356400008,17.726126400000055],[102.98075109800004,17.74833608600005],[102.95066124600004,17.770072998000046],[102.97007153400006,17.802517919000024],[102.92063875300005,17.790540700000065]]]}},{"type":"Feature","properties":{"code":"410119","name":"โคกสะอาด","parentCode":"4101"},"geometry":{"type":"Polygon","coordinates":[[[102.64799759600004,17.390322411000056],[102.62018139900005,17.395452872000078],[102.59859431000007,17.374847343000056],[102.65452320700007,17.305739483000025],[102.68344537200005,17.319314140000074],[102.64799759600004,17.390322411000056]]]}},{"type":"Feature","properties":{"code":"412404","name":"คอนสาย","parentCode":"4124"},"geometry":{"type":"Polygon","coordinates":[[[103.10210441600009,17.212988327000062],[103.08393861900004,17.22088525500004],[103.08856333600005,17.203280102000065],[103.13252488100005,17.123205676000055],[103.15513272200008,17.101446821000025],[103.16792437400005,17.102880949000053],[103.14593943400007,17.128651572000024],[103.14579188700009,17.202353389000052],[103.10210441600009,17.212988327000062]]]}},{"type":"Feature","properties":{"code":"410203","name":"ขอนยูง","parentCode":"4102"},"geometry":{"type":"Polygon","coordinates":[[[102.51591152100008,17.440990691000025],[102.46352553200006,17.45956981300003],[102.45977254600007,17.41352321900007],[102.40595005300008,17.401085786000067],[102.42118316300008,17.375820901000054],[102.43773393600009,17.338332094000066],[102.45212281500005,17.352125030000025],[102.48291701600004,17.36983420200005],[102.51591152100008,17.440990691000025]]]}},{"type":"Feature","properties":{"code":"411703","name":"เขือน้ำ","parentCode":"4117"},"geometry":{"type":"Polygon","coordinates":[[[102.73154950300005,17.603536193000025],[102.69450676800005,17.62102373700003],[102.64665013000007,17.611980764000066],[102.57307290800009,17.548836945000062],[102.56875174200007,17.525312592000034],[102.60732495900004,17.534033925000074],[102.67166988400004,17.531287589000044],[102.67718845800005,17.537780546000022],[102.69326517500008,17.57184200000006],[102.73154950300005,17.603536193000025]]]}},{"type":"Feature","properties":{"code":"411708","name":"กลางใหญ่","parentCode":"4117"},"geometry":{"type":"Polygon","coordinates":[[[102.44142441900004,17.819934105000073],[102.40591147800006,17.797622856000032],[102.28574409800007,17.843695124000078],[102.31788147900005,17.79421201400004],[102.31989228400005,17.76337751500006],[102.41499189300004,17.737636004000024],[102.43440151400006,17.78757965500006],[102.44142441900004,17.819934105000073]]]}},{"type":"Feature","properties":{"code":"410415","name":"กุมภวาปี","parentCode":"4104"},"geometry":{"type":"Polygon","coordinates":[[[103.02934429700008,17.151261023000075],[102.99751062900003,17.155545220000022],[102.98758478000008,17.11896198200003],[102.98448271300003,17.069179828000074],[103.02222661900004,17.070709512000064],[103.02528301900009,17.121845674000042],[103.02934429700008,17.151261023000075]]]}},{"type":"Feature","properties":{"code":"410201","name":"กุดจับ","parentCode":"4102"},"geometry":{"type":"Polygon","coordinates":[[[102.54365442700004,17.361890824000056],[102.55873145800007,17.392529422000052],[102.51591152100008,17.440990691000025],[102.48291701600004,17.36983420200005],[102.45212281500005,17.352125030000025],[102.54365442700004,17.361890824000056]]]}},{"type":"Feature","properties":{"code":"410304","name":"กุดหมากไฟ","parentCode":"4103"},"geometry":{"type":"Polygon","coordinates":[[[102.69437842200006,17.111033821000035],[102.62915559200007,17.115459332000057],[102.58946953500003,17.095490952000034],[102.61954605000005,17.061988092000036],[102.60908404600008,17.027428862000022],[102.64771340100003,17.000521785000046],[102.66933312300006,16.993749911000066],[102.70004704800004,17.086895766000055],[102.69437842200006,17.111033821000035]]]}},{"type":"Feature","properties":{"code":"410110","name":"กุดสระ","parentCode":"4101"},"geometry":{"type":"Polygon","coordinates":[[[102.79232454000004,17.522664130000067],[102.78161051200004,17.525984393000044],[102.78971922900007,17.49448383400005],[102.79881676400004,17.44811894700007],[102.81302927500008,17.448071386000038],[102.85660883000008,17.484230299000046],[102.92579497000008,17.500937875000034],[102.92717575400007,17.507111360000067],[102.84864082700005,17.502986774000078],[102.79232454000004,17.522664130000067]]]}},{"type":"Feature","properties":{"code":"410101","name":"หมากแข้ง","parentCode":"4101"},"geometry":{"type":"Polygon","coordinates":[[[102.78438652900007,17.430404574000022],[102.78197185700009,17.397048032000043],[102.79296514900005,17.39449085900003],[102.80547221800003,17.398064892000036],[102.78438652900007,17.430404574000022]]]}},{"type":"Feature","properties":{"code":"410301","name":"หมากหญ้า","parentCode":"4103"},"geometry":{"type":"Polygon","coordinates":[[[102.64958459200005,17.258234627000036],[102.62934287700006,17.282305046000033],[102.59269452700005,17.265869052000028],[102.57641409200005,17.237476526000023],[102.65550263500006,17.18743394300003],[102.66995394700007,17.20580932300004],[102.64958459200005,17.258234627000036]]]}},{"type":"Feature","properties":{"code":"410107","name":"หมูม่น","parentCode":"4101"},"geometry":{"type":"Polygon","coordinates":[[[102.79881676400004,17.44811894700007],[102.78971922900007,17.49448383400005],[102.73696640600008,17.483829847000038],[102.74998293500005,17.46127677900006],[102.78274671100007,17.436427398000035],[102.79881676400004,17.44811894700007]]]}},{"type":"Feature","properties":{"code":"411709","name":"เมืองพาน","parentCode":"4117"},"geometry":{"type":"Polygon","coordinates":[[[102.41499189300004,17.737636004000024],[102.31989228400005,17.76337751500006],[102.31811639400007,17.676841384000056],[102.32395285000007,17.617908466000074],[102.37570872700007,17.62603194600007],[102.40708085500006,17.67770465800004],[102.41066420100009,17.71512751700004],[102.41499189300004,17.737636004000024]]]}},{"type":"Feature","properties":{"code":"410206","name":"เมืองเพีย","parentCode":"4102"},"geometry":{"type":"Polygon","coordinates":[[[102.61398822800004,17.436114459000066],[102.56479108900004,17.451982400000077],[102.51591152100008,17.440990691000025],[102.55873145800007,17.392529422000052],[102.54365442700004,17.361890824000056],[102.57943920300005,17.360678869000026],[102.59859431000007,17.374847343000056],[102.62018139900005,17.395452872000078],[102.61901008100006,17.41783082200004],[102.61398822800004,17.436114459000066]]]}},{"type":"Feature","properties":{"code":"411906","name":"นาบัว","parentCode":"4119"},"geometry":{"type":"Polygon","coordinates":[[[103.02800236500008,17.556515166000054],[102.98765335400009,17.580095521000032],[102.92535696800007,17.57815677800005],[102.99320725700005,17.485738923000042],[103.00485257800005,17.51916069600003],[103.02800236500008,17.556515166000054]]]}},{"type":"Feature","properties":{"code":"410703","name":"นาชุมแสง","parentCode":"4107"},"geometry":{"type":"Polygon","coordinates":[[[103.22704422100009,17.581847096000047],[103.15590714600006,17.591651655000078],[103.14377680900009,17.571921191000058],[103.21852699200008,17.500175824000053],[103.24399121500005,17.519591989000048],[103.22704422100009,17.581847096000047]]]}},{"type":"Feature","properties":{"code":"410111","name":"นาดี","parentCode":"4101"},"geometry":{"type":"Polygon","coordinates":[[[102.78197185700009,17.397048032000043],[102.75383674100004,17.392941626000038],[102.72938569700005,17.381646318000037],[102.71730444000008,17.342605023000033],[102.72041006900008,17.313762729000075],[102.75913165800006,17.33747200700003],[102.78197185700009,17.397048032000043]]]}},{"type":"Feature","properties":{"code":"412103","name":"นาดี","parentCode":"4121"},"geometry":{"type":"Polygon","coordinates":[[[102.87722766600007,17.13173822400006],[102.84066305500005,17.132623979000073],[102.79041852000006,17.060484488000043],[102.82353182000008,17.03711299200006],[102.84980750700004,17.033146232000036],[102.87720958300008,17.063194129000067],[102.87963758300003,17.115363998000078],[102.87722766600007,17.13173822400006]]]}},{"type":"Feature","properties":{"code":"410116","name":"นาข่า","parentCode":"4101"},"geometry":{"type":"Polygon","coordinates":[[[102.89672177600005,17.56418006100006],[102.80286174300005,17.577626166000073],[102.79232454000004,17.522664130000067],[102.84864082700005,17.502986774000078],[102.92717575400007,17.507111360000067],[102.89865250500009,17.555450456000074],[102.89672177600005,17.56418006100006]]]}},{"type":"Feature","properties":{"code":"412203","name":"นาแค","parentCode":"4122"},"geometry":{"type":"Polygon","coordinates":[[[102.15594996200008,17.99034785400005],[102.14480402000004,18.033092418000024],[102.10779590400006,18.026048899000045],[102.10189125200009,18.078636650000078],[102.05513989400004,18.086168997000073],[102.03890222600006,17.994130032000044],[102.01782047600005,17.98262138000007],[102.03117756500006,17.938002380000057],[102.05165065900007,17.84871991800003],[102.09959488800007,17.850858753000068],[102.09206430200004,17.911874699000066],[102.12514904000005,17.967363136000074],[102.15594996200008,17.99034785400005]]]}},{"type":"Feature","properties":{"code":"411113","name":"นาคำ","parentCode":"4111"},"geometry":{"type":"Polygon","coordinates":[[[103.19080476300007,17.66580926100005],[103.15865099100006,17.706080215000043],[103.11664862000003,17.70894794000003],[103.11675591000005,17.695988294000074],[103.10037221400006,17.671792975000074],[103.11652826100004,17.61933536500004],[103.14151642000007,17.619367792000048],[103.16458779600003,17.667790101000037],[103.19080476300007,17.66580926100005]]]}},{"type":"Feature","properties":{"code":"410120","name":"นากว้าง","parentCode":"4101"},"geometry":{"type":"Polygon","coordinates":[[[102.78161051200004,17.525984393000044],[102.67718845800005,17.537780546000022],[102.67166988400004,17.531287589000044],[102.69321800800009,17.506326854000065],[102.73696640600008,17.483829847000038],[102.78971922900007,17.49448383400005],[102.78161051200004,17.525984393000044]]]}},{"type":"Feature","properties":{"code":"411108","name":"นาไหม","parentCode":"4111"},"geometry":{"type":"Polygon","coordinates":[[[103.22517771900004,17.795374219000053],[103.17142160300006,17.83000306100007],[103.12710939600004,17.826457704000063],[103.10783704700003,17.774497260000032],[103.11664862000003,17.70894794000003],[103.15865099100006,17.706080215000043],[103.15758310600006,17.729934440000022],[103.21365859000008,17.723299633000067],[103.22517771900004,17.795374219000053]]]}},{"type":"Feature","properties":{"code":"412501","name":"นาม่วง","parentCode":"4125"},"geometry":{"type":"Polygon","coordinates":[[[102.96647519500004,17.297541267000042],[102.94770354500008,17.32046588000003],[102.94133709700009,17.30661860600003],[102.91132592300005,17.270529113000066],[102.95034990200008,17.277862473000027],[102.96789657800008,17.199482140000043],[102.99567794100005,17.200692708000076],[103.02082520000005,17.246876349000047],[103.02316767900004,17.26346088200006],[103.01809684600005,17.265183209000043],[102.96647519500004,17.297541267000042]]]}},{"type":"Feature","properties":{"code":"411801","name":"นางัว","parentCode":"4118"},"geometry":{"type":"Polygon","coordinates":[[[102.24218749800008,17.785803127000065],[102.20217686100005,17.793444591000025],[102.19369969100006,17.72293040900007],[102.25988350100005,17.696691154000064],[102.24002198000005,17.770714146000046],[102.24218749800008,17.785803127000065]]]}},{"type":"Feature","properties":{"code":"411903","name":"นาพู่","parentCode":"4119"},"geometry":{"type":"Polygon","coordinates":[[[102.78640942800007,17.64774463200007],[102.77490160500008,17.651464962000034],[102.73154950300005,17.603536193000025],[102.69326517500008,17.57184200000006],[102.72924556600009,17.556483842000034],[102.80273239100006,17.57764271900004],[102.78640942800007,17.64774463200007]]]}},{"type":"Feature","properties":{"code":"412005","name":"นาสะอาด","parentCode":"4120"},"geometry":{"type":"Polygon","coordinates":[[[103.07498330000004,17.858479256000066],[103.00431032600005,17.842445265000038],[103.04215229600004,17.816269952000027],[103.07498330000004,17.858479256000066]]]}},{"type":"Feature","properties":{"code":"412302","name":"นาทราย","parentCode":"4123"},"geometry":{"type":"Polygon","coordinates":[[[103.14151642000007,17.619367792000048],[103.11652826100004,17.61933536500004],[103.09650333600007,17.595455126000047],[103.09325809100005,17.582592161000036],[103.09522712600005,17.50631037900007],[103.12944090600007,17.497600895000062],[103.13512345300006,17.526935050000077],[103.14377680900009,17.571921191000058],[103.15590714600006,17.591651655000078],[103.14151642000007,17.619367792000048]]]}},{"type":"Feature","properties":{"code":"410704","name":"นาทม","parentCode":"4107"},"geometry":{"type":"Polygon","coordinates":[[[103.21852699200008,17.500175824000053],[103.14377680900009,17.571921191000058],[103.13512345300006,17.526935050000077],[103.18145402100004,17.533663959000023],[103.21448472500003,17.496157652000022],[103.21852699200008,17.500175824000053]]]}},{"type":"Feature","properties":{"code":"410906","name":"นายูง","parentCode":"4109"},"geometry":{"type":"Polygon","coordinates":[[[103.32532491700005,16.97333536700006],[103.27180410700004,17.01564230100007],[103.23450767700007,16.997071059000064],[103.23980315700004,16.961391174000028],[103.27953260300006,16.934509812000044],[103.33011977600006,16.924071163000065],[103.32532491700005,16.97333536700006]]]}},{"type":"Feature","properties":{"code":"412201","name":"นายูง","parentCode":"4122"},"geometry":{"type":"Polygon","coordinates":[[[102.25921949600007,17.956091323000066],[102.20407486100004,17.96150680200003],[102.15270233400008,17.921970174000023],[102.20426718800007,17.85875846500005],[102.23240773400005,17.874876881000034],[102.25568599200005,17.88496876800002],[102.25921949600007,17.956091323000066]]]}},{"type":"Feature","properties":{"code":"410305","name":"น้ำพ่น","parentCode":"4103"},"geometry":{"type":"Polygon","coordinates":[[[102.54365442700004,17.361890824000056],[102.45212281500005,17.352125030000025],[102.43773393600009,17.338332094000066],[102.43774850500006,17.28235084100004],[102.52263580400006,17.27240770900005],[102.57154205800003,17.315596124000024],[102.57943920300005,17.360678869000026],[102.54365442700004,17.361890824000056]]]}},{"type":"Feature","properties":{"code":"411802","name":"น้ำโสม","parentCode":"4118"},"geometry":{"type":"Polygon","coordinates":[[[102.16468930300005,17.79579801500006],[102.14746050200006,17.819216761000064],[102.09115363700005,17.790847451000047],[102.03921710900005,17.80122395500007],[102.01780119400007,17.74634396500005],[102.03643160000007,17.65029137500005],[102.08322637300006,17.634323248000044],[102.10578102800008,17.646605135000073],[102.14121404500008,17.730922027000076],[102.16468930300005,17.79579801500006]]]}},{"type":"Feature","properties":{"code":"410102","name":"นิคมสงเคราะห์","parentCode":"4101"},"geometry":{"type":"Polygon","coordinates":[[[102.72938569700005,17.381646318000037],[102.69872308300006,17.402676211000028],[102.64799759600004,17.390322411000056],[102.68344537200005,17.319314140000074],[102.71730444000008,17.342605023000033],[102.72938569700005,17.381646318000037]]]}},{"type":"Feature","properties":{"code":"410501","name":"โนนสะอาด","parentCode":"4105"},"geometry":{"type":"Polygon","coordinates":[[[102.92710559900007,17.000121259000025],[102.90996815000005,16.99835402100007],[102.86843297000007,17.00047365200004],[102.86094390100004,16.94356044400007],[102.94108462900004,16.960197564000055],[102.92710559900007,17.000121259000025]]]}},{"type":"Feature","properties":{"code":"410106","name":"โนนสูง","parentCode":"4101"},"geometry":{"type":"Polygon","coordinates":[[[102.84918595500005,17.32739576700004],[102.80996312400003,17.298839343000054],[102.82491202700004,17.26284878100006],[102.85908801200009,17.232511142000078],[102.87794697200007,17.28920209100005],[102.84918595500005,17.32739576700004]]]}},{"type":"Feature","properties":{"code":"411705","name":"โนนทอง","parentCode":"4117"},"geometry":{"type":"Polygon","coordinates":[[[102.48979429800005,17.663847383000075],[102.44808855500008,17.649426954000035],[102.44882484400006,17.62075052000006],[102.39570671000007,17.55902324500005],[102.44530350700006,17.48715730300006],[102.47423319700005,17.500127814000052],[102.47345845800004,17.539498563000052],[102.51576691700006,17.62218418200007],[102.48979429800005,17.663847383000075]]]}},{"type":"Feature","properties":{"code":"412204","name":"โนนทอง","parentCode":"4122"},"geometry":{"type":"Polygon","coordinates":[[[102.24146927200007,17.99800451400006],[102.18260540800009,18.013826881000057],[102.15594996200008,17.99034785400005],[102.12514904000005,17.967363136000074],[102.15270233400008,17.921970174000023],[102.20407486100004,17.96150680200003],[102.25921949600007,17.956091323000066],[102.27592842700005,17.980617410000036],[102.24146927200007,17.99800451400006]]]}},{"type":"Feature","properties":{"code":"412402","name":"โนนทองอินทร์","parentCode":"4124"},"geometry":{"type":"Polygon","coordinates":[[[103.22306075500006,17.18378816300003],[103.18685792600007,17.222869099000036],[103.15737228700004,17.202169507000065],[103.20818906000005,17.14438771700003],[103.20301078000006,17.114169993000075],[103.21228002600009,17.098915030000057],[103.24462808500004,17.112033014000076],[103.20685267000005,17.16688818700004],[103.22306075500006,17.18378816300003]]]}},{"type":"Feature","properties":{"code":"410307","name":"โนนหวาย","parentCode":"4103"},"geometry":{"type":"Polygon","coordinates":[[[102.64061050800007,17.169550892000075],[102.56163506000007,17.164897015000065],[102.50703075900009,17.13860344400007],[102.51757820700004,17.103728558000057],[102.51925168400004,17.100184295000076],[102.63135030100005,17.145333219000065],[102.69355149900008,17.128748615000063],[102.69104329200007,17.154396527000074],[102.64061050800007,17.169550892000075]]]}},{"type":"Feature","properties":{"code":"410104","name":"หนองบัว","parentCode":"4101"},"geometry":{"type":"Polygon","coordinates":[[[102.81302927500008,17.448071386000038],[102.79881676400004,17.44811894700007],[102.78274671100007,17.436427398000035],[102.78438652900007,17.430404574000022],[102.80547221800003,17.398064892000036],[102.86695679900004,17.365123184000026],[102.83053138300005,17.412878638000052],[102.81302927500008,17.448071386000038]]]}},{"type":"Feature","properties":{"code":"410306","name":"หนองบัวบาน","parentCode":"4103"},"geometry":{"type":"Polygon","coordinates":[[[102.65452320700007,17.305739483000025],[102.59859431000007,17.374847343000056],[102.57943920300005,17.360678869000026],[102.57154205800003,17.315596124000024],[102.62934287700006,17.282305046000033],[102.64958459200005,17.258234627000036],[102.65452320700007,17.305739483000025]]]}},{"type":"Feature","properties":{"code":"410115","name":"หนองไฮ","parentCode":"4101"},"geometry":{"type":"Polygon","coordinates":[[[102.71730444000008,17.342605023000033],[102.68344537200005,17.319314140000074],[102.65452320700007,17.305739483000025],[102.64958459200005,17.258234627000036],[102.66995394700007,17.20580932300004],[102.73882452800007,17.220247974000074],[102.72041006900008,17.313762729000075],[102.71730444000008,17.342605023000033]]]}},{"type":"Feature","properties":{"code":"410601","name":"หนองหาน","parentCode":"4106"},"geometry":{"type":"Polygon","coordinates":[[[103.15691338000005,17.41730755800006],[103.14952502500006,17.42499787500003],[103.08815545600004,17.415000588000055],[103.05167158000006,17.398845278000067],[103.03287053500009,17.40412731300006],[103.03499093000005,17.32827299400003],[103.05001407800006,17.347201249000022],[103.14067074900004,17.35051238400007],[103.15691338000005,17.41730755800006]]]}},{"type":"Feature","properties":{"code":"411711","name":"หนองหัวคู","parentCode":"4117"},"geometry":{"type":"Polygon","coordinates":[[[102.64665013000007,17.611980764000066],[102.59670904000006,17.622550752000052],[102.59837472900006,17.665211115000034],[102.57893413300008,17.653553353000063],[102.58490841300005,17.594284843000025],[102.53476854500008,17.594675379000023],[102.57307290800009,17.548836945000062],[102.64665013000007,17.611980764000066]]]}},{"type":"Feature","properties":{"code":"410118","name":"หนองขอนกว้าง","parentCode":"4101"},"geometry":{"type":"Polygon","coordinates":[[[102.86695679900004,17.365123184000026],[102.80547221800003,17.398064892000036],[102.79296514900005,17.39449085900003],[102.84918595500005,17.32739576700004],[102.87794697200007,17.28920209100005],[102.87920008600008,17.294338972000048],[102.88844409500007,17.353359401000034],[102.86695679900004,17.365123184000026]]]}},{"type":"Feature","properties":{"code":"410505","name":"หนองกุงศรี","parentCode":"4105"},"geometry":{"type":"Polygon","coordinates":[[[102.79041852000006,17.060484488000043],[102.73426316200005,17.10240396200004],[102.70970462200006,17.087009188000025],[102.72317309400006,17.049576966000075],[102.79496838400007,17.00815410100006],[102.82032612600005,16.973981082000023],[102.82353182000008,17.03711299200006],[102.79041852000006,17.060484488000043]]]}},{"type":"Feature","properties":{"code":"411001","name":"หนองกุงทับม้า","parentCode":"4110"},"geometry":{"type":"Polygon","coordinates":[[[103.48890631600005,17.076795255000036],[103.43687957400005,17.05098980200006],[103.41442832100006,17.015580383000042],[103.42310482500005,16.970873108000035],[103.49701553500006,16.964060623000023],[103.52617198800004,17.060852787000044],[103.48890631600005,17.076795255000036]]]}},{"type":"Feature","properties":{"code":"410802","name":"หนองหลัก","parentCode":"4108"},"geometry":{"type":"Polygon","coordinates":[[[103.24990481000003,17.24026378600007],[103.17542684400007,17.298714331000042],[103.15532249300009,17.271248463000063],[103.17058821300009,17.23623160300002],[103.18685792600007,17.222869099000036],[103.22306075500006,17.18378816300003],[103.24990481000003,17.24026378600007]]]}},{"type":"Feature","properties":{"code":"410602","name":"หนองเม็ก","parentCode":"4106"},"geometry":{"type":"Polygon","coordinates":[[[103.18420221000008,17.41700485800004],[103.15691338000005,17.41730755800006],[103.14067074900004,17.35051238400007],[103.13924072400005,17.29246482600007],[103.15532249300009,17.271248463000063],[103.17542684400007,17.298714331000042],[103.20672029100007,17.343833782000047],[103.20269957100004,17.41433509600006],[103.18420221000008,17.41700485800004]]]}},{"type":"Feature","properties":{"code":"410109","name":"หนองนาคำ","parentCode":"4101"},"geometry":{"type":"Polygon","coordinates":[[[102.94916069100009,17.405767042000036],[102.90553195600006,17.401190636000024],[102.88707644100003,17.428616393000027],[102.83053138300005,17.412878638000052],[102.86695679900004,17.365123184000026],[102.88844409500007,17.353359401000034],[102.87920008600008,17.294338972000048],[102.94133709700009,17.30661860600003],[102.94770354500008,17.32046588000003],[102.93307840600005,17.33752043000004],[102.94916069100009,17.405767042000036]]]}},{"type":"Feature","properties":{"code":"410905","name":"หนองนกเขียน","parentCode":"4109"},"geometry":{"type":"Polygon","coordinates":[[[103.34671872200005,17.04758436000003],[103.29948700600005,17.049997552000036],[103.27180410700004,17.01564230100007],[103.32532491700005,16.97333536700006],[103.34838645200006,17.018380585000045],[103.34671872200005,17.04758436000003]]]}},{"type":"Feature","properties":{"code":"410302","name":"หนองอ้อ","parentCode":"4103"},"geometry":{"type":"Polygon","coordinates":[[[102.65550263500006,17.18743394300003],[102.57641409200005,17.237476526000023],[102.50139588800005,17.229786470000022],[102.46919309200007,17.20270453200004],[102.49639224400005,17.158756550000078],[102.50703075900009,17.13860344400007],[102.56163506000007,17.164897015000065],[102.64061050800007,17.169550892000075],[102.65550263500006,17.18743394300003]]]}},{"type":"Feature","properties":{"code":"410121","name":"หนองไผ่","parentCode":"4101"},"geometry":{"type":"Polygon","coordinates":[[[102.91132592300005,17.270529113000066],[102.94133709700009,17.30661860600003],[102.87920008600008,17.294338972000048],[102.87794697200007,17.28920209100005],[102.85908801200009,17.232511142000078],[102.92739477600009,17.20343697000004],[102.93432483900006,17.20403958600002],[102.90055851500006,17.243738509000025],[102.91132592300005,17.270529113000066]]]}},{"type":"Feature","properties":{"code":"410614","name":"หนองไผ่","parentCode":"4106"},"geometry":{"type":"Polygon","coordinates":[[[103.14067074900004,17.35051238400007],[103.05001407800006,17.347201249000022],[103.03499093000005,17.32827299400003],[103.01809684600005,17.265183209000043],[103.02316767900004,17.26346088200006],[103.06233123600003,17.275301520000028],[103.10175826600005,17.30292079000003],[103.13924072400005,17.29246482600007],[103.14067074900004,17.35051238400007]]]}},{"type":"Feature","properties":{"code":"410618","name":"หนองสระปลา","parentCode":"4106"},"geometry":{"type":"Polygon","coordinates":[[[103.28814041000004,17.371392615000047],[103.24264171300007,17.364701997000054],[103.21939366400005,17.339657097000043],[103.25379723900005,17.31794883200007],[103.28814041000004,17.371392615000047]]]}},{"type":"Feature","properties":{"code":"412101","name":"หนองแสง","parentCode":"4121"},"geometry":{"type":"Polygon","coordinates":[[[102.88497615900008,17.15535862100006],[102.85782205800007,17.167134770000075],[102.83175020200008,17.22694377700003],[102.80302232000008,17.207424288000027],[102.80768543500005,17.161462554000025],[102.84066305500005,17.132623979000073],[102.87722766600007,17.13173822400006],[102.88497615900008,17.15535862100006]]]}},{"type":"Feature","properties":{"code":"410416","name":"หนองหว้า","parentCode":"4104"},"geometry":{"type":"Polygon","coordinates":[[[103.02222661900004,17.070709512000064],[102.98448271300003,17.069179828000074],[102.95789251200006,17.051958308000053],[102.92653461300006,17.037204144000043],[102.90996815000005,16.99835402100007],[102.92710559900007,17.000121259000025],[103.00537911400005,17.011783426000022],[103.05149528100009,17.034623476000036],[103.05145621300005,17.043901900000037],[103.02222661900004,17.070709512000064]]]}},{"type":"Feature","properties":{"code":"411713","name":"หนองแวง","parentCode":"4117"},"geometry":{"type":"Polygon","coordinates":[[[102.39570671000007,17.55902324500005],[102.38498178400005,17.572312775000057],[102.33230902000008,17.551708242000075],[102.34729083100007,17.530565113000023],[102.38490303400005,17.45218862100006],[102.44093057700007,17.481012414000077],[102.44530350700006,17.48715730300006],[102.39570671000007,17.55902324500005]]]}},{"type":"Feature","properties":{"code":"411805","name":"หนองแวง","parentCode":"4118"},"geometry":{"type":"Polygon","coordinates":[[[102.28574409800007,17.843695124000078],[102.25568599200005,17.88496876800002],[102.23240773400005,17.874876881000034],[102.25620859800006,17.815990747000058],[102.24218749800008,17.785803127000065],[102.24002198000005,17.770714146000046],[102.26947190300007,17.761439653000025],[102.31788147900005,17.79421201400004],[102.28574409800007,17.843695124000078]]]}},{"type":"Feature","properties":{"code":"410308","name":"หนองวัวซอ","parentCode":"4103"},"geometry":{"type":"Polygon","coordinates":[[[102.62934287700006,17.282305046000033],[102.57154205800003,17.315596124000024],[102.52263580400006,17.27240770900005],[102.59269452700005,17.265869052000028],[102.62934287700006,17.282305046000033]]]}},{"type":"Feature","properties":{"code":"411002","name":"หนองหญ้าไซ","parentCode":"4110"},"geometry":{"type":"Polygon","coordinates":[[[103.42310482500005,16.970873108000035],[103.34838645200006,17.018380585000045],[103.32532491700005,16.97333536700006],[103.33011977600006,16.924071163000065],[103.36405480900004,16.910203559000024],[103.38019802800005,16.906294825000032],[103.41151797400005,16.94341492700005],[103.42310482500005,16.970873108000035]]]}},{"type":"Feature","properties":{"code":"411105","name":"อ้อมกอ","parentCode":"4111"},"geometry":{"type":"Polygon","coordinates":[[[103.34610318100005,17.628645620000043],[103.26607123500008,17.619491093000022],[103.26660838400005,17.555412234000073],[103.32044880200004,17.549345294000034],[103.36055641700005,17.591685545000075],[103.34610318100005,17.628645620000043]]]}},{"type":"Feature","properties":{"code":"410202","name":"ปะโค","parentCode":"4102"},"geometry":{"type":"Polygon","coordinates":[[[102.62145423700008,17.440928188000044],[102.60732495900004,17.534033925000074],[102.56875174200007,17.525312592000034],[102.52300866000007,17.524819610000065],[102.56479108900004,17.451982400000077],[102.61398822800004,17.436114459000066],[102.62145423700008,17.440928188000044]]]}},{"type":"Feature","properties":{"code":"410411","name":"ปะโค","parentCode":"4104"},"geometry":{"type":"Polygon","coordinates":[[[102.94855270400006,17.108403784000075],[102.87963758300003,17.115363998000078],[102.87720958300008,17.063194129000067],[102.84980750700004,17.033146232000036],[102.86843297000007,17.00047365200004],[102.90996815000005,16.99835402100007],[102.92653461300006,17.037204144000043],[102.92732607200008,17.071789307000074],[102.94855270400006,17.108403784000075]]]}},{"type":"Feature","properties":{"code":"410413","name":"ผาสุก","parentCode":"4104"},"geometry":{"type":"Polygon","coordinates":[[[102.96922997100006,17.198177178000037],[102.93432483900006,17.20403958600002],[102.92739477600009,17.20343697000004],[102.89708218000004,17.156128831000046],[102.97734973900003,17.16038665800005],[102.96922997100006,17.198177178000037]]]}},{"type":"Feature","properties":{"code":"411004","name":"ผาสุก","parentCode":"4110"},"geometry":{"type":"Polygon","coordinates":[[[103.59001346300005,17.170948833000068],[103.57264483500006,17.157303365000075],[103.47025972500006,17.229916415000048],[103.44048773200007,17.213253829000053],[103.41076236300006,17.19085050600006],[103.43923695400008,17.180198232000066],[103.48890631600005,17.076795255000036],[103.52617198800004,17.060852787000044],[103.53019888300008,17.062729473000047],[103.54835535700005,17.08898464500004],[103.62074341900006,17.092853047000062],[103.66212023000008,17.019615229000067],[103.66542805600005,17.056801956000072],[103.64484206900005,17.114699504000043],[103.61353067400006,17.15172246900005],[103.59001346300005,17.170948833000068]]]}},{"type":"Feature","properties":{"code":"410612","name":"ผักตบ","parentCode":"4106"},"geometry":{"type":"Polygon","coordinates":[[[103.01809684600005,17.265183209000043],[103.03499093000005,17.32827299400003],[103.03287053500009,17.40412731300006],[103.00947894100005,17.405031922000035],[102.96647519500004,17.297541267000042],[103.01809684600005,17.265183209000043]]]}},{"type":"Feature","properties":{"code":"410402","name":"พันดอน","parentCode":"4104"},"geometry":{"type":"Polygon","coordinates":[[[102.97734973900003,17.16038665800005],[102.89708218000004,17.156128831000046],[102.88497615900008,17.15535862100006],[102.87722766600007,17.13173822400006],[102.87963758300003,17.115363998000078],[102.94855270400006,17.108403784000075],[102.98758478000008,17.11896198200003],[102.99751062900003,17.155545220000022],[102.97734973900003,17.16038665800005]]]}},{"type":"Feature","properties":{"code":"410605","name":"พังงู","parentCode":"4106"},"geometry":{"type":"Polygon","coordinates":[[[103.13924072400005,17.29246482600007],[103.10175826600005,17.30292079000003],[103.06233123600003,17.275301520000028],[103.08393861900004,17.22088525500004],[103.10210441600009,17.212988327000062],[103.16157094200008,17.21451352200006],[103.17058821300009,17.23623160300002],[103.15532249300009,17.271248463000063],[103.13924072400005,17.29246482600007]]]}},{"type":"Feature","properties":{"code":"411901","name":"เพ็ญ","parentCode":"4119"},"geometry":{"type":"Polygon","coordinates":[[[102.99116293900005,17.711343898000052],[102.89265484300006,17.709923460000027],[102.88669487200008,17.663885567000023],[102.91228362000004,17.632559161000074],[102.96304519000006,17.630186735000052],[102.99050378300007,17.674956231000067],[102.99116293900005,17.711343898000052]]]}},{"type":"Feature","properties":{"code":"410503","name":"โพธิ์ศรีสำราญ","parentCode":"4105"},"geometry":{"type":"Polygon","coordinates":[[[102.84980750700004,17.033146232000036],[102.82353182000008,17.03711299200006],[102.82032612600005,16.973981082000023],[102.80453852300008,16.956466178000028],[102.81589711800007,16.925325557000065],[102.86094390100004,16.94356044400007],[102.86843297000007,17.00047365200004],[102.84980750700004,17.033146232000036]]]}},{"type":"Feature","properties":{"code":"410611","name":"โพนงาม","parentCode":"4106"},"geometry":{"type":"Polygon","coordinates":[[[102.95334885100004,17.422603852000066],[102.94916069100009,17.405767042000036],[102.93307840600005,17.33752043000004],[102.94770354500008,17.32046588000003],[102.96647519500004,17.297541267000042],[103.00947894100005,17.405031922000035],[102.97520647400006,17.383216426000047],[102.95334885100004,17.422603852000066]]]}},{"type":"Feature","properties":{"code":"410804","name":"โพนสูง","parentCode":"4108"},"geometry":{"type":"Polygon","coordinates":[[[103.27509140300003,17.215693960000067],[103.24990481000003,17.24026378600007],[103.22306075500006,17.18378816300003],[103.20685267000005,17.16688818700004],[103.24462808500004,17.112033014000076],[103.28106059600003,17.130790639000054],[103.26331553000006,17.15628358200007],[103.34217404200007,17.156306087000075],[103.27509140300003,17.215693960000067]]]}},{"type":"Feature","properties":{"code":"411104","name":"โพนสูง","parentCode":"4111"},"geometry":{"type":"Polygon","coordinates":[[[103.32606623000004,17.735280413000055],[103.27585933100005,17.726107245000037],[103.26515207400007,17.656993405000037],[103.23020065000009,17.662702085000035],[103.21865312500006,17.655052674000046],[103.23490686100007,17.62465021500003],[103.26607123500008,17.619491093000022],[103.34610318100005,17.628645620000043],[103.35755976200005,17.650501607000024],[103.30620734900003,17.674650978000045],[103.32606623000004,17.735280413000055]]]}},{"type":"Feature","properties":{"code":"410606","name":"สะแบง","parentCode":"4106"},"geometry":{"type":"Polygon","coordinates":[[[103.12944090600007,17.497600895000062],[103.09522712600005,17.50631037900007],[103.08299013100009,17.487770472000022],[103.08391223600006,17.469127687000025],[103.08815545600004,17.415000588000055],[103.14952502500006,17.42499787500003],[103.12944090600007,17.497600895000062]]]}},{"type":"Feature","properties":{"code":"412102","name":"แสงสว่าง","parentCode":"4121"},"geometry":{"type":"Polygon","coordinates":[[[102.80768543500005,17.161462554000025],[102.69486198000004,17.117374897000047],[102.69437842200006,17.111033821000035],[102.70004704800004,17.086895766000055],[102.70970462200006,17.087009188000025],[102.73426316200005,17.10240396200004],[102.79041852000006,17.060484488000043],[102.84066305500005,17.132623979000073],[102.80768543500005,17.161462554000025]]]}},{"type":"Feature","properties":{"code":"410114","name":"สามพร้าว","parentCode":"4101"},"geometry":{"type":"Polygon","coordinates":[[[102.92579497000008,17.500937875000034],[102.85660883000008,17.484230299000046],[102.81302927500008,17.448071386000038],[102.83053138300005,17.412878638000052],[102.88707644100003,17.428616393000027],[102.90553195600006,17.401190636000024],[102.94916069100009,17.405767042000036],[102.95334885100004,17.422603852000066],[102.95485179600007,17.45489520600006],[102.96221879500007,17.47059822500006],[102.92579497000008,17.500937875000034]]]}},{"type":"Feature","properties":{"code":"411812","name":"สามัคคี","parentCode":"4118"},"geometry":{"type":"Polygon","coordinates":[[[102.31788147900005,17.79421201400004],[102.26947190300007,17.761439653000025],[102.24002198000005,17.770714146000046],[102.25988350100005,17.696691154000064],[102.26203678500008,17.682179907000034],[102.31811639400007,17.676841384000056],[102.31989228400005,17.76337751500006],[102.31788147900005,17.79421201400004]]]}},{"type":"Feature","properties":{"code":"412001","name":"สร้างคอม","parentCode":"4120"},"geometry":{"type":"Polygon","coordinates":[[[103.12710939600004,17.826457704000063],[103.09580745000005,17.865868283000054],[103.07498330000004,17.858479256000066],[103.04215229600004,17.816269952000027],[103.07939774800008,17.760447240000076],[103.10783704700003,17.774497260000032],[103.12710939600004,17.826457704000063]]]}},{"type":"Feature","properties":{"code":"410205","name":"สร้างก่อ","parentCode":"4102"},"geometry":{"type":"Polygon","coordinates":[[[102.56479108900004,17.451982400000077],[102.52300866000007,17.524819610000065],[102.47423319700005,17.500127814000052],[102.44530350700006,17.48715730300006],[102.44093057700007,17.481012414000077],[102.46352553200006,17.45956981300003],[102.51591152100008,17.440990691000025],[102.56479108900004,17.451982400000077]]]}},{"type":"Feature","properties":{"code":"411911","name":"สร้างแป้น","parentCode":"4119"},"geometry":{"type":"Polygon","coordinates":[[[102.99320725700005,17.485738923000042],[102.92535696800007,17.57815677800005],[102.89865250500009,17.555450456000074],[102.92717575400007,17.507111360000067],[102.92579497000008,17.500937875000034],[102.96221879500007,17.47059822500006],[102.99320725700005,17.485738923000042]]]}},{"type":"Feature","properties":{"code":"410410","name":"สีออ","parentCode":"4104"},"geometry":{"type":"Polygon","coordinates":[[[103.05149528100009,17.034623476000036],[103.00537911400005,17.011783426000022],[103.03388382400004,16.956330867000077],[103.06917818600004,16.985324250000076],[103.06722708100006,17.00184008800005],[103.05149528100009,17.034623476000036]]]}},{"type":"Feature","properties":{"code":"411810","name":"ศรีสำราญ","parentCode":"4118"},"geometry":{"type":"Polygon","coordinates":[[[102.20217686100005,17.793444591000025],[102.16468930300005,17.79579801500006],[102.14121404500008,17.730922027000076],[102.19369969100006,17.72293040900007],[102.20217686100005,17.793444591000025]]]}},{"type":"Feature","properties":{"code":"411101","name":"ศรีสุทโธ","parentCode":"4111"},"geometry":{"type":"Polygon","coordinates":[[[103.27585933100005,17.726107245000037],[103.27158907900008,17.728399528000068],[103.23020065000009,17.662702085000035],[103.26515207400007,17.656993405000037],[103.27585933100005,17.726107245000037]]]}},{"type":"Feature","properties":{"code":"410901","name":"ศรีธาตุ","parentCode":"4109"},"geometry":{"type":"Polygon","coordinates":[[[103.23450767700007,16.997071059000064],[103.18907166600007,17.021725874000026],[103.18198273100006,16.95241418300003],[103.19830721600005,16.948159024000063],[103.23440574500006,16.958456441000067],[103.23980315700004,16.961391174000028],[103.23450767700007,16.997071059000064]]]}},{"type":"Feature","properties":{"code":"410409","name":"เสอเพลอ","parentCode":"4104"},"geometry":{"type":"Polygon","coordinates":[[[102.85908801200009,17.232511142000078],[102.82491202700004,17.26284878100006],[102.79967238600005,17.244512352000072],[102.83175020200008,17.22694377700003],[102.85782205800007,17.167134770000075],[102.88497615900008,17.15535862100006],[102.89708218000004,17.156128831000046],[102.92739477600009,17.20343697000004],[102.85908801200009,17.232511142000078]]]}},{"type":"Feature","properties":{"code":"410607","name":"สร้อยพร้าว","parentCode":"4106"},"geometry":{"type":"Polygon","coordinates":[[[103.08815545600004,17.415000588000055],[103.08391223600006,17.469127687000025],[103.02616746900009,17.452266739000038],[103.05167158000006,17.398845278000067],[103.08815545600004,17.415000588000055]]]}},{"type":"Feature","properties":{"code":"411807","name":"โสมเยี่ยม","parentCode":"4118"},"geometry":{"type":"Polygon","coordinates":[[[102.24218749800008,17.785803127000065],[102.25620859800006,17.815990747000058],[102.23240773400005,17.874876881000034],[102.20426718800007,17.85875846500005],[102.14746050200006,17.819216761000064],[102.16468930300005,17.79579801500006],[102.20217686100005,17.793444591000025],[102.24218749800008,17.785803127000065]]]}},{"type":"Feature","properties":{"code":"411905","name":"สุมเส้า","parentCode":"4119"},"geometry":{"type":"Polygon","coordinates":[[[103.02002123000005,17.645284170000025],[102.99050378300007,17.674956231000067],[102.96304519000006,17.630186735000052],[102.91228362000004,17.632559161000074],[102.89672177600005,17.56418006100006],[102.89865250500009,17.555450456000074],[102.92535696800007,17.57815677800005],[102.98765335400009,17.580095521000032],[103.02800236500008,17.556515166000054],[103.09325809100005,17.582592161000036],[103.09650333600007,17.595455126000047],[103.03486646800008,17.600849648000064],[103.02002123000005,17.645284170000025]]]}},{"type":"Feature","properties":{"code":"410207","name":"ตาลเลียน","parentCode":"4102"},"geometry":{"type":"Polygon","coordinates":[[[102.44093057700007,17.481012414000077],[102.38490303400005,17.45218862100006],[102.39860857800005,17.414633237000032],[102.40595005300008,17.401085786000067],[102.45977254600007,17.41352321900007],[102.46352553200006,17.45956981300003],[102.44093057700007,17.481012414000077]]]}},{"type":"Feature","properties":{"code":"411909","name":"เตาไห","parentCode":"4119"},"geometry":{"type":"Polygon","coordinates":[[[103.11652826100004,17.61933536500004],[103.10037221400006,17.671792975000074],[103.02002123000005,17.645284170000025],[103.03486646800008,17.600849648000064],[103.09650333600007,17.595455126000047],[103.11652826100004,17.61933536500004]]]}},{"type":"Feature","properties":{"code":"410907","name":"ตาดทอง","parentCode":"4109"},"geometry":{"type":"Polygon","coordinates":[[[103.15509686100006,17.03101637700007],[103.18450354100008,17.056245868000076],[103.17346815700006,17.104495564000047],[103.16792437400005,17.102880949000053],[103.15513272200008,17.101446821000025],[103.05145621300005,17.043901900000037],[103.05149528100009,17.034623476000036],[103.06722708100006,17.00184008800005],[103.15509686100006,17.03101637700007]]]}},{"type":"Feature","properties":{"code":"410414","name":"ท่าลี่","parentCode":"4104"},"geometry":{"type":"Polygon","coordinates":[[[103.06917818600004,16.985324250000076],[103.03388382400004,16.956330867000077],[103.02128050700009,16.93053386200006],[103.03591189200006,16.883807902000058],[103.09811585400007,16.912621710000053],[103.11729689700007,16.961118657000043],[103.06917818600004,16.985324250000076]]]}},{"type":"Feature","properties":{"code":"412104","name":"ทับกุง","parentCode":"4121"},"geometry":{"type":"Polygon","coordinates":[[[102.83175020200008,17.22694377700003],[102.79967238600005,17.244512352000072],[102.78440581800004,17.21538961500005],[102.73882452800007,17.220247974000074],[102.66995394700007,17.20580932300004],[102.65550263500006,17.18743394300003],[102.64061050800007,17.169550892000075],[102.69104329200007,17.154396527000074],[102.69355149900008,17.128748615000063],[102.69486198000004,17.117374897000047],[102.80768543500005,17.161462554000025],[102.80302232000008,17.207424288000027],[102.83175020200008,17.22694377700003]]]}},{"type":"Feature","properties":{"code":"410504","name":"ทมนางาม","parentCode":"4105"},"geometry":{"type":"Polygon","coordinates":[[[103.02128050700009,16.93053386200006],[102.93500873700003,16.93018506800007],[102.87512433900008,16.87621481800005],[102.89894199200006,16.85461237100003],[102.92899095500007,16.83790547800004],[103.00192928600006,16.864928680000048],[103.03591189200006,16.883807902000058],[103.02128050700009,16.93053386200006]]]}},{"type":"Feature","properties":{"code":"411109","name":"ถ่อนนาลับ","parentCode":"4111"},"geometry":{"type":"Polygon","coordinates":[[[103.27562276500004,17.844632554000043],[103.22888923300007,17.876341925000077],[103.20847140900008,17.873210768000035],[103.17142160300006,17.83000306100007],[103.22517771900004,17.795374219000053],[103.25977449800007,17.78905720000006],[103.27562276500004,17.844632554000043]]]}},{"type":"Feature","properties":{"code":"410701","name":"ทุ่งฝน","parentCode":"4107"},"geometry":{"type":"Polygon","coordinates":[[[103.32044880200004,17.549345294000034],[103.26660838400005,17.555412234000073],[103.24399121500005,17.519591989000048],[103.21852699200008,17.500175824000053],[103.21448472500003,17.496157652000022],[103.20789936500006,17.438556019000032],[103.26951483000005,17.430277770000032],[103.27616605000009,17.43676797100005],[103.29977752500008,17.50480404700005],[103.32044880200004,17.549345294000034]]]}},{"type":"Feature","properties":{"code":"410702","name":"ทุ่งใหญ่","parentCode":"4107"},"geometry":{"type":"Polygon","coordinates":[[[103.21448472500003,17.496157652000022],[103.18145402100004,17.533663959000023],[103.13512345300006,17.526935050000077],[103.12944090600007,17.497600895000062],[103.14952502500006,17.42499787500003],[103.15691338000005,17.41730755800006],[103.18420221000008,17.41700485800004],[103.20789936500006,17.438556019000032],[103.21448472500003,17.496157652000022]]]}},{"type":"Feature","properties":{"code":"410401","name":"ตูมใต้","parentCode":"4104"},"geometry":{"type":"Polygon","coordinates":[[[102.98758478000008,17.11896198200003],[102.94855270400006,17.108403784000075],[102.92732607200008,17.071789307000074],[102.95789251200006,17.051958308000053],[102.98448271300003,17.069179828000074],[102.98758478000008,17.11896198200003]]]}},{"type":"Feature","properties":{"code":"412503","name":"อุ่มจาน","parentCode":"4125"},"geometry":{"type":"Polygon","coordinates":[[[103.08393861900004,17.22088525500004],[103.06233123600003,17.275301520000028],[103.02316767900004,17.26346088200006],[103.02082520000005,17.246876349000047],[103.04589364600008,17.193397584000024],[103.08856333600005,17.203280102000065],[103.08393861900004,17.22088525500004]]]}},{"type":"Feature","properties":{"code":"410303","name":"อูบมุง","parentCode":"4103"},"geometry":{"type":"Polygon","coordinates":[[[102.69355149900008,17.128748615000063],[102.63135030100005,17.145333219000065],[102.51925168400004,17.100184295000076],[102.57938673500007,17.04081631100007],[102.60908404600008,17.027428862000022],[102.61954605000005,17.061988092000036],[102.58946953500003,17.095490952000034],[102.62915559200007,17.115459332000057],[102.69437842200006,17.111033821000035],[102.69486198000004,17.117374897000047],[102.69355149900008,17.128748615000063]]]}},{"type":"Feature","properties":{"code":"411006","name":"วังสามหมอ","parentCode":"4110"},"geometry":{"type":"Polygon","coordinates":[[[103.49701553500006,16.964060623000023],[103.42310482500005,16.970873108000035],[103.41151797400005,16.94341492700005],[103.47004902300006,16.878111699000044],[103.49701553500006,16.964060623000023]]]}},{"type":"Feature","properties":{"code":"411110","name":"วังทอง","parentCode":"4111"},"geometry":{"type":"Polygon","coordinates":[[[103.36505108800009,17.778663866000045],[103.31514675700004,17.790598700000032],[103.28178130600008,17.753178777000073],[103.27158907900008,17.728399528000068],[103.27585933100005,17.726107245000037],[103.32606623000004,17.735280413000055],[103.36505108800009,17.778663866000045]]]}},{"type":"Feature","properties":{"code":"410403","name":"เวียงคำ","parentCode":"4104"},"geometry":{"type":"Polygon","coordinates":[[[103.13252488100005,17.123205676000055],[103.02528301900009,17.121845674000042],[103.02222661900004,17.070709512000064],[103.05145621300005,17.043901900000037],[103.15513272200008,17.101446821000025],[103.13252488100005,17.123205676000055]]]}}]}