{"type":"FeatureCollection","features":[{"type":"Feature","properties":{"code":"420803","name":"อาฮี","parentCode":"4208"},"geometry":{"type":"Polygon","coordinates":[[[101.40130534400004,17.68269467300007],[101.38653184000003,17.69743838200003],[101.29198284200004,17.62588385300006],[101.32206072300005,17.60401661700007],[101.37403116700006,17.618448073000025],[101.39788264100008,17.65096104400004],[101.40130534400004,17.68269467300007]]]}},{"type":"Feature","properties":{"code":"421205","name":"บ้านเพิ่ม","parentCode":"4212"},"geometry":{"type":"Polygon","coordinates":[[[101.95989845800005,17.139779048000037],[101.90976144000007,17.135308421000047],[101.89873501500006,17.088584051000055],[101.91920881400006,17.05890798100006],[101.99520560100007,17.079655209000066],[101.95989845800005,17.139779048000037]]]}},{"type":"Feature","properties":{"code":"420306","name":"บุฮม","parentCode":"4203"},"geometry":{"type":"Polygon","coordinates":[[[101.83730919600004,17.86762533600006],[101.85632533300009,17.97899084000005],[101.81778391500006,18.002482260000022],[101.77789930000006,18.06571195600003],[101.70886128900008,17.903015267000058],[101.73628463100005,17.861775435000027],[101.80127205200006,17.878407742000036],[101.83730919600004,17.86762533600006]]]}},{"type":"Feature","properties":{"code":"420111","name":"ชัยพฤกษ์","parentCode":"4201"},"geometry":{"type":"Polygon","coordinates":[[[101.82892949500007,17.52657109100005],[101.79768818700006,17.530449970000063],[101.79557060000008,17.581629606000035],[101.74456178700007,17.559506905000035],[101.73541563000003,17.51162855900003],[101.75834699500007,17.477784951000046],[101.81298831000004,17.488782402000027],[101.82892949500007,17.52657109100005]]]}},{"type":"Feature","properties":{"code":"420301","name":"เชียงคาน","parentCode":"4203"},"geometry":{"type":"Polygon","coordinates":[[[101.70886128900008,17.903015267000058],[101.61696854000007,17.893594240000027],[101.59234181700003,17.849175006000053],[101.61524076600006,17.844750644000044],[101.63665373900005,17.86217038600006],[101.70551380800003,17.844738078000034],[101.73628463100005,17.861775435000027],[101.70886128900008,17.903015267000058]]]}},{"type":"Feature","properties":{"code":"420402","name":"เชียงกลม","parentCode":"4204"},"geometry":{"type":"Polygon","coordinates":[[[102.03117756500006,17.938002380000057],[101.98988482200008,17.917820730000074],[101.94264242300005,17.933466356000054],[101.89226763400006,17.885492201000034],[101.89575730700005,17.80028321900005],[101.92505896100005,17.738911440000038],[102.01886285100005,17.843359767000038],[102.05165065900007,17.84871991800003],[102.03117756500006,17.938002380000057]]]}},{"type":"Feature","properties":{"code":"420406","name":"ชมเจริญ","parentCode":"4204"},"geometry":{"type":"Polygon","coordinates":[[[101.92505896100005,17.738911440000038],[101.89575730700005,17.80028321900005],[101.89226763400006,17.885492201000034],[101.83730919600004,17.86762533600006],[101.86031453900006,17.806074659000046],[101.86415448400004,17.766635889000042],[101.90171744300005,17.729618913000024],[101.91270523900005,17.65353030600005],[101.95317308100005,17.67667829100003],[101.92505896100005,17.738911440000038]]]}},{"type":"Feature","properties":{"code":"420307","name":"จอมศรี","parentCode":"4203"},"geometry":{"type":"Polygon","coordinates":[[[101.78751273400007,17.754941381000037],[101.75870300300005,17.79593242900006],[101.71337939500006,17.78150015600005],[101.67325133400004,17.762057044000073],[101.68644649500004,17.751949827000033],[101.78751273400007,17.754941381000037]]]}},{"type":"Feature","properties":{"code":"420501","name":"ด่านซ้าย","parentCode":"4205"},"geometry":{"type":"Polygon","coordinates":[[[101.17205105600004,17.307716038000024],[101.11892984700006,17.313383087000034],[101.08314309600007,17.279817594000065],[101.10798639800004,17.216353066000067],[101.07512771100005,17.169991048000043],[101.12462777900004,17.168813128000068],[101.14771944900008,17.224477791000027],[101.20980957700004,17.228736755000057],[101.21060372800008,17.26294842300007],[101.19954425200007,17.293867442000078],[101.17205105600004,17.307716038000024]]]}},{"type":"Feature","properties":{"code":"421301","name":"เอราวัณ","parentCode":"4213"},"geometry":{"type":"Polygon","coordinates":[[[101.91840633700008,17.409077555000067],[101.86471040600009,17.41759230400004],[101.90760735700007,17.314271930000075],[101.91552498100003,17.31369601700004],[101.93435970200005,17.36846629400003],[101.99464055100003,17.398253268000076],[101.98930524700006,17.403618039000037],[101.91840633700008,17.409077555000067]]]}},{"type":"Feature","properties":{"code":"420403","name":"หาดคัมภีร์","parentCode":"4204"},"geometry":{"type":"Polygon","coordinates":[[[102.10565660800006,18.213514564000036],[102.04379983400008,18.199130722000064],[102.03273584100003,18.161480399000027],[101.97841297200006,18.117478875000074],[102.01579155300004,18.075358078000022],[102.01782047600005,17.98262138000007],[102.03890222600006,17.994130032000044],[102.05513989400004,18.086168997000073],[102.06933256700006,18.13901542900004],[102.10142903400003,18.162238374000026],[102.10565660800006,18.213514564000036]]]}},{"type":"Feature","properties":{"code":"420308","name":"หาดทรายขาว","parentCode":"4203"},"geometry":{"type":"Polygon","coordinates":[[[101.67325133400004,17.762057044000073],[101.65095188100008,17.769331329000067],[101.57922949100004,17.72196296000004],[101.59195473500006,17.685307200000068],[101.63346591200008,17.722021737000034],[101.68293216700005,17.721136019000028],[101.68644649500004,17.751949827000033],[101.67325133400004,17.762057044000073]]]}},{"type":"Feature","properties":{"code":"420404","name":"ห้วยบ่อซืน","parentCode":"4204"},"geometry":{"type":"Polygon","coordinates":[[[102.05165065900007,17.84871991800003],[102.01886285100005,17.843359767000038],[101.92505896100005,17.738911440000038],[101.95317308100005,17.67667829100003],[102.02361721800008,17.634794096000064],[102.03643160000007,17.65029137500005],[102.01780119400007,17.74634396500005],[102.03921710900005,17.80122395500007],[102.05165065900007,17.84871991800003]]]}},{"type":"Feature","properties":{"code":"420405","name":"ห้วยพิชัย","parentCode":"4204"},"geometry":{"type":"Polygon","coordinates":[[[102.01782047600005,17.98262138000007],[102.01579155300004,18.075358078000022],[101.97841297200006,18.117478875000074],[101.91038394000009,18.035157643000048],[101.93567961200006,18.008685134000075],[101.94264242300005,17.933466356000054],[101.98988482200008,17.917820730000074],[102.03117756500006,17.938002380000057],[102.01782047600005,17.98262138000007]]]}},{"type":"Feature","properties":{"code":"421104","name":"ห้วยสีเสียด","parentCode":"4211"},"geometry":{"type":"Polygon","coordinates":[[[101.78810188900007,17.18084512200005],[101.71722791000008,17.205116514000053],[101.70574723800007,17.17507063900007],[101.72805713900004,17.175853462000077],[101.71498784000005,17.099502449000056],[101.71633018500006,17.059781816000054],[101.75786182600007,17.080790837000052],[101.75589475200007,17.14400835600003],[101.78810188900007,17.18084512200005]]]}},{"type":"Feature","properties":{"code":"421010","name":"ห้วยส้ม","parentCode":"4210"},"geometry":{"type":"Polygon","coordinates":[[[101.92237804200005,16.99294154200004],[101.87137956800007,16.988311148000037],[101.91686973700007,16.942570138000065],[101.88827108500004,16.886396002000026],[101.95065457400005,16.894625709000024],[101.94794731400003,16.976928051000073],[101.92237804200005,16.99294154200004]]]}},{"type":"Feature","properties":{"code":"420506","name":"อิปุ่ม","parentCode":"4205"},"geometry":{"type":"Polygon","coordinates":[[[101.28941658200006,17.236212238000064],[101.23460439700006,17.275162312000077],[101.21060372800008,17.26294842300007],[101.20980957700004,17.228736755000057],[101.21898649700006,17.108235114000024],[101.18843519100005,17.06596998200007],[101.22623441800005,17.075855975000025],[101.31819373600007,17.13669036600004],[101.27912222800006,17.175747425000054],[101.28941658200006,17.236212238000064]]]}},{"type":"Feature","properties":{"code":"421106","name":"แก่งศรีภูมิ","parentCode":"4211"},"geometry":{"type":"Polygon","coordinates":[[[101.71498784000005,17.099502449000056],[101.68192425300003,17.129736430000037],[101.64097225800003,17.092674334000037],[101.62934590800006,17.053228213000068],[101.62878108000007,17.045208407000075],[101.67256251300006,16.958673313000077],[101.70931641600004,16.994166536000023],[101.71633018500006,17.059781816000054],[101.71498784000005,17.099502449000056]]]}},{"type":"Feature","properties":{"code":"420304","name":"เขาแก้ว","parentCode":"4203"},"geometry":{"type":"Polygon","coordinates":[[[101.83730919600004,17.86762533600006],[101.80127205200006,17.878407742000036],[101.73628463100005,17.861775435000027],[101.70551380800003,17.844738078000034],[101.71337939500006,17.78150015600005],[101.75870300300005,17.79593242900006],[101.78751273400007,17.754941381000037],[101.86031453900006,17.806074659000046],[101.83730919600004,17.86762533600006]]]}},{"type":"Feature","properties":{"code":"420911","name":"เขาหลวง","parentCode":"4209"},"geometry":{"type":"Polygon","coordinates":[[[101.69744689100008,17.368283820000045],[101.64000294100003,17.357448936000026],[101.61682688500008,17.307201521000025],[101.58583143400006,17.331972110000038],[101.52163570500005,17.333202803000063],[101.53121302300008,17.27609284700003],[101.55857784500006,17.245356849000075],[101.72232418600004,17.31467423600003],[101.70641297600008,17.335551993000024],[101.69744689100008,17.368283820000045]]]}},{"type":"Feature","properties":{"code":"420912","name":"โคกขมิ้น","parentCode":"4209"},"geometry":{"type":"Polygon","coordinates":[[[101.94883182000007,17.204147586000033],[101.89387298900004,17.19448917400007],[101.83648432000007,17.22544407500004],[101.80004341600005,17.196407599000054],[101.82367022100004,17.15630599900004],[101.90976144000007,17.135308421000047],[101.95989845800005,17.139779048000037],[101.98189076200003,17.154254949000062],[101.94883182000007,17.204147586000033]]]}},{"type":"Feature","properties":{"code":"420504","name":"โคกงาม","parentCode":"4205"},"geometry":{"type":"Polygon","coordinates":[[[101.25960935500007,17.44497261600003],[101.19831849300004,17.426755571000058],[101.17068509100005,17.350533203000055],[101.17205105600004,17.307716038000024],[101.19954425200007,17.293867442000078],[101.24389542600005,17.348336523000057],[101.27786584300009,17.33039231500004],[101.29696226700008,17.35275160300006],[101.27516139000005,17.425880126000038],[101.25960935500007,17.44497261600003]]]}},{"type":"Feature","properties":{"code":"420805","name":"โคกใหญ่","parentCode":"4208"},"geometry":{"type":"Polygon","coordinates":[[[101.53932872900003,17.58813064700007],[101.49615314500005,17.607848801000046],[101.44034326100007,17.515017983000064],[101.44604193700007,17.472059544000047],[101.50143988800005,17.503294921000077],[101.51980972700005,17.537061159000075],[101.53932872900003,17.58813064700007]]]}},{"type":"Feature","properties":{"code":"420104","name":"กกดู่","parentCode":"4201"},"geometry":{"type":"Polygon","coordinates":[[[101.67259054800007,17.63830452600007],[101.58637953000004,17.673900152000044],[101.53932872900003,17.58813064700007],[101.51980972700005,17.537061159000075],[101.58961362000008,17.55137393700005],[101.66734998600003,17.563268184000037],[101.66768369000005,17.58449325600003],[101.67066968700004,17.592468680000025],[101.67259054800007,17.63830452600007]]]}},{"type":"Feature","properties":{"code":"420507","name":"กกสะทอน","parentCode":"4205"},"geometry":{"type":"Polygon","coordinates":[[[101.12462777900004,17.168813128000068],[101.07512771100005,17.169991048000043],[101.05120220500004,17.115306556000064],[101.05826103500004,17.028762648000054],[101.04620945700003,16.98659488100003],[101.02668548600008,16.943896151000047],[101.07148949800006,16.924477397000032],[101.06702827300006,16.902846108000062],[101.07904047000005,16.899557526000024],[101.10053165400006,16.911551690000067],[101.11413747000006,16.978284177000035],[101.12891512400006,17.026580632000048],[101.14857194600006,17.16690155300006],[101.12462777900004,17.168813128000068]]]}},{"type":"Feature","properties":{"code":"420114","name":"กกทอง","parentCode":"4201"},"geometry":{"type":"Polygon","coordinates":[[[101.58961362000008,17.55137393700005],[101.51980972700005,17.537061159000075],[101.50143988800005,17.503294921000077],[101.52149911300006,17.48893687700007],[101.61955851500005,17.498032073000047],[101.58961362000008,17.55137393700005]]]}},{"type":"Feature","properties":{"code":"420101","name":"กุดป่อง","parentCode":"4201"},"geometry":{"type":"Polygon","coordinates":[[[101.73541563000003,17.51162855900003],[101.71877300900007,17.482860397000024],[101.75834699500007,17.477784951000046],[101.73541563000003,17.51162855900003]]]}},{"type":"Feature","properties":{"code":"420605","name":"เหล่ากอหก","parentCode":"4206"},"geometry":{"type":"Polygon","coordinates":[[[100.96753068000004,17.571498383000062],[100.87928936200007,17.583796868000036],[100.87182919100007,17.529179433000024],[100.83478361100003,17.46848562200006],[100.89433754200007,17.465579904000037],[100.94588721300005,17.564155882000023],[100.96753068000004,17.571498383000062]]]}},{"type":"Feature","properties":{"code":"420705","name":"ลาดค่าง","parentCode":"4207"},"geometry":{"type":"Polygon","coordinates":[[[101.34535941800004,17.51496590100004],[101.27306607100007,17.567870725000034],[101.24740515400003,17.562356350000073],[101.22462436200004,17.533638850000045],[101.26532062100006,17.495754558000044],[101.25960935500007,17.44497261600003],[101.27516139000005,17.425880126000038],[101.29601247900007,17.43243528200003],[101.31098669000005,17.48686341900003],[101.34535941800004,17.51496590100004]]]}},{"type":"Feature","properties":{"code":"421105","name":"เลยวังไสย์","parentCode":"4211"},"geometry":{"type":"Polygon","coordinates":[[[101.56895829000007,17.171367015000044],[101.46971134000006,17.172201061000067],[101.47503018200007,17.08921573600003],[101.50427930500007,17.010135199000047],[101.53359369800006,17.02319238000007],[101.56320644900006,16.989817724000034],[101.61297585800008,17.004288649000046],[101.62878108000007,17.045208407000075],[101.62934590800006,17.053228213000068],[101.60531615000008,17.05674799700006],[101.56895829000007,17.171367015000044]]]}},{"type":"Feature","properties":{"code":"420102","name":"เมือง","parentCode":"4201"},"geometry":{"type":"Polygon","coordinates":[[[101.74456178700007,17.559506905000035],[101.66768369000005,17.58449325600003],[101.66734998600003,17.563268184000037],[101.69983662900006,17.472941933000072],[101.71877300900007,17.482860397000024],[101.73541563000003,17.51162855900003],[101.74456178700007,17.559506905000035]]]}},{"type":"Feature","properties":{"code":"420107","name":"นาอาน","parentCode":"4201"},"geometry":{"type":"Polygon","coordinates":[[[101.81298831000004,17.488782402000027],[101.75834699500007,17.477784951000046],[101.71877300900007,17.482860397000024],[101.69983662900006,17.472941933000072],[101.67353019100005,17.47596470800005],[101.66417832200005,17.445471780000048],[101.70853752200009,17.428168971000048],[101.77700498600007,17.431193922000034],[101.81298831000004,17.488782402000027]]]}},{"type":"Feature","properties":{"code":"420503","name":"นาดี","parentCode":"4205"},"geometry":{"type":"Polygon","coordinates":[[[101.19831849300004,17.426755571000058],[101.17935327600009,17.495768311000063],[101.16363413500005,17.469633901000066],[101.11217552500005,17.47900489700004],[101.10790414400009,17.457009483000036],[101.10728845400007,17.38871787000005],[101.11662635500005,17.376577277000024],[101.17068509100005,17.350533203000055],[101.19831849300004,17.426755571000058]]]}},{"type":"Feature","properties":{"code":"420109","name":"นาดินดำ","parentCode":"4201"},"geometry":{"type":"Polygon","coordinates":[[[101.87771905100004,17.501411430000076],[101.82892949500007,17.52657109100005],[101.81298831000004,17.488782402000027],[101.77700498600007,17.431193922000034],[101.76142897800008,17.40154036200005],[101.77508134000004,17.390399857000034],[101.79716640300006,17.37518095300004],[101.86471040600009,17.41759230400004],[101.91840633700008,17.409077555000067],[101.91021555300006,17.457225753000046],[101.87771905100004,17.501411430000076]]]}},{"type":"Feature","properties":{"code":"420202","name":"นาดอกคำ","parentCode":"4202"},"geometry":{"type":"Polygon","coordinates":[[[101.95317308100005,17.67667829100003],[101.91270523900005,17.65353030600005],[101.87209466600007,17.578144947000055],[101.89739945600007,17.54840051900004],[101.94073487600008,17.522791771000072],[102.00573040700004,17.50865854700004],[102.07942914000006,17.567971105000026],[102.13537707400008,17.552272738000056],[102.08322637300006,17.634323248000044],[102.03643160000007,17.65029137500005],[102.02361721800008,17.634794096000064],[101.95317308100005,17.67667829100003]]]}},{"type":"Feature","properties":{"code":"420201","name":"นาด้วง","parentCode":"4202"},"geometry":{"type":"Polygon","coordinates":[[[102.13537707400008,17.552272738000056],[102.07942914000006,17.567971105000026],[102.00573040700004,17.50865854700004],[101.94073487600008,17.522791771000072],[101.95581674300007,17.466361922000033],[101.98220881400005,17.414812382000036],[101.98749858300005,17.454091351000045],[102.08215575600008,17.461304830000074],[102.10505463100009,17.446807810000053],[102.12704722300003,17.456894702000056],[102.12917542900004,17.49785743700005],[102.12883218200005,17.498590970000066],[102.13537707400008,17.552272738000056]]]}},{"type":"Feature","properties":{"code":"420601","name":"นาแห้ว","parentCode":"4206"},"geometry":{"type":"Polygon","coordinates":[[[101.11217552500005,17.47900489700004],[101.04022656800004,17.541264479000063],[101.02170411700007,17.494266432000074],[100.92460887900006,17.420479915000044],[101.03771692000004,17.451579269000035],[101.10790414400009,17.457009483000036],[101.11217552500005,17.47900489700004]]]}},{"type":"Feature","properties":{"code":"420510","name":"นาหอ","parentCode":"4205"},"geometry":{"type":"Polygon","coordinates":[[[101.17068509100005,17.350533203000055],[101.11662635500005,17.376577277000024],[101.11892984700006,17.313383087000034],[101.17205105600004,17.307716038000024],[101.17068509100005,17.350533203000055]]]}},{"type":"Feature","properties":{"code":"420112","name":"นาแขม","parentCode":"4201"},"geometry":{"type":"Polygon","coordinates":[[[101.68293216700005,17.721136019000028],[101.63346591200008,17.722021737000034],[101.59195473500006,17.685307200000068],[101.58637953000004,17.673900152000044],[101.67259054800007,17.63830452600007],[101.73493386500007,17.686225361000027],[101.68293216700005,17.721136019000028]]]}},{"type":"Feature","properties":{"code":"420604","name":"นามาลา","parentCode":"4206"},"geometry":{"type":"Polygon","coordinates":[[[101.10728845400007,17.38871787000005],[100.94482229200008,17.38602830900004],[100.91653515600007,17.395361732000026],[100.91367983200007,17.342615238000064],[100.95532993000006,17.337625307000053],[100.99292998600004,17.34142722000007],[101.02374438400005,17.31133283300005],[101.08314309600007,17.279817594000065],[101.11892984700006,17.313383087000034],[101.11662635500005,17.376577277000024],[101.10728845400007,17.38871787000005]]]}},{"type":"Feature","properties":{"code":"420103","name":"นาอ้อ","parentCode":"4201"},"geometry":{"type":"Polygon","coordinates":[[[101.79429299800006,17.596231766000074],[101.67066968700004,17.592468680000025],[101.66768369000005,17.58449325600003],[101.74456178700007,17.559506905000035],[101.79557060000008,17.581629606000035],[101.79429299800006,17.596231766000074]]]}},{"type":"Feature","properties":{"code":"420603","name":"นาพึง","parentCode":"4206"},"geometry":{"type":"Polygon","coordinates":[[[101.10728845400007,17.38871787000005],[101.10790414400009,17.457009483000036],[101.03771692000004,17.451579269000035],[100.92460887900006,17.420479915000044],[100.91653515600007,17.395361732000026],[100.94482229200008,17.38602830900004],[101.10728845400007,17.38871787000005]]]}},{"type":"Feature","properties":{"code":"420108","name":"นาโป่ง","parentCode":"4201"},"geometry":{"type":"Polygon","coordinates":[[[101.77700498600007,17.431193922000034],[101.70853752200009,17.428168971000048],[101.66417832200005,17.445471780000048],[101.59876863500006,17.39672897500003],[101.64000294100003,17.357448936000026],[101.69744689100008,17.368283820000045],[101.76142897800008,17.40154036200005],[101.77700498600007,17.431193922000034]]]}},{"type":"Feature","properties":{"code":"420303","name":"นาซ่าว","parentCode":"4203"},"geometry":{"type":"Polygon","coordinates":[[[101.70551380800003,17.844738078000034],[101.63665373900005,17.86217038600006],[101.61524076600006,17.844750644000044],[101.65095188100008,17.769331329000067],[101.67325133400004,17.762057044000073],[101.71337939500006,17.78150015600005],[101.70551380800003,17.844738078000034]]]}},{"type":"Feature","properties":{"code":"420804","name":"น้ำแคม","parentCode":"4208"},"geometry":{"type":"Polygon","coordinates":[[[101.57922949100004,17.72196296000004],[101.52187466500004,17.776511897000034],[101.46620021200005,17.747192340000026],[101.49615314500005,17.607848801000046],[101.53932872900003,17.58813064700007],[101.58637953000004,17.673900152000044],[101.59195473500006,17.685307200000068],[101.57922949100004,17.72196296000004]]]}},{"type":"Feature","properties":{"code":"420105","name":"น้ำหมาน","parentCode":"4201"},"geometry":{"type":"Polygon","coordinates":[[[101.69983662900006,17.472941933000072],[101.66734998600003,17.563268184000037],[101.58961362000008,17.55137393700005],[101.61955851500005,17.498032073000047],[101.67353019100005,17.47596470800005],[101.69983662900006,17.472941933000072]]]}},{"type":"Feature","properties":{"code":"420110","name":"น้ำสวย","parentCode":"4201"},"geometry":{"type":"Polygon","coordinates":[[[101.91270523900005,17.65353030600005],[101.90171744300005,17.729618913000024],[101.83780326900006,17.677537622000045],[101.78691585400009,17.67853848900006],[101.79429299800006,17.596231766000074],[101.79557060000008,17.581629606000035],[101.79768818700006,17.530449970000063],[101.82892949500007,17.52657109100005],[101.87771905100004,17.501411430000076],[101.89739945600007,17.54840051900004],[101.87209466600007,17.578144947000055],[101.91270523900005,17.65353030600005]]]}},{"type":"Feature","properties":{"code":"420806","name":"น้ำทูน","parentCode":"4208"},"geometry":{"type":"Polygon","coordinates":[[[101.32206072300005,17.60401661700007],[101.29198284200004,17.62588385300006],[101.24740515400003,17.562356350000073],[101.27306607100007,17.567870725000034],[101.34535941800004,17.51496590100004],[101.37046091600007,17.486949654000057],[101.40693486200007,17.510145402000035],[101.32206072300005,17.60401661700007]]]}},{"type":"Feature","properties":{"code":"421204","name":"โนนป่าซาง","parentCode":"4212"},"geometry":{"type":"Polygon","coordinates":[[[102.03505159700006,17.149273652000034],[101.99478064300007,17.151182600000027],[102.03085722700007,17.083241206000025],[102.06922347100004,17.06710985500007],[102.10605999500007,17.06160017600007],[102.09966234600006,17.09825515800003],[102.03505159700006,17.149273652000034]]]}},{"type":"Feature","properties":{"code":"421203","name":"โนนปอแดง","parentCode":"4212"},"geometry":{"type":"Polygon","coordinates":[[[101.99478064300007,17.151182600000027],[101.98189076200003,17.154254949000062],[101.95989845800005,17.139779048000037],[101.99520560100007,17.079655209000066],[102.00744796700008,17.014927414000056],[101.94794731400003,16.976928051000073],[102.02921120600007,16.950674611000068],[102.06272702600006,16.96328687700003],[102.04252909700006,17.01597272300006],[102.06922347100004,17.06710985500007],[102.03085722700007,17.083241206000025],[101.99478064300007,17.151182600000027]]]}},{"type":"Feature","properties":{"code":"420701","name":"หนองบัว","parentCode":"4207"},"geometry":{"type":"Polygon","coordinates":[[[101.37046091600007,17.486949654000057],[101.34535941800004,17.51496590100004],[101.31098669000005,17.48686341900003],[101.29601247900007,17.43243528200003],[101.34658170100005,17.423088517000053],[101.38852455800009,17.424554261000026],[101.41357651700008,17.438889945000028],[101.44604193700007,17.472059544000047],[101.37046091600007,17.486949654000057]]]}},{"type":"Feature","properties":{"code":"421401","name":"หนองหิน","parentCode":"4214"},"geometry":{"type":"Polygon","coordinates":[[[101.90976144000007,17.135308421000047],[101.82367022100004,17.15630599900004],[101.80004341600005,17.196407599000054],[101.78810188900007,17.18084512200005],[101.84918216400007,17.114571613000066],[101.82447080800006,17.050147115000073],[101.88304520400004,17.07458171600007],[101.90904091300007,17.05031342500007],[101.91920881400006,17.05890798100006],[101.89873501500006,17.088584051000055],[101.90976144000007,17.135308421000047]]]}},{"type":"Feature","properties":{"code":"421102","name":"หนองคัน","parentCode":"4211"},"geometry":{"type":"Polygon","coordinates":[[[101.70574723800007,17.17507063900007],[101.65911932400007,17.14805591000004],[101.64097225800003,17.092674334000037],[101.68192425300003,17.129736430000037],[101.71498784000005,17.099502449000056],[101.72805713900004,17.175853462000077],[101.70574723800007,17.17507063900007]]]}},{"type":"Feature","properties":{"code":"420904","name":"หนองงิ้ว","parentCode":"4209"},"geometry":{"type":"Polygon","coordinates":[[[101.59876863500006,17.39672897500003],[101.56497652700006,17.441269483000042],[101.53513933300007,17.441086633000054],[101.51610404300004,17.410227387000077],[101.52163570500005,17.333202803000063],[101.58583143400006,17.331972110000038],[101.61682688500008,17.307201521000025],[101.64000294100003,17.357448936000026],[101.59876863500006,17.39672897500003]]]}},{"type":"Feature","properties":{"code":"420802","name":"หนองผือ","parentCode":"4208"},"geometry":{"type":"Polygon","coordinates":[[[101.46620021200005,17.747192340000026],[101.40328985800005,17.73548181500007],[101.42840466200005,17.71258963100007],[101.40130534400004,17.68269467300007],[101.39788264100008,17.65096104400004],[101.49615314500005,17.607848801000046],[101.46620021200005,17.747192340000026]]]}},{"type":"Feature","properties":{"code":"420903","name":"หนองหญ้าปล้อง","parentCode":"4209"},"geometry":{"type":"Polygon","coordinates":[[[101.90760735700007,17.314271930000075],[101.82311535200006,17.302481803000035],[101.83648432000007,17.22544407500004],[101.89387298900004,17.19448917400007],[101.94883182000007,17.204147586000033],[101.96078128100004,17.23987571200007],[101.90176735100005,17.279899371000056],[101.91552498100003,17.31369601700004],[101.90760735700007,17.314271930000075]]]}},{"type":"Feature","properties":{"code":"420401","name":"ปากชม","parentCode":"4204"},"geometry":{"type":"Polygon","coordinates":[[[101.91038394000009,18.035157643000048],[101.87387260100007,18.029100149000044],[101.77789930000006,18.06571195600003],[101.81778391500006,18.002482260000022],[101.85632533300009,17.97899084000005],[101.83730919600004,17.86762533600006],[101.89226763400006,17.885492201000034],[101.94264242300005,17.933466356000054],[101.93567961200006,18.008685134000075],[101.91038394000009,18.035157643000048]]]}},{"type":"Feature","properties":{"code":"420502","name":"ปากหมัน","parentCode":"4205"},"geometry":{"type":"Polygon","coordinates":[[[101.22462436200004,17.533638850000045],[101.17517602000004,17.523228798000048],[101.17935327600009,17.495768311000063],[101.19831849300004,17.426755571000058],[101.25960935500007,17.44497261600003],[101.26532062100006,17.495754558000044],[101.22462436200004,17.533638850000045]]]}},{"type":"Feature","properties":{"code":"420905","name":"ปากปวน","parentCode":"4209"},"geometry":{"type":"Polygon","coordinates":[[[101.77508134000004,17.390399857000034],[101.76142897800008,17.40154036200005],[101.69744689100008,17.368283820000045],[101.70641297600008,17.335551993000024],[101.77629994900008,17.31932517300004],[101.77508134000004,17.390399857000034]]]}},{"type":"Feature","properties":{"code":"420305","name":"ปากตม","parentCode":"4203"},"geometry":{"type":"Polygon","coordinates":[[[101.59234181700003,17.849175006000053],[101.57006853000007,17.86446309200005],[101.55280565100009,17.807794106000074],[101.57437987700007,17.78485798500003],[101.52187466500004,17.776511897000034],[101.57922949100004,17.72196296000004],[101.65095188100008,17.769331329000067],[101.61524076600006,17.844750644000044],[101.59234181700003,17.849175006000053]]]}},{"type":"Feature","properties":{"code":"420910","name":"ผาบิ้ง","parentCode":"4209"},"geometry":{"type":"Polygon","coordinates":[[[101.80004341600005,17.196407599000054],[101.75850743200004,17.26264974000003],[101.72682775400006,17.244320162000065],[101.69440112400008,17.23373205400003],[101.69149860100003,17.191486774000055],[101.71722791000008,17.205116514000053],[101.78810188900007,17.18084512200005],[101.80004341600005,17.196407599000054]]]}},{"type":"Feature","properties":{"code":"421302","name":"ผาอินทร์แปลง","parentCode":"4213"},"geometry":{"type":"Polygon","coordinates":[[[102.00718198400006,17.386734096000055],[101.99464055100003,17.398253268000076],[101.93435970200005,17.36846629400003],[101.91552498100003,17.31369601700004],[101.90176735100005,17.279899371000056],[101.96078128100004,17.23987571200007],[102.01342621000003,17.278370791000043],[101.98378893600005,17.316050173000065],[102.02026137300004,17.341204650000066],[102.01802537100008,17.37391334600005],[102.00718198400006,17.386734096000055]]]}},{"type":"Feature","properties":{"code":"421201","name":"ผาขาว","parentCode":"4212"},"geometry":{"type":"Polygon","coordinates":[[[101.94794731400003,16.976928051000073],[102.00744796700008,17.014927414000056],[101.99520560100007,17.079655209000066],[101.91920881400006,17.05890798100006],[101.90904091300007,17.05031342500007],[101.92237804200005,16.99294154200004],[101.94794731400003,16.976928051000073]]]}},{"type":"Feature","properties":{"code":"420906","name":"ผาน้อย","parentCode":"4209"},"geometry":{"type":"Polygon","coordinates":[[[101.90760735700007,17.314271930000075],[101.86471040600009,17.41759230400004],[101.79716640300006,17.37518095300004],[101.77508134000004,17.390399857000034],[101.77629994900008,17.31932517300004],[101.82311535200006,17.302481803000035],[101.90760735700007,17.314271930000075]]]}},{"type":"Feature","properties":{"code":"421005","name":"ผานกเค้า","parentCode":"4210"},"geometry":{"type":"Polygon","coordinates":[[[102.02921120600007,16.950674611000068],[101.94794731400003,16.976928051000073],[101.95065457400005,16.894625709000024],[101.88827108500004,16.886396002000026],[101.94051974900003,16.83570579900004],[102.02788715100007,16.861693409000054],[102.06606495600005,16.88666893800007],[102.06851828800006,16.88951912300007],[102.05541543000004,16.90086005300003],[102.02921120600007,16.950674611000068]]]}},{"type":"Feature","properties":{"code":"421303","name":"ผาสามยอด","parentCode":"4213"},"geometry":{"type":"Polygon","coordinates":[[[102.03194845300004,17.196213374000024],[102.03536729700005,17.219347148000054],[102.09677992100006,17.177071660000024],[102.07706919300006,17.248203948000025],[102.01342621000003,17.278370791000043],[101.96078128100004,17.23987571200007],[101.98987534400004,17.244046828000023],[102.03194845300004,17.196213374000024]]]}},{"type":"Feature","properties":{"code":"420505","name":"โพนสูง","parentCode":"4205"},"geometry":{"type":"Polygon","coordinates":[[[101.27786584300009,17.33039231500004],[101.24389542600005,17.348336523000057],[101.19954425200007,17.293867442000078],[101.21060372800008,17.26294842300007],[101.23460439700006,17.275162312000077],[101.28941658200006,17.236212238000064],[101.30736532800006,17.265134081000042],[101.36954452300006,17.282936591000066],[101.36525443700003,17.293387764000045],[101.29267739400007,17.308534886000075],[101.27786584300009,17.33039231500004]]]}},{"type":"Feature","properties":{"code":"421101","name":"ภูหอ","parentCode":"4211"},"geometry":{"type":"Polygon","coordinates":[[[101.70574723800007,17.17507063900007],[101.71722791000008,17.205116514000053],[101.69149860100003,17.191486774000055],[101.56895829000007,17.171367015000044],[101.60531615000008,17.05674799700006],[101.62934590800006,17.053228213000068],[101.64097225800003,17.092674334000037],[101.65911932400007,17.14805591000004],[101.70574723800007,17.17507063900007]]]}},{"type":"Feature","properties":{"code":"421007","name":"ภูกระดึง","parentCode":"4210"},"geometry":{"type":"Polygon","coordinates":[[[101.88827108500004,16.886396002000026],[101.91686973700007,16.942570138000065],[101.87137956800007,16.988311148000037],[101.82447080800006,17.050147115000073],[101.82462270200006,17.018558404000032],[101.82829084800005,16.948200816000053],[101.87665527100006,16.86544149100007],[101.86474393000003,16.793205484000055],[101.94050979700006,16.83570025000006],[101.94051974900003,16.83570579900004],[101.88827108500004,16.886396002000026]]]}},{"type":"Feature","properties":{"code":"420704","name":"ปลาบ่า","parentCode":"4207"},"geometry":{"type":"Polygon","coordinates":[[[101.38852455800009,17.424554261000026],[101.34658170100005,17.423088517000053],[101.34897300800009,17.350105409000037],[101.40038421200006,17.32676232800003],[101.36525443700003,17.293387764000045],[101.36954452300006,17.282936591000066],[101.38335747500008,17.261519919000023],[101.47201555900006,17.28010312600003],[101.47041282400005,17.33388101500003],[101.38852455800009,17.424554261000026]]]}},{"type":"Feature","properties":{"code":"420508","name":"โป่ง","parentCode":"4205"},"geometry":{"type":"Polygon","coordinates":[[[101.20980957700004,17.228736755000057],[101.14771944900008,17.224477791000027],[101.12462777900004,17.168813128000068],[101.14857194600006,17.16690155300006],[101.12891512400006,17.026580632000048],[101.15607196900004,17.03446468100003],[101.18843519100005,17.06596998200007],[101.21898649700006,17.108235114000024],[101.20980957700004,17.228736755000057]]]}},{"type":"Feature","properties":{"code":"421403","name":"ปวนพุ","parentCode":"4214"},"geometry":{"type":"Polygon","coordinates":[[[101.82447080800006,17.050147115000073],[101.84918216400007,17.114571613000066],[101.78810188900007,17.18084512200005],[101.75589475200007,17.14400835600003],[101.75786182600007,17.080790837000052],[101.71633018500006,17.059781816000054],[101.70931641600004,16.994166536000023],[101.71499681100005,16.97772129300006],[101.82462270200006,17.018558404000032],[101.82447080800006,17.050147115000073]]]}},{"type":"Feature","properties":{"code":"420703","name":"ร่องจิก","parentCode":"4207"},"geometry":{"type":"Polygon","coordinates":[[[101.34658170100005,17.423088517000053],[101.29601247900007,17.43243528200003],[101.27516139000005,17.425880126000038],[101.29696226700008,17.35275160300006],[101.27786584300009,17.33039231500004],[101.29267739400007,17.308534886000075],[101.36525443700003,17.293387764000045],[101.40038421200006,17.32676232800003],[101.34897300800009,17.350105409000037],[101.34658170100005,17.423088517000053]]]}},{"type":"Feature","properties":{"code":"420602","name":"แสงภา","parentCode":"4206"},"geometry":{"type":"Polygon","coordinates":[[[101.04022656800004,17.541264479000063],[100.96788010400007,17.571621966000066],[100.96753068000004,17.571498383000062],[100.94588721300005,17.564155882000023],[100.89433754200007,17.465579904000037],[100.92460887900006,17.420479915000044],[101.02170411700007,17.494266432000074],[101.04022656800004,17.541264479000063]]]}},{"type":"Feature","properties":{"code":"420902","name":"ทรายขาว","parentCode":"4209"},"geometry":{"type":"Polygon","coordinates":[[[101.72682775400006,17.244320162000065],[101.72232418600004,17.31467423600003],[101.55857784500006,17.245356849000075],[101.53121302300008,17.27609284700003],[101.47201555900006,17.28010312600003],[101.46971134000006,17.172201061000067],[101.56895829000007,17.171367015000044],[101.69149860100003,17.191486774000055],[101.69440112400008,17.23373205400003],[101.72682775400006,17.244320162000065]]]}},{"type":"Feature","properties":{"code":"420706","name":"สานตม","parentCode":"4207"},"geometry":{"type":"Polygon","coordinates":[[[101.50143988800005,17.503294921000077],[101.44604193700007,17.472059544000047],[101.41357651700008,17.438889945000028],[101.48071716400005,17.437726182000063],[101.51610404300004,17.410227387000077],[101.53513933300007,17.441086633000054],[101.52149911300006,17.48893687700007],[101.50143988800005,17.503294921000077]]]}},{"type":"Feature","properties":{"code":"421304","name":"ทรัพย์ไพวัลย์","parentCode":"4213"},"geometry":{"type":"Polygon","coordinates":[[[102.03194845300004,17.196213374000024],[101.98987534400004,17.244046828000023],[101.96078128100004,17.23987571200007],[101.94883182000007,17.204147586000033],[101.98189076200003,17.154254949000062],[101.99478064300007,17.151182600000027],[102.03505159700006,17.149273652000034],[102.04265503500005,17.167222561000074],[102.03194845300004,17.196213374000024]]]}},{"type":"Feature","properties":{"code":"420113","name":"ศรีสองรัก","parentCode":"4201"},"geometry":{"type":"Polygon","coordinates":[[[101.73493386500007,17.686225361000027],[101.67259054800007,17.63830452600007],[101.67066968700004,17.592468680000025],[101.79429299800006,17.596231766000074],[101.78691585400009,17.67853848900006],[101.73493386500007,17.686225361000027]]]}},{"type":"Feature","properties":{"code":"420913","name":"ศรีสงคราม","parentCode":"4209"},"geometry":{"type":"Polygon","coordinates":[[[101.82311535200006,17.302481803000035],[101.77629994900008,17.31932517300004],[101.75850743200004,17.26264974000003],[101.80004341600005,17.196407599000054],[101.83648432000007,17.22544407500004],[101.82311535200006,17.302481803000035]]]}},{"type":"Feature","properties":{"code":"421001","name":"ศรีฐาน","parentCode":"4210"},"geometry":{"type":"Polygon","coordinates":[[[101.86474393000003,16.793205484000055],[101.87665527100006,16.86544149100007],[101.82829084800005,16.948200816000053],[101.82462270200006,17.018558404000032],[101.71499681100005,16.97772129300006],[101.70931641600004,16.994166536000023],[101.67256251300006,16.958673313000077],[101.67777224900004,16.86789760100004],[101.71877720900005,16.815525940000043],[101.68638246800003,16.79848012100007],[101.73456731200008,16.75460272500004],[101.79724812800004,16.76901172500004],[101.86474206400004,16.79320213400007],[101.86474393000003,16.793205484000055]]]}},{"type":"Feature","properties":{"code":"420106","name":"เสี้ยว","parentCode":"4201"},"geometry":{"type":"Polygon","coordinates":[[[101.67353019100005,17.47596470800005],[101.61955851500005,17.498032073000047],[101.52149911300006,17.48893687700007],[101.53513933300007,17.441086633000054],[101.56497652700006,17.441269483000042],[101.59876863500006,17.39672897500003],[101.66417832200005,17.445471780000048],[101.67353019100005,17.47596470800005]]]}},{"type":"Feature","properties":{"code":"421402","name":"ตาดข่า","parentCode":"4214"},"geometry":{"type":"Polygon","coordinates":[[[101.90904091300007,17.05031342500007],[101.88304520400004,17.07458171600007],[101.82447080800006,17.050147115000073],[101.87137956800007,16.988311148000037],[101.92237804200005,16.99294154200004],[101.90904091300007,17.05031342500007]]]}},{"type":"Feature","properties":{"code":"421202","name":"ท่าช้างคล้อง","parentCode":"4212"},"geometry":{"type":"Polygon","coordinates":[[[102.10605999500007,17.06160017600007],[102.06922347100004,17.06710985500007],[102.04252909700006,17.01597272300006],[102.06272702600006,16.96328687700003],[102.15540467900007,17.024565831000075],[102.11764444500005,17.057613936000052],[102.10605999500007,17.06160017600007]]]}},{"type":"Feature","properties":{"code":"420801","name":"ท่าลี่","parentCode":"4208"},"geometry":{"type":"Polygon","coordinates":[[[101.49615314500005,17.607848801000046],[101.39788264100008,17.65096104400004],[101.37403116700006,17.618448073000025],[101.32206072300005,17.60401661700007],[101.40693486200007,17.510145402000035],[101.37046091600007,17.486949654000057],[101.44604193700007,17.472059544000047],[101.44034326100007,17.515017983000064],[101.49615314500005,17.607848801000046]]]}},{"type":"Feature","properties":{"code":"420203","name":"ท่าสะอาด","parentCode":"4202"},"geometry":{"type":"Polygon","coordinates":[[[101.94073487600008,17.522791771000072],[101.89739945600007,17.54840051900004],[101.87771905100004,17.501411430000076],[101.91021555300006,17.457225753000046],[101.95581674300007,17.466361922000033],[101.94073487600008,17.522791771000072]]]}},{"type":"Feature","properties":{"code":"420702","name":"ท่าศาลา","parentCode":"4207"},"geometry":{"type":"Polygon","coordinates":[[[101.51610404300004,17.410227387000077],[101.48071716400005,17.437726182000063],[101.41357651700008,17.438889945000028],[101.38852455800009,17.424554261000026],[101.47041282400005,17.33388101500003],[101.47201555900006,17.28010312600003],[101.53121302300008,17.27609284700003],[101.52163570500005,17.333202803000063],[101.51610404300004,17.410227387000077]]]}},{"type":"Feature","properties":{"code":"420204","name":"ท่าสวรรค์","parentCode":"4202"},"geometry":{"type":"Polygon","coordinates":[[[101.98220881400005,17.414812382000036],[101.95581674300007,17.466361922000033],[101.91021555300006,17.457225753000046],[101.91840633700008,17.409077555000067],[101.98930524700006,17.403618039000037],[101.98220881400005,17.414812382000036]]]}},{"type":"Feature","properties":{"code":"420302","name":"ธาตุ","parentCode":"4203"},"geometry":{"type":"Polygon","coordinates":[[[101.86031453900006,17.806074659000046],[101.78751273400007,17.754941381000037],[101.68644649500004,17.751949827000033],[101.68293216700005,17.721136019000028],[101.73493386500007,17.686225361000027],[101.78691585400009,17.67853848900006],[101.83780326900006,17.677537622000045],[101.90171744300005,17.729618913000024],[101.86415448400004,17.766635889000042],[101.86031453900006,17.806074659000046]]]}},{"type":"Feature","properties":{"code":"420901","name":"วังสะพุง","parentCode":"4209"},"geometry":{"type":"Polygon","coordinates":[[[101.77629994900008,17.31932517300004],[101.70641297600008,17.335551993000024],[101.72232418600004,17.31467423600003],[101.72682775400006,17.244320162000065],[101.75850743200004,17.26264974000003],[101.77629994900008,17.31932517300004]]]}},{"type":"Feature","properties":{"code":"420509","name":"วังยาว","parentCode":"4205"},"geometry":{"type":"Polygon","coordinates":[[[101.47201555900006,17.28010312600003],[101.38335747500008,17.261519919000023],[101.36954452300006,17.282936591000066],[101.30736532800006,17.265134081000042],[101.28941658200006,17.236212238000064],[101.27912222800006,17.175747425000054],[101.31819373600007,17.13669036600004],[101.39847884100004,17.17797431400004],[101.45274086900008,17.139571088000025],[101.46817304500007,17.093047195000054],[101.47503018200007,17.08921573600003],[101.46971134000006,17.172201061000067],[101.47201555900006,17.28010312600003]]]}}]}