{"type":"FeatureCollection","features":[{"type":"Feature","properties":{"code":"430109","name":"บ้านเดื่อ","parentCode":"4301"},"geometry":{"type":"Polygon","coordinates":[[[103.00973337000005,17.977157033000026],[102.96005815200004,18.00543953400006],[102.89855964500003,17.98175873400004],[102.90631413000006,17.95331800500003],[102.96007303500005,17.96547552000004],[102.98773299600003,17.97237426600003],[103.00973337000005,17.977157033000026]]]}},{"type":"Feature","properties":{"code":"430205","name":"บ้านเดื่อ","parentCode":"4302"},"geometry":{"type":"Polygon","coordinates":[[[102.61090821800008,17.801337843000056],[102.60293397400005,17.815585516000056],[102.54531829700005,17.791687945000035],[102.57048418400007,17.728550015000053],[102.59637317900007,17.746245249000026],[102.61090821800008,17.801337843000056]]]}},{"type":"Feature","properties":{"code":"431403","name":"บ้านฝาง","parentCode":"4314"},"geometry":{"type":"Polygon","coordinates":[[[102.70835558300007,17.698778632000028],[102.65098062300007,17.70585277500004],[102.61187369600003,17.683474919000048],[102.59837472900006,17.665211115000034],[102.59670904000006,17.622550752000052],[102.64665013000007,17.611980764000066],[102.69450676800005,17.62102373700003],[102.71732796500004,17.656994690000033],[102.70835558300007,17.698778632000028]]]}},{"type":"Feature","properties":{"code":"430703","name":"บ้านหม้อ","parentCode":"4307"},"geometry":{"type":"Polygon","coordinates":[[[102.55529867200005,17.96997702300007],[102.46458743700003,17.969693237000058],[102.44808119200007,17.93964152700005],[102.45992178600005,17.93548273600004],[102.53501873600004,17.941613507000056],[102.55529867200005,17.96997702300007]]]}},{"type":"Feature","properties":{"code":"430803","name":"บ้านม่วง","parentCode":"4308"},"geometry":{"type":"Polygon","coordinates":[[[102.20641364500005,18.131387070000073],[102.16396782800007,18.20349379700002],[102.10565660800006,18.213514564000036],[102.10142903400003,18.162238374000026],[102.16607632000006,18.13763332800005],[102.18200180500008,18.096732600000053],[102.20641364500005,18.131387070000073]]]}},{"type":"Feature","properties":{"code":"430513","name":"บ้านโพธิ์","parentCode":"4305"},"geometry":{"type":"Polygon","coordinates":[[[103.24837412500005,17.922616396000024],[103.22888923300007,17.876341925000077],[103.27562276500004,17.844632554000043],[103.32983676200007,17.824585368000044],[103.35890542900006,17.856837622000057],[103.31141174400005,17.887602111000035],[103.24837412500005,17.922616396000024]]]}},{"type":"Feature","properties":{"code":"430521","name":"บ้านผือ","parentCode":"4305"},"geometry":{"type":"Polygon","coordinates":[[[103.24457798400005,17.995955906000063],[103.19302170600008,17.991279802000065],[103.17173090100005,17.95539931600007],[103.15914397000006,17.92261419500005],[103.20847140900008,17.873210768000035],[103.22888923300007,17.876341925000077],[103.24837412500005,17.922616396000024],[103.25132060800007,17.95639175200006],[103.24457798400005,17.995955906000063]]]}},{"type":"Feature","properties":{"code":"430206","name":"บ้านถ่อน","parentCode":"4302"},"geometry":{"type":"Polygon","coordinates":[[[102.65011052300008,17.79404959200002],[102.61090821800008,17.801337843000056],[102.59637317900007,17.746245249000026],[102.63449667200007,17.716057117000048],[102.65927473800008,17.732742040000062],[102.66560273500005,17.75093630500004],[102.65011052300008,17.79404959200002]]]}},{"type":"Feature","properties":{"code":"431603","name":"บ้านต้อน","parentCode":"4316"},"geometry":{"type":"Polygon","coordinates":[[[103.29651404800006,18.294132793000074],[103.29858912300006,18.305247632000032],[103.22663870100007,18.278135516000077],[103.26466984800004,18.24107606700005],[103.29835863500006,18.289575822000074],[103.29651404800006,18.294132793000074]]]}},{"type":"Feature","properties":{"code":"430207","name":"บ้านว่าน","parentCode":"4302"},"geometry":{"type":"Polygon","coordinates":[[[102.54531829700005,17.791687945000035],[102.54685928800006,17.81929816300004],[102.50909253500004,17.792275794000034],[102.50835055400006,17.760156891000065],[102.57352996200007,17.716701595000075],[102.57048418400007,17.728550015000053],[102.54531829700005,17.791687945000035]]]}},{"type":"Feature","properties":{"code":"430504","name":"ชุมช้าง","parentCode":"4305"},"geometry":{"type":"Polygon","coordinates":[[[103.19302170600008,17.991279802000065],[103.09046919600007,18.01020163100003],[103.06365484200006,17.994512298000075],[103.08189970900008,17.938537444000076],[103.17173090100005,17.95539931600007],[103.19302170600008,17.991279802000065]]]}},{"type":"Feature","properties":{"code":"430501","name":"จุมพล","parentCode":"4305"},"geometry":{"type":"Polygon","coordinates":[[[103.20586553500004,18.110765627000035],[103.15084451200005,18.123760961000073],[103.14988695100004,18.072681411000076],[103.10642146700008,18.065670977000025],[103.07609737100006,18.090908640000066],[103.07106391800005,18.01990459600006],[103.09046919600007,18.01020163100003],[103.19302170600008,17.991279802000065],[103.17684673300005,18.004670130000022],[103.19784691700005,18.06777078300007],[103.20586553500004,18.110765627000035]]]}},{"type":"Feature","properties":{"code":"431703","name":"ด่านศรีสุข","parentCode":"4317"},"geometry":{"type":"Polygon","coordinates":[[[102.43952699900007,17.939675903000023],[102.38643029600007,17.97383811700007],[102.35595659600006,17.922744519000048],[102.38979929200008,17.894741554000063],[102.40991389400006,17.89100230500003],[102.43952699900007,17.939675903000023]]]}},{"type":"Feature","properties":{"code":"431501","name":"เฝ้าไร่","parentCode":"4315"},"geometry":{"type":"Polygon","coordinates":[[[103.35347381400004,18.026960861000077],[103.31444491100007,18.056604682000057],[103.28760619100007,18.04008115700003],[103.29969153900004,17.98352932000006],[103.24457798400005,17.995955906000063],[103.25132060800007,17.95639175200006],[103.33474566600006,17.960935207000034],[103.34354974000007,17.971749996000028],[103.35347381400004,18.026960861000077]]]}},{"type":"Feature","properties":{"code":"430107","name":"หาดคำ","parentCode":"4301"},"geometry":{"type":"Polygon","coordinates":[[[102.81393716700006,17.93959902100005],[102.77001561800006,17.90473061600005],[102.76391877900005,17.887477192000063],[102.76894466900006,17.887468488000025],[102.86861885000008,17.880792908000046],[102.88435982900006,17.898208878000048],[102.86121477000006,17.918457102000048],[102.81393716700006,17.93959902100005]]]}},{"type":"Feature","properties":{"code":"430108","name":"หินโงม","parentCode":"4301"},"geometry":{"type":"Polygon","coordinates":[[[102.88025238600005,17.939169924000055],[102.85202925000004,17.968566769000063],[102.81393716700006,17.93959902100005],[102.86121477000006,17.918457102000048],[102.88025238600005,17.939169924000055]]]}},{"type":"Feature","properties":{"code":"430801","name":"แก้งไก่","parentCode":"4308"},"geometry":{"type":"Polygon","coordinates":[[[102.28838215000007,18.058996292000074],[102.27429517800005,18.07262645900005],[102.19670671200004,18.050869500000033],[102.18260540800009,18.013826881000057],[102.24146927200007,17.99800451400006],[102.28838215000007,18.058996292000074]]]}},{"type":"Feature","properties":{"code":"430110","name":"ค่ายบกหวาน","parentCode":"4301"},"geometry":{"type":"Polygon","coordinates":[[[102.80056052800006,17.815265159000035],[102.76148395500007,17.80127879400004],[102.74250143100005,17.791985527000065],[102.73926183000003,17.778316104000055],[102.73105861000005,17.760839241000042],[102.75970675000008,17.74223831300003],[102.83164664600008,17.74384632600004],[102.84546028500006,17.76162686200007],[102.85263480800006,17.772292425000046],[102.84217266100006,17.80191665800004],[102.80056052800006,17.815265159000035]]]}},{"type":"Feature","properties":{"code":"431402","name":"คอกช้าง","parentCode":"4314"},"geometry":{"type":"Polygon","coordinates":[[[102.78342362300003,17.680648767000037],[102.71732796500004,17.656994690000033],[102.69450676800005,17.62102373700003],[102.73154950300005,17.603536193000025],[102.77490160500008,17.651464962000034],[102.78342362300003,17.680648767000037]]]}},{"type":"Feature","properties":{"code":"430204","name":"โคกคอน","parentCode":"4302"},"geometry":{"type":"Polygon","coordinates":[[[102.47100791800005,17.834550629000034],[102.45567119100008,17.83302526500006],[102.44161627000005,17.82001593700005],[102.48731810500004,17.78715179200003],[102.47671052300007,17.757187096000052],[102.49093442500003,17.755908343000044],[102.50835055400006,17.760156891000065],[102.50909253500004,17.792275794000034],[102.47100791800005,17.834550629000034]]]}},{"type":"Feature","properties":{"code":"430203","name":"กองนาง","parentCode":"4302"},"geometry":{"type":"Polygon","coordinates":[[[102.61392524300004,17.920511229000056],[102.58411449500005,17.919486525000025],[102.52606860100008,17.890629400000023],[102.57593095400006,17.867079836000073],[102.59128988800006,17.85104530600006],[102.61392524300004,17.920511229000056]]]}},{"type":"Feature","properties":{"code":"430104","name":"กวนวัน","parentCode":"4301"},"geometry":{"type":"Polygon","coordinates":[[[102.72184661200004,17.851556925000068],[102.71339915100003,17.87981389500004],[102.67807422900006,17.839425836000032],[102.72096217800004,17.847788638000054],[102.72184661200004,17.851556925000068]]]}},{"type":"Feature","properties":{"code":"430503","name":"กุดบง","parentCode":"4305"},"geometry":{"type":"Polygon","coordinates":[[[103.14273103200009,18.15688291300006],[103.13820630900005,18.16366967700003],[103.08700311200005,18.13297386100004],[103.07609737100006,18.090908640000066],[103.10642146700008,18.065670977000025],[103.14988695100004,18.072681411000076],[103.15084451200005,18.123760961000073],[103.14273103200009,18.15688291300006]]]}},{"type":"Feature","properties":{"code":"430507","name":"เหล่าต่างคำ","parentCode":"4305"},"geometry":{"type":"Polygon","coordinates":[[[102.96007303500005,17.96547552000004],[102.90631413000006,17.95331800500003],[102.88025238600005,17.939169924000055],[102.86121477000006,17.918457102000048],[102.88435982900006,17.898208878000048],[102.92744563100007,17.893046680000054],[102.95277104600007,17.846773549000034],[102.96007303500005,17.96547552000004]]]}},{"type":"Feature","properties":{"code":"430102","name":"มีชัย","parentCode":"4301"},"geometry":{"type":"Polygon","coordinates":[[[102.74207648000004,17.876394934000075],[102.72879079800003,17.883051326000043],[102.71339915100003,17.87981389500004],[102.72184661200004,17.851556925000068],[102.74887961000007,17.86242969700004],[102.74207648000004,17.876394934000075]]]}},{"type":"Feature","properties":{"code":"430118","name":"เมืองหมี","parentCode":"4301"},"geometry":{"type":"Polygon","coordinates":[[[102.72523424900004,17.82795208500005],[102.72096217800004,17.847788638000054],[102.67807422900006,17.839425836000032],[102.69450917400007,17.824873318000073],[102.72523424900004,17.82795208500005]]]}},{"type":"Feature","properties":{"code":"431502","name":"นาดี","parentCode":"4315"},"geometry":{"type":"Polygon","coordinates":[[[103.40515220900005,17.99225767200005],[103.35347381400004,18.026960861000077],[103.34354974000007,17.971749996000028],[103.38852877700003,17.969726097000034],[103.40515220900005,17.99225767200005]]]}},{"type":"Feature","properties":{"code":"430208","name":"นาข่า","parentCode":"4302"},"geometry":{"type":"Polygon","coordinates":[[[102.47671052300007,17.757187096000052],[102.48731810500004,17.78715179200003],[102.44161627000005,17.82001593700005],[102.44142441900004,17.819934105000073],[102.43440151400006,17.78757965500006],[102.47671052300007,17.757187096000052]]]}},{"type":"Feature","properties":{"code":"430508","name":"นาหนัง","parentCode":"4305"},"geometry":{"type":"Polygon","coordinates":[[[103.17173090100005,17.95539931600007],[103.08189970900008,17.938537444000076],[103.06860838100005,17.92519979900004],[103.07800458400004,17.885741689000042],[103.09580745000005,17.865868283000054],[103.12710939600004,17.826457704000063],[103.17142160300006,17.83000306100007],[103.20847140900008,17.873210768000035],[103.15914397000006,17.92261419500005],[103.17173090100005,17.95539931600007]]]}},{"type":"Feature","properties":{"code":"430804","name":"นางิ้ว","parentCode":"4308"},"geometry":{"type":"Polygon","coordinates":[[[102.18200180500008,18.096732600000053],[102.16607632000006,18.13763332800005],[102.10142903400003,18.162238374000026],[102.06933256700006,18.13901542900004],[102.05513989400004,18.086168997000073],[102.10189125200009,18.078636650000078],[102.10779590400006,18.026048899000045],[102.14480402000004,18.033092418000024],[102.15594996200008,17.99034785400005],[102.18260540800009,18.013826881000057],[102.15933674400009,18.04348955200004],[102.18200180500008,18.096732600000053]]]}},{"type":"Feature","properties":{"code":"431602","name":"นาทับไฮ","parentCode":"4316"},"geometry":{"type":"Polygon","coordinates":[[[103.31058312500005,18.220270853000045],[103.28459364400004,18.230957845000034],[103.26284104700005,18.200050082000075],[103.27578138000007,18.13848460400004],[103.29596584600006,18.120379895000042],[103.33660710000004,18.147744877000036],[103.36638776100006,18.164330981000035],[103.31058312500005,18.220270853000045]]]}},{"type":"Feature","properties":{"code":"430101","name":"ในเมือง","parentCode":"4301"},"geometry":{"type":"Polygon","coordinates":[[[102.76391877900005,17.887477192000063],[102.77001561800006,17.90473061600005],[102.72879079800003,17.883051326000043],[102.74207648000004,17.876394934000075],[102.76391877900005,17.887477192000063]]]}},{"type":"Feature","properties":{"code":"430202","name":"น้ำโมง","parentCode":"4302"},"geometry":{"type":"Polygon","coordinates":[[[102.57593095400006,17.867079836000073],[102.52606860100008,17.890629400000023],[102.50155378900007,17.871631051000065],[102.47100791800005,17.834550629000034],[102.50909253500004,17.792275794000034],[102.54685928800006,17.81929816300004],[102.57593095400006,17.867079836000073]]]}},{"type":"Feature","properties":{"code":"430116","name":"หนองกอมเกาะ","parentCode":"4301"},"geometry":{"type":"Polygon","coordinates":[[[102.76148395500007,17.80127879400004],[102.74887961000007,17.86242969700004],[102.72184661200004,17.851556925000068],[102.72096217800004,17.847788638000054],[102.72523424900004,17.82795208500005],[102.74250143100005,17.791985527000065],[102.76148395500007,17.80127879400004]]]}},{"type":"Feature","properties":{"code":"431503","name":"หนองหลวง","parentCode":"4315"},"geometry":{"type":"Polygon","coordinates":[[[103.19784691700005,18.06777078300007],[103.17684673300005,18.004670130000022],[103.19302170600008,17.991279802000065],[103.24457798400005,17.995955906000063],[103.29969153900004,17.98352932000006],[103.28760619100007,18.04008115700003],[103.19784691700005,18.06777078300007]]]}},{"type":"Feature","properties":{"code":"430210","name":"หนองนาง","parentCode":"4302"},"geometry":{"type":"Polygon","coordinates":[[[102.65927473800008,17.732742040000062],[102.63449667200007,17.716057117000048],[102.59637317900007,17.746245249000026],[102.57048418400007,17.728550015000053],[102.57352996200007,17.716701595000075],[102.61187369600003,17.683474919000048],[102.65098062300007,17.70585277500004],[102.65927473800008,17.732742040000062]]]}},{"type":"Feature","properties":{"code":"430705","name":"หนองปลาปาก","parentCode":"4307"},"geometry":{"type":"Polygon","coordinates":[[[102.53501873600004,17.941613507000056],[102.45992178600005,17.93548273600004],[102.50155378900007,17.871631051000065],[102.52606860100008,17.890629400000023],[102.58411449500005,17.919486525000025],[102.53501873600004,17.941613507000056]]]}},{"type":"Feature","properties":{"code":"430117","name":"ปะโค","parentCode":"4301"},"geometry":{"type":"Polygon","coordinates":[[[102.72523424900004,17.82795208500005],[102.69450917400007,17.824873318000073],[102.68633186600005,17.806270262000055],[102.69948487900007,17.77441248200006],[102.73926183000003,17.778316104000055],[102.74250143100005,17.791985527000065],[102.72523424900004,17.82795208500005]]]}},{"type":"Feature","properties":{"code":"430802","name":"ผาตั้ง","parentCode":"4308"},"geometry":{"type":"Polygon","coordinates":[[[102.40264940600008,18.00198375900004],[102.34758278700008,18.045656868000037],[102.28838215000007,18.058996292000074],[102.24146927200007,17.99800451400006],[102.27592842700005,17.980617410000036],[102.35595659600006,17.922744519000048],[102.38643029600007,17.97383811700007],[102.40264940600008,18.00198375900004]]]}},{"type":"Feature","properties":{"code":"430701","name":"พานพร้าว","parentCode":"4307"},"geometry":{"type":"Polygon","coordinates":[[[102.61392524300004,17.920511229000056],[102.59091870000003,17.96258642600003],[102.55529867200005,17.96997702300007],[102.53501873600004,17.941613507000056],[102.58411449500005,17.919486525000025],[102.61392524300004,17.920511229000056]]]}},{"type":"Feature","properties":{"code":"430103","name":"โพธิ์ชัย","parentCode":"4301"},"geometry":{"type":"Polygon","coordinates":[[[102.80056052800006,17.815265159000035],[102.76894466900006,17.887468488000025],[102.76391877900005,17.887477192000063],[102.74207648000004,17.876394934000075],[102.74887961000007,17.86242969700004],[102.76148395500007,17.80127879400004],[102.80056052800006,17.815265159000035]]]}},{"type":"Feature","properties":{"code":"431701","name":"โพธิ์ตาก","parentCode":"4317"},"geometry":{"type":"Polygon","coordinates":[[[102.40991389400006,17.89100230500003],[102.38979929200008,17.894741554000063],[102.40035974400007,17.843474964000052],[102.44142441900004,17.819934105000073],[102.44161627000005,17.82001593700005],[102.45567119100008,17.83302526500006],[102.40991389400006,17.89100230500003]]]}},{"type":"Feature","properties":{"code":"431605","name":"โพนแพง","parentCode":"4316"},"geometry":{"type":"Polygon","coordinates":[[[103.26466984800004,18.24107606700005],[103.22663870100007,18.278135516000077],[103.17404966200007,18.261673807000022],[103.22613506500005,18.221985593000056],[103.26284104700005,18.200050082000075],[103.28459364400004,18.230957845000034],[103.26466984800004,18.24107606700005]]]}},{"type":"Feature","properties":{"code":"430209","name":"โพนสา","parentCode":"4302"},"geometry":{"type":"Polygon","coordinates":[[[102.67212634700007,17.804161601000033],[102.59169739700008,17.83867437300006],[102.60293397400005,17.815585516000056],[102.61090821800008,17.801337843000056],[102.65011052300008,17.79404959200002],[102.67212634700007,17.804161601000033]]]}},{"type":"Feature","properties":{"code":"430111","name":"โพนสว่าง","parentCode":"4301"},"geometry":{"type":"Polygon","coordinates":[[[102.84546028500006,17.76162686200007],[102.83164664600008,17.74384632600004],[102.75970675000008,17.74223831300003],[102.79699195100005,17.685889090000046],[102.83074508700008,17.69362841800006],[102.84546028500006,17.76162686200007]]]}},{"type":"Feature","properties":{"code":"431702","name":"โพนทอง","parentCode":"4317"},"geometry":{"type":"Polygon","coordinates":[[[102.44808119200007,17.93964152700005],[102.43952699900007,17.939675903000023],[102.40991389400006,17.89100230500003],[102.45567119100008,17.83302526500006],[102.47100791800005,17.834550629000034],[102.50155378900007,17.871631051000065],[102.45992178600005,17.93548273600004],[102.44808119200007,17.93964152700005]]]}},{"type":"Feature","properties":{"code":"430704","name":"พระพุทธบาท","parentCode":"4307"},"geometry":{"type":"Polygon","coordinates":[[[102.46458743700003,17.969693237000058],[102.40264940600008,18.00198375900004],[102.38643029600007,17.97383811700007],[102.43952699900007,17.939675903000023],[102.44808119200007,17.93964152700005],[102.46458743700003,17.969693237000058]]]}},{"type":"Feature","properties":{"code":"431604","name":"พระบาทนาสิงห์","parentCode":"4316"},"geometry":{"type":"Polygon","coordinates":[[[103.26284104700005,18.200050082000075],[103.22613506500005,18.221985593000056],[103.18237802200008,18.20403037600005],[103.14273103200009,18.15688291300006],[103.15084451200005,18.123760961000073],[103.20586553500004,18.110765627000035],[103.27578138000007,18.13848460400004],[103.26284104700005,18.200050082000075]]]}},{"type":"Feature","properties":{"code":"430113","name":"พระธาตุบังพวน","parentCode":"4301"},"geometry":{"type":"Polygon","coordinates":[[[102.73926183000003,17.778316104000055],[102.69948487900007,17.77441248200006],[102.66560273500005,17.75093630500004],[102.65927473800008,17.732742040000062],[102.65098062300007,17.70585277500004],[102.70835558300007,17.698778632000028],[102.73105861000005,17.760839241000042],[102.73926183000003,17.778316104000055]]]}},{"type":"Feature","properties":{"code":"431601","name":"รัตนวาปี","parentCode":"4316"},"geometry":{"type":"Polygon","coordinates":[[[103.22613506500005,18.221985593000056],[103.17404966200007,18.261673807000022],[103.13820630900005,18.16366967700003],[103.14273103200009,18.15688291300006],[103.18237802200008,18.20403037600005],[103.22613506500005,18.221985593000056]]]}},{"type":"Feature","properties":{"code":"431401","name":"สระใคร","parentCode":"4314"},"geometry":{"type":"Polygon","coordinates":[[[102.73105861000005,17.760839241000042],[102.70835558300007,17.698778632000028],[102.71732796500004,17.656994690000033],[102.78342362300003,17.680648767000037],[102.79699195100005,17.685889090000046],[102.75970675000008,17.74223831300003],[102.73105861000005,17.760839241000042]]]}},{"type":"Feature","properties":{"code":"430522","name":"สร้างนางขาว","parentCode":"4305"},"geometry":{"type":"Polygon","coordinates":[[[103.06860838100005,17.92519979900004],[102.99922673200007,17.932215903000042],[103.00442989400005,17.861726219000047],[103.07800458400004,17.885741689000042],[103.06860838100005,17.92519979900004]]]}},{"type":"Feature","properties":{"code":"430805","name":"สังคม","parentCode":"4308"},"geometry":{"type":"Polygon","coordinates":[[[102.27429517800005,18.07262645900005],[102.20641364500005,18.131387070000073],[102.18200180500008,18.096732600000053],[102.15933674400009,18.04348955200004],[102.18260540800009,18.013826881000057],[102.19670671200004,18.050869500000033],[102.27429517800005,18.07262645900005]]]}},{"type":"Feature","properties":{"code":"430119","name":"สีกาย","parentCode":"4301"},"geometry":{"type":"Polygon","coordinates":[[[102.90631413000006,17.95331800500003],[102.89855964500003,17.98175873400004],[102.85202925000004,17.968566769000063],[102.88025238600005,17.939169924000055],[102.90631413000006,17.95331800500003]]]}},{"type":"Feature","properties":{"code":"430509","name":"เซิม","parentCode":"4305"},"geometry":{"type":"Polygon","coordinates":[[[103.33474566600006,17.960935207000034],[103.25132060800007,17.95639175200006],[103.24837412500005,17.922616396000024],[103.31141174400005,17.887602111000035],[103.30265666300005,17.91363245100007],[103.35875523700008,17.921889054000076],[103.33474566600006,17.960935207000034]]]}},{"type":"Feature","properties":{"code":"430201","name":"ท่าบ่อ","parentCode":"4302"},"geometry":{"type":"Polygon","coordinates":[[[102.59128988800006,17.85104530600006],[102.57593095400006,17.867079836000073],[102.54685928800006,17.81929816300004],[102.54531829700005,17.791687945000035],[102.60293397400005,17.815585516000056],[102.59169739700008,17.83867437300006],[102.59128988800006,17.85104530600006]]]}},{"type":"Feature","properties":{"code":"430506","name":"ทุ่งหลวง","parentCode":"4305"},"geometry":{"type":"Polygon","coordinates":[[[102.98773299600003,17.97237426600003],[102.96007303500005,17.96547552000004],[102.95277104600007,17.846773549000034],[102.96928710800006,17.823692950000066],[103.00431032600005,17.842445265000038],[103.00442989400005,17.861726219000047],[102.99922673200007,17.932215903000042],[102.98773299600003,17.97237426600003]]]}},{"type":"Feature","properties":{"code":"431505","name":"อุดมพร","parentCode":"4315"},"geometry":{"type":"Polygon","coordinates":[[[103.38852877700003,17.969726097000034],[103.34354974000007,17.971749996000028],[103.33474566600006,17.960935207000034],[103.35875523700008,17.921889054000076],[103.30265666300005,17.91363245100007],[103.31141174400005,17.887602111000035],[103.35890542900006,17.856837622000057],[103.39971421400008,17.904579917000035],[103.38852877700003,17.969726097000034]]]}},{"type":"Feature","properties":{"code":"431504","name":"วังหลวง","parentCode":"4315"},"geometry":{"type":"Polygon","coordinates":[[[103.29596584600006,18.120379895000042],[103.27578138000007,18.13848460400004],[103.20586553500004,18.110765627000035],[103.19784691700005,18.06777078300007],[103.28760619100007,18.04008115700003],[103.31444491100007,18.056604682000057],[103.29596584600006,18.120379895000042]]]}},{"type":"Feature","properties":{"code":"430502","name":"วัดหลวง","parentCode":"4305"},"geometry":{"type":"Polygon","coordinates":[[[103.09046919600007,18.01020163100003],[103.07106391800005,18.01990459600006],[103.00973337000005,17.977157033000026],[102.98773299600003,17.97237426600003],[102.99922673200007,17.932215903000042],[103.06860838100005,17.92519979900004],[103.08189970900008,17.938537444000076],[103.06365484200006,17.994512298000075],[103.09046919600007,18.01020163100003]]]}},{"type":"Feature","properties":{"code":"430106","name":"วัดธาตุ","parentCode":"4301"},"geometry":{"type":"Polygon","coordinates":[[[102.86861885000008,17.880792908000046],[102.76894466900006,17.887468488000025],[102.80056052800006,17.815265159000035],[102.84217266100006,17.80191665800004],[102.86861885000008,17.880792908000046]]]}},{"type":"Feature","properties":{"code":"430105","name":"เวียงคุก","parentCode":"4301"},"geometry":{"type":"Polygon","coordinates":[[[102.69948487900007,17.77441248200006],[102.68633186600005,17.806270262000055],[102.67212634700007,17.804161601000033],[102.65011052300008,17.79404959200002],[102.66560273500005,17.75093630500004],[102.69948487900007,17.77441248200006]]]}}]}