{"type":"FeatureCollection","features":[{"type":"Feature","properties":{"code":"441104","name":"บ้านกู่","parentCode":"4411"},"geometry":{"type":"Polygon","coordinates":[[[103.19135490700006,15.667339932000061],[103.15582525500008,15.710043693000046],[103.12355134100005,15.704122622000057],[103.11731976500005,15.703321750000043],[103.12535691800008,15.673395931000073],[103.17905733300006,15.659100496000065],[103.19135490700006,15.667339932000061]]]}},{"type":"Feature","properties":{"code":"440910","name":"บ้านหวาย","parentCode":"4409"},"geometry":{"type":"Polygon","coordinates":[[[103.30326437300005,15.835060413000065],[103.23756716000008,15.859005750000051],[103.20453572000008,15.798055101000045],[103.28921580400004,15.791756816000031],[103.29305917200008,15.789892420000058],[103.31684159200006,15.805301803000077],[103.30608809900008,15.834002664000025],[103.30326437300005,15.835060413000065]]]}},{"type":"Feature","properties":{"code":"440602","name":"บ่อใหญ่","parentCode":"4406"},"geometry":{"type":"Polygon","coordinates":[[[103.20573807700003,16.140853020000065],[103.12689558900007,16.134121720000053],[103.15250468900007,16.079526773000055],[103.20796667600007,16.088131730000043],[103.22323872500004,16.126437114000055],[103.20573807700003,16.140853020000065]]]}},{"type":"Feature","properties":{"code":"440601","name":"บรบือ","parentCode":"4406"},"geometry":{"type":"Polygon","coordinates":[[[103.12689558900007,16.134121720000053],[103.11957694900008,16.17092438700007],[103.08988738900007,16.154156603000047],[103.06963512400006,16.147063762000073],[103.07833692900005,16.100211957000056],[103.07649604500006,16.065499388000035],[103.13106388000006,16.021547836000025],[103.16645265800008,16.05925559700006],[103.15250468900007,16.079526773000055],[103.12689558900007,16.134121720000053]]]}},{"type":"Feature","properties":{"code":"440114","name":"บัวค้อ","parentCode":"4401"},"geometry":{"type":"Polygon","coordinates":[[[103.28964018600004,16.013557396000067],[103.23659769600005,15.988520588000029],[103.24878681200005,15.976036504000035],[103.29677046700004,15.967906867000067],[103.31111096500007,15.97818985300006],[103.28964018600004,16.013557396000067]]]}},{"type":"Feature","properties":{"code":"440611","name":"บัวมาศ","parentCode":"4406"},"geometry":{"type":"Polygon","coordinates":[[[103.20378976700005,15.922634594000044],[103.17894754200006,15.932372120000025],[103.18938849700004,15.873476420000031],[103.22444858700004,15.876619428000026],[103.23024693900004,15.891418690000023],[103.20378976700005,15.922634594000044]]]}},{"type":"Feature","properties":{"code":"440501","name":"เชียงยืน","parentCode":"4405"},"geometry":{"type":"Polygon","coordinates":[[[103.13213287800005,16.454449142000044],[103.09437124700008,16.48958671500003],[103.04350429500005,16.425524162000045],[103.05344915400008,16.416317695000032],[103.07421794400005,16.383705719000034],[103.11155665800004,16.400152218000073],[103.11820913600008,16.400795498000036],[103.13255863600006,16.45405226200006],[103.13213287800005,16.454449142000044]]]}},{"type":"Feature","properties":{"code":"441301","name":"ชื่นชม","parentCode":"4413"},"geometry":{"type":"Polygon","coordinates":[[[103.16756419200004,16.601003942000034],[103.12029862500003,16.582417145000022],[103.10132402400006,16.54176339000003],[103.12278235000008,16.53550333100003],[103.17376896800005,16.52530374500003],[103.18557205900004,16.561520812000026],[103.16756419200004,16.601003942000034]]]}},{"type":"Feature","properties":{"code":"440317","name":"ดอนกลาง","parentCode":"4403"},"geometry":{"type":"Polygon","coordinates":[[[102.94605771900007,16.196446240000057],[102.88985784500005,16.208196792000024],[102.84556647000005,16.189357724000047],[102.84385778600006,16.150881351000066],[102.86763321300003,16.125375844000075],[102.89980498800008,16.124734424000053],[102.92056611000004,16.15557392000005],[102.94605771900007,16.196446240000057]]]}},{"type":"Feature","properties":{"code":"440505","name":"ดอนเงิน","parentCode":"4405"},"geometry":{"type":"Polygon","coordinates":[[[103.17441221300004,16.458743221000077],[103.13255863600006,16.45405226200006],[103.11820913600008,16.400795498000036],[103.16353985500007,16.38910738900006],[103.18445681700007,16.437047977000077],[103.17441221300004,16.458743221000077]]]}},{"type":"Feature","properties":{"code":"440620","name":"ดอนงัว","parentCode":"4406"},"geometry":{"type":"Polygon","coordinates":[[[103.17894754200006,15.932372120000025],[103.18144899500004,15.946461552000073],[103.13524191800008,15.922999653000034],[103.15642205800003,15.866226028000028],[103.18938849700004,15.873476420000031],[103.17894754200006,15.932372120000025]]]}},{"type":"Feature","properties":{"code":"440106","name":"ดอนหว่าน","parentCode":"4401"},"geometry":{"type":"Polygon","coordinates":[[[103.33916407300006,16.022632790000046],[103.28964018600004,16.013557396000067],[103.31111096500007,15.97818985300006],[103.33059166300006,15.981669448000048],[103.34122032300007,16.015846001000057],[103.33916407300006,16.022632790000046]]]}},{"type":"Feature","properties":{"code":"441004","name":"ดงบัง","parentCode":"4410"},"geometry":{"type":"Polygon","coordinates":[[[103.28543203800007,15.674288834000038],[103.23236005700005,15.668483343000048],[103.23129028500006,15.651961336000056],[103.26711721900006,15.649621683000078],[103.28543203800007,15.674288834000038]]]}},{"type":"Feature","properties":{"code":"441005","name":"ดงดวน","parentCode":"4410"},"geometry":{"type":"Polygon","coordinates":[[[103.21132352400008,15.75990938600006],[103.17360421800004,15.766983982000056],[103.13612045600007,15.72237840300005],[103.12355134100005,15.704122622000057],[103.15582525500008,15.710043693000046],[103.19920205900007,15.71635404400007],[103.21132352400008,15.75990938600006]]]}},{"type":"Feature","properties":{"code":"441105","name":"ดงเมือง","parentCode":"4411"},"geometry":{"type":"Polygon","coordinates":[[[103.17905733300006,15.659100496000065],[103.12535691800008,15.673395931000073],[103.10986501900004,15.652365585000041],[103.13881659500004,15.627623000000028],[103.17905733300006,15.659100496000065]]]}},{"type":"Feature","properties":{"code":"440904","name":"ดงใหญ่","parentCode":"4409"},"geometry":{"type":"Polygon","coordinates":[[[103.32888774100007,15.915938524000069],[103.31175087700007,15.937551775000031],[103.29136260000007,15.919563173000029],[103.29932035500008,15.857434460000036],[103.32888774100007,15.915938524000069]]]}},{"type":"Feature","properties":{"code":"441007","name":"ดงยาง","parentCode":"4410"},"geometry":{"type":"Polygon","coordinates":[[[103.32009287500006,15.766335182000034],[103.29305917200008,15.789892420000058],[103.28921580400004,15.791756816000031],[103.21951929700003,15.758150572000034],[103.25203507900005,15.72855299500003],[103.29261725000003,15.726300761000061],[103.32009287500006,15.766335182000034]]]}},{"type":"Feature","properties":{"code":"440314","name":"แห่ใต้","parentCode":"4403"},"geometry":{"type":"Polygon","coordinates":[[[103.17321184300005,16.317382546000033],[103.12867488900008,16.326285764000033],[103.13934900300006,16.303821234000054],[103.10385319600005,16.260692506000055],[103.12088570800006,16.245970560000046],[103.15367440900008,16.232533267000065],[103.15946204700003,16.278859383000054],[103.17321184300005,16.317382546000033]]]}},{"type":"Feature","properties":{"code":"441006","name":"หัวดง","parentCode":"4410"},"geometry":{"type":"Polygon","coordinates":[[[103.21751414100004,15.707411097000033],[103.19920205900007,15.71635404400007],[103.15582525500008,15.710043693000046],[103.19135490700006,15.667339932000061],[103.21439559000004,15.655332719000057],[103.23129028500006,15.651961336000056],[103.23236005700005,15.668483343000048],[103.21751414100004,15.707411097000033]]]}},{"type":"Feature","properties":{"code":"440301","name":"หัวขวาง","parentCode":"4403"},"geometry":{"type":"Polygon","coordinates":[[[103.06183058200008,16.282416417000036],[103.04291348500004,16.29126414900003],[103.02548602400009,16.24087740500005],[103.07527224500006,16.22076167000006],[103.09835081900007,16.23306375100003],[103.12088570800006,16.245970560000046],[103.10385319600005,16.260692506000055],[103.06183058200008,16.282416417000036]]]}},{"type":"Feature","properties":{"code":"440906","name":"หัวเรือ","parentCode":"4409"},"geometry":{"type":"Polygon","coordinates":[[[103.36430334600004,15.781201813000052],[103.31684159200006,15.805301803000077],[103.29305917200008,15.789892420000058],[103.32009287500006,15.766335182000034],[103.34459867000004,15.717143891000035],[103.40380297600007,15.711931661000051],[103.36430334600004,15.781201813000052]]]}},{"type":"Feature","properties":{"code":"440112","name":"ห้วยแอ่ง","parentCode":"4401"},"geometry":{"type":"Polygon","coordinates":[[[103.48343882000006,16.163441825000064],[103.48345229200004,16.163457851000032],[103.44212065000005,16.13704537700005],[103.41438350500005,16.11552088600007],[103.42448924200005,16.11262219500003],[103.45814436300009,16.11120107200003],[103.46505259300005,16.130109094000034],[103.48343882000006,16.163441825000064]]]}},{"type":"Feature","properties":{"code":"441205","name":"ห้วยเตย","parentCode":"4412"},"geometry":{"type":"Polygon","coordinates":[[[103.06963512400006,16.147063762000073],[103.04037540100006,16.16851367700002],[103.01341744900009,16.10978419500003],[103.04758476600006,16.085053360000074],[103.07833692900005,16.100211957000056],[103.06963512400006,16.147063762000073]]]}},{"type":"Feature","properties":{"code":"440201","name":"แกดำ","parentCode":"4402"},"geometry":{"type":"Polygon","coordinates":[[[103.42319130700008,16.044266782000022],[103.40490044100005,16.056366280000077],[103.34122032300007,16.015846001000057],[103.33059166300006,15.981669448000048],[103.38583543500005,15.987331510000047],[103.41790470400008,16.01567232800005],[103.42319130700008,16.044266782000022]]]}},{"type":"Feature","properties":{"code":"440306","name":"แก้งแก","parentCode":"4403"},"geometry":{"type":"Polygon","coordinates":[[[103.12937401200008,16.19759338800003],[103.09835081900007,16.23306375100003],[103.07527224500006,16.22076167000006],[103.08988738900007,16.154156603000047],[103.11957694900008,16.17092438700007],[103.12937401200008,16.19759338800003]]]}},{"type":"Feature","properties":{"code":"440108","name":"แก่งเลิงจาน","parentCode":"4401"},"geometry":{"type":"Polygon","coordinates":[[[103.28877570600008,16.167866184000047],[103.26148321100004,16.200237077000054],[103.24418128800005,16.194327256000065],[103.24292404300007,16.15373213400005],[103.20573807700003,16.140853020000065],[103.22323872500004,16.126437114000055],[103.25933511500006,16.135038137000038],[103.28877570600008,16.167866184000047]]]}},{"type":"Feature","properties":{"code":"440802","name":"ก้ามปู","parentCode":"4408"},"geometry":{"type":"Polygon","coordinates":[[[103.26066906900007,15.565313482000022],[103.19611469800009,15.597932042000025],[103.18023263700007,15.560014511000077],[103.21615253800007,15.529092948000027],[103.23252176300008,15.51778850200003],[103.24296562800004,15.510384315000067],[103.26100745600007,15.553911669000058],[103.26066906900007,15.565313482000022]]]}},{"type":"Feature","properties":{"code":"440606","name":"กำพี้","parentCode":"4406"},"geometry":{"type":"Polygon","coordinates":[[[103.18073929900004,15.988396344000023],[103.12129278900005,15.997567763000063],[103.10450809000008,15.989476813000067],[103.13524191800008,15.922999653000034],[103.18144899500004,15.946461552000073],[103.18073929900004,15.988396344000023]]]}},{"type":"Feature","properties":{"code":"440907","name":"แคน","parentCode":"4409"},"geometry":{"type":"Polygon","coordinates":[[[103.29677046700004,15.967906867000067],[103.24878681200005,15.976036504000035],[103.24986551900008,15.952429463000044],[103.26502266500006,15.920475363000037],[103.23024693900004,15.891418690000023],[103.22444858700004,15.876619428000026],[103.23756716000008,15.859005750000051],[103.30326437300005,15.835060413000065],[103.29932035500008,15.857434460000036],[103.29136260000007,15.919563173000029],[103.31175087700007,15.937551775000031],[103.29677046700004,15.967906867000067]]]}},{"type":"Feature","properties":{"code":"440902","name":"ขามป้อม","parentCode":"4409"},"geometry":{"type":"Polygon","coordinates":[[[103.43904125300008,15.925977986000078],[103.39826362700006,15.960972292000065],[103.35661588100004,15.923804386000029],[103.40632753300008,15.890172947000053],[103.43904125300008,15.925977986000078]]]}},{"type":"Feature","properties":{"code":"440406","name":"ขามเรียง","parentCode":"4404"},"geometry":{"type":"Polygon","coordinates":[[[103.27518147200004,16.28163870900005],[103.24056371600005,16.300163592000047],[103.19791702900005,16.267954373000066],[103.21887737200007,16.19832470800003],[103.23834260000007,16.19714061600007],[103.26257399300005,16.218598411000073],[103.27518147200004,16.28163870900005]]]}},{"type":"Feature","properties":{"code":"440410","name":"ขามเฒ่าพัฒนา","parentCode":"4404"},"geometry":{"type":"Polygon","coordinates":[[[103.35383265800004,16.308426995000048],[103.31636569200003,16.306393154000034],[103.28434969500006,16.26671453700004],[103.31835751200003,16.239937798000028],[103.34565117000005,16.28692651700004],[103.35511270000006,16.307401991000063],[103.35383265800004,16.308426995000048]]]}},{"type":"Feature","properties":{"code":"440402","name":"คันธารราษฎร์","parentCode":"4404"},"geometry":{"type":"Polygon","coordinates":[[[103.31636569200003,16.306393154000034],[103.27969332200007,16.32391351700005],[103.24056371600005,16.300163592000047],[103.27518147200004,16.28163870900005],[103.28434969500006,16.26671453700004],[103.31636569200003,16.306393154000034]]]}},{"type":"Feature","properties":{"code":"440105","name":"โคกก่อ","parentCode":"4401"},"geometry":{"type":"Polygon","coordinates":[[[103.29251481800009,16.057028892000062],[103.25380488300004,16.072330763000025],[103.21018928000007,16.045576226000037],[103.21909625300003,15.994857595000042],[103.23659769600005,15.988520588000029],[103.28964018600004,16.013557396000067],[103.33916407300006,16.022632790000046],[103.32826405900005,16.04756787100007],[103.29251481800009,16.057028892000062]]]}},{"type":"Feature","properties":{"code":"440401","name":"โคกพระ","parentCode":"4404"},"geometry":{"type":"Polygon","coordinates":[[[103.34293523000008,16.36104406900006],[103.30193298200004,16.369224304000056],[103.27969332200007,16.32391351700005],[103.31636569200003,16.306393154000034],[103.35383265800004,16.308426995000048],[103.34293523000008,16.36104406900006]]]}},{"type":"Feature","properties":{"code":"440915","name":"โคกสีทองหลาง","parentCode":"4409"},"geometry":{"type":"Polygon","coordinates":[[[103.35037295200004,15.877638406000074],[103.34444687900009,15.919528592000063],[103.32888774100007,15.915938524000069],[103.29932035500008,15.857434460000036],[103.30326437300005,15.835060413000065],[103.30608809900008,15.834002664000025],[103.35037295200004,15.877638406000074]]]}},{"type":"Feature","properties":{"code":"440310","name":"เขื่อน","parentCode":"4403"},"geometry":{"type":"Polygon","coordinates":[[[103.08369315400006,16.366700372000025],[103.03412129500003,16.35503851800007],[103.01473876000006,16.34953394000007],[103.01516787900005,16.346827227000063],[103.08322185600008,16.32183423300006],[103.10241238800006,16.346514052000032],[103.08369315400006,16.366700372000025]]]}},{"type":"Feature","properties":{"code":"440102","name":"เขวา","parentCode":"4401"},"geometry":{"type":"Polygon","coordinates":[[[103.42903427700008,16.176242349000063],[103.41087752700008,16.195993155000053],[103.33831998600004,16.184786056000064],[103.33709538400007,16.16451058800004],[103.36194894500005,16.119270210000025],[103.41438350500005,16.11552088600007],[103.44212065000005,16.13704537700005],[103.42903427700008,16.176242349000063]]]}},{"type":"Feature","properties":{"code":"440304","name":"เขวาไร่","parentCode":"4403"},"geometry":{"type":"Polygon","coordinates":[[[102.91984159600008,16.365120683000043],[102.89406300200005,16.315241485000058],[102.84748472200005,16.273924779000026],[102.84615162200004,16.21793694300004],[102.84447405900005,16.208176429000048],[102.84556647000005,16.189357724000047],[102.88985784500005,16.208196792000024],[102.94019710300006,16.26297248000003],[102.93574558700004,16.30648354400006],[102.91984159600008,16.365120683000043]]]}},{"type":"Feature","properties":{"code":"440704","name":"เขวาไร่","parentCode":"4407"},"geometry":{"type":"Polygon","coordinates":[[[103.08047899700006,15.862924537000026],[103.02777918600003,15.905634853000038],[103.03341646800004,15.829451888000051],[103.02624119600006,15.808461592000072],[103.09303392500004,15.801409792000072],[103.08047899700006,15.862924537000026]]]}},{"type":"Feature","properties":{"code":"440407","name":"เขวาใหญ่","parentCode":"4404"},"geometry":{"type":"Polygon","coordinates":[[[103.19791702900005,16.267954373000066],[103.15946204700003,16.278859383000054],[103.15367440900008,16.232533267000065],[103.15083229400005,16.19581387900007],[103.21887737200007,16.19832470800003],[103.19791702900005,16.267954373000066]]]}},{"type":"Feature","properties":{"code":"440107","name":"เกิ้ง","parentCode":"4401"},"geometry":{"type":"Polygon","coordinates":[[[103.32483031300006,16.226780185000052],[103.26257399300005,16.218598411000073],[103.23834260000007,16.19714061600007],[103.24418128800005,16.194327256000065],[103.26148321100004,16.200237077000054],[103.32445522900008,16.189981345000035],[103.35521590000008,16.21697888800003],[103.32483031300006,16.226780185000052]]]}},{"type":"Feature","properties":{"code":"441008","name":"กู่สันตรัตน์","parentCode":"4410"},"geometry":{"type":"Polygon","coordinates":[[[103.29261725000003,15.726300761000061],[103.25203507900005,15.72855299500003],[103.24722370600006,15.712674286000038],[103.29567304200003,15.693361873000072],[103.30103017000005,15.706385198000078],[103.29261725000003,15.726300761000061]]]}},{"type":"Feature","properties":{"code":"440506","name":"กู่ทอง","parentCode":"4405"},"geometry":{"type":"Polygon","coordinates":[[[103.04350429500005,16.425524162000045],[103.00921873900006,16.46971442100005],[102.94766300100008,16.43958770100005],[102.94949736900008,16.43669864000003],[102.98570322000006,16.401845710000032],[103.04420637300007,16.400068761000057],[103.05344915400008,16.416317695000032],[103.04350429500005,16.425524162000045]]]}},{"type":"Feature","properties":{"code":"441302","name":"กุดปลาดุก","parentCode":"4413"},"geometry":{"type":"Polygon","coordinates":[[[103.19605062700003,16.630189103000077],[103.15239866900004,16.643603950000056],[103.15048679000006,16.626500822000025],[103.12008571400008,16.592239505000066],[103.12029862500003,16.582417145000022],[103.16756419200004,16.601003942000034],[103.19605062700003,16.630189103000077]]]}},{"type":"Feature","properties":{"code":"441201","name":"กุดรัง","parentCode":"4412"},"geometry":{"type":"Polygon","coordinates":[[[103.04758476600006,16.085053360000074],[103.01341744900009,16.10978419500003],[102.97711018300004,16.10836973200003],[102.95900189800005,16.05822028500006],[103.00116360600003,16.03896653000004],[103.04118698900004,16.068600107000066],[103.04758476600006,16.085053360000074]]]}},{"type":"Feature","properties":{"code":"440409","name":"กุดใส้จ่อ","parentCode":"4404"},"geometry":{"type":"Polygon","coordinates":[[[103.41107347500008,16.28600246900004],[103.37385421000005,16.300610549000055],[103.35511270000006,16.307401991000063],[103.34565117000005,16.28692651700004],[103.40740737400006,16.272612149000054],[103.41107347500008,16.28600246900004]]]}},{"type":"Feature","properties":{"code":"440815","name":"ลานสะแก","parentCode":"4408"},"geometry":{"type":"Polygon","coordinates":[[[103.19585292700003,15.61391178100007],[103.14125446400004,15.597841283000037],[103.14142914300004,15.597356768000054],[103.14063918400007,15.554326185000036],[103.14899204200003,15.533399263000035],[103.21615253800007,15.529092948000027],[103.18023263700007,15.560014511000077],[103.19611469800009,15.597932042000025],[103.19585292700003,15.61391178100007]]]}},{"type":"Feature","properties":{"code":"440309","name":"เหล่า","parentCode":"4403"},"geometry":{"type":"Polygon","coordinates":[[[103.07527224500006,16.22076167000006],[103.02548602400009,16.24087740500005],[102.99578547000004,16.229466519000027],[103.01919783800008,16.179898147000074],[103.04037540100006,16.16851367700002],[103.06963512400006,16.147063762000073],[103.08988738900007,16.154156603000047],[103.07527224500006,16.22076167000006]]]}},{"type":"Feature","properties":{"code":"440512","name":"เหล่าบัวบาน","parentCode":"4405"},"geometry":{"type":"Polygon","coordinates":[[[103.04420637300007,16.400068761000057],[102.98570322000006,16.401845710000032],[102.98359579600009,16.354282659000035],[103.01473876000006,16.34953394000007],[103.03412129500003,16.35503851800007],[103.04420637300007,16.400068761000057]]]}},{"type":"Feature","properties":{"code":"441303","name":"เหล่าดอกไม้","parentCode":"4413"},"geometry":{"type":"Polygon","coordinates":[[[103.17376896800005,16.52530374500003],[103.12278235000008,16.53550333100003],[103.13213287800005,16.454449142000044],[103.13255863600006,16.45405226200006],[103.17441221300004,16.458743221000077],[103.16391014200008,16.487637371000062],[103.17376896800005,16.52530374500003]]]}},{"type":"Feature","properties":{"code":"440110","name":"ลาดพัฒนา","parentCode":"4401"},"geometry":{"type":"Polygon","coordinates":[[[103.41490269100007,16.238991613000053],[103.35521590000008,16.21697888800003],[103.32445522900008,16.189981345000035],[103.33831998600004,16.184786056000064],[103.41087752700008,16.195993155000053],[103.42903427700008,16.176242349000063],[103.45162700700007,16.183055108000076],[103.44650307700005,16.228124611000055],[103.41521219600008,16.239338744000065],[103.41490269100007,16.238991613000053]]]}},{"type":"Feature","properties":{"code":"441203","name":"เลิงแฝก","parentCode":"4412"},"geometry":{"type":"Polygon","coordinates":[[[102.99797962500008,16.016511704000038],[102.94233110000005,15.979982478000068],[102.92481097000007,15.951863913000068],[102.91103549100006,15.927679993000027],[102.90935700700004,15.922137492000047],[102.90520840300007,15.917819811000072],[102.90365022200007,15.912190107000072],[102.90243604300008,15.912228088000063],[102.90197916800008,15.911597809000057],[102.90096780000005,15.910885987000029],[102.90171732100004,15.911033834000023],[102.90758563600008,15.912299564000023],[102.91422120700008,15.911834055000043],[102.92480688100005,15.913187023000035],[102.93080872600007,15.912562244000071],[102.94210407900005,15.909074213000054],[103.00059530600004,15.98805685700006],[102.99797962500008,16.016511704000038]]]}},{"type":"Feature","properties":{"code":"440316","name":"เลิงใต้","parentCode":"4403"},"geometry":{"type":"Polygon","coordinates":[[[103.15367440900008,16.232533267000065],[103.12088570800006,16.245970560000046],[103.09835081900007,16.23306375100003],[103.12937401200008,16.19759338800003],[103.15083229400005,16.19581387900007],[103.15367440900008,16.232533267000065]]]}},{"type":"Feature","properties":{"code":"440403","name":"มะค่า","parentCode":"4404"},"geometry":{"type":"Polygon","coordinates":[[[103.40740737400006,16.272612149000054],[103.34565117000005,16.28692651700004],[103.31835751200003,16.239937798000028],[103.32483031300006,16.226780185000052],[103.35521590000008,16.21697888800003],[103.41490269100007,16.238991613000053],[103.40740737400006,16.272612149000054]]]}},{"type":"Feature","properties":{"code":"440804","name":"เม็กดำ","parentCode":"4408"},"geometry":{"type":"Polygon","coordinates":[[[103.14063918400007,15.554326185000036],[103.06275177200007,15.601073385000063],[103.05281322300004,15.592746606000048],[103.05284488500007,15.557130169000061],[103.09065946100009,15.532902190000073],[103.07299009000008,15.497399350000023],[103.11140379300008,15.481283650000023],[103.14355459800004,15.475677370000028],[103.14899204200003,15.533399263000035],[103.14063918400007,15.554326185000036]]]}},{"type":"Feature","properties":{"code":"440203","name":"มิตรภาพ","parentCode":"4402"},"geometry":{"type":"Polygon","coordinates":[[[103.41438350500005,16.11552088600007],[103.36194894500005,16.119270210000025],[103.35099090400007,16.102293536000047],[103.33769638000007,16.09303806400004],[103.40758686400005,16.062736182000037],[103.42448924200005,16.11262219500003],[103.41438350500005,16.11552088600007]]]}},{"type":"Feature","properties":{"code":"440819","name":"เมืองเสือ","parentCode":"4408"},"geometry":{"type":"Polygon","coordinates":[[[103.24296562800004,15.510384315000067],[103.23252176300008,15.51778850200003],[103.18231786200005,15.489454427000055],[103.21216900500008,15.460864109000056],[103.24068325000007,15.449771347000024],[103.23790881900004,15.506801168000038],[103.24296562800004,15.510384315000067]]]}},{"type":"Feature","properties":{"code":"440812","name":"เมืองเตา","parentCode":"4408"},"geometry":{"type":"Polygon","coordinates":[[[103.41740395200009,15.536738756000034],[103.40562996200003,15.537365038000075],[103.36089204700005,15.526200471000038],[103.34539580000006,15.50245299900007],[103.36247840400006,15.462867643000038],[103.34314642700008,15.40887809700007],[103.40326782800008,15.436452529000064],[103.41740395200009,15.536738756000034]]]}},{"type":"Feature","properties":{"code":"440701","name":"นาเชือก","parentCode":"4407"},"geometry":{"type":"Polygon","coordinates":[[[103.09303392500004,15.801409792000072],[103.02624119600006,15.808461592000072],[103.00977311900004,15.73429980800006],[103.07101240100008,15.750046164000025],[103.08478091700005,15.760064235000073],[103.10353549100006,15.80524173200007],[103.09303392500004,15.801409792000072]]]}},{"type":"Feature","properties":{"code":"441001","name":"นาดูน","parentCode":"4410"},"geometry":{"type":"Polygon","coordinates":[[[103.21951929700003,15.758150572000034],[103.21132352400008,15.75990938600006],[103.19920205900007,15.71635404400007],[103.21751414100004,15.707411097000033],[103.24722370600006,15.712674286000038],[103.25203507900005,15.72855299500003],[103.21951929700003,15.758150572000034]]]}},{"type":"Feature","properties":{"code":"440909","name":"นาข่า","parentCode":"4409"},"geometry":{"type":"Polygon","coordinates":[[[103.22444858700004,15.876619428000026],[103.18938849700004,15.873476420000031],[103.15642205800003,15.866226028000028],[103.14948106500003,15.863682500000039],[103.17948014500007,15.801153819000035],[103.20453572000008,15.798055101000045],[103.23756716000008,15.859005750000051],[103.22444858700004,15.876619428000026]]]}},{"type":"Feature","properties":{"code":"441202","name":"นาโพธิ์","parentCode":"4412"},"geometry":{"type":"Polygon","coordinates":[[[102.89980498800008,16.124734424000053],[102.86763321300003,16.125375844000075],[102.84807491200007,16.072323135000033],[102.89793518400006,16.00078000600007],[102.95900189800005,16.05822028500006],[102.97711018300004,16.10836973200003],[102.89980498800008,16.124734424000053]]]}},{"type":"Feature","properties":{"code":"441102","name":"นาภู","parentCode":"4411"},"geometry":{"type":"Polygon","coordinates":[[[103.06586032600006,15.673165360000041],[103.06172808500008,15.704401508000046],[103.00799590100007,15.701173907000054],[102.98176128100005,15.674380808000024],[103.06586032600006,15.673165360000041]]]}},{"type":"Feature","properties":{"code":"440405","name":"นาสีนวน","parentCode":"4404"},"geometry":{"type":"Polygon","coordinates":[[[103.24056371600005,16.300163592000047],[103.22901067700008,16.372480625000037],[103.17542241700005,16.363430399000038],[103.18351405500005,16.337101940000025],[103.17321184300005,16.317382546000033],[103.15946204700003,16.278859383000054],[103.19791702900005,16.267954373000066],[103.24056371600005,16.300163592000047]]]}},{"type":"Feature","properties":{"code":"440805","name":"นาสีนวล","parentCode":"4408"},"geometry":{"type":"Polygon","coordinates":[[[103.23129028500006,15.651961336000056],[103.21439559000004,15.655332719000057],[103.19587807400006,15.613915157000065],[103.27556566100009,15.61116265100003],[103.26711721900006,15.649621683000078],[103.23129028500006,15.651961336000056]]]}},{"type":"Feature","properties":{"code":"440507","name":"นาทอง","parentCode":"4405"},"geometry":{"type":"Polygon","coordinates":[[[103.07421794400005,16.383705719000034],[103.05344915400008,16.416317695000032],[103.04420637300007,16.400068761000057],[103.03412129500003,16.35503851800007],[103.08369315400006,16.366700372000025],[103.07421794400005,16.383705719000034]]]}},{"type":"Feature","properties":{"code":"440908","name":"งัวบา","parentCode":"4409"},"geometry":{"type":"Polygon","coordinates":[[[103.39226374100008,15.979615129000024],[103.38583543500005,15.987331510000047],[103.33059166300006,15.981669448000048],[103.31111096500007,15.97818985300006],[103.29677046700004,15.967906867000067],[103.31175087700007,15.937551775000031],[103.32888774100007,15.915938524000069],[103.34444687900009,15.919528592000063],[103.35661588100004,15.923804386000029],[103.39826362700006,15.960972292000065],[103.39226374100008,15.979615129000024]]]}},{"type":"Feature","properties":{"code":"440608","name":"โนนแดง","parentCode":"4406"},"geometry":{"type":"Polygon","coordinates":[[[103.07864144900009,15.955073554000023],[103.03552992700008,15.954601707000052],[103.02827546000003,15.906373041000052],[103.02777918600003,15.905634853000038],[103.08047899700006,15.862924537000026],[103.11692996200009,15.841450528000053],[103.14707246100005,15.861565934000055],[103.07864144900009,15.955073554000023]]]}},{"type":"Feature","properties":{"code":"440205","name":"โนนภิบาล","parentCode":"4402"},"geometry":{"type":"Polygon","coordinates":[[[103.46645493600005,16.052751313000044],[103.42319130700008,16.044266782000022],[103.41790470400008,16.01567232800005],[103.46333016400007,16.008819869000035],[103.46645493600005,16.052751313000044]]]}},{"type":"Feature","properties":{"code":"440607","name":"โนนราษี","parentCode":"4406"},"geometry":{"type":"Polygon","coordinates":[[[103.13524191800008,15.922999653000034],[103.10450809000008,15.989476813000067],[103.07864144900009,15.955073554000023],[103.14707246100005,15.861565934000055],[103.14948106500003,15.863682500000039],[103.15642205800003,15.866226028000028],[103.13524191800008,15.922999653000034]]]}},{"type":"Feature","properties":{"code":"440311","name":"หนองบอน","parentCode":"4403"},"geometry":{"type":"Polygon","coordinates":[[[103.04291348500004,16.29126414900003],[102.99625918600003,16.307265938000057],[102.99532535100008,16.30538043400003],[102.99578547000004,16.229466519000027],[103.02548602400009,16.24087740500005],[103.04291348500004,16.29126414900003]]]}},{"type":"Feature","properties":{"code":"440308","name":"หนองบัว","parentCode":"4403"},"geometry":{"type":"Polygon","coordinates":[[[102.98570322000006,16.401845710000032],[102.94949736900008,16.43669864000003],[102.93410753700005,16.383567414000026],[102.93785882300006,16.377014487000054],[102.99649078800007,16.32688446000003],[103.01516787900005,16.346827227000063],[103.01473876000006,16.34953394000007],[102.98359579600009,16.354282659000035],[102.98570322000006,16.401845710000032]]]}},{"type":"Feature","properties":{"code":"440817","name":"หนองบัว","parentCode":"4408"},"geometry":{"type":"Polygon","coordinates":[[[103.07819375200006,15.632167872000025],[103.06275177200007,15.601073385000063],[103.14063918400007,15.554326185000036],[103.14142914300004,15.597356768000054],[103.07819375200006,15.632167872000025]]]}},{"type":"Feature","properties":{"code":"440810","name":"หนองบัวแก้ว","parentCode":"4408"},"geometry":{"type":"Polygon","coordinates":[[[103.32197973600006,15.553786908000063],[103.27925117500007,15.594920817000059],[103.26066906900007,15.565313482000022],[103.26100745600007,15.553911669000058],[103.28036193300005,15.535101679000036],[103.34396208900006,15.502977763000047],[103.34539580000006,15.50245299900007],[103.36089204700005,15.526200471000038],[103.32197973600006,15.553786908000063]]]}},{"type":"Feature","properties":{"code":"441107","name":"หนองบัวสันตุ","parentCode":"4411"},"geometry":{"type":"Polygon","coordinates":[[[103.21439559000004,15.655332719000057],[103.19135490700006,15.667339932000061],[103.17905733300006,15.659100496000065],[103.13881659500004,15.627623000000028],[103.14125446400004,15.597841283000037],[103.19585292700003,15.61391178100007],[103.19587807400006,15.613915157000065],[103.21439559000004,15.655332719000057]]]}},{"type":"Feature","properties":{"code":"440610","name":"หนองจิก","parentCode":"4406"},"geometry":{"type":"Polygon","coordinates":[[[103.21018928000007,16.045576226000037],[103.16645265800008,16.05925559700006],[103.13106388000006,16.021547836000025],[103.12129278900005,15.997567763000063],[103.18073929900004,15.988396344000023],[103.21909625300003,15.994857595000042],[103.21018928000007,16.045576226000037]]]}},{"type":"Feature","properties":{"code":"440703","name":"หนองแดง","parentCode":"4407"},"geometry":{"type":"Polygon","coordinates":[[[102.95978425000004,15.854734424000071],[102.98226827300005,15.915729928000076],[102.94210407900005,15.909074213000054],[102.93080872600007,15.912562244000071],[102.92480688100005,15.913187023000035],[102.91422120700008,15.911834055000043],[102.90758563600008,15.912299564000023],[102.90171732100004,15.911033834000023],[102.90096780000005,15.910885987000029],[102.90116517300004,15.91077814700003],[102.90291465600006,15.902893561000042],[102.92321065500005,15.851085848000025],[102.95978425000004,15.854734424000071]]]}},{"type":"Feature","properties":{"code":"440911","name":"หนองไฮ","parentCode":"4409"},"geometry":{"type":"Polygon","coordinates":[[[103.45767619800006,15.908700073000034],[103.43904125300008,15.925977986000078],[103.40632753300008,15.890172947000053],[103.41639013800005,15.861118622000049],[103.41734412100004,15.854014651000057],[103.44025556200006,15.841360103000056],[103.45767619800006,15.908700073000034]]]}},{"type":"Feature","properties":{"code":"441003","name":"หนองคู","parentCode":"4410"},"geometry":{"type":"Polygon","coordinates":[[[103.28921580400004,15.791756816000031],[103.20453572000008,15.798055101000045],[103.17948014500007,15.801153819000035],[103.17929062600007,15.779252063000058],[103.17360421800004,15.766983982000056],[103.21132352400008,15.75990938600006],[103.21951929700003,15.758150572000034],[103.28921580400004,15.791756816000031]]]}},{"type":"Feature","properties":{"code":"440613","name":"หนองคูขาด","parentCode":"4406"},"geometry":{"type":"Polygon","coordinates":[[[103.03552992700008,15.954601707000052],[103.02335464400005,15.975754894000033],[103.00059530600004,15.98805685700006],[102.94210407900005,15.909074213000054],[102.98226827300005,15.915729928000076],[103.02827546000003,15.906373041000052],[103.03552992700008,15.954601707000052]]]}},{"type":"Feature","properties":{"code":"440619","name":"หนองโก","parentCode":"4406"},"geometry":{"type":"Polygon","coordinates":[[[103.20796667600007,16.088131730000043],[103.15250468900007,16.079526773000055],[103.16645265800008,16.05925559700006],[103.21018928000007,16.045576226000037],[103.25380488300004,16.072330763000025],[103.20796667600007,16.088131730000043]]]}},{"type":"Feature","properties":{"code":"440204","name":"หนองกุง","parentCode":"4402"},"geometry":{"type":"Polygon","coordinates":[[[103.45814436300009,16.11120107200003],[103.42448924200005,16.11262219500003],[103.40758686400005,16.062736182000037],[103.40490044100005,16.056366280000077],[103.42319130700008,16.044266782000022],[103.46645493600005,16.052751313000044],[103.46479821500009,16.06567749800007],[103.45814436300009,16.11120107200003]]]}},{"type":"Feature","properties":{"code":"440709","name":"หนองกุง","parentCode":"4407"},"geometry":{"type":"Polygon","coordinates":[[[103.07928755200004,15.712025938000068],[103.07101240100008,15.750046164000025],[103.00977311900004,15.73429980800006],[103.00527807600008,15.728837592000048],[103.00799590100007,15.701173907000054],[103.06172808500008,15.704401508000046],[103.07928755200004,15.712025938000068]]]}},{"type":"Feature","properties":{"code":"441304","name":"หนองกุง","parentCode":"4413"},"geometry":{"type":"Polygon","coordinates":[[[103.10132402400006,16.54176339000003],[103.09365097800008,16.53532403300005],[103.08523930600006,16.51573263100005],[103.09437124700008,16.48958671500003],[103.13213287800005,16.454449142000044],[103.12278235000008,16.53550333100003],[103.10132402400006,16.54176339000003]]]}},{"type":"Feature","properties":{"code":"440315","name":"หนองกุงสวรรค์","parentCode":"4403"},"geometry":{"type":"Polygon","coordinates":[[[102.99578547000004,16.229466519000027],[102.95639327300006,16.21737726400005],[102.94605771900007,16.196446240000057],[102.92056611000004,16.15557392000005],[103.01919783800008,16.179898147000074],[102.99578547000004,16.229466519000027]]]}},{"type":"Feature","properties":{"code":"440307","name":"หนองเหล็ก","parentCode":"4403"},"geometry":{"type":"Polygon","coordinates":[[[103.01919783800008,16.179898147000074],[102.92056611000004,16.15557392000005],[102.89980498800008,16.124734424000053],[102.97711018300004,16.10836973200003],[103.01341744900009,16.10978419500003],[103.04037540100006,16.16851367700002],[103.01919783800008,16.179898147000074]]]}},{"type":"Feature","properties":{"code":"440707","name":"หนองเม็ก","parentCode":"4407"},"geometry":{"type":"Polygon","coordinates":[[[103.03341646800004,15.829451888000051],[103.00135114000005,15.830714976000024],[102.97574328900004,15.76254059100006],[102.93947318700003,15.770558784000059],[102.95315847600006,15.759947202000035],[103.00527807600008,15.728837592000048],[103.00977311900004,15.73429980800006],[103.02624119600006,15.808461592000072],[103.03341646800004,15.829451888000051]]]}},{"type":"Feature","properties":{"code":"440605","name":"หนองม่วง","parentCode":"4406"},"geometry":{"type":"Polygon","coordinates":[[[103.23659769600005,15.988520588000029],[103.21909625300003,15.994857595000042],[103.18073929900004,15.988396344000023],[103.18144899500004,15.946461552000073],[103.17894754200006,15.932372120000025],[103.20378976700005,15.922634594000044],[103.24986551900008,15.952429463000044],[103.24878681200005,15.976036504000035],[103.23659769600005,15.988520588000029]]]}},{"type":"Feature","properties":{"code":"440113","name":"หนองโน","parentCode":"4401"},"geometry":{"type":"Polygon","coordinates":[[[103.25933511500006,16.135038137000038],[103.22323872500004,16.126437114000055],[103.20796667600007,16.088131730000043],[103.25380488300004,16.072330763000025],[103.29251481800009,16.057028892000062],[103.27640045500004,16.10131099800003],[103.25933511500006,16.135038137000038]]]}},{"type":"Feature","properties":{"code":"441002","name":"หนองไผ่","parentCode":"4410"},"geometry":{"type":"Polygon","coordinates":[[[103.34459867000004,15.717143891000035],[103.32009287500006,15.766335182000034],[103.29261725000003,15.726300761000061],[103.30103017000005,15.706385198000078],[103.33220580700004,15.702117456000053],[103.34459867000004,15.717143891000035]]]}},{"type":"Feature","properties":{"code":"440705","name":"หนองโพธิ์","parentCode":"4407"},"geometry":{"type":"Polygon","coordinates":[[[103.17929062600007,15.779252063000058],[103.10353549100006,15.80524173200007],[103.08478091700005,15.760064235000073],[103.13612045600007,15.72237840300005],[103.17360421800004,15.766983982000056],[103.17929062600007,15.779252063000058]]]}},{"type":"Feature","properties":{"code":"440111","name":"หนองปลิง","parentCode":"4401"},"geometry":{"type":"Polygon","coordinates":[[[103.35099090400007,16.102293536000047],[103.27640045500004,16.10131099800003],[103.29251481800009,16.057028892000062],[103.32826405900005,16.04756787100007],[103.33769638000007,16.09303806400004],[103.35099090400007,16.102293536000047]]]}},{"type":"Feature","properties":{"code":"440708","name":"หนองเรือ","parentCode":"4407"},"geometry":{"type":"Polygon","coordinates":[[[103.14707246100005,15.861565934000055],[103.11692996200009,15.841450528000053],[103.08047899700006,15.862924537000026],[103.09303392500004,15.801409792000072],[103.10353549100006,15.80524173200007],[103.17929062600007,15.779252063000058],[103.17948014500007,15.801153819000035],[103.14948106500003,15.863682500000039],[103.14707246100005,15.861565934000055]]]}},{"type":"Feature","properties":{"code":"440914","name":"หนองแสน","parentCode":"4409"},"geometry":{"type":"Polygon","coordinates":[[[103.46333016400007,16.008819869000035],[103.41790470400008,16.01567232800005],[103.38583543500005,15.987331510000047],[103.39226374100008,15.979615129000024],[103.46296148400006,15.978526926000029],[103.46248546300006,16.007254799000066],[103.46333016400007,16.008819869000035]]]}},{"type":"Feature","properties":{"code":"440901","name":"หนองแสง","parentCode":"4409"},"geometry":{"type":"Polygon","coordinates":[[[103.41639013800005,15.861118622000049],[103.35037295200004,15.877638406000074],[103.30608809900008,15.834002664000025],[103.31684159200006,15.805301803000077],[103.36430334600004,15.781201813000052],[103.38410820400009,15.786979255000062],[103.41734412100004,15.854014651000057],[103.41639013800005,15.861118622000049]]]}},{"type":"Feature","properties":{"code":"440618","name":"หนองสิม","parentCode":"4406"},"geometry":{"type":"Polygon","coordinates":[[[103.13106388000006,16.021547836000025],[103.07649604500006,16.065499388000035],[103.07833692900005,16.100211957000056],[103.04758476600006,16.085053360000074],[103.04118698900004,16.068600107000066],[103.07738790500008,16.024245192000024],[103.10450809000008,15.989476813000067],[103.12129278900005,15.997567763000063],[103.13106388000006,16.021547836000025]]]}},{"type":"Feature","properties":{"code":"440503","name":"หนองซอน","parentCode":"4405"},"geometry":{"type":"Polygon","coordinates":[[[103.18351405500005,16.337101940000025],[103.10595705800006,16.377269496000054],[103.11155665800004,16.400152218000073],[103.07421794400005,16.383705719000034],[103.08369315400006,16.366700372000025],[103.10241238800006,16.346514052000032],[103.12867488900008,16.326285764000033],[103.17321184300005,16.317382546000033],[103.18351405500005,16.337101940000025]]]}},{"type":"Feature","properties":{"code":"440913","name":"หนองทุ่ม","parentCode":"4409"},"geometry":{"type":"Polygon","coordinates":[[[103.40632753300008,15.890172947000053],[103.35661588100004,15.923804386000029],[103.34444687900009,15.919528592000063],[103.35037295200004,15.877638406000074],[103.41639013800005,15.861118622000049],[103.40632753300008,15.890172947000053]]]}},{"type":"Feature","properties":{"code":"441204","name":"หนองแวง","parentCode":"4412"},"geometry":{"type":"Polygon","coordinates":[[[103.00116360600003,16.03896653000004],[102.95900189800005,16.05822028500006],[102.89793518400006,16.00078000600007],[102.90556517400006,15.981525548000036],[102.90134402500007,15.970035756000073],[102.88988673200004,15.940624294000031],[102.89680598500007,15.918076130000031],[102.90020642200005,15.915096945000073],[102.89928623300005,15.913976657000035],[102.89987974200005,15.911532727000065],[102.90033134900006,15.91131940300005],[102.90049837000004,15.91114804800003],[102.90100742000004,15.910834383000065],[102.90116517300004,15.91077814700003],[102.90096780000005,15.910885987000029],[102.90197916800008,15.911597809000057],[102.90243604300008,15.912228088000063],[102.90365022200007,15.912190107000072],[102.90520840300007,15.917819811000072],[102.90935700700004,15.922137492000047],[102.91103549100006,15.927679993000027],[102.92481097000007,15.951863913000068],[102.94233110000005,15.979982478000068],[102.99797962500008,16.016511704000038],[103.00116360600003,16.03896653000004]]]}},{"type":"Feature","properties":{"code":"440801","name":"ปะหลาน","parentCode":"4408"},"geometry":{"type":"Polygon","coordinates":[[[103.21615253800007,15.529092948000027],[103.14899204200003,15.533399263000035],[103.14355459800004,15.475677370000028],[103.17097072100006,15.468571182000062],[103.21216900500008,15.460864109000056],[103.18231786200005,15.489454427000055],[103.23252176300008,15.51778850200003],[103.21615253800007,15.529092948000027]]]}},{"type":"Feature","properties":{"code":"440305","name":"แพง","parentCode":"4403"},"geometry":{"type":"Polygon","coordinates":[[[102.99532535100008,16.30538043400003],[102.93574558700004,16.30648354400006],[102.94019710300006,16.26297248000003],[102.95639327300006,16.21737726400005],[102.99578547000004,16.229466519000027],[102.99532535100008,16.30538043400003]]]}},{"type":"Feature","properties":{"code":"440820","name":"ภารแอ่น","parentCode":"4408"},"geometry":{"type":"Polygon","coordinates":[[[103.27556566100009,15.61116265100003],[103.19587807400006,15.613915157000065],[103.19585292700003,15.61391178100007],[103.19611469800009,15.597932042000025],[103.26066906900007,15.565313482000022],[103.27925117500007,15.594920817000059],[103.27556566100009,15.61116265100003]]]}},{"type":"Feature","properties":{"code":"440905","name":"โพธิ์ชัย","parentCode":"4409"},"geometry":{"type":"Polygon","coordinates":[[[103.41969100700004,15.720970601000033],[103.40835016000005,15.766398292000076],[103.43357939400005,15.789589121000063],[103.38410820400009,15.786979255000062],[103.36430334600004,15.781201813000052],[103.40380297600007,15.711931661000051],[103.41310235300006,15.712489812000058],[103.41969100700004,15.720970601000033]]]}},{"type":"Feature","properties":{"code":"440312","name":"โพนงาม","parentCode":"4403"},"geometry":{"type":"Polygon","coordinates":[[[102.93785882300006,16.377014487000054],[102.91919856000004,16.373384394000027],[102.91984159600008,16.365120683000043],[102.93574558700004,16.30648354400006],[102.99532535100008,16.30538043400003],[102.99625918600003,16.307265938000057],[102.99649078800007,16.32688446000003],[102.93785882300006,16.377014487000054]]]}},{"type":"Feature","properties":{"code":"440511","name":"โพนทอง","parentCode":"4405"},"geometry":{"type":"Polygon","coordinates":[[[103.16353985500007,16.38910738900006],[103.11820913600008,16.400795498000036],[103.11155665800004,16.400152218000073],[103.10595705800006,16.377269496000054],[103.18351405500005,16.337101940000025],[103.17542241700005,16.363430399000038],[103.16353985500007,16.38910738900006]]]}},{"type":"Feature","properties":{"code":"441009","name":"พระธาตุ","parentCode":"4410"},"geometry":{"type":"Polygon","coordinates":[[[103.29567304200003,15.693361873000072],[103.24722370600006,15.712674286000038],[103.21751414100004,15.707411097000033],[103.23236005700005,15.668483343000048],[103.28543203800007,15.674288834000038],[103.29567304200003,15.693361873000072]]]}},{"type":"Feature","properties":{"code":"440706","name":"ปอพาน","parentCode":"4407"},"geometry":{"type":"Polygon","coordinates":[[[103.00135114000005,15.830714976000024],[102.95978425000004,15.854734424000071],[102.92321065500005,15.851085848000025],[102.91992216900007,15.843263034000074],[102.92688094800008,15.816932889000043],[102.93046269600006,15.795826058000046],[102.93947318700003,15.770558784000059],[102.97574328900004,15.76254059100006],[103.00135114000005,15.830714976000024]]]}},{"type":"Feature","properties":{"code":"440912","name":"ประชาพัฒนา","parentCode":"4409"},"geometry":{"type":"Polygon","coordinates":[[[103.44106858000004,15.829990077000048],[103.44025556200006,15.841360103000056],[103.41734412100004,15.854014651000057],[103.38410820400009,15.786979255000062],[103.43357939400005,15.789589121000063],[103.43958014400005,15.799464941000053],[103.44106858000004,15.829990077000048]]]}},{"type":"Feature","properties":{"code":"440809","name":"ราษฎร์เจริญ","parentCode":"4408"},"geometry":{"type":"Polygon","coordinates":[[[103.34539580000006,15.50245299900007],[103.34396208900006,15.502977763000047],[103.28066556100003,15.48598961700003],[103.28937025800008,15.421325283000044],[103.31213418400006,15.414247353000064],[103.34290512100006,15.40857524200004],[103.34314642700008,15.40887809700007],[103.36247840400006,15.462867643000038],[103.34539580000006,15.50245299900007]]]}},{"type":"Feature","properties":{"code":"440818","name":"ราษฎร์พัฒนา","parentCode":"4408"},"geometry":{"type":"Polygon","coordinates":[[[103.34396208900006,15.502977763000047],[103.28036193300005,15.535101679000036],[103.28066556100003,15.48598961700003],[103.34396208900006,15.502977763000047]]]}},{"type":"Feature","properties":{"code":"440702","name":"สำโรง","parentCode":"4407"},"geometry":{"type":"Polygon","coordinates":[[[103.02827546000003,15.906373041000052],[102.98226827300005,15.915729928000076],[102.95978425000004,15.854734424000071],[103.00135114000005,15.830714976000024],[103.03341646800004,15.829451888000051],[103.02777918600003,15.905634853000038],[103.02827546000003,15.906373041000052]]]}},{"type":"Feature","properties":{"code":"440710","name":"สันป่าตอง","parentCode":"4407"},"geometry":{"type":"Polygon","coordinates":[[[103.13612045600007,15.72237840300005],[103.08478091700005,15.760064235000073],[103.07101240100008,15.750046164000025],[103.07928755200004,15.712025938000068],[103.11731976500005,15.703321750000043],[103.12355134100005,15.704122622000057],[103.13612045600007,15.72237840300005]]]}},{"type":"Feature","properties":{"code":"441106","name":"สร้างแซ่ง","parentCode":"4411"},"geometry":{"type":"Polygon","coordinates":[[[103.10986501900004,15.652365585000041],[103.09259296400006,15.648782854000046],[103.07819375200006,15.632167872000025],[103.14142914300004,15.597356768000054],[103.14125446400004,15.597841283000037],[103.13881659500004,15.627623000000028],[103.10986501900004,15.652365585000041]]]}},{"type":"Feature","properties":{"code":"440408","name":"ศรีสุข","parentCode":"4404"},"geometry":{"type":"Polygon","coordinates":[[[103.29035194900007,16.39536491000007],[103.22901067700008,16.372480625000037],[103.24056371600005,16.300163592000047],[103.27969332200007,16.32391351700005],[103.30193298200004,16.369224304000056],[103.29180294400004,16.393240642000023],[103.29035194900007,16.39536491000007]]]}},{"type":"Feature","properties":{"code":"440903","name":"เสือโก้ก","parentCode":"4409"},"geometry":{"type":"Polygon","coordinates":[[[103.46296148400006,15.978526926000029],[103.39226374100008,15.979615129000024],[103.39826362700006,15.960972292000065],[103.43904125300008,15.925977986000078],[103.45767619800006,15.908700073000034],[103.47906518000008,15.924433132000047],[103.48818795600005,15.931336466000062],[103.47421233700004,15.949608386000023],[103.46296148400006,15.978526926000029]]]}},{"type":"Feature","properties":{"code":"440508","name":"เสือเฒ่า","parentCode":"4405"},"geometry":{"type":"Polygon","coordinates":[[[103.09437124700008,16.48958671500003],[103.08523930600006,16.51573263100005],[103.05656858900005,16.499230805000025],[103.02077007300005,16.47648352400006],[103.00921873900006,16.46971442100005],[103.04350429500005,16.425524162000045],[103.09437124700008,16.48958671500003]]]}},{"type":"Feature","properties":{"code":"440101","name":"ตลาด","parentCode":"4401"},"geometry":{"type":"Polygon","coordinates":[[[103.32445522900008,16.189981345000035],[103.26148321100004,16.200237077000054],[103.28877570600008,16.167866184000047],[103.33709538400007,16.16451058800004],[103.33831998600004,16.184786056000064],[103.32445522900008,16.189981345000035]]]}},{"type":"Feature","properties":{"code":"440404","name":"ท่าขอนยาง","parentCode":"4404"},"geometry":{"type":"Polygon","coordinates":[[[103.28434969500006,16.26671453700004],[103.27518147200004,16.28163870900005],[103.26257399300005,16.218598411000073],[103.32483031300006,16.226780185000052],[103.31835751200003,16.239937798000028],[103.28434969500006,16.26671453700004]]]}},{"type":"Feature","properties":{"code":"440109","name":"ท่าสองคอน","parentCode":"4401"},"geometry":{"type":"Polygon","coordinates":[[[103.21887737200007,16.19832470800003],[103.15083229400005,16.19581387900007],[103.12937401200008,16.19759338800003],[103.11957694900008,16.17092438700007],[103.12689558900007,16.134121720000053],[103.20573807700003,16.140853020000065],[103.24292404300007,16.15373213400005],[103.24418128800005,16.194327256000065],[103.23834260000007,16.19714061600007],[103.21887737200007,16.19832470800003]]]}},{"type":"Feature","properties":{"code":"440103","name":"ท่าตูม","parentCode":"4401"},"geometry":{"type":"Polygon","coordinates":[[[103.50228135300006,16.199650546000044],[103.45162700700007,16.183055108000076],[103.42903427700008,16.176242349000063],[103.44212065000005,16.13704537700005],[103.48345229200004,16.163457851000032],[103.48999511300008,16.178699447000042],[103.50228135300006,16.199650546000044]]]}},{"type":"Feature","properties":{"code":"441103","name":"แวงดง","parentCode":"4411"},"geometry":{"type":"Polygon","coordinates":[[[103.09259296400006,15.648782854000046],[103.06586032600006,15.673165360000041],[102.98176128100005,15.674380808000024],[102.97696473000008,15.671705802000076],[103.01199651100006,15.620217138000044],[103.01288591500008,15.617229735000024],[103.05281322300004,15.592746606000048],[103.06275177200007,15.601073385000063],[103.07819375200006,15.632167872000025],[103.09259296400006,15.648782854000046]]]}},{"type":"Feature","properties":{"code":"440104","name":"แวงน่าง","parentCode":"4401"},"geometry":{"type":"Polygon","coordinates":[[[103.33709538400007,16.16451058800004],[103.28877570600008,16.167866184000047],[103.25933511500006,16.135038137000038],[103.27640045500004,16.10131099800003],[103.35099090400007,16.102293536000047],[103.36194894500005,16.119270210000025],[103.33709538400007,16.16451058800004]]]}},{"type":"Feature","properties":{"code":"440604","name":"วังไชย","parentCode":"4406"},"geometry":{"type":"Polygon","coordinates":[[[103.10450809000008,15.989476813000067],[103.07738790500008,16.024245192000024],[103.02335464400005,15.975754894000033],[103.03552992700008,15.954601707000052],[103.07864144900009,15.955073554000023],[103.10450809000008,15.989476813000067]]]}},{"type":"Feature","properties":{"code":"440615","name":"วังใหม่","parentCode":"4406"},"geometry":{"type":"Polygon","coordinates":[[[103.07738790500008,16.024245192000024],[103.04118698900004,16.068600107000066],[103.00116360600003,16.03896653000004],[102.99797962500008,16.016511704000038],[103.00059530600004,15.98805685700006],[103.02335464400005,15.975754894000033],[103.07738790500008,16.024245192000024]]]}},{"type":"Feature","properties":{"code":"440202","name":"วังแสง","parentCode":"4402"},"geometry":{"type":"Polygon","coordinates":[[[103.40758686400005,16.062736182000037],[103.33769638000007,16.09303806400004],[103.32826405900005,16.04756787100007],[103.33916407300006,16.022632790000046],[103.34122032300007,16.015846001000057],[103.40490044100005,16.056366280000077],[103.40758686400005,16.062736182000037]]]}},{"type":"Feature","properties":{"code":"440303","name":"วังยาว","parentCode":"4403"},"geometry":{"type":"Polygon","coordinates":[[[102.95639327300006,16.21737726400005],[102.94019710300006,16.26297248000003],[102.88985784500005,16.208196792000024],[102.94605771900007,16.196446240000057],[102.95639327300006,16.21737726400005]]]}},{"type":"Feature","properties":{"code":"440816","name":"เวียงชัย","parentCode":"4408"},"geometry":{"type":"Polygon","coordinates":[[[103.28036193300005,15.535101679000036],[103.26100745600007,15.553911669000058],[103.24296562800004,15.510384315000067],[103.23790881900004,15.506801168000038],[103.28066556100003,15.48598961700003],[103.28036193300005,15.535101679000036]]]}},{"type":"Feature","properties":{"code":"440803","name":"เวียงสะอาด","parentCode":"4408"},"geometry":{"type":"Polygon","coordinates":[[[103.23790881900004,15.506801168000038],[103.24068325000007,15.449771347000024],[103.26296256400008,15.428489115000048],[103.28937025800008,15.421325283000044],[103.28066556100003,15.48598961700003],[103.23790881900004,15.506801168000038]]]}},{"type":"Feature","properties":{"code":"440616","name":"ยาง","parentCode":"4406"},"geometry":{"type":"Polygon","coordinates":[[[103.23024693900004,15.891418690000023],[103.26502266500006,15.920475363000037],[103.24986551900008,15.952429463000044],[103.20378976700005,15.922634594000044],[103.23024693900004,15.891418690000023]]]}},{"type":"Feature","properties":{"code":"440302","name":"ยางน้อย","parentCode":"4403"},"geometry":{"type":"Polygon","coordinates":[[[103.12867488900008,16.326285764000033],[103.10241238800006,16.346514052000032],[103.08322185600008,16.32183423300006],[103.06183058200008,16.282416417000036],[103.10385319600005,16.260692506000055],[103.13934900300006,16.303821234000054],[103.12867488900008,16.326285764000033]]]}},{"type":"Feature","properties":{"code":"441101","name":"ยางสีสุราช","parentCode":"4411"},"geometry":{"type":"Polygon","coordinates":[[[103.11731976500005,15.703321750000043],[103.07928755200004,15.712025938000068],[103.06172808500008,15.704401508000046],[103.06586032600006,15.673165360000041],[103.09259296400006,15.648782854000046],[103.10986501900004,15.652365585000041],[103.12535691800008,15.673395931000073],[103.11731976500005,15.703321750000043]]]}},{"type":"Feature","properties":{"code":"440313","name":"ยางท่าแจ้ง","parentCode":"4403"},"geometry":{"type":"Polygon","coordinates":[[[103.08322185600008,16.32183423300006],[103.01516787900005,16.346827227000063],[102.99649078800007,16.32688446000003],[102.99625918600003,16.307265938000057],[103.04291348500004,16.29126414900003],[103.06183058200008,16.282416417000036],[103.08322185600008,16.32183423300006]]]}}]}