{"type":"FeatureCollection","features":[{"type":"Feature","properties":{"code":"450804","name":"อัคคะคำ","parentCode":"4508"},"geometry":{"type":"Polygon","coordinates":[[[103.78525276800008,16.39796838700005],[103.79416966300005,16.44807412700004],[103.74325269400003,16.411719896000022],[103.70596527800006,16.386315204000027],[103.70942319400007,16.36466936000005],[103.72305414200008,16.349417293000045],[103.78993357000007,16.382272098000044],[103.78525276800008,16.39796838700005]]]}},{"type":"Feature","properties":{"code":"451401","name":"อาจสามารถ","parentCode":"4514"},"geometry":{"type":"Polygon","coordinates":[[[103.92622924500006,15.790027619000057],[103.93019739900006,15.832389513000066],[103.89913340200007,15.860973523000041],[103.84804075300008,15.897607168000036],[103.83136118200008,15.852334473000042],[103.92622924500006,15.790027619000057]]]}},{"type":"Feature","properties":{"code":"451608","name":"บ้านบาก","parentCode":"4516"},"geometry":{"type":"Polygon","coordinates":[[[103.52874377100005,16.005114011000046],[103.51700932200004,16.007881186000077],[103.50294573100007,15.965623877000041],[103.51675067500008,15.974893457000064],[103.54454031700004,15.994980682000062],[103.52874377100005,16.005114011000046]]]}},{"type":"Feature","properties":{"code":"451403","name":"บ้านแจ้ง","parentCode":"4514"},"geometry":{"type":"Polygon","coordinates":[[[103.97450244600009,15.831784646000074],[103.93661164000008,15.88652419500005],[103.89913340200007,15.860973523000041],[103.93019739900006,15.832389513000066],[103.97450244600009,15.831784646000074]]]}},{"type":"Feature","properties":{"code":"451410","name":"บ้านดู่","parentCode":"4514"},"geometry":{"type":"Polygon","coordinates":[[[103.76552620900009,15.889784660000032],[103.74607892100005,15.920626000000027],[103.72248743500006,15.915368966000074],[103.70569632300004,15.88934769900004],[103.69685348500008,15.863869069000032],[103.73053407500004,15.846132168000054],[103.76552620900009,15.889784660000032]]]}},{"type":"Feature","properties":{"code":"450206","name":"บ้านฝาง","parentCode":"4502"},"geometry":{"type":"Polygon","coordinates":[[[103.41310235300006,15.712489812000058],[103.41580785600007,15.687315859000023],[103.46506475900009,15.673685262000049],[103.49415637800007,15.671267288000024],[103.49445161500006,15.67369016300006],[103.46054257700007,15.731516844000055],[103.41969100700004,15.720970601000033],[103.41310235300006,15.712489812000058]]]}},{"type":"Feature","properties":{"code":"451806","name":"บ้านเขือง","parentCode":"4518"},"geometry":{"type":"Polygon","coordinates":[[[103.73712514200008,16.16452970000006],[103.70205600500009,16.180668197000045],[103.68527382600007,16.150556832000063],[103.69319450500006,16.12775400000004],[103.71315190900003,16.120685937000076],[103.74280140600007,16.153497207000044],[103.73712514200008,16.16452970000006]]]}},{"type":"Feature","properties":{"code":"451107","name":"บ่อพันขัน","parentCode":"4511"},"geometry":{"type":"Polygon","coordinates":[[[103.90177395700005,15.572339716000045],[103.90648508000004,15.627124156000036],[103.87965313500007,15.623967564000054],[103.88778315200005,15.598057591000043],[103.90177395700005,15.572339716000045]]]}},{"type":"Feature","properties":{"code":"450301","name":"บัวแดง","parentCode":"4503"},"geometry":{"type":"Polygon","coordinates":[[[103.40592281300007,15.650639139000077],[103.33424912000004,15.68490554300007],[103.31247791900006,15.627352643000052],[103.38561079600004,15.615339100000028],[103.40592281300007,15.650639139000077]]]}},{"type":"Feature","properties":{"code":"450803","name":"บัวคำ","parentCode":"4508"},"geometry":{"type":"Polygon","coordinates":[[[103.80321267700003,16.30578768400005],[103.78480394200005,16.295914872000026],[103.78791319000004,16.273885372000052],[103.83798182000004,16.255208195000023],[103.81879641000006,16.295298950000074],[103.80321267700003,16.30578768400005]]]}},{"type":"Feature","properties":{"code":"451018","name":"บึงเกลือ","parentCode":"4510"},"geometry":{"type":"Polygon","coordinates":[[[104.03406539600007,16.049259161000066],[103.98939313100004,16.044564885000057],[104.02966027600007,15.980858234000038],[104.04942760000006,15.985993712000038],[104.03406539600007,16.049259161000066]]]}},{"type":"Feature","properties":{"code":"450520","name":"บึงนคร","parentCode":"4505"},"geometry":{"type":"Polygon","coordinates":[[[103.88810357100004,16.082184506000033],[103.81649710200008,16.08880001600005],[103.80770337000007,16.083303835000038],[103.82280224400006,16.05359951400004],[103.82895137900005,16.052910242000053],[103.87487526000007,16.061264037000058],[103.90053463900006,16.06556969600007],[103.89157538500007,16.077333645000067],[103.88810357100004,16.082184506000033]]]}},{"type":"Feature","properties":{"code":"450902","name":"บึงงาม","parentCode":"4509"},"geometry":{"type":"Polygon","coordinates":[[[104.31121288700007,16.45239656900003],[104.28957218200009,16.471616924000045],[104.30552213100003,16.43968958800002],[104.27916085300006,16.392096673000026],[104.24172964700006,16.373076550000064],[104.25691185000005,16.321805212000072],[104.26691055300006,16.32035171700005],[104.30924399300005,16.328714582000032],[104.31815580200004,16.375188739000066],[104.31121288700007,16.45239656900003]]]}},{"type":"Feature","properties":{"code":"452003","name":"บึงงาม","parentCode":"4520"},"geometry":{"type":"Polygon","coordinates":[[[103.93286851300007,16.011081526000055],[103.90613191000006,16.024129911000045],[103.87874525000007,16.014732139000046],[103.85661867300007,15.99954318400006],[103.89703316800006,15.953652538000028],[103.93482526800005,15.976037402000031],[103.93286851300007,16.011081526000055]]]}},{"type":"Feature","properties":{"code":"451503","name":"บุ่งเลิศ","parentCode":"4515"},"geometry":{"type":"Polygon","coordinates":[[[104.20238634500004,16.429829064000046],[104.17242400300006,16.445946495000044],[104.10241783400005,16.42226121400006],[104.09631278100005,16.419302707000043],[104.14878765900005,16.412766498000053],[104.20238634500004,16.429829064000046]]]}},{"type":"Feature","properties":{"code":"451115","name":"จำปาขัน","parentCode":"4511"},"geometry":{"type":"Polygon","coordinates":[[[103.96501499900006,15.627097863000074],[103.90648508000004,15.627124156000036],[103.90177395700005,15.572339716000045],[103.90279878200005,15.553805994000072],[103.93600371000008,15.558350785000073],[103.95880088600006,15.616183583000065],[103.96501499900006,15.627097863000074]]]}},{"type":"Feature","properties":{"code":"451112","name":"ช้างเผือก","parentCode":"4511"},"geometry":{"type":"Polygon","coordinates":[[[103.94281007700005,15.70509194400006],[103.90929598400004,15.67718906400006],[103.96719294800005,15.628522243000077],[103.96709900800005,15.642419319000055],[103.96851046400008,15.691629403000036],[103.94281007700005,15.70509194400006]]]}},{"type":"Feature","properties":{"code":"451704","name":"จังหาร","parentCode":"4517"},"geometry":{"type":"Polygon","coordinates":[[[103.62825439300008,16.129227882000066],[103.61322535500005,16.169657335000068],[103.56106882500006,16.15235837000006],[103.56230317500007,16.127676303000044],[103.62825439300008,16.129227882000066]]]}},{"type":"Feature","properties":{"code":"450617","name":"ชานุวรรณ","parentCode":"4506"},"geometry":{"type":"Polygon","coordinates":[[[104.07804681300007,15.837911743000063],[104.05953966400006,15.811707891000026],[104.10222126600007,15.769161363000023],[104.10927799300003,15.808867371000076],[104.07804681300007,15.837911743000063]]]}},{"type":"Feature","properties":{"code":"451801","name":"เชียงขวัญ","parentCode":"4518"},"geometry":{"type":"Polygon","coordinates":[[[103.74261959600005,16.206648487000052],[103.72303221100009,16.22084116900004],[103.70909426400004,16.219597599000053],[103.70205600500009,16.180668197000045],[103.73712514200008,16.16452970000006],[103.74261959600005,16.206648487000052]]]}},{"type":"Feature","properties":{"code":"450802","name":"เชียงใหม่","parentCode":"4508"},"geometry":{"type":"Polygon","coordinates":[[[103.83798182000004,16.255208195000023],[103.78791319000004,16.273885372000052],[103.77335590600006,16.241530429000022],[103.79374400200004,16.21983784300005],[103.83895149100005,16.229322848000038],[103.84058118000007,16.24175087800006],[103.83798182000004,16.255208195000023]]]}},{"type":"Feature","properties":{"code":"451504","name":"ชมสะอาด","parentCode":"4515"},"geometry":{"type":"Polygon","coordinates":[[[104.14878765900005,16.412766498000053],[104.09631278100005,16.419302707000043],[104.04547132500005,16.390880409000033],[104.04546902700008,16.39079139100005],[104.10613089000009,16.366116351000073],[104.14878765900005,16.412766498000053]]]}},{"type":"Feature","properties":{"code":"451502","name":"ชุมพร","parentCode":"4515"},"geometry":{"type":"Polygon","coordinates":[[[104.10613089000009,16.366116351000073],[104.04546902700008,16.39079139100005],[104.01854211500006,16.33664219700006],[104.01716983600005,16.30344616000002],[104.06408003300004,16.30924927500007],[104.12584806500007,16.341655081000056],[104.10613089000009,16.366116351000073]]]}},{"type":"Feature","properties":{"code":"451904","name":"เด่นราษฎร์","parentCode":"4519"},"geometry":{"type":"Polygon","coordinates":[[[103.99553352300006,15.587930656000026],[103.95880088600006,15.616183583000065],[103.93600371000008,15.558350785000073],[103.95568174800007,15.54443040600006],[103.99553352300006,15.587930656000026]]]}},{"type":"Feature","properties":{"code":"451701","name":"ดินดำ","parentCode":"4517"},"geometry":{"type":"Polygon","coordinates":[[[103.70473423900006,16.221528845000023],[103.66115116800006,16.216678295000065],[103.66208335000005,16.192682494000053],[103.63060212900007,16.169874633000063],[103.65219929700004,16.150938617000065],[103.68527382600007,16.150556832000063],[103.70205600500009,16.180668197000045],[103.70909426400004,16.219597599000053],[103.70473423900006,16.221528845000023]]]}},{"type":"Feature","properties":{"code":"450302","name":"ดอกล้ำ","parentCode":"4503"},"geometry":{"type":"Polygon","coordinates":[[[103.33220580700004,15.702117456000053],[103.30103017000005,15.706385198000078],[103.29567304200003,15.693361873000072],[103.28543203800007,15.674288834000038],[103.26711721900006,15.649621683000078],[103.27556566100009,15.61116265100003],[103.27925117500007,15.594920817000059],[103.32197973600006,15.553786908000063],[103.33109572800004,15.586126363000062],[103.31247791900006,15.627352643000052],[103.33424912000004,15.68490554300007],[103.33220580700004,15.702117456000053]]]}},{"type":"Feature","properties":{"code":"451102","name":"ดอกไม้","parentCode":"4511"},"geometry":{"type":"Polygon","coordinates":[[[103.76535721000005,15.61179063700007],[103.80952009000003,15.675523726000051],[103.79439066300006,15.678656860000046],[103.73416250000008,15.66823008800003],[103.76535721000005,15.61179063700007]]]}},{"type":"Feature","properties":{"code":"450808","name":"ดอนโอง","parentCode":"4508"},"geometry":{"type":"Polygon","coordinates":[[[103.85519686400005,16.20742359700006],[103.83895149100005,16.229322848000038],[103.79374400200004,16.21983784300005],[103.79958419600007,16.167519620000064],[103.79032510000008,16.157022006000034],[103.82860361400009,16.182138474000055],[103.85761430000008,16.19106213300006],[103.85519686400005,16.20742359700006]]]}},{"type":"Feature","properties":{"code":"450406","name":"ดงแดง","parentCode":"4504"},"geometry":{"type":"Polygon","coordinates":[[[103.69192927500006,15.83300673900004],[103.69685348500008,15.863869069000032],[103.67185290600008,15.872977062000075],[103.60012610600006,15.881448300000045],[103.58455191100006,15.838694299000053],[103.63532029200007,15.835224750000066],[103.69192927500006,15.83300673900004]]]}},{"type":"Feature","properties":{"code":"450213","name":"ดงครั่งน้อย","parentCode":"4502"},"geometry":{"type":"Polygon","coordinates":[[[103.62496178700007,15.554790645000026],[103.56124035600004,15.555215565000026],[103.54808692500006,15.494284399000037],[103.57432238900009,15.463538885000048],[103.59246155600005,15.46742740600007],[103.64009687000004,15.459929244000023],[103.67561735300006,15.524666978000027],[103.62496178700007,15.554790645000026]]]}},{"type":"Feature","properties":{"code":"450205","name":"ดงครั่งใหญ่","parentCode":"4502"},"geometry":{"type":"Polygon","coordinates":[[[103.56124035600004,15.555215565000026],[103.53996034500005,15.557304285000043],[103.50551637600006,15.521829927000056],[103.49338318300005,15.43840790300004],[103.51662711700004,15.428429982000068],[103.57432238900009,15.463538885000048],[103.54808692500006,15.494284399000037],[103.56124035600004,15.555215565000026]]]}},{"type":"Feature","properties":{"code":"450407","name":"ดงกลาง","parentCode":"4504"},"geometry":{"type":"Polygon","coordinates":[[[103.63532029200007,15.835224750000066],[103.58455191100006,15.838694299000053],[103.56887864200007,15.796596085000033],[103.60683233500004,15.76508147900006],[103.63783684000003,15.776896430000022],[103.63532029200007,15.835224750000066]]]}},{"type":"Feature","properties":{"code":"450120","name":"ดงลาน","parentCode":"4501"},"geometry":{"type":"Polygon","coordinates":[[[103.62481697200008,16.06124308400007],[103.60232585000006,16.070223467000062],[103.58168099900007,16.078352942000038],[103.57102661000005,16.082487413000024],[103.55836840900008,16.065146369000047],[103.56266383300004,16.049373212000035],[103.61974747800008,16.036236810000048],[103.63690089700003,16.046809867000036],[103.62481697200008,16.06124308400007]]]}},{"type":"Feature","properties":{"code":"451705","name":"ดงสิงห์","parentCode":"4517"},"geometry":{"type":"Polygon","coordinates":[[[103.61626506600004,16.217824634000067],[103.56019765600007,16.20299764300006],[103.55126537700005,16.193546837000042],[103.54018899300007,16.153729764000047],[103.56106882500006,16.15235837000006],[103.61322535500005,16.169657335000068],[103.61626506600004,16.217824634000067]]]}},{"type":"Feature","properties":{"code":"450411","name":"ดู่น้อย","parentCode":"4504"},"geometry":{"type":"Polygon","coordinates":[[[103.48240719600005,15.803827067000043],[103.47108353600004,15.841421058000037],[103.44106858000004,15.829990077000048],[103.43958014400005,15.799464941000053],[103.46054257700007,15.731516844000055],[103.50235674200007,15.738102475000062],[103.48240719600005,15.803827067000043]]]}},{"type":"Feature","properties":{"code":"451903","name":"ดูกอึ่ง","parentCode":"4519"},"geometry":{"type":"Polygon","coordinates":[[[104.04552983400004,15.513461580000069],[104.04775919700006,15.58394912500006],[104.03764476600008,15.603552325000067],[103.99553352300006,15.587930656000026],[103.95568174800007,15.54443040600006],[103.99644044000007,15.534722983000051],[104.04552983400004,15.513461580000069]]]}},{"type":"Feature","properties":{"code":"451104","name":"หินกอง","parentCode":"4511"},"geometry":{"type":"Polygon","coordinates":[[[103.73416250000008,15.66823008800003],[103.68961552700006,15.690323916000068],[103.68114663400007,15.664435653000055],[103.68654985300009,15.632217699000023],[103.67561735300006,15.524666978000027],[103.74265712800008,15.523898939000048],[103.76535721000005,15.61179063700007],[103.73416250000008,15.66823008800003]]]}},{"type":"Feature","properties":{"code":"451407","name":"โหรา","parentCode":"4514"},"geometry":{"type":"Polygon","coordinates":[[[103.84804075300008,15.897607168000036],[103.83493427600007,15.910347191000028],[103.78929636400005,15.889776037000047],[103.78791649000004,15.81618755900007],[103.82308308100005,15.812189603000036],[103.83136118200008,15.852334473000042],[103.84804075300008,15.897607168000036]]]}},{"type":"Feature","properties":{"code":"450401","name":"หัวช้าง","parentCode":"4504"},"geometry":{"type":"Polygon","coordinates":[[[103.56887864200007,15.796596085000033],[103.58455191100006,15.838694299000053],[103.60012610600006,15.881448300000045],[103.57362207400007,15.89346716800003],[103.55575131200004,15.870216140000025],[103.53610360500005,15.80151778000004],[103.54885053800007,15.799764030000063],[103.56887864200007,15.796596085000033]]]}},{"type":"Feature","properties":{"code":"451109","name":"หัวช้าง","parentCode":"4511"},"geometry":{"type":"Polygon","coordinates":[[[103.96719294800005,15.628522243000077],[103.90929598400004,15.67718906400006],[103.86466269900006,15.656966601000022],[103.87965313500007,15.623967564000054],[103.90648508000004,15.627124156000036],[103.96501499900006,15.627097863000074],[103.96719294800005,15.628522243000077]]]}},{"type":"Feature","properties":{"code":"451106","name":"หัวโทน","parentCode":"4511"},"geometry":{"type":"Polygon","coordinates":[[[103.88151459200009,15.759445953000068],[103.86855996200006,15.764332548000027],[103.84954823000004,15.699580514000047],[103.79563027400008,15.69767960200005],[103.79439066300006,15.678656860000046],[103.80952009000003,15.675523726000051],[103.85175655100005,15.662242125000034],[103.85920397000007,15.666104077000057],[103.90271900000005,15.748057983000024],[103.88151459200009,15.759445953000068]]]}},{"type":"Feature","properties":{"code":"451111","name":"ห้วยหินลาด","parentCode":"4511"},"geometry":{"type":"Polygon","coordinates":[[[103.94281007700005,15.70509194400006],[103.90271900000005,15.748057983000024],[103.85920397000007,15.666104077000057],[103.86466269900006,15.656966601000022],[103.90929598400004,15.67718906400006],[103.94281007700005,15.70509194400006]]]}},{"type":"Feature","properties":{"code":"450409","name":"อีง่อง","parentCode":"4504"},"geometry":{"type":"Polygon","coordinates":[[[103.53610360500005,15.80151778000004],[103.48240719600005,15.803827067000043],[103.50235674200007,15.738102475000062],[103.51010177300009,15.740643774000034],[103.53824436100007,15.744511868000075],[103.54885053800007,15.799764030000063],[103.53610360500005,15.80151778000004]]]}},{"type":"Feature","properties":{"code":"450208","name":"กำแพง","parentCode":"4502"},"geometry":{"type":"Polygon","coordinates":[[[103.53996034500005,15.557304285000043],[103.55028887600008,15.597144039000057],[103.51033120100004,15.60028120100003],[103.48707941200007,15.59362746000005],[103.47674553000007,15.590598045000036],[103.44132430300004,15.543427502000043],[103.44712318100005,15.520222624000041],[103.50551637600006,15.521829927000056],[103.53996034500005,15.557304285000043]]]}},{"type":"Feature","properties":{"code":"450201","name":"เกษตรวิสัย","parentCode":"4502"},"geometry":{"type":"Polygon","coordinates":[[[103.68114663400007,15.664435653000055],[103.62988954700006,15.68745431800005],[103.58174533800008,15.706685514000071],[103.54500312000005,15.67831762000003],[103.53070651900003,15.668254067000078],[103.58101743900005,15.626301674000047],[103.62169381900009,15.633901603000027],[103.68654985300009,15.632217699000023],[103.68114663400007,15.664435653000055]]]}},{"type":"Feature","properties":{"code":"450123","name":"แคนใหญ่","parentCode":"4501"},"geometry":{"type":"Polygon","coordinates":[[[103.70569632300004,15.88934769900004],[103.64264352100008,15.92189055800003],[103.63690280200007,15.89182493800007],[103.67185290600008,15.872977062000075],[103.69685348500008,15.863869069000032],[103.70569632300004,15.88934769900004]]]}},{"type":"Feature","properties":{"code":"450613","name":"คำไฮ","parentCode":"4506"},"geometry":{"type":"Polygon","coordinates":[[[104.16826576700004,15.675159010000073],[104.14239500300005,15.673164486000076],[104.14505568100009,15.616150769000058],[104.15912898600004,15.601579280000067],[104.17219518000007,15.603949615000033],[104.20945809500006,15.608959412000047],[104.20979700900006,15.618247949000022],[104.18652062500007,15.667329291000044],[104.16826576700004,15.675159010000073]]]}},{"type":"Feature","properties":{"code":"450710","name":"คำนาดี","parentCode":"4507"},"geometry":{"type":"Polygon","coordinates":[[[103.91989709200004,16.439625251000052],[103.88959195700005,16.45255485100006],[103.87812353800007,16.39286826700004],[103.86997894000007,16.367694501000074],[103.87735327400009,16.346894681000038],[103.94711472900008,16.364145688000065],[103.98183162700008,16.366696715000046],[103.93374283300005,16.403414739000027],[103.95588616800006,16.438161020000052],[103.91989709200004,16.439625251000052]]]}},{"type":"Feature","properties":{"code":"450806","name":"คำพอุง","parentCode":"4508"},"geometry":{"type":"Polygon","coordinates":[[[103.88959195700005,16.45255485100006],[103.82283783900004,16.470103490000042],[103.79416966300005,16.44807412700004],[103.78525276800008,16.39796838700005],[103.81906506200005,16.411357047000024],[103.82741760700009,16.362814385000036],[103.87812353800007,16.39286826700004],[103.88959195700005,16.45255485100006]]]}},{"type":"Feature","properties":{"code":"450801","name":"ขามเปี้ย","parentCode":"4508"},"geometry":{"type":"Polygon","coordinates":[[[103.82296539000004,16.326295195000057],[103.78095086600007,16.32879699700004],[103.78993357000007,16.382272098000044],[103.72305414200008,16.349417293000045],[103.75602096900008,16.30032331700005],[103.75408545300007,16.278179000000023],[103.78480394200005,16.295914872000026],[103.80321267700003,16.30578768400005],[103.82296539000004,16.326295195000057]]]}},{"type":"Feature","properties":{"code":"450308","name":"ขี้เหล็ก","parentCode":"4503"},"geometry":{"type":"Polygon","coordinates":[[[103.49415637800007,15.671267288000024],[103.46506475900009,15.673685262000049],[103.45540902400006,15.63281687600005],[103.41565348400007,15.638076922000039],[103.39970975100005,15.606604550000043],[103.41185766700005,15.600185703000022],[103.44900866900008,15.621636564000028],[103.47674553000007,15.590598045000036],[103.48707941200007,15.59362746000005],[103.49415637800007,15.671267288000024]]]}},{"type":"Feature","properties":{"code":"451409","name":"ขี้เหล็ก","parentCode":"4514"},"geometry":{"type":"Polygon","coordinates":[[[103.82369197300005,15.931276267000044],[103.82009049800007,15.925017620000062],[103.79177291000008,15.912775083000042],[103.74607892100005,15.920626000000027],[103.76552620900009,15.889784660000032],[103.78929636400005,15.889776037000047],[103.83493427600007,15.910347191000028],[103.82369197300005,15.931276267000044]]]}},{"type":"Feature","properties":{"code":"450615","name":"ค้อใหญ่","parentCode":"4506"},"geometry":{"type":"Polygon","coordinates":[[[104.15912898600004,15.601579280000067],[104.14505568100009,15.616150769000058],[104.12085741700008,15.59862551200007],[104.12202872600005,15.577795887000036],[104.15912898600004,15.601579280000067]]]}},{"type":"Feature","properties":{"code":"450702","name":"โคกกกม่วง","parentCode":"4507"},"geometry":{"type":"Polygon","coordinates":[[[104.03574973500008,16.197243988000025],[103.98501716700008,16.170718410000063],[103.98829206300007,16.141315091000024],[104.00127049500009,16.134699725000075],[104.02428733100004,16.162224580000043],[104.06762593400003,16.15411528900006],[104.03574973500008,16.197243988000025]]]}},{"type":"Feature","properties":{"code":"450404","name":"โคกล่าม","parentCode":"4504"},"geometry":{"type":"Polygon","coordinates":[[[103.59974324700005,15.917264038000042],[103.52285324000007,15.938736619000053],[103.48818795600005,15.931336466000062],[103.47906518000008,15.924433132000047],[103.54459348500006,15.87907851400007],[103.55575131200004,15.870216140000025],[103.57362207400007,15.89346716800003],[103.59974324700005,15.917264038000042]]]}},{"type":"Feature","properties":{"code":"450607","name":"โคกสว่าง","parentCode":"4506"},"geometry":{"type":"Polygon","coordinates":[[[104.10016679100005,15.658641687000056],[104.08046823900008,15.666752434000045],[104.03989535500006,15.656726438000078],[104.03764476600008,15.603552325000067],[104.11096155700005,15.614743955000051],[104.10016679100005,15.658641687000056]]]}},{"type":"Feature","properties":{"code":"450905","name":"โคกสว่าง","parentCode":"4509"},"geometry":{"type":"Polygon","coordinates":[[[104.32803481900004,16.270370743000058],[104.30252400900008,16.312127532000034],[104.26691055300006,16.32035171700005],[104.24023532800004,16.230855014000042],[104.24914967600006,16.210296922000055],[104.27350715400007,16.225666835000027],[104.29702546900006,16.245297476000076],[104.32803481900004,16.270370743000058]]]}},{"type":"Feature","properties":{"code":"450714","name":"โคกสูง","parentCode":"4507"},"geometry":{"type":"Polygon","coordinates":[[[103.92804642600004,16.21244925600007],[103.85519686400005,16.20742359700006],[103.85761430000008,16.19106213300006],[103.90848371700008,16.18701371900005],[103.91866652300007,16.184663814000032],[103.92804642600004,16.21244925600007]]]}},{"type":"Feature","properties":{"code":"450104","name":"ขอนแก่น","parentCode":"4501"},"geometry":{"type":"Polygon","coordinates":[[[103.61974747800008,16.036236810000048],[103.56266383300004,16.049373212000035],[103.57311825800008,16.027807954000025],[103.57390705400007,15.989975537000078],[103.61094460200007,16.007146559000034],[103.61974747800008,16.036236810000048]]]}},{"type":"Feature","properties":{"code":"451203","name":"คูเมือง","parentCode":"4512"},"geometry":{"type":"Polygon","coordinates":[[[103.73062550100008,15.778757940000048],[103.69278226500006,15.780780003000075],[103.69478169100006,15.771469858000046],[103.69509654700005,15.714127293000047],[103.75141722900008,15.736898824000036],[103.73062550100008,15.778757940000048]]]}},{"type":"Feature","properties":{"code":"451017","name":"ขวัญเมือง","parentCode":"4510"},"geometry":{"type":"Polygon","coordinates":[[[103.97355681200008,16.039574947000062],[103.90597020500007,16.044048246000045],[103.90706361400004,16.034195021000073],[103.93937830300007,16.03001246900004],[103.99099541600003,15.97666619100005],[103.97355681200008,16.039574947000062]]]}},{"type":"Feature","properties":{"code":"451008","name":"ขวาว","parentCode":"4510"},"geometry":{"type":"Polygon","coordinates":[[[104.01522215500006,15.964533775000064],[103.99099541600003,15.97666619100005],[103.96901891800007,15.990506674000073],[103.93500811700005,15.948532602000057],[103.99773865300006,15.900088217000075],[104.01404198400007,15.91072521600006],[104.02941628300005,15.925369663000026],[104.01522215500006,15.964533775000064]]]}},{"type":"Feature","properties":{"code":"450510","name":"เขวาทุ่ง","parentCode":"4505"},"geometry":{"type":"Polygon","coordinates":[[[103.79177291000008,15.912775083000042],[103.74524239200008,15.982265299000062],[103.73485201200003,15.96127311500004],[103.72248743500006,15.915368966000074],[103.74607892100005,15.920626000000027],[103.79177291000008,15.912775083000042]]]}},{"type":"Feature","properties":{"code":"451001","name":"กลาง","parentCode":"4510"},"geometry":{"type":"Polygon","coordinates":[[[103.99099541600003,15.97666619100005],[103.93937830300007,16.03001246900004],[103.90706361400004,16.034195021000073],[103.90613191000006,16.024129911000045],[103.93286851300007,16.011081526000055],[103.96901891800007,15.990506674000073],[103.99099541600003,15.97666619100005]]]}},{"type":"Feature","properties":{"code":"451011","name":"เกาะแก้ว","parentCode":"4510"},"geometry":{"type":"Polygon","coordinates":[[[103.90848371700008,16.18701371900005],[103.85761430000008,16.19106213300006],[103.82860361400009,16.182138474000055],[103.83816143400009,16.157124666000072],[103.83178579500009,16.120438148000062],[103.85155263500008,16.116932167000073],[103.90170199500005,16.173249659000078],[103.90848371700008,16.18701371900005]]]}},{"type":"Feature","properties":{"code":"451204","name":"กกกุง","parentCode":"4512"},"geometry":{"type":"Polygon","coordinates":[[[103.77882642000009,15.795591588000036],[103.73029043400004,15.79321456100007],[103.73062550100008,15.778757940000048],[103.75141722900008,15.736898824000036],[103.77770660300007,15.74743234600004],[103.78614895700008,15.753019786000038],[103.77882642000009,15.795591588000036]]]}},{"type":"Feature","properties":{"code":"450904","name":"กกโพธิ์","parentCode":"4509"},"geometry":{"type":"Polygon","coordinates":[[[104.15113499800003,16.373187572000063],[104.12584806500007,16.341655081000056],[104.06408003300004,16.30924927500007],[104.07831276200005,16.250211816000046],[104.15487589000008,16.268482806000065],[104.13256489600008,16.282701502000066],[104.12719397900008,16.32754959300007],[104.16257357700005,16.340297087000067],[104.15113499800003,16.373187572000063]]]}},{"type":"Feature","properties":{"code":"450209","name":"กู่กาสิงห์","parentCode":"4502"},"geometry":{"type":"Polygon","coordinates":[[[103.68654985300009,15.632217699000023],[103.62169381900009,15.633901603000027],[103.62496178700007,15.554790645000026],[103.67561735300006,15.524666978000027],[103.68654985300009,15.632217699000023]]]}},{"type":"Feature","properties":{"code":"450603","name":"กุดน้ำใส","parentCode":"4506"},"geometry":{"type":"Polygon","coordinates":[[[104.10222126600007,15.769161363000023],[104.05953966400006,15.811707891000026],[104.03337376000007,15.796086062000029],[104.05399027000004,15.737461866000046],[104.10222126600007,15.769161363000023]]]}},{"type":"Feature","properties":{"code":"452005","name":"เหล่า","parentCode":"4520"},"geometry":{"type":"Polygon","coordinates":[[[103.84199863800006,16.002921035000043],[103.83445938900007,16.00479806100003],[103.81298617100003,15.994785079000053],[103.80505796000006,15.976609298000028],[103.82009049800007,15.925017620000062],[103.82369197300005,15.931276267000044],[103.85364126300004,15.939487632000066],[103.84199863800006,16.002921035000043]]]}},{"type":"Feature","properties":{"code":"450203","name":"เหล่าหลวง","parentCode":"4502"},"geometry":{"type":"Polygon","coordinates":[[[103.58174533800008,15.706685514000071],[103.57353681700005,15.751851894000026],[103.53824436100007,15.744511868000075],[103.51010177300009,15.740643774000034],[103.54500312000005,15.67831762000003],[103.58174533800008,15.706685514000071]]]}},{"type":"Feature","properties":{"code":"451013","name":"เหล่าน้อย","parentCode":"4510"},"geometry":{"type":"Polygon","coordinates":[[[104.06979005500006,16.113636658000075],[104.01161108900004,16.121606280000037],[104.03309016700007,16.058818707000057],[104.06979005500006,16.113636658000075]]]}},{"type":"Feature","properties":{"code":"450410","name":"ลิ้นฟ้า","parentCode":"4504"},"geometry":{"type":"Polygon","coordinates":[[[103.46054257700007,15.731516844000055],[103.43958014400005,15.799464941000053],[103.43357939400005,15.789589121000063],[103.40835016000005,15.766398292000076],[103.41969100700004,15.720970601000033],[103.46054257700007,15.731516844000055]]]}},{"type":"Feature","properties":{"code":"450507","name":"มะอึ","parentCode":"4505"},"geometry":{"type":"Polygon","coordinates":[[[103.74634133700005,16.115518574000077],[103.72994831600005,16.100977616000023],[103.68651960600005,16.07559158400005],[103.69085859500007,16.067350840000074],[103.75958177300004,16.074519484000064],[103.74634133700005,16.115518574000077]]]}},{"type":"Feature","properties":{"code":"452004","name":"มะบ้า","parentCode":"4520"},"geometry":{"type":"Polygon","coordinates":[[[103.90597020500007,16.044048246000045],[103.90053463900006,16.06556969600007],[103.87487526000007,16.061264037000058],[103.87874525000007,16.014732139000046],[103.90613191000006,16.024129911000045],[103.90706361400004,16.034195021000073],[103.90597020500007,16.044048246000045]]]}},{"type":"Feature","properties":{"code":"451501","name":"เมยวดี","parentCode":"4515"},"geometry":{"type":"Polygon","coordinates":[[[104.23785792300004,16.428572174000067],[104.20238634500004,16.429829064000046],[104.14878765900005,16.412766498000053],[104.10613089000009,16.366116351000073],[104.12584806500007,16.341655081000056],[104.15113499800003,16.373187572000063],[104.23785792300004,16.428572174000067]]]}},{"type":"Feature","properties":{"code":"451805","name":"หมูม้น","parentCode":"4518"},"geometry":{"type":"Polygon","coordinates":[[[103.71315190900003,16.120685937000076],[103.69319450500006,16.12775400000004],[103.69305835800009,16.116949782000063],[103.68651960600005,16.07559158400005],[103.72994831600005,16.100977616000023],[103.71315190900003,16.120685937000076]]]}},{"type":"Feature","properties":{"code":"451703","name":"ม่วงลาด","parentCode":"4517"},"geometry":{"type":"Polygon","coordinates":[[[103.54787464000003,16.213760356000023],[103.50228135300006,16.199650546000044],[103.48999511300008,16.178699447000042],[103.55126537700005,16.193546837000042],[103.56019765600007,16.20299764300006],[103.54787464000003,16.213760356000023]]]}},{"type":"Feature","properties":{"code":"450202","name":"เมืองบัว","parentCode":"4502"},"geometry":{"type":"Polygon","coordinates":[[[103.62496178700007,15.554790645000026],[103.62169381900009,15.633901603000027],[103.58101743900005,15.626301674000047],[103.51033120100004,15.60028120100003],[103.55028887600008,15.597144039000057],[103.53996034500005,15.557304285000043],[103.56124035600004,15.555215565000026],[103.62496178700007,15.554790645000026]]]}},{"type":"Feature","properties":{"code":"450403","name":"เมืองหงส์","parentCode":"4504"},"geometry":{"type":"Polygon","coordinates":[[[103.47906518000008,15.924433132000047],[103.45767619800006,15.908700073000034],[103.44025556200006,15.841360103000056],[103.44106858000004,15.829990077000048],[103.47108353600004,15.841421058000037],[103.54459348500006,15.87907851400007],[103.47906518000008,15.924433132000047]]]}},{"type":"Feature","properties":{"code":"450517","name":"เมืองน้อย","parentCode":"4505"},"geometry":{"type":"Polygon","coordinates":[[[103.82009049800007,15.925017620000062],[103.80505796000006,15.976609298000028],[103.76309640900007,16.000320197000065],[103.74524239200008,15.982265299000062],[103.79177291000008,15.912775083000042],[103.82009049800007,15.925017620000062]]]}},{"type":"Feature","properties":{"code":"451003","name":"เมืองไพร","parentCode":"4510"},"geometry":{"type":"Polygon","coordinates":[[[104.02966027600007,15.980858234000038],[103.98939313100004,16.044564885000057],[103.97355681200008,16.039574947000062],[103.99099541600003,15.97666619100005],[104.01522215500006,15.964533775000064],[104.02966027600007,15.980858234000038]]]}},{"type":"Feature","properties":{"code":"451603","name":"เมืองเปลือย","parentCode":"4516"},"geometry":{"type":"Polygon","coordinates":[[[103.57390705400007,15.989975537000078],[103.57311825800008,16.027807954000025],[103.52646720900003,16.023681064000073],[103.52874377100005,16.005114011000046],[103.54454031700004,15.994980682000062],[103.57390705400007,15.989975537000078]]]}},{"type":"Feature","properties":{"code":"451205","name":"เมืองสรวง","parentCode":"4512"},"geometry":{"type":"Polygon","coordinates":[[[103.78791649000004,15.81618755900007],[103.73053407500004,15.846132168000054],[103.73029043400004,15.79321456100007],[103.77882642000009,15.795591588000036],[103.78791649000004,15.81618755900007]]]}},{"type":"Feature","properties":{"code":"450125","name":"เมืองทอง","parentCode":"4501"},"geometry":{"type":"Polygon","coordinates":[[[103.60560499600007,15.946968672000025],[103.52285324000007,15.938736619000053],[103.59974324700005,15.917264038000042],[103.61465476600006,15.912397819000034],[103.60560499600007,15.946968672000025]]]}},{"type":"Feature","properties":{"code":"451105","name":"เมืองทุ่ง","parentCode":"4511"},"geometry":{"type":"Polygon","coordinates":[[[103.86466269900006,15.656966601000022],[103.85920397000007,15.666104077000057],[103.85175655100005,15.662242125000034],[103.84037156900007,15.594625723000036],[103.88778315200005,15.598057591000043],[103.87965313500007,15.623967564000054],[103.86466269900006,15.656966601000022]]]}},{"type":"Feature","properties":{"code":"451012","name":"นาเลิง","parentCode":"4510"},"geometry":{"type":"Polygon","coordinates":[[[103.93500811700005,15.948532602000057],[103.96901891800007,15.990506674000073],[103.93286851300007,16.011081526000055],[103.93482526800005,15.976037402000031],[103.89703316800006,15.953652538000028],[103.89987573600007,15.938823669000044],[103.91013659600009,15.909176936000051],[103.93500811700005,15.948532602000057]]]}},{"type":"Feature","properties":{"code":"451005","name":"นาเมือง","parentCode":"4510"},"geometry":{"type":"Polygon","coordinates":[[[103.95539127900008,16.110981320000064],[103.94460191600007,16.11147790800004],[103.92346250500003,16.11094428100006],[103.89157538500007,16.077333645000067],[103.90053463900006,16.06556969600007],[103.90597020500007,16.044048246000045],[103.97355681200008,16.039574947000062],[103.98939313100004,16.044564885000057],[103.95539127900008,16.110981320000064]]]}},{"type":"Feature","properties":{"code":"451002","name":"นางาม","parentCode":"4510"},"geometry":{"type":"Polygon","coordinates":[[[103.93500811700005,15.948532602000057],[103.91013659600009,15.909176936000051],[103.93661164000008,15.88652419500005],[103.97450244600009,15.831784646000074],[103.99200524500009,15.810371349000036],[104.00264981200007,15.802476929000022],[104.03653167400006,15.869322736000072],[104.01404198400007,15.91072521600006],[103.99773865300006,15.900088217000075],[103.93500811700005,15.948532602000057]]]}},{"type":"Feature","properties":{"code":"450612","name":"นานวล","parentCode":"4506"},"geometry":{"type":"Polygon","coordinates":[[[104.14505568100009,15.616150769000058],[104.14239500300005,15.673164486000076],[104.10016679100005,15.658641687000056],[104.11096155700005,15.614743955000051],[104.12085741700008,15.59862551200007],[104.14505568100009,15.616150769000058]]]}},{"type":"Feature","properties":{"code":"450105","name":"นาโพธิ์","parentCode":"4501"},"geometry":{"type":"Polygon","coordinates":[[[103.60560499600007,15.946968672000025],[103.57390705400007,15.989975537000078],[103.53192307400008,15.95824265300007],[103.52285324000007,15.938736619000053],[103.60560499600007,15.946968672000025]]]}},{"type":"Feature","properties":{"code":"451004","name":"นาแซง","parentCode":"4510"},"geometry":{"type":"Polygon","coordinates":[[[103.98163569000008,16.173674677000065],[103.94613524200008,16.174650405000023],[103.94460191600007,16.11147790800004],[103.95539127900008,16.110981320000064],[103.98829206300007,16.141315091000024],[103.98501716700008,16.170718410000063],[103.98163569000008,16.173674677000065]]]}},{"type":"Feature","properties":{"code":"450703","name":"นาอุดม","parentCode":"4507"},"geometry":{"type":"Polygon","coordinates":[[[103.87735327400009,16.346894681000038],[103.86997894000007,16.367694501000074],[103.82296539000004,16.326295195000057],[103.80321267700003,16.30578768400005],[103.81879641000006,16.295298950000074],[103.89462776600004,16.296001671000056],[103.87735327400009,16.346894681000038]]]}},{"type":"Feature","properties":{"code":"451103","name":"นาใหญ่","parentCode":"4511"},"geometry":{"type":"Polygon","coordinates":[[[103.79563027400008,15.69767960200005],[103.77770660300007,15.74743234600004],[103.75141722900008,15.736898824000036],[103.69509654700005,15.714127293000047],[103.68961552700006,15.690323916000068],[103.73416250000008,15.66823008800003],[103.79439066300006,15.678656860000046],[103.79563027400008,15.69767960200005]]]}},{"type":"Feature","properties":{"code":"450101","name":"ในเมือง","parentCode":"4501"},"geometry":{"type":"Polygon","coordinates":[[[103.67711868000004,16.04083053900007],[103.62481697200008,16.06124308400007],[103.63690089700003,16.046809867000036],[103.67711868000004,16.04083053900007]]]}},{"type":"Feature","properties":{"code":"451110","name":"น้ำคำ","parentCode":"4511"},"geometry":{"type":"Polygon","coordinates":[[[103.86855996200006,15.764332548000027],[103.85188170800006,15.778211928000076],[103.78614895700008,15.753019786000038],[103.77770660300007,15.74743234600004],[103.79563027400008,15.69767960200005],[103.84954823000004,15.699580514000047],[103.86855996200006,15.764332548000027]]]}},{"type":"Feature","properties":{"code":"450210","name":"น้ำอ้อม","parentCode":"4502"},"geometry":{"type":"Polygon","coordinates":[[[103.53070651900003,15.668254067000078],[103.49445161500006,15.67369016300006],[103.49415637800007,15.671267288000024],[103.48707941200007,15.59362746000005],[103.51033120100004,15.60028120100003],[103.58101743900005,15.626301674000047],[103.53070651900003,15.668254067000078]]]}},{"type":"Feature","properties":{"code":"450405","name":"น้ำใส","parentCode":"4504"},"geometry":{"type":"Polygon","coordinates":[[[103.61465476600006,15.912397819000034],[103.59974324700005,15.917264038000042],[103.57362207400007,15.89346716800003],[103.60012610600006,15.881448300000045],[103.67185290600008,15.872977062000075],[103.63690280200007,15.89182493800007],[103.61465476600006,15.912397819000034]]]}},{"type":"Feature","properties":{"code":"450501","name":"นิเวศน์","parentCode":"4505"},"geometry":{"type":"Polygon","coordinates":[[[103.75897052900007,16.023080416000028],[103.75958177300004,16.074519484000064],[103.69085859500007,16.067350840000074],[103.70114380800004,16.042535284000053],[103.69279300200009,16.026776738000024],[103.75897052900007,16.023080416000028]]]}},{"type":"Feature","properties":{"code":"451404","name":"หน่อม","parentCode":"4514"},"geometry":{"type":"Polygon","coordinates":[[[103.97450244600009,15.831784646000074],[103.93019739900006,15.832389513000066],[103.92622924500006,15.790027619000057],[103.97394707800004,15.778700688000072],[103.99200524500009,15.810371349000036],[103.97450244600009,15.831784646000074]]]}},{"type":"Feature","properties":{"code":"450707","name":"โนนชัยศรี","parentCode":"4507"},"geometry":{"type":"Polygon","coordinates":[[[103.99018260700007,16.250833685000032],[103.93713791400006,16.24080755600005],[103.92804642600004,16.21244925600007],[103.91866652300007,16.184663814000032],[103.94613524200008,16.174650405000023],[103.98163569000008,16.173674677000065],[103.97007985400006,16.216665722000073],[103.99018260700007,16.250833685000032]]]}},{"type":"Feature","properties":{"code":"450110","name":"โนนรัง","parentCode":"4501"},"geometry":{"type":"Polygon","coordinates":[[[103.68411179600008,16.01495796100005],[103.66031809300006,16.024029905000077],[103.63357482100008,15.974613301000034],[103.69248134100008,15.985048266000035],[103.68411179600008,16.01495796100005]]]}},{"type":"Feature","properties":{"code":"450307","name":"โนนสง่า","parentCode":"4503"},"geometry":{"type":"Polygon","coordinates":[[[103.33109572800004,15.586126363000062],[103.39386216600008,15.608474379000029],[103.38561079600004,15.615339100000028],[103.31247791900006,15.627352643000052],[103.33109572800004,15.586126363000062]]]}},{"type":"Feature","properties":{"code":"450305","name":"โนนสวรรค์","parentCode":"4503"},"geometry":{"type":"Polygon","coordinates":[[[103.47674553000007,15.590598045000036],[103.44900866900008,15.621636564000028],[103.41185766700005,15.600185703000022],[103.40562996200003,15.537365038000075],[103.41740395200009,15.536738756000034],[103.44132430300004,15.543427502000043],[103.47674553000007,15.590598045000036]]]}},{"type":"Feature","properties":{"code":"450211","name":"โนนสว่าง","parentCode":"4502"},"geometry":{"type":"Polygon","coordinates":[[[103.54500312000005,15.67831762000003],[103.51010177300009,15.740643774000034],[103.50235674200007,15.738102475000062],[103.46054257700007,15.731516844000055],[103.49445161500006,15.67369016300006],[103.53070651900003,15.668254067000078],[103.54500312000005,15.67831762000003]]]}},{"type":"Feature","properties":{"code":"450124","name":"โนนตาล","parentCode":"4501"},"geometry":{"type":"Polygon","coordinates":[[[103.70465869700007,15.956414164000023],[103.69423854800004,15.98256723000003],[103.69248134100008,15.985048266000035],[103.63357482100008,15.974613301000034],[103.62961567700006,15.96655118700005],[103.63863454400007,15.951294854000025],[103.70465869700007,15.956414164000023]]]}},{"type":"Feature","properties":{"code":"451408","name":"หนองบัว","parentCode":"4514"},"geometry":{"type":"Polygon","coordinates":[[[103.78929636400005,15.889776037000047],[103.76552620900009,15.889784660000032],[103.73053407500004,15.846132168000054],[103.78791649000004,15.81618755900007],[103.78929636400005,15.889776037000047]]]}},{"type":"Feature","properties":{"code":"451901","name":"หนองฮี","parentCode":"4519"},"geometry":{"type":"Polygon","coordinates":[[[104.03989535500006,15.656726438000078],[104.02385692000007,15.65784607200004],[103.96709900800005,15.642419319000055],[103.96719294800005,15.628522243000077],[103.96501499900006,15.627097863000074],[103.95880088600006,15.616183583000065],[103.99553352300006,15.587930656000026],[104.03764476600008,15.603552325000067],[104.03989535500006,15.656726438000078]]]}},{"type":"Feature","properties":{"code":"451202","name":"หนองหิน","parentCode":"4512"},"geometry":{"type":"Polygon","coordinates":[[[103.82308308100005,15.812189603000036],[103.78791649000004,15.81618755900007],[103.77882642000009,15.795591588000036],[103.78614895700008,15.753019786000038],[103.85188170800006,15.778211928000076],[103.82308308100005,15.812189603000036]]]}},{"type":"Feature","properties":{"code":"450117","name":"หนองแก้ว","parentCode":"4501"},"geometry":{"type":"Polygon","coordinates":[[[103.70465869700007,15.956414164000023],[103.63863454400007,15.951294854000025],[103.64264352100008,15.92189055800003],[103.70569632300004,15.88934769900004],[103.72248743500006,15.915368966000074],[103.70465869700007,15.956414164000023]]]}},{"type":"Feature","properties":{"code":"450303","name":"หนองแคน","parentCode":"4503"},"geometry":{"type":"Polygon","coordinates":[[[103.40380297600007,15.711931661000051],[103.34459867000004,15.717143891000035],[103.33220580700004,15.702117456000053],[103.33424912000004,15.68490554300007],[103.40592281300007,15.650639139000077],[103.41580785600007,15.687315859000023],[103.41310235300006,15.712489812000058],[103.40380297600007,15.711931661000051]]]}},{"type":"Feature","properties":{"code":"451406","name":"หนองขาม","parentCode":"4514"},"geometry":{"type":"Polygon","coordinates":[[[103.92622924500006,15.790027619000057],[103.83136118200008,15.852334473000042],[103.82308308100005,15.812189603000036],[103.85188170800006,15.778211928000076],[103.86855996200006,15.764332548000027],[103.88151459200009,15.759445953000068],[103.92622924500006,15.790027619000057]]]}},{"type":"Feature","properties":{"code":"450906","name":"หนองขุ่นใหญ่","parentCode":"4509"},"geometry":{"type":"Polygon","coordinates":[[[104.22022748700005,16.246189874000038],[104.15487589000008,16.268482806000065],[104.07831276200005,16.250211816000046],[104.06824915200008,16.24971512600007],[104.12325108500005,16.222543398000028],[104.13028171200006,16.196307110000078],[104.19917339700004,16.224121582000066],[104.22022748700005,16.246189874000038]]]}},{"type":"Feature","properties":{"code":"451015","name":"หนองหลวง","parentCode":"4510"},"geometry":{"type":"Polygon","coordinates":[[[103.91866652300007,16.184663814000032],[103.90848371700008,16.18701371900005],[103.90170199500005,16.173249659000078],[103.92346250500003,16.11094428100006],[103.94460191600007,16.11147790800004],[103.94613524200008,16.174650405000023],[103.91866652300007,16.184663814000032]]]}},{"type":"Feature","properties":{"code":"451405","name":"หนองหมื่นถ่าน","parentCode":"4514"},"geometry":{"type":"Polygon","coordinates":[[[103.97394707800004,15.778700688000072],[103.92622924500006,15.790027619000057],[103.88151459200009,15.759445953000068],[103.90271900000005,15.748057983000024],[103.94281007700005,15.70509194400006],[103.98223767700006,15.733149841000056],[103.97394707800004,15.778700688000072]]]}},{"type":"Feature","properties":{"code":"450503","name":"หนองไผ่","parentCode":"4505"},"geometry":{"type":"Polygon","coordinates":[[[103.75897052900007,16.023080416000028],[103.69279300200009,16.026776738000024],[103.68411179600008,16.01495796100005],[103.69248134100008,15.985048266000035],[103.69423854800004,15.98256723000003],[103.73485201200003,15.96127311500004],[103.74524239200008,15.982265299000062],[103.76309640900007,16.000320197000065],[103.75897052900007,16.023080416000028]]]}},{"type":"Feature","properties":{"code":"450524","name":"หนองพอก","parentCode":"4505"},"geometry":{"type":"Polygon","coordinates":[[[103.78795461500005,16.093145336000077],[103.77038324900008,16.12069663500006],[103.76293824000004,16.117850516000033],[103.74634133700005,16.115518574000077],[103.75958177300004,16.074519484000064],[103.78795461500005,16.093145336000077]]]}},{"type":"Feature","properties":{"code":"450901","name":"หนองพอก","parentCode":"4509"},"geometry":{"type":"Polygon","coordinates":[[[104.24172964700006,16.373076550000064],[104.16257357700005,16.340297087000067],[104.12719397900008,16.32754959300007],[104.13256489600008,16.282701502000066],[104.17531127400008,16.310861351000028],[104.25691185000005,16.321805212000072],[104.24172964700006,16.373076550000064]]]}},{"type":"Feature","properties":{"code":"450402","name":"หนองผือ","parentCode":"4504"},"geometry":{"type":"Polygon","coordinates":[[[103.53610360500005,15.80151778000004],[103.55575131200004,15.870216140000025],[103.54459348500006,15.87907851400007],[103.47108353600004,15.841421058000037],[103.48240719600005,15.803827067000043],[103.53610360500005,15.80151778000004]]]}},{"type":"Feature","properties":{"code":"451201","name":"หนองผือ","parentCode":"4512"},"geometry":{"type":"Polygon","coordinates":[[[103.73062550100008,15.778757940000048],[103.73029043400004,15.79321456100007],[103.73053407500004,15.846132168000054],[103.69685348500008,15.863869069000032],[103.69192927500006,15.83300673900004],[103.69278226500006,15.780780003000075],[103.73062550100008,15.778757940000048]]]}},{"type":"Feature","properties":{"code":"450807","name":"หนองตาไก้","parentCode":"4508"},"geometry":{"type":"Polygon","coordinates":[[[103.78480394200005,16.295914872000026],[103.75408545300007,16.278179000000023],[103.73224880800007,16.23645664000003],[103.73300857100008,16.229670448000036],[103.77335590600006,16.241530429000022],[103.78791319000004,16.273885372000052],[103.78480394200005,16.295914872000026]]]}},{"type":"Feature","properties":{"code":"450604","name":"หนองทัพไทย","parentCode":"4506"},"geometry":{"type":"Polygon","coordinates":[[[104.01540541500003,15.707483571000068],[103.98223767700006,15.733149841000056],[103.94281007700005,15.70509194400006],[103.96851046400008,15.691629403000036],[103.96709900800005,15.642419319000055],[104.02385692000007,15.65784607200004],[104.01540541500003,15.707483571000068]]]}},{"type":"Feature","properties":{"code":"450118","name":"หนองแวง","parentCode":"4501"},"geometry":{"type":"Polygon","coordinates":[[[103.62825439300008,16.129227882000066],[103.56230317500007,16.127676303000044],[103.58168099900007,16.078352942000038],[103.60232585000006,16.070223467000062],[103.64187636000008,16.091596068000058],[103.63334491300009,16.11543069100003],[103.62825439300008,16.129227882000066]]]}},{"type":"Feature","properties":{"code":"450207","name":"หนองแวง","parentCode":"4502"},"geometry":{"type":"Polygon","coordinates":[[[103.63783684000003,15.776896430000022],[103.60683233500004,15.76508147900006],[103.57353681700005,15.751851894000026],[103.58174533800008,15.706685514000071],[103.62988954700006,15.68745431800005],[103.67608792200008,15.773806874000059],[103.63783684000003,15.776896430000022]]]}},{"type":"Feature","properties":{"code":"451607","name":"หนองแวงควง","parentCode":"4516"},"geometry":{"type":"Polygon","coordinates":[[[103.52285324000007,15.938736619000053],[103.53192307400008,15.95824265300007],[103.51675067500008,15.974893457000064],[103.50294573100007,15.965623877000041],[103.47421233700004,15.949608386000023],[103.48818795600005,15.931336466000062],[103.52285324000007,15.938736619000053]]]}},{"type":"Feature","properties":{"code":"450705","name":"หนองใหญ่","parentCode":"4507"},"geometry":{"type":"Polygon","coordinates":[[[104.03003136900008,16.44345001100004],[103.95588616800006,16.438161020000052],[103.93374283300005,16.403414739000027],[103.98183162700008,16.366696715000046],[104.01854211500006,16.33664219700006],[104.04546902700008,16.39079139100005],[104.04547132500005,16.390880409000033],[104.04121208900006,16.401589939000075],[104.03003136900008,16.44345001100004]]]}},{"type":"Feature","properties":{"code":"451604","name":"หนองใหญ่","parentCode":"4516"},"geometry":{"type":"Polygon","coordinates":[[[103.55836840900008,16.065146369000047],[103.49856381700005,16.056393443000047],[103.52646720900003,16.023681064000073],[103.57311825800008,16.027807954000025],[103.56266383300004,16.049373212000035],[103.55836840900008,16.065146369000047]]]}},{"type":"Feature","properties":{"code":"450103","name":"เหนือเมือง","parentCode":"4501"},"geometry":{"type":"Polygon","coordinates":[[[103.69305835800009,16.116949782000063],[103.64187636000008,16.091596068000058],[103.60232585000006,16.070223467000062],[103.62481697200008,16.06124308400007],[103.67711868000004,16.04083053900007],[103.70114380800004,16.042535284000053],[103.69085859500007,16.067350840000074],[103.68651960600005,16.07559158400005],[103.69305835800009,16.116949782000063]]]}},{"type":"Feature","properties":{"code":"451702","name":"ปาฝา","parentCode":"4517"},"geometry":{"type":"Polygon","coordinates":[[[103.65219929700004,16.150938617000065],[103.63060212900007,16.169874633000063],[103.61322535500005,16.169657335000068],[103.62825439300008,16.129227882000066],[103.63334491300009,16.11543069100003],[103.65219929700004,16.150938617000065]]]}},{"type":"Feature","properties":{"code":"450408","name":"ป่าสังข์","parentCode":"4504"},"geometry":{"type":"Polygon","coordinates":[[[103.63532029200007,15.835224750000066],[103.63783684000003,15.776896430000022],[103.67608792200008,15.773806874000059],[103.69478169100006,15.771469858000046],[103.69278226500006,15.780780003000075],[103.69192927500006,15.83300673900004],[103.63532029200007,15.835224750000066]]]}},{"type":"Feature","properties":{"code":"450908","name":"ผาน้ำย้อย","parentCode":"4509"},"geometry":{"type":"Polygon","coordinates":[[[104.34800461400005,16.323211225000023],[104.32496034700006,16.357934517000047],[104.31815580200004,16.375188739000066],[104.30924399300005,16.328714582000032],[104.26691055300006,16.32035171700005],[104.30252400900008,16.312127532000034],[104.32803481900004,16.270370743000058],[104.34800461400005,16.323211225000023]]]}},{"type":"Feature","properties":{"code":"450515","name":"ไพศาล","parentCode":"4505"},"geometry":{"type":"Polygon","coordinates":[[[103.82280224400006,16.05359951400004],[103.79489021800003,16.02900978100007],[103.81298617100003,15.994785079000053],[103.83445938900007,16.00479806100003],[103.82895137900005,16.052910242000053],[103.82280224400006,16.05359951400004]]]}},{"type":"Feature","properties":{"code":"451707","name":"ผักแว่น","parentCode":"4517"},"geometry":{"type":"Polygon","coordinates":[[[103.55126537700005,16.193546837000042],[103.48999511300008,16.178699447000042],[103.48345229200004,16.163457851000032],[103.48343882000006,16.163441825000064],[103.54018899300007,16.153729764000047],[103.55126537700005,16.193546837000042]]]}},{"type":"Feature","properties":{"code":"450601","name":"พนมไพร","parentCode":"4506"},"geometry":{"type":"Polygon","coordinates":[[[104.12767260700008,15.717084770000042],[104.11565326500005,15.720724573000041],[104.07040786900006,15.678546829000027],[104.08046823900008,15.666752434000045],[104.10016679100005,15.658641687000056],[104.14239500300005,15.673164486000076],[104.16826576700004,15.675159010000073],[104.15864361400008,15.68926704100005],[104.12767260700008,15.717084770000042]]]}},{"type":"Feature","properties":{"code":"451802","name":"พลับพลา","parentCode":"4518"},"geometry":{"type":"Polygon","coordinates":[[[103.82860361400009,16.182138474000055],[103.79032510000008,16.157022006000034],[103.76634836000005,16.13134371800004],[103.76293824000004,16.117850516000033],[103.77038324900008,16.12069663500006],[103.83816143400009,16.157124666000072],[103.82860361400009,16.182138474000055]]]}},{"type":"Feature","properties":{"code":"450611","name":"โพธิ์ชัย","parentCode":"4506"},"geometry":{"type":"Polygon","coordinates":[[[104.12085741700008,15.59862551200007],[104.11096155700005,15.614743955000051],[104.03764476600008,15.603552325000067],[104.04775919700006,15.58394912500006],[104.08552934900007,15.550517764000062],[104.12173508800004,15.563130354000066],[104.12202872600005,15.577795887000036],[104.12085741700008,15.59862551200007]]]}},{"type":"Feature","properties":{"code":"451606","name":"โพธิ์สัย","parentCode":"4516"},"geometry":{"type":"Polygon","coordinates":[[[103.49839765100006,16.066767033000076],[103.49597407800007,16.115392874000065],[103.46505259300005,16.130109094000034],[103.45814436300009,16.11120107200003],[103.46479821500009,16.06567749800007],[103.49839765100006,16.066767033000076]]]}},{"type":"Feature","properties":{"code":"450809","name":"โพธิ์ศรี","parentCode":"4508"},"geometry":{"type":"Polygon","coordinates":[[[103.87812353800007,16.39286826700004],[103.82741760700009,16.362814385000036],[103.81906506200005,16.411357047000024],[103.78525276800008,16.39796838700005],[103.78993357000007,16.382272098000044],[103.78095086600007,16.32879699700004],[103.82296539000004,16.326295195000057],[103.86997894000007,16.367694501000074],[103.87812353800007,16.39286826700004]]]}},{"type":"Feature","properties":{"code":"450708","name":"โพธิ์ศรีสว่าง","parentCode":"4507"},"geometry":{"type":"Polygon","coordinates":[[[103.93713791400006,16.24080755600005],[103.93073704700004,16.272477741000046],[103.90811987800004,16.27388536500007],[103.84058118000007,16.24175087800006],[103.83895149100005,16.229322848000038],[103.85519686400005,16.20742359700006],[103.92804642600004,16.21244925600007],[103.93713791400006,16.24080755600005]]]}},{"type":"Feature","properties":{"code":"450706","name":"โพธิ์ทอง","parentCode":"4507"},"geometry":{"type":"Polygon","coordinates":[[[103.94711472900008,16.364145688000065],[103.87735327400009,16.346894681000038],[103.89462776600004,16.296001671000056],[103.90811987800004,16.27388536500007],[103.93073704700004,16.272477741000046],[103.94584356700005,16.309254348000024],[103.94711472900008,16.364145688000065]]]}},{"type":"Feature","properties":{"code":"451009","name":"โพธิ์ทอง","parentCode":"4510"},"geometry":{"type":"Polygon","coordinates":[[[104.17851651000007,16.149304028000074],[104.17939110700007,16.189450300000033],[104.10324107300005,16.146196576000023],[104.09357148800007,16.11435980600004],[104.11185065700005,16.107749007000052],[104.17851651000007,16.149304028000074]]]}},{"type":"Feature","properties":{"code":"451601","name":"โพธิ์ทอง","parentCode":"4516"},"geometry":{"type":"Polygon","coordinates":[[[103.57390705400007,15.989975537000078],[103.54454031700004,15.994980682000062],[103.51675067500008,15.974893457000064],[103.53192307400008,15.95824265300007],[103.57390705400007,15.989975537000078]]]}},{"type":"Feature","properties":{"code":"450605","name":"โพธิ์ใหญ่","parentCode":"4506"},"geometry":{"type":"Polygon","coordinates":[[[104.00264981200007,15.802476929000022],[103.99200524500009,15.810371349000036],[103.97394707800004,15.778700688000072],[103.98223767700006,15.733149841000056],[104.01540541500003,15.707483571000068],[104.05484323700006,15.715748000000076],[104.05903904600007,15.720714821000058],[104.05399027000004,15.737461866000046],[104.03337376000007,15.796086062000029],[104.00264981200007,15.802476929000022]]]}},{"type":"Feature","properties":{"code":"451402","name":"โพนเมือง","parentCode":"4514"},"geometry":{"type":"Polygon","coordinates":[[[103.89987573600007,15.938823669000044],[103.85364126300004,15.939487632000066],[103.82369197300005,15.931276267000044],[103.83493427600007,15.910347191000028],[103.84804075300008,15.897607168000036],[103.89913340200007,15.860973523000041],[103.93661164000008,15.88652419500005],[103.91013659600009,15.909176936000051],[103.89987573600007,15.938823669000044]]]}},{"type":"Feature","properties":{"code":"451301","name":"โพนทราย","parentCode":"4513"},"geometry":{"type":"Polygon","coordinates":[[[104.04552983400004,15.513461580000069],[103.99644044000007,15.534722983000051],[103.96652394800009,15.49807928000007],[103.96089222000006,15.483184443000027],[104.00002230400008,15.452368092000029],[104.02037911900004,15.470515704000036],[104.05997604300006,15.502419313000075],[104.04552983400004,15.513461580000069]]]}},{"type":"Feature","properties":{"code":"451016","name":"พรสวรรค์","parentCode":"4510"},"geometry":{"type":"Polygon","coordinates":[[[104.17939110700007,16.189450300000033],[104.19917339700004,16.224121582000066],[104.13028171200006,16.196307110000078],[104.09720219800005,16.155914170000074],[104.10324107300005,16.146196576000023],[104.17939110700007,16.189450300000033]]]}},{"type":"Feature","properties":{"code":"450304","name":"โพนสูง","parentCode":"4503"},"geometry":{"type":"Polygon","coordinates":[[[103.46506475900009,15.673685262000049],[103.41580785600007,15.687315859000023],[103.40592281300007,15.650639139000077],[103.38561079600004,15.615339100000028],[103.39386216600008,15.608474379000029],[103.39970975100005,15.606604550000043],[103.41565348400007,15.638076922000039],[103.45540902400006,15.63281687600005],[103.46506475900009,15.673685262000049]]]}},{"type":"Feature","properties":{"code":"451804","name":"พระเจ้า","parentCode":"4518"},"geometry":{"type":"Polygon","coordinates":[[[103.74634133700005,16.115518574000077],[103.76293824000004,16.117850516000033],[103.76634836000005,16.13134371800004],[103.74280140600007,16.153497207000044],[103.71315190900003,16.120685937000076],[103.72994831600005,16.100977616000023],[103.74634133700005,16.115518574000077]]]}},{"type":"Feature","properties":{"code":"451803","name":"พระธาตุ","parentCode":"4518"},"geometry":{"type":"Polygon","coordinates":[[[103.79958419600007,16.167519620000064],[103.74261959600005,16.206648487000052],[103.73712514200008,16.16452970000006],[103.74280140600007,16.153497207000044],[103.76634836000005,16.13134371800004],[103.79032510000008,16.157022006000034],[103.79958419600007,16.167519620000064]]]}},{"type":"Feature","properties":{"code":"450711","name":"พรมสวรรค์","parentCode":"4507"},"geometry":{"type":"Polygon","coordinates":[[[104.06824915200008,16.24971512600007],[104.04962060500009,16.204344589000073],[104.03574973500008,16.197243988000025],[104.06762593400003,16.15411528900006],[104.09720219800005,16.155914170000074],[104.13028171200006,16.196307110000078],[104.12325108500005,16.222543398000028],[104.06824915200008,16.24971512600007]]]}},{"type":"Feature","properties":{"code":"450903","name":"ภูเขาทอง","parentCode":"4509"},"geometry":{"type":"Polygon","coordinates":[[[104.24172964700006,16.373076550000064],[104.27916085300006,16.392096673000026],[104.30552213100003,16.43968958800002],[104.28957218200009,16.471616924000045],[104.23785792300004,16.428572174000067],[104.15113499800003,16.373187572000063],[104.16257357700005,16.340297087000067],[104.24172964700006,16.373076550000064]]]}},{"type":"Feature","properties":{"code":"451010","name":"ภูเงิน","parentCode":"4510"},"geometry":{"type":"Polygon","coordinates":[[[104.11185065700005,16.107749007000052],[104.09357148800007,16.11435980600004],[104.06979005500006,16.113636658000075],[104.03309016700007,16.058818707000057],[104.03406539600007,16.049259161000066],[104.04942760000006,15.985993712000038],[104.09374782900005,15.977546450000034],[104.11367897700006,16.038205651000055],[104.10692188400009,16.097593071000063],[104.11185065700005,16.107749007000052]]]}},{"type":"Feature","properties":{"code":"450109","name":"ปอภาร  (ปอพาน)","parentCode":"4501"},"geometry":{"type":"Polygon","coordinates":[[[103.57102661000005,16.082487413000024],[103.49597407800007,16.115392874000065],[103.49839765100006,16.066767033000076],[103.49856381700005,16.056393443000047],[103.55836840900008,16.065146369000047],[103.57102661000005,16.082487413000024]]]}},{"type":"Feature","properties":{"code":"450522","name":"ราชธานี","parentCode":"4505"},"geometry":{"type":"Polygon","coordinates":[[[103.73485201200003,15.96127311500004],[103.69423854800004,15.98256723000003],[103.70465869700007,15.956414164000023],[103.72248743500006,15.915368966000074],[103.73485201200003,15.96127311500004]]]}},{"type":"Feature","properties":{"code":"450102","name":"รอบเมือง","parentCode":"4501"},"geometry":{"type":"Polygon","coordinates":[[[103.70114380800004,16.042535284000053],[103.67711868000004,16.04083053900007],[103.63690089700003,16.046809867000036],[103.61974747800008,16.036236810000048],[103.61094460200007,16.007146559000034],[103.62961567700006,15.96655118700005],[103.63357482100008,15.974613301000034],[103.66031809300006,16.024029905000077],[103.68411179600008,16.01495796100005],[103.69279300200009,16.026776738000024],[103.70114380800004,16.042535284000053]]]}},{"type":"Feature","properties":{"code":"450907","name":"รอบเมือง","parentCode":"4509"},"geometry":{"type":"Polygon","coordinates":[[[104.25691185000005,16.321805212000072],[104.17531127400008,16.310861351000028],[104.13256489600008,16.282701502000066],[104.15487589000008,16.268482806000065],[104.22022748700005,16.246189874000038],[104.24023532800004,16.230855014000042],[104.26691055300006,16.32035171700005],[104.25691185000005,16.321805212000072]]]}},{"type":"Feature","properties":{"code":"450805","name":"สะอาด","parentCode":"4508"},"geometry":{"type":"Polygon","coordinates":[[[103.79374400200004,16.21983784300005],[103.77335590600006,16.241530429000022],[103.73300857100008,16.229670448000036],[103.72303221100009,16.22084116900004],[103.74261959600005,16.206648487000052],[103.79958419600007,16.167519620000064],[103.79374400200004,16.21983784300005]]]}},{"type":"Feature","properties":{"code":"450106","name":"สะอาดสมบูรณ์","parentCode":"4501"},"geometry":{"type":"Polygon","coordinates":[[[103.61094460200007,16.007146559000034],[103.57390705400007,15.989975537000078],[103.60560499600007,15.946968672000025],[103.61465476600006,15.912397819000034],[103.63690280200007,15.89182493800007],[103.64264352100008,15.92189055800003],[103.63863454400007,15.951294854000025],[103.62961567700006,15.96655118700005],[103.61094460200007,16.007146559000034]]]}},{"type":"Feature","properties":{"code":"450306","name":"สระบัว","parentCode":"4503"},"geometry":{"type":"Polygon","coordinates":[[[103.40562996200003,15.537365038000075],[103.41185766700005,15.600185703000022],[103.39970975100005,15.606604550000043],[103.39386216600008,15.608474379000029],[103.33109572800004,15.586126363000062],[103.32197973600006,15.553786908000063],[103.36089204700005,15.526200471000038],[103.40562996200003,15.537365038000075]]]}},{"type":"Feature","properties":{"code":"450614","name":"สระแก้ว","parentCode":"4506"},"geometry":{"type":"Polygon","coordinates":[[[104.11565326500005,15.720724573000041],[104.05903904600007,15.720714821000058],[104.05484323700006,15.715748000000076],[104.07040786900006,15.678546829000027],[104.11565326500005,15.720724573000041]]]}},{"type":"Feature","properties":{"code":"451101","name":"สระคู","parentCode":"4511"},"geometry":{"type":"Polygon","coordinates":[[[103.85175655100005,15.662242125000034],[103.80952009000003,15.675523726000051],[103.76535721000005,15.61179063700007],[103.74265712800008,15.523898939000048],[103.78685737500007,15.502083602000027],[103.82823581400004,15.520784630000037],[103.84518789600008,15.551818455000046],[103.84037156900007,15.594625723000036],[103.85175655100005,15.662242125000034]]]}},{"type":"Feature","properties":{"code":"450712","name":"สระนกแก้ว","parentCode":"4507"},"geometry":{"type":"Polygon","coordinates":[[[104.00338902300007,16.280708135000054],[103.94584356700005,16.309254348000024],[103.93073704700004,16.272477741000046],[103.93713791400006,16.24080755600005],[103.99018260700007,16.250833685000032],[104.00269514400009,16.26546370400007],[104.00338902300007,16.280708135000054]]]}},{"type":"Feature","properties":{"code":"451708","name":"แสนชาติ","parentCode":"4517"},"geometry":{"type":"Polygon","coordinates":[[[103.66208335000005,16.192682494000053],[103.61626506600004,16.217824634000067],[103.61322535500005,16.169657335000068],[103.63060212900007,16.169874633000063],[103.66208335000005,16.192682494000053]]]}},{"type":"Feature","properties":{"code":"450602","name":"แสนสุข","parentCode":"4506"},"geometry":{"type":"Polygon","coordinates":[[[104.12577918300008,15.802238316000057],[104.10927799300003,15.808867371000076],[104.10222126600007,15.769161363000023],[104.05399027000004,15.737461866000046],[104.05903904600007,15.720714821000058],[104.11565326500005,15.720724573000041],[104.12767260700008,15.717084770000042],[104.13782632300007,15.782807397000056],[104.12577918300008,15.802238316000057]]]}},{"type":"Feature","properties":{"code":"451302","name":"สามขา","parentCode":"4513"},"geometry":{"type":"Polygon","coordinates":[[[103.94564144100008,15.438934208000035],[103.96089222000006,15.483184443000027],[103.96652394800009,15.49807928000007],[103.93954156000007,15.51235342700005],[103.89314940300005,15.464877873000034],[103.92537374100004,15.438049956000043],[103.94564144100008,15.438934208000035]]]}},{"type":"Feature","properties":{"code":"451902","name":"สาวแห","parentCode":"4519"},"geometry":{"type":"Polygon","coordinates":[[[104.06422024200003,15.521718023000062],[104.08552934900007,15.550517764000062],[104.04775919700006,15.58394912500006],[104.04552983400004,15.513461580000069],[104.05997604300006,15.502419313000075],[104.06422024200003,15.521718023000062]]]}},{"type":"Feature","properties":{"code":"450704","name":"สว่าง","parentCode":"4507"},"geometry":{"type":"Polygon","coordinates":[[[104.04962060500009,16.204344589000073],[104.00269514400009,16.26546370400007],[103.99018260700007,16.250833685000032],[103.97007985400006,16.216665722000073],[103.98163569000008,16.173674677000065],[103.98501716700008,16.170718410000063],[104.03574973500008,16.197243988000025],[104.04962060500009,16.204344589000073]]]}},{"type":"Feature","properties":{"code":"450108","name":"สีแก้ว","parentCode":"4501"},"geometry":{"type":"Polygon","coordinates":[[[103.54018899300007,16.153729764000047],[103.48343882000006,16.163441825000064],[103.46505259300005,16.130109094000034],[103.49597407800007,16.115392874000065],[103.57102661000005,16.082487413000024],[103.58168099900007,16.078352942000038],[103.56230317500007,16.127676303000044],[103.56106882500006,16.15235837000006],[103.54018899300007,16.153729764000047]]]}},{"type":"Feature","properties":{"code":"450412","name":"ศรีโคตร","parentCode":"4504"},"geometry":{"type":"Polygon","coordinates":[[[103.56887864200007,15.796596085000033],[103.54885053800007,15.799764030000063],[103.53824436100007,15.744511868000075],[103.57353681700005,15.751851894000026],[103.60683233500004,15.76508147900006],[103.56887864200007,15.796596085000033]]]}},{"type":"Feature","properties":{"code":"451303","name":"ศรีสว่าง","parentCode":"4513"},"geometry":{"type":"Polygon","coordinates":[[[103.93600371000008,15.558350785000073],[103.90279878200005,15.553805994000072],[103.84518789600008,15.551818455000046],[103.82823581400004,15.520784630000037],[103.83349151000004,15.512716215000069],[103.93954156000007,15.51235342700005],[103.96652394800009,15.49807928000007],[103.99644044000007,15.534722983000051],[103.95568174800007,15.54443040600006],[103.93600371000008,15.558350785000073]]]}},{"type":"Feature","properties":{"code":"451602","name":"ศรีสมเด็จ","parentCode":"4516"},"geometry":{"type":"Polygon","coordinates":[[[103.50294573100007,15.965623877000041],[103.51700932200004,16.007881186000077],[103.46248546300006,16.007254799000066],[103.46296148400006,15.978526926000029],[103.47421233700004,15.949608386000023],[103.50294573100007,15.965623877000041]]]}},{"type":"Feature","properties":{"code":"451014","name":"ศรีวิลัย","parentCode":"4510"},"geometry":{"type":"Polygon","coordinates":[[[104.06762593400003,16.15411528900006],[104.02428733100004,16.162224580000043],[104.00127049500009,16.134699725000075],[104.01161108900004,16.121606280000037],[104.06979005500006,16.113636658000075],[104.09357148800007,16.11435980600004],[104.10324107300005,16.146196576000023],[104.09720219800005,16.155914170000074],[104.06762593400003,16.15411528900006]]]}},{"type":"Feature","properties":{"code":"450204","name":"สิงห์โคก","parentCode":"4502"},"geometry":{"type":"Polygon","coordinates":[[[103.69509654700005,15.714127293000047],[103.69478169100006,15.771469858000046],[103.67608792200008,15.773806874000059],[103.62988954700006,15.68745431800005],[103.68114663400007,15.664435653000055],[103.68961552700006,15.690323916000068],[103.69509654700005,15.714127293000047]]]}},{"type":"Feature","properties":{"code":"451605","name":"สวนจิก","parentCode":"4516"},"geometry":{"type":"Polygon","coordinates":[[[103.49839765100006,16.066767033000076],[103.46479821500009,16.06567749800007],[103.46645493600005,16.052751313000044],[103.46333016400007,16.008819869000035],[103.46248546300006,16.007254799000066],[103.51700932200004,16.007881186000077],[103.52874377100005,16.005114011000046],[103.52646720900003,16.023681064000073],[103.49856381700005,16.056393443000047],[103.49839765100006,16.066767033000076]]]}},{"type":"Feature","properties":{"code":"451305","name":"ท่าหาดยาว","parentCode":"4513"},"geometry":{"type":"Polygon","coordinates":[[[103.93954156000007,15.51235342700005],[103.83349151000004,15.512716215000069],[103.85492563600008,15.465958166000064],[103.87178644400007,15.463490174000071],[103.89314940300005,15.464877873000034],[103.93954156000007,15.51235342700005]]]}},{"type":"Feature","properties":{"code":"451007","name":"ท่าม่วง","parentCode":"4510"},"geometry":{"type":"Polygon","coordinates":[[[103.92346250500003,16.11094428100006],[103.90170199500005,16.173249659000078],[103.85155263500008,16.116932167000073],[103.88810357100004,16.082184506000033],[103.89157538500007,16.077333645000067],[103.92346250500003,16.11094428100006]]]}},{"type":"Feature","properties":{"code":"450909","name":"ท่าสีดา","parentCode":"4509"},"geometry":{"type":"Polygon","coordinates":[[[104.24023532800004,16.230855014000042],[104.22022748700005,16.246189874000038],[104.19917339700004,16.224121582000066],[104.17939110700007,16.189450300000033],[104.17851651000007,16.149304028000074],[104.19297394200004,16.14868942000004],[104.24914967600006,16.210296922000055],[104.24023532800004,16.230855014000042]]]}},{"type":"Feature","properties":{"code":"450504","name":"ธวัชบุรี","parentCode":"4505"},"geometry":{"type":"Polygon","coordinates":[[[103.83178579500009,16.120438148000062],[103.83816143400009,16.157124666000072],[103.77038324900008,16.12069663500006],[103.78795461500005,16.093145336000077],[103.80770337000007,16.083303835000038],[103.81649710200008,16.08880001600005],[103.83178579500009,16.120438148000062]]]}},{"type":"Feature","properties":{"code":"452002","name":"เทอดไทย","parentCode":"4520"},"geometry":{"type":"Polygon","coordinates":[[[103.85661867300007,15.99954318400006],[103.84199863800006,16.002921035000043],[103.85364126300004,15.939487632000066],[103.89987573600007,15.938823669000044],[103.89703316800006,15.953652538000028],[103.85661867300007,15.99954318400006]]]}},{"type":"Feature","properties":{"code":"450502","name":"ธงธานี","parentCode":"4505"},"geometry":{"type":"Polygon","coordinates":[[[103.85155263500008,16.116932167000073],[103.83178579500009,16.120438148000062],[103.81649710200008,16.08880001600005],[103.88810357100004,16.082184506000033],[103.85155263500008,16.116932167000073]]]}},{"type":"Feature","properties":{"code":"452001","name":"ทุ่งเขาหลวง","parentCode":"4520"},"geometry":{"type":"Polygon","coordinates":[[[103.87487526000007,16.061264037000058],[103.82895137900005,16.052910242000053],[103.83445938900007,16.00479806100003],[103.84199863800006,16.002921035000043],[103.85661867300007,15.99954318400006],[103.87874525000007,16.014732139000046],[103.87487526000007,16.061264037000058]]]}},{"type":"Feature","properties":{"code":"451113","name":"ทุ่งกุลา","parentCode":"4511"},"geometry":{"type":"Polygon","coordinates":[[[103.83349151000004,15.512716215000069],[103.82823581400004,15.520784630000037],[103.78685737500007,15.502083602000027],[103.75339781100007,15.439634924000075],[103.82840478800006,15.451330547000055],[103.85492563600008,15.465958166000064],[103.83349151000004,15.512716215000069]]]}},{"type":"Feature","properties":{"code":"451108","name":"ทุ่งหลวง","parentCode":"4511"},"geometry":{"type":"Polygon","coordinates":[[[103.78685737500007,15.502083602000027],[103.74265712800008,15.523898939000048],[103.67561735300006,15.524666978000027],[103.64009687000004,15.459929244000023],[103.72154529300008,15.439885665000077],[103.75339781100007,15.439634924000075],[103.78685737500007,15.502083602000027]]]}},{"type":"Feature","properties":{"code":"451114","name":"ทุ่งศรีเมือง","parentCode":"4511"},"geometry":{"type":"Polygon","coordinates":[[[103.90177395700005,15.572339716000045],[103.88778315200005,15.598057591000043],[103.84037156900007,15.594625723000036],[103.84518789600008,15.551818455000046],[103.90279878200005,15.553805994000072],[103.90177395700005,15.572339716000045]]]}},{"type":"Feature","properties":{"code":"450212","name":"ทุ่งทอง","parentCode":"4502"},"geometry":{"type":"Polygon","coordinates":[[[103.44132430300004,15.543427502000043],[103.41740395200009,15.536738756000034],[103.40326782800008,15.436452529000064],[103.47877498100007,15.451292773000034],[103.49338318300005,15.43840790300004],[103.50551637600006,15.521829927000056],[103.44712318100005,15.520222624000041],[103.44132430300004,15.543427502000043]]]}},{"type":"Feature","properties":{"code":"450709","name":"อุ่มเม่า","parentCode":"4507"},"geometry":{"type":"Polygon","coordinates":[[[103.90811987800004,16.27388536500007],[103.89462776600004,16.296001671000056],[103.81879641000006,16.295298950000074],[103.83798182000004,16.255208195000023],[103.84058118000007,16.24175087800006],[103.90811987800004,16.27388536500007]]]}},{"type":"Feature","properties":{"code":"450506","name":"อุ่มเม้า","parentCode":"4505"},"geometry":{"type":"Polygon","coordinates":[[[103.80770337000007,16.083303835000038],[103.78795461500005,16.093145336000077],[103.75958177300004,16.074519484000064],[103.75897052900007,16.023080416000028],[103.76309640900007,16.000320197000065],[103.80505796000006,15.976609298000028],[103.81298617100003,15.994785079000053],[103.79489021800003,16.02900978100007],[103.82280224400006,16.05359951400004],[103.80770337000007,16.083303835000038]]]}},{"type":"Feature","properties":{"code":"450701","name":"แวง","parentCode":"4507"},"geometry":{"type":"Polygon","coordinates":[[[103.98183162700008,16.366696715000046],[103.94711472900008,16.364145688000065],[103.94584356700005,16.309254348000024],[104.00338902300007,16.280708135000054],[104.01716983600005,16.30344616000002],[104.01854211500006,16.33664219700006],[103.98183162700008,16.366696715000046]]]}},{"type":"Feature","properties":{"code":"451006","name":"วังหลวง","parentCode":"4510"},"geometry":{"type":"Polygon","coordinates":[[[104.00127049500009,16.134699725000075],[103.98829206300007,16.141315091000024],[103.95539127900008,16.110981320000064],[103.98939313100004,16.044564885000057],[104.03406539600007,16.049259161000066],[104.03309016700007,16.058818707000057],[104.01161108900004,16.121606280000037],[104.00127049500009,16.134699725000075]]]}},{"type":"Feature","properties":{"code":"450713","name":"วังสามัคคี","parentCode":"4507"},"geometry":{"type":"Polygon","coordinates":[[[104.06408003300004,16.30924927500007],[104.01716983600005,16.30344616000002],[104.00338902300007,16.280708135000054],[104.00269514400009,16.26546370400007],[104.04962060500009,16.204344589000073],[104.06824915200008,16.24971512600007],[104.07831276200005,16.250211816000046],[104.06408003300004,16.30924927500007]]]}},{"type":"Feature","properties":{"code":"450606","name":"วารีสวัสดิ์","parentCode":"4506"},"geometry":{"type":"Polygon","coordinates":[[[104.05484323700006,15.715748000000076],[104.01540541500003,15.707483571000068],[104.02385692000007,15.65784607200004],[104.03989535500006,15.656726438000078],[104.08046823900008,15.666752434000045],[104.07040786900006,15.678546829000027],[104.05484323700006,15.715748000000076]]]}},{"type":"Feature","properties":{"code":"451304","name":"ยางคำ","parentCode":"4513"},"geometry":{"type":"Polygon","coordinates":[[[103.98900059900006,15.406978390000063],[104.00002230400008,15.452368092000029],[103.96089222000006,15.483184443000027],[103.94564144100008,15.438934208000035],[103.96933908800008,15.424445025000068],[103.98900059900006,15.406978390000063]]]}},{"type":"Feature","properties":{"code":"451706","name":"ยางใหญ่","parentCode":"4517"},"geometry":{"type":"Polygon","coordinates":[[[103.68527382600007,16.150556832000063],[103.65219929700004,16.150938617000065],[103.63334491300009,16.11543069100003],[103.64187636000008,16.091596068000058],[103.69305835800009,16.116949782000063],[103.69319450500006,16.12775400000004],[103.68527382600007,16.150556832000063]]]}}]}