{"type":"FeatureCollection","features":[{"type":"Feature","properties":{"code":"461604","name":"บ่อแก้ว","parentCode":"4616"},"geometry":{"type":"Polygon","coordinates":[[[104.01736840100006,16.730346421000036],[104.03780792900005,16.79499798200004],[104.02281402700004,16.855939136000075],[104.00018545900008,16.837035101000026],[103.95658418300007,16.81935924900006],[103.95029845500005,16.77606519400007],[103.94928216100004,16.758381514000064],[104.01736840100006,16.730346421000036]]]}},{"type":"Feature","properties":{"code":"460704","name":"บัวบาน","parentCode":"4607"},"geometry":{"type":"Polygon","coordinates":[[[103.45122070500008,16.543229693000058],[103.40778843000004,16.50864703600007],[103.35772283900008,16.470482082000046],[103.39437996700008,16.454535521000025],[103.45299765900006,16.430248430000063],[103.46391985700006,16.50080099300004],[103.45122070500008,16.543229693000058]]]}},{"type":"Feature","properties":{"code":"460501","name":"บัวขาว","parentCode":"4605"},"geometry":{"type":"Polygon","coordinates":[[[104.07338242600008,16.56016895700003],[104.02950538000005,16.58131010900007],[104.01210639000004,16.532770750000054],[104.02250596000005,16.47898346900007],[104.07581867900007,16.487017325000068],[104.09763223200008,16.495775339000033],[104.09405916800006,16.532041562000074],[104.07338242600008,16.56016895700003]]]}},{"type":"Feature","properties":{"code":"460804","name":"บึงนาเรียง","parentCode":"4608"},"geometry":{"type":"Polygon","coordinates":[[[103.32467827200009,16.608201044000054],[103.25145052800008,16.624804055000027],[103.24698477500004,16.611192923000033],[103.27337887600004,16.58914773200007],[103.30186934600005,16.55433101500006],[103.30837393400009,16.565513408000072],[103.32467827200009,16.608201044000054]]]}},{"type":"Feature","properties":{"code":"460108","name":"บึงวิชัย","parentCode":"4601"},"geometry":{"type":"Polygon","coordinates":[[[103.49256444500008,16.56834821800004],[103.45425037900009,16.561859353000045],[103.45122070500008,16.543229693000058],[103.46391985700006,16.50080099300004],[103.51297745500005,16.477202817000034],[103.49244874100003,16.51954008900003],[103.50939739800003,16.56412537700004],[103.49256444500008,16.56834821800004]]]}},{"type":"Feature","properties":{"code":"460502","name":"แจนแลน","parentCode":"4605"},"geometry":{"type":"Polygon","coordinates":[[[104.02950538000005,16.58131010900007],[104.00844264100004,16.59702357900005],[103.95016698200004,16.55292550400003],[103.98058166700008,16.51778177700004],[104.01210639000004,16.532770750000054],[104.02950538000005,16.58131010900007]]]}},{"type":"Feature","properties":{"code":"460310","name":"เจ้าท่า","parentCode":"4603"},"geometry":{"type":"Polygon","coordinates":[[[103.61704653900006,16.254552432000025],[103.56019765600007,16.20299764300006],[103.61626506600004,16.217824634000067],[103.66208335000005,16.192682494000053],[103.66115116800006,16.216678295000065],[103.61704653900006,16.254552432000025]]]}},{"type":"Feature","properties":{"code":"460107","name":"เชียงเครือ","parentCode":"4601"},"geometry":{"type":"Polygon","coordinates":[[[103.65501696600006,16.44476570000006],[103.60037065300008,16.463288505000037],[103.60229150000004,16.409100050000063],[103.63082309400005,16.37286720900005],[103.69116392500007,16.384384082000054],[103.65501696600006,16.44476570000006]]]}},{"type":"Feature","properties":{"code":"460504","name":"จุมจัง","parentCode":"4605"},"geometry":{"type":"Polygon","coordinates":[[[104.12541802900006,16.483530467000037],[104.09763223200008,16.495775339000033],[104.07581867900007,16.487017325000068],[104.07715253600009,16.440916393000066],[104.04121208900006,16.401589939000075],[104.04547132500005,16.390880409000033],[104.09631278100005,16.419302707000043],[104.10241783400005,16.42226121400006],[104.12541802900006,16.483530467000037]]]}},{"type":"Feature","properties":{"code":"461005","name":"ดินจี่","parentCode":"4610"},"geometry":{"type":"Polygon","coordinates":[[[103.70552120600007,17.020655394000073],[103.67496729400006,16.965175532000046],[103.69479985600009,16.927437319000035],[103.72599936600005,16.878624471000023],[103.76315579000004,16.964307833000078],[103.73999944000008,16.971270779000065],[103.70552120600007,17.020655394000073]]]}},{"type":"Feature","properties":{"code":"461701","name":"ดอนจาน","parentCode":"4617"},"geometry":{"type":"Polygon","coordinates":[[[103.74325269400003,16.411719896000022],[103.71757448900007,16.432113490000063],[103.73924934000007,16.47399319400006],[103.67095101400008,16.459282689000077],[103.65501696600006,16.44476570000006],[103.69116392500007,16.384384082000054],[103.70596527800006,16.386315204000027],[103.74325269400003,16.411719896000022]]]}},{"type":"Feature","properties":{"code":"460709","name":"ดอนสมบูรณ์","parentCode":"4607"},"geometry":{"type":"Polygon","coordinates":[[[103.45299765900006,16.430248430000063],[103.39437996700008,16.454535521000025],[103.40256061400004,16.415291729000046],[103.41004911200008,16.406574825000064],[103.46711039400009,16.411208679000026],[103.45299765900006,16.430248430000063]]]}},{"type":"Feature","properties":{"code":"460304","name":"ดงลิง","parentCode":"4603"},"geometry":{"type":"Polygon","coordinates":[[[103.68790801500006,16.287005602000022],[103.66130574600004,16.28292044500006],[103.61704653900006,16.254552432000025],[103.66115116800006,16.216678295000065],[103.70473423900006,16.221528845000023],[103.68777497600007,16.286478548000048],[103.68790801500006,16.287005602000022]]]}},{"type":"Feature","properties":{"code":"461207","name":"ดงมูล","parentCode":"4612"},"geometry":{"type":"Polygon","coordinates":[[[103.32490927200007,16.829279292000024],[103.27804329200006,16.81037072400005],[103.27002342200007,16.764244174000055],[103.32133886500009,16.738919517000056],[103.36306189900006,16.773869783000066],[103.37119453400004,16.79461090700005],[103.31606276300005,16.802172037000048],[103.32490927200007,16.829279292000024]]]}},{"type":"Feature","properties":{"code":"461703","name":"ดงพยุง","parentCode":"4617"},"geometry":{"type":"Polygon","coordinates":[[[103.72695083300005,16.56647969200003],[103.70440305800008,16.568928302000074],[103.65960871500005,16.505224433000024],[103.66582791700006,16.500806441000066],[103.70035949300006,16.490997982000067],[103.75796113500007,16.533357030000047],[103.72695083300005,16.56647969200003]]]}},{"type":"Feature","properties":{"code":"461106","name":"ดงสมบูรณ์","parentCode":"4611"},"geometry":{"type":"Polygon","coordinates":[[[103.38019802800005,16.906294825000032],[103.36405480900004,16.910203559000024],[103.31731474500003,16.88289536800005],[103.35148696000005,16.84435185500007],[103.40076142800007,16.854806452000048],[103.38019802800005,16.906294825000032]]]}},{"type":"Feature","properties":{"code":"460805","name":"หัวหิน","parentCode":"4608"},"geometry":{"type":"Polygon","coordinates":[[[103.37407663900007,16.588663780000047],[103.37383616500006,16.61877170300005],[103.33484148200006,16.612469032000035],[103.32467827200009,16.608201044000054],[103.30837393400009,16.565513408000072],[103.34016992000005,16.56776793800003],[103.36243207000007,16.586549842000068],[103.37407663900007,16.588663780000047]]]}},{"type":"Feature","properties":{"code":"460707","name":"หัวนาคำ","parentCode":"4607"},"geometry":{"type":"Polygon","coordinates":[[[103.27899852400009,16.43583392900007],[103.25089519300008,16.41547316200007],[103.21401816600007,16.437652503000038],[103.18445681700007,16.437047977000077],[103.16353985500007,16.38910738900006],[103.17542241700005,16.363430399000038],[103.22901067700008,16.372480625000037],[103.29035194900007,16.39536491000007],[103.27899852400009,16.43583392900007]]]}},{"type":"Feature","properties":{"code":"460702","name":"หัวงัว","parentCode":"4607"},"geometry":{"type":"Polygon","coordinates":[[[103.40038504800003,16.382322772000066],[103.36921746300004,16.382253238000033],[103.40349692800004,16.350787293000053],[103.43825163400004,16.319124807000037],[103.46199883800006,16.325744151000038],[103.47258788600004,16.33470068500003],[103.44489704100005,16.35420638900007],[103.40038504800003,16.382322772000066]]]}},{"type":"Feature","properties":{"code":"460801","name":"ห้วยเม็ก","parentCode":"4608"},"geometry":{"type":"Polygon","coordinates":[[[103.24698477500004,16.611192923000033],[103.19605062700003,16.630189103000077],[103.16756419200004,16.601003942000034],[103.18557205900004,16.561520812000026],[103.23099834900006,16.56382506600005],[103.27337887600004,16.58914773200007],[103.24698477500004,16.611192923000033]]]}},{"type":"Feature","properties":{"code":"460109","name":"ห้วยโพธิ์","parentCode":"4601"},"geometry":{"type":"Polygon","coordinates":[[[103.60229150000004,16.409100050000063],[103.56511611100007,16.419878809000068],[103.52121946700004,16.34770754300007],[103.54769192800006,16.33116013600005],[103.58768128100007,16.36927733500005],[103.63082309400005,16.37286720900005],[103.60229150000004,16.409100050000063]]]}},{"type":"Feature","properties":{"code":"460706","name":"อิตื้อ","parentCode":"4607"},"geometry":{"type":"Polygon","coordinates":[[[103.30943766900003,16.504580678000025],[103.24524290300008,16.504446991000066],[103.24625738200007,16.458581801000037],[103.21401816600007,16.437652503000038],[103.25089519300008,16.41547316200007],[103.27899852400009,16.43583392900007],[103.30943766900003,16.504580678000025]]]}},{"type":"Feature","properties":{"code":"460101","name":"กาฬสินธุ์","parentCode":"4601"},"geometry":{"type":"Polygon","coordinates":[[[103.54697567600005,16.44800461600005],[103.50186900800009,16.445875079000075],[103.48232181700007,16.423736521000023],[103.52705684700004,16.422154651000028],[103.54697567600005,16.44800461600005]]]}},{"type":"Feature","properties":{"code":"460301","name":"กมลาไสย","parentCode":"4603"},"geometry":{"type":"Polygon","coordinates":[[[103.57862348600008,16.290474560000064],[103.58768128100007,16.36927733500005],[103.54769192800006,16.33116013600005],[103.52121946700004,16.34770754300007],[103.51734391600007,16.342842748000066],[103.52385813700005,16.317587071000048],[103.52542296500008,16.292896496000026],[103.57862348600008,16.290474560000064]]]}},{"type":"Feature","properties":{"code":"461402","name":"ไค้นุ่น","parentCode":"4614"},"geometry":{"type":"Polygon","coordinates":[[[103.96458293700005,16.63458404900007],[103.94703890000005,16.663330216000077],[103.89407952700009,16.62469223100004],[103.91378937800005,16.584228711000037],[103.91939047300008,16.570234137000057],[103.93528002200009,16.563578063000023],[103.96458293700005,16.63458404900007]]]}},{"type":"Feature","properties":{"code":"461401","name":"คำบง","parentCode":"4614"},"geometry":{"type":"Polygon","coordinates":[[[103.95029845500005,16.77606519400007],[103.90706371700009,16.80290506500006],[103.82940424600008,16.737377396000056],[103.79762839700004,16.707256665000045],[103.80061721200008,16.645121262000032],[103.83057492500006,16.60832894200007],[103.86080767900006,16.633994530000052],[103.87123978700004,16.696212253000056],[103.94928216100004,16.758381514000064],[103.95029845500005,16.77606519400007]]]}},{"type":"Feature","properties":{"code":"460807","name":"คำเหมือดแก้ว","parentCode":"4608"},"geometry":{"type":"Polygon","coordinates":[[[103.23099834900006,16.56382506600005],[103.18557205900004,16.561520812000026],[103.17376896800005,16.52530374500003],[103.16391014200008,16.487637371000062],[103.22706216100005,16.499967471000048],[103.23099834900006,16.56382506600005]]]}},{"type":"Feature","properties":{"code":"461503","name":"คำสร้างเที่ยง","parentCode":"4615"},"geometry":{"type":"Polygon","coordinates":[[[103.55355194500004,16.85670808200007],[103.52991563900008,16.849615803000063],[103.50437327400005,16.767292198000064],[103.53961528900004,16.76525854600004],[103.58848292800008,16.839763506000054],[103.59001316000007,16.849415859000032],[103.55355194500004,16.85670808200007]]]}},{"type":"Feature","properties":{"code":"460802","name":"คำใหญ่","parentCode":"4608"},"geometry":{"type":"Polygon","coordinates":[[[103.20810592400005,16.667334286000028],[103.15703476000004,16.677295065000067],[103.15279600000008,16.648033292000036],[103.15239866900004,16.643603950000056],[103.19605062700003,16.630189103000077],[103.24698477500004,16.611192923000033],[103.25145052800008,16.624804055000027],[103.21617644400004,16.658004885000025],[103.20810592400005,16.667334286000028]]]}},{"type":"Feature","properties":{"code":"460117","name":"ขมิ้น","parentCode":"4601"},"geometry":{"type":"Polygon","coordinates":[[[103.57962894700006,16.655416279000065],[103.55287249800006,16.661353077000058],[103.54733503300008,16.62195078600007],[103.54926887600004,16.592082701000038],[103.54417300000006,16.554579598000032],[103.57133268000007,16.55038178600006],[103.59941104000006,16.58401755600005],[103.58877297400005,16.63612546400003],[103.57962894700006,16.655416279000065]]]}},{"type":"Feature","properties":{"code":"460712","name":"เขาพระนอน","parentCode":"4607"},"geometry":{"type":"Polygon","coordinates":[[[103.40778843000004,16.50864703600007],[103.37407663900007,16.588663780000047],[103.36243207000007,16.586549842000068],[103.35772283900008,16.470482082000046],[103.40778843000004,16.50864703600007]]]}},{"type":"Feature","properties":{"code":"460711","name":"คลองขาม","parentCode":"4607"},"geometry":{"type":"Polygon","coordinates":[[[103.30956960200007,16.50446837100003],[103.30943766900003,16.504580678000025],[103.27899852400009,16.43583392900007],[103.29035194900007,16.39536491000007],[103.29180294400004,16.393240642000023],[103.36377255200006,16.421422747000065],[103.40256061400004,16.415291729000046],[103.39437996700008,16.454535521000025],[103.35772283900008,16.470482082000046],[103.33135772700007,16.487704199000063],[103.30956960200007,16.50446837100003]]]}},{"type":"Feature","properties":{"code":"461203","name":"โคกเครือ","parentCode":"4612"},"geometry":{"type":"Polygon","coordinates":[[[103.27804329200006,16.81037072400005],[103.22314499000004,16.83695065200004],[103.20255413700005,16.787617881000074],[103.21721184200004,16.746638241000028],[103.26958893300008,16.68883561000007],[103.33392094600003,16.685285613000076],[103.32133886500009,16.738919517000056],[103.27002342200007,16.764244174000055],[103.27804329200006,16.81037072400005]]]}},{"type":"Feature","properties":{"code":"461803","name":"โคกสะอาด","parentCode":"4618"},"geometry":{"type":"Polygon","coordinates":[[[103.45694237000004,16.27739555200003],[103.46397990400004,16.311245556000074],[103.46199883800006,16.325744151000038],[103.43825163400004,16.319124807000037],[103.41107347500008,16.28600246900004],[103.40740737400006,16.272612149000054],[103.41490269100007,16.238991613000053],[103.41521219600008,16.239338744000065],[103.45694237000004,16.27739555200003]]]}},{"type":"Feature","properties":{"code":"460311","name":"โคกสมบูรณ์","parentCode":"4603"},"geometry":{"type":"Polygon","coordinates":[[[103.69116392500007,16.384384082000054],[103.63082309400005,16.37286720900005],[103.62999659000008,16.34797979700005],[103.68985390800003,16.329559017000065],[103.70942319400007,16.36466936000005],[103.70596527800006,16.386315204000027],[103.69116392500007,16.384384082000054]]]}},{"type":"Feature","properties":{"code":"461801","name":"ฆ้องชัยพัฒนา","parentCode":"4618"},"geometry":{"type":"Polygon","coordinates":[[[103.50978034800005,16.267129020000027],[103.45694237000004,16.27739555200003],[103.41521219600008,16.239338744000065],[103.44650307700005,16.228124611000055],[103.48109345400007,16.234118782000053],[103.50978034800005,16.267129020000027]]]}},{"type":"Feature","properties":{"code":"460601","name":"คุ้มเก่า","parentCode":"4606"},"geometry":{"type":"Polygon","coordinates":[[[104.18648036000008,16.667377947000034],[104.14461241900005,16.723017567000056],[104.08333556200006,16.709033756000053],[104.06479206200004,16.701743125000064],[104.10101561200008,16.663183872000047],[104.14037277700004,16.650005200000066],[104.18648036000008,16.667377947000034]]]}},{"type":"Feature","properties":{"code":"460116","name":"กลางหมื่น","parentCode":"4601"},"geometry":{"type":"Polygon","coordinates":[[[103.70440305800008,16.568928302000074],[103.68683308000004,16.597998292000057],[103.67176005000005,16.552400154000054],[103.63349128700008,16.54332858300006],[103.62318749900004,16.493995883000025],[103.65960871500005,16.505224433000024],[103.70440305800008,16.568928302000074]]]}},{"type":"Feature","properties":{"code":"461102","name":"กุงเก่า","parentCode":"4611"},"geometry":{"type":"Polygon","coordinates":[[[103.18198273100006,16.95241418300003],[103.16779234800003,16.951629109000066],[103.14533074400003,16.873752877000072],[103.17292982500004,16.864139429000033],[103.17951094200004,16.78619587000003],[103.20255413700005,16.787617881000074],[103.22314499000004,16.83695065200004],[103.19807815200005,16.881309680000072],[103.19830721600005,16.948159024000063],[103.18198273100006,16.95241418300003]]]}},{"type":"Feature","properties":{"code":"461104","name":"กุดจิก","parentCode":"4611"},"geometry":{"type":"Polygon","coordinates":[[[103.12283813500005,16.95940233500005],[103.11729689700007,16.961118657000043],[103.09811585400007,16.912621710000053],[103.12324526300006,16.899114019000024],[103.10181121800008,16.83965694500006],[103.12201719100005,16.818523234000054],[103.13389832800004,16.87017569900007],[103.17292982500004,16.864139429000033],[103.14533074400003,16.873752877000072],[103.16779234800003,16.951629109000066],[103.12283813500005,16.95940233500005]]]}},{"type":"Feature","properties":{"code":"460803","name":"กุดโดน","parentCode":"4608"},"geometry":{"type":"Polygon","coordinates":[[[103.30186934600005,16.55433101500006],[103.27337887600004,16.58914773200007],[103.23099834900006,16.56382506600005],[103.22706216100005,16.499967471000048],[103.24524290300008,16.504446991000066],[103.30943766900003,16.504580678000025],[103.30956960200007,16.50446837100003],[103.30186934600005,16.55433101500006]]]}},{"type":"Feature","properties":{"code":"460512","name":"กุดค้าว","parentCode":"4605"},"geometry":{"type":"Polygon","coordinates":[[[104.01210639000004,16.532770750000054],[103.98058166700008,16.51778177700004],[103.97887418600004,16.507758559000024],[104.01292621800008,16.468991064000022],[104.02250596000005,16.47898346900007],[104.01210639000004,16.532770750000054]]]}},{"type":"Feature","properties":{"code":"460611","name":"กุดปลาค้าว","parentCode":"4606"},"geometry":{"type":"Polygon","coordinates":[[[104.14461241900005,16.723017567000056],[104.13081013100003,16.741552288000037],[104.08277054900009,16.716001711000047],[104.08333556200006,16.709033756000053],[104.14461241900005,16.723017567000056]]]}},{"type":"Feature","properties":{"code":"460606","name":"กุดสิมคุ้มใหม่","parentCode":"4606"},"geometry":{"type":"Polygon","coordinates":[[[104.06479206200004,16.701743125000064],[104.02914425100005,16.705088120000028],[104.00406607600007,16.687495394000052],[103.99147482200004,16.679772684000056],[104.04612154600005,16.652499712000065],[104.09025317200008,16.62352129800007],[104.10101561200008,16.663183872000047],[104.06479206200004,16.701743125000064]]]}},{"type":"Feature","properties":{"code":"460506","name":"กุดหว้า","parentCode":"4605"},"geometry":{"type":"Polygon","coordinates":[[[104.22106505200009,16.542185678000067],[104.17708392600008,16.597859693000032],[104.16327703700006,16.565799996000067],[104.09405916800006,16.532041562000074],[104.09763223200008,16.495775339000033],[104.12541802900006,16.483530467000037],[104.17815241700004,16.500550667000027],[104.23883462000003,16.491855678000036],[104.22106505200009,16.542185678000067]]]}},{"type":"Feature","properties":{"code":"460204","name":"หลักเหลี่ยม","parentCode":"4602"},"geometry":{"type":"Polygon","coordinates":[[[103.85370129300009,16.57597861000005],[103.83577309300006,16.603265098000065],[103.81673356300007,16.58933090200003],[103.79290492200005,16.503535120000038],[103.81547801700003,16.495507187000044],[103.85370129300009,16.57597861000005]]]}},{"type":"Feature","properties":{"code":"460302","name":"หลักเมือง","parentCode":"4603"},"geometry":{"type":"Polygon","coordinates":[[[103.62999659000008,16.34797979700005],[103.63082309400005,16.37286720900005],[103.58768128100007,16.36927733500005],[103.57862348600008,16.290474560000064],[103.61704653900006,16.254552432000025],[103.66130574600004,16.28292044500006],[103.62999659000008,16.34797979700005]]]}},{"type":"Feature","properties":{"code":"461805","name":"ลำชี","parentCode":"4618"},"geometry":{"type":"Polygon","coordinates":[[[103.48109345400007,16.234118782000053],[103.44650307700005,16.228124611000055],[103.45162700700007,16.183055108000076],[103.50228135300006,16.199650546000044],[103.54787464000003,16.213760356000023],[103.54916347100004,16.230390046000025],[103.48109345400007,16.234118782000053]]]}},{"type":"Feature","properties":{"code":"461308","name":"ลำห้วยหลัว","parentCode":"4613"},"geometry":{"type":"Polygon","coordinates":[[[103.82940424600008,16.737377396000056],[103.78766834000004,16.743006555000022],[103.77186494300008,16.67557165200003],[103.77612626600006,16.664974658000062],[103.80061721200008,16.645121262000032],[103.79762839700004,16.707256665000045],[103.82940424600008,16.737377396000056]]]}},{"type":"Feature","properties":{"code":"460121","name":"ลำคลอง","parentCode":"4601"},"geometry":{"type":"Polygon","coordinates":[[[103.49256444500008,16.56834821800004],[103.44665541200004,16.616160300000047],[103.41203757300008,16.60659411200004],[103.45425037900009,16.561859353000045],[103.49256444500008,16.56834821800004]]]}},{"type":"Feature","properties":{"code":"461208","name":"ลำหนองแสน","parentCode":"4612"},"geometry":{"type":"Polygon","coordinates":[[[103.33392094600003,16.685285613000076],[103.26958893300008,16.68883561000007],[103.27485669600009,16.678634054000042],[103.32847892600006,16.644692512000063],[103.34812177200007,16.676738459000035],[103.33392094600003,16.685285613000076]]]}},{"type":"Feature","properties":{"code":"460105","name":"ลำปาว","parentCode":"4601"},"geometry":{"type":"Polygon","coordinates":[[[103.54926887600004,16.592082701000038],[103.54733503300008,16.62195078600007],[103.50992699500006,16.605867482000065],[103.44900655500004,16.61943238400005],[103.44665541200004,16.616160300000047],[103.49256444500008,16.56834821800004],[103.50939739800003,16.56412537700004],[103.54926887600004,16.592082701000038]]]}},{"type":"Feature","properties":{"code":"460106","name":"ลำพาน","parentCode":"4601"},"geometry":{"type":"Polygon","coordinates":[[[103.51297745500005,16.477202817000034],[103.46391985700006,16.50080099300004],[103.45299765900006,16.430248430000063],[103.46711039400009,16.411208679000026],[103.48232181700007,16.423736521000023],[103.50186900800009,16.445875079000075],[103.50918693400007,16.46904423700005],[103.51297745500005,16.477202817000034]]]}},{"type":"Feature","properties":{"code":"460505","name":"เหล่าไฮงาม","parentCode":"4605"},"geometry":{"type":"Polygon","coordinates":[[[104.23883462000003,16.491855678000036],[104.17815241700004,16.500550667000027],[104.12541802900006,16.483530467000037],[104.10241783400005,16.42226121400006],[104.17242400300006,16.445946495000044],[104.20238634500004,16.429829064000046],[104.23785792300004,16.428572174000067],[104.23883462000003,16.491855678000036]]]}},{"type":"Feature","properties":{"code":"461802","name":"เหล่ากลาง","parentCode":"4618"},"geometry":{"type":"Polygon","coordinates":[[[103.52940083800007,16.26985876200007],[103.50978034800005,16.267129020000027],[103.48109345400007,16.234118782000053],[103.54916347100004,16.230390046000025],[103.52940083800007,16.26985876200007]]]}},{"type":"Feature","properties":{"code":"460403","name":"เหล่าอ้อย","parentCode":"4604"},"geometry":{"type":"Polygon","coordinates":[[[103.72593844200009,16.27955614700005],[103.68777497600007,16.286478548000048],[103.70473423900006,16.221528845000023],[103.70909426400004,16.219597599000053],[103.72303221100009,16.22084116900004],[103.73300857100008,16.229670448000036],[103.73224880800007,16.23645664000003],[103.72593844200009,16.27955614700005]]]}},{"type":"Feature","properties":{"code":"460503","name":"เหล่าใหญ่","parentCode":"4605"},"geometry":{"type":"Polygon","coordinates":[[[103.99147482200004,16.679772684000056],[103.96458293700005,16.63458404900007],[103.93528002200009,16.563578063000023],[103.95016698200004,16.55292550400003],[104.00844264100004,16.59702357900005],[104.04612154600005,16.652499712000065],[103.99147482200004,16.679772684000056]]]}},{"type":"Feature","properties":{"code":"460103","name":"หลุบ","parentCode":"4601"},"geometry":{"type":"Polygon","coordinates":[[[103.52705684700004,16.422154651000028],[103.48232181700007,16.423736521000023],[103.46711039400009,16.411208679000026],[103.48182882500004,16.381445462000045],[103.51051311600008,16.34065643100007],[103.51734391600007,16.342842748000066],[103.52121946700004,16.34770754300007],[103.56511611100007,16.419878809000068],[103.52705684700004,16.422154651000028]]]}},{"type":"Feature","properties":{"code":"461304","name":"มหาไชย","parentCode":"4613"},"geometry":{"type":"Polygon","coordinates":[[[103.83668822900006,16.85911356200006],[103.78911199700008,16.903718180000055],[103.71976753700005,16.78375195800004],[103.71072984000006,16.764863732000038],[103.73977101600008,16.765392718000044],[103.79677865200006,16.773525266000036],[103.83663161400005,16.847928473000024],[103.83668822900006,16.85911356200006]]]}},{"type":"Feature","properties":{"code":"461305","name":"หมูม่น","parentCode":"4613"},"geometry":{"type":"Polygon","coordinates":[[[103.71976753700005,16.78375195800004],[103.67096502200008,16.773673984000027],[103.63710052500005,16.76684498000003],[103.68540863400005,16.72604537600006],[103.71072984000006,16.764863732000038],[103.71976753700005,16.78375195800004]]]}},{"type":"Feature","properties":{"code":"461704","name":"ม่วงนา","parentCode":"4617"},"geometry":{"type":"Polygon","coordinates":[[[103.67095101400008,16.459282689000077],[103.66582791700006,16.500806441000066],[103.65960871500005,16.505224433000024],[103.62318749900004,16.493995883000025],[103.61324590500004,16.495650042000022],[103.59790618700004,16.48939566300004],[103.60037065300008,16.463288505000037],[103.65501696600006,16.44476570000006],[103.67095101400008,16.459282689000077]]]}},{"type":"Feature","properties":{"code":"461006","name":"นาบอน","parentCode":"4610"},"geometry":{"type":"Polygon","coordinates":[[[103.72599936600005,16.878624471000023],[103.69479985600009,16.927437319000035],[103.62549410300005,16.90949949900005],[103.65433428900008,16.84374344400004],[103.67875748100005,16.813614562000055],[103.68557223700009,16.851781560000063],[103.72599936600005,16.878624471000023]]]}},{"type":"Feature","properties":{"code":"461705","name":"นาจำปา","parentCode":"4617"},"geometry":{"type":"Polygon","coordinates":[[[103.79290492200005,16.503535120000038],[103.75796113500007,16.533357030000047],[103.70035949300006,16.490997982000067],[103.66582791700006,16.500806441000066],[103.67095101400008,16.459282689000077],[103.73924934000007,16.47399319400006],[103.79290492200005,16.503535120000038]]]}},{"type":"Feature","properties":{"code":"460120","name":"นาจารย์","parentCode":"4601"},"geometry":{"type":"Polygon","coordinates":[[[103.62318749900004,16.493995883000025],[103.63349128700008,16.54332858300006],[103.67176005000005,16.552400154000054],[103.68683308000004,16.597998292000057],[103.66192853300004,16.614177823000034],[103.60413401400007,16.532360389000075],[103.61324590500004,16.495650042000022],[103.62318749900004,16.493995883000025]]]}},{"type":"Feature","properties":{"code":"460710","name":"นาเชือก","parentCode":"4607"},"geometry":{"type":"Polygon","coordinates":[[[103.45425037900009,16.561859353000045],[103.41203757300008,16.60659411200004],[103.37383616500006,16.61877170300005],[103.37407663900007,16.588663780000047],[103.40778843000004,16.50864703600007],[103.45122070500008,16.543229693000058],[103.45425037900009,16.561859353000045]]]}},{"type":"Feature","properties":{"code":"460713","name":"นาดี","parentCode":"4607"},"geometry":{"type":"Polygon","coordinates":[[[103.48182882500004,16.381445462000045],[103.44489704100005,16.35420638900007],[103.47258788600004,16.33470068500003],[103.51051311600008,16.34065643100007],[103.48182882500004,16.381445462000045]]]}},{"type":"Feature","properties":{"code":"460508","name":"นาขาม","parentCode":"4605"},"geometry":{"type":"Polygon","coordinates":[[[103.91939047300008,16.570234137000057],[103.89061390200004,16.568392837000033],[103.88096532200007,16.515336193000053],[103.83200475000007,16.489048358000048],[103.82283783900004,16.470103490000042],[103.88959195700005,16.45255485100006],[103.91989709200004,16.439625251000052],[103.94500565200008,16.500851687000022],[103.97887418600004,16.507758559000024],[103.98058166700008,16.51778177700004],[103.95016698200004,16.55292550400003],[103.93528002200009,16.563578063000023],[103.91939047300008,16.570234137000057]]]}},{"type":"Feature","properties":{"code":"461601","name":"นาคู","parentCode":"4616"},"geometry":{"type":"Polygon","coordinates":[[[104.07010685000006,16.82129992800003],[104.02281402700004,16.855939136000075],[104.03780792900005,16.79499798200004],[104.01736840100006,16.730346421000036],[104.02543628500007,16.72192620800007],[104.09055722100004,16.810917345000064],[104.07010685000006,16.82129992800003]]]}},{"type":"Feature","properties":{"code":"460510","name":"นาโก","parentCode":"4605"},"geometry":{"type":"Polygon","coordinates":[[[104.09025317200008,16.62352129800007],[104.04612154600005,16.652499712000065],[104.00844264100004,16.59702357900005],[104.02950538000005,16.58131010900007],[104.07338242600008,16.56016895700003],[104.09545658300004,16.618907421000074],[104.09025317200008,16.62352129800007]]]}},{"type":"Feature","properties":{"code":"460903","name":"นามะเขือ","parentCode":"4609"},"geometry":{"type":"Polygon","coordinates":[[[103.68540863400005,16.72604537600006],[103.62085826800006,16.728401270000063],[103.60152448800005,16.682467063000047],[103.57962894700006,16.655416279000065],[103.58877297400005,16.63612546400003],[103.66149510300005,16.629811440000026],[103.66680197700003,16.69705930300006],[103.69641835900006,16.71822181600004],[103.68540863400005,16.72604537600006]]]}},{"type":"Feature","properties":{"code":"460201","name":"นามน","parentCode":"4602"},"geometry":{"type":"Polygon","coordinates":[[[103.81673356300007,16.58933090200003],[103.76173926000007,16.620447757000022],[103.72695083300005,16.56647969200003],[103.75796113500007,16.533357030000047],[103.79290492200005,16.503535120000038],[103.81673356300007,16.58933090200003]]]}},{"type":"Feature","properties":{"code":"461105","name":"นาตาล","parentCode":"4611"},"geometry":{"type":"Polygon","coordinates":[[[103.27953260300006,16.934509812000044],[103.23980315700004,16.961391174000028],[103.23440574500006,16.958456441000067],[103.22748226200008,16.89828660200004],[103.25024128000007,16.866503488000035],[103.22314499000004,16.83695065200004],[103.27804329200006,16.81037072400005],[103.32490927200007,16.829279292000024],[103.33715665500006,16.839494283000022],[103.26153986400004,16.88205256200007],[103.27953260300006,16.934509812000044]]]}},{"type":"Feature","properties":{"code":"461007","name":"นาทัน","parentCode":"4610"},"geometry":{"type":"Polygon","coordinates":[[[103.66212023000008,17.019615229000067],[103.62074341900006,17.092853047000062],[103.54835535700005,17.08898464500004],[103.53019888300008,17.062729473000047],[103.57893677500005,16.98974923700007],[103.56483685500007,16.98352993900005],[103.59759351700006,16.94925304000003],[103.67496729400006,16.965175532000046],[103.70552120600007,17.020655394000073],[103.66212023000008,17.019615229000067]]]}},{"type":"Feature","properties":{"code":"460905","name":"นิคม","parentCode":"4609"},"geometry":{"type":"Polygon","coordinates":[[[103.51696795800007,16.690084386000024],[103.45577312600005,16.695092016000046],[103.46020127600008,16.676757725000073],[103.52244982700006,16.654046247000053],[103.51696795800007,16.690084386000024]]]}},{"type":"Feature","properties":{"code":"461403","name":"นิคมห้วยผึ้ง","parentCode":"4614"},"geometry":{"type":"Polygon","coordinates":[[[103.94928216100004,16.758381514000064],[103.87123978700004,16.696212253000056],[103.86080767900006,16.633994530000052],[103.91378937800005,16.584228711000037],[103.89407952700009,16.62469223100004],[103.94703890000005,16.663330216000077],[103.95854714100005,16.728652347000036],[103.94928216100004,16.758381514000064]]]}},{"type":"Feature","properties":{"code":"461009","name":"เนินยาง","parentCode":"4610"},"geometry":{"type":"Polygon","coordinates":[[[103.67875748100005,16.813614562000055],[103.65433428900008,16.84374344400004],[103.63351392400006,16.826578073000064],[103.62711554200007,16.771080109000025],[103.63710052500005,16.76684498000003],[103.67096502200008,16.773673984000027],[103.67875748100005,16.813614562000055]]]}},{"type":"Feature","properties":{"code":"460907","name":"โนนบุรี","parentCode":"4609"},"geometry":{"type":"Polygon","coordinates":[[[103.52465428000005,16.71951290800007],[103.46677240500009,16.725969545000055],[103.46423544100008,16.720852582000077],[103.45577312600005,16.695092016000046],[103.51696795800007,16.690084386000024],[103.52921116600004,16.70255096300002],[103.52465428000005,16.71951290800007]]]}},{"type":"Feature","properties":{"code":"460906","name":"โนนแหลมทอง","parentCode":"4609"},"geometry":{"type":"Polygon","coordinates":[[[103.62711554200007,16.771080109000025],[103.56962609800007,16.751297161000025],[103.62085826800006,16.728401270000063],[103.68540863400005,16.72604537600006],[103.63710052500005,16.76684498000003],[103.62711554200007,16.771080109000025]]]}},{"type":"Feature","properties":{"code":"461603","name":"โนนนาจาน","parentCode":"4616"},"geometry":{"type":"Polygon","coordinates":[[[104.01736840100006,16.730346421000036],[103.94928216100004,16.758381514000064],[103.95854714100005,16.728652347000036],[104.00406607600007,16.687495394000052],[104.02914425100005,16.705088120000028],[104.03113100000007,16.71087906100007],[104.02543628500007,16.72192620800007],[104.01736840100006,16.730346421000036]]]}},{"type":"Feature","properties":{"code":"460908","name":"โนนน้ำเกลี้ยง","parentCode":"4609"},"geometry":{"type":"Polygon","coordinates":[[[103.60152448800005,16.682467063000047],[103.52921116600004,16.70255096300002],[103.51696795800007,16.690084386000024],[103.52244982700006,16.654046247000053],[103.55287249800006,16.661353077000058],[103.57962894700006,16.655416279000065],[103.60152448800005,16.682467063000047]]]}},{"type":"Feature","properties":{"code":"460808","name":"โนนสะอาด","parentCode":"4608"},"geometry":{"type":"Polygon","coordinates":[[[103.34016992000005,16.56776793800003],[103.30837393400009,16.565513408000072],[103.30186934600005,16.55433101500006],[103.30956960200007,16.50446837100003],[103.33135772700007,16.487704199000063],[103.34016992000005,16.56776793800003]]]}},{"type":"Feature","properties":{"code":"460904","name":"โนนศิลา","parentCode":"4609"},"geometry":{"type":"Polygon","coordinates":[[[103.58848292800008,16.839763506000054],[103.53961528900004,16.76525854600004],[103.54219957500004,16.763394258000062],[103.56962609800007,16.751297161000025],[103.62711554200007,16.771080109000025],[103.63351392400006,16.826578073000064],[103.58848292800008,16.839763506000054]]]}},{"type":"Feature","properties":{"code":"461804","name":"โนนศิลาเลิง","parentCode":"4618"},"geometry":{"type":"Polygon","coordinates":[[[103.51051311600008,16.34065643100007],[103.47258788600004,16.33470068500003],[103.46199883800006,16.325744151000038],[103.46397990400004,16.311245556000074],[103.52385813700005,16.317587071000048],[103.51734391600007,16.342842748000066],[103.51051311600008,16.34065643100007]]]}},{"type":"Feature","properties":{"code":"460714","name":"โนนสูง","parentCode":"4607"},"geometry":{"type":"Polygon","coordinates":[[[103.21401816600007,16.437652503000038],[103.24625738200007,16.458581801000037],[103.24524290300008,16.504446991000066],[103.22706216100005,16.499967471000048],[103.16391014200008,16.487637371000062],[103.17441221300004,16.458743221000077],[103.18445681700007,16.437047977000077],[103.21401816600007,16.437652503000038]]]}},{"type":"Feature","properties":{"code":"460205","name":"หนองบัว","parentCode":"4602"},"geometry":{"type":"Polygon","coordinates":[[[103.89061390200004,16.568392837000033],[103.85370129300009,16.57597861000005],[103.81547801700003,16.495507187000044],[103.83200475000007,16.489048358000048],[103.88096532200007,16.515336193000053],[103.89061390200004,16.568392837000033]]]}},{"type":"Feature","properties":{"code":"461202","name":"หนองบัว","parentCode":"4612"},"geometry":{"type":"Polygon","coordinates":[[[103.46423544100008,16.720852582000077],[103.36306189900006,16.773869783000066],[103.32133886500009,16.738919517000056],[103.33392094600003,16.685285613000076],[103.34812177200007,16.676738459000035],[103.36844580100006,16.689290570000026],[103.46020127600008,16.676757725000073],[103.45577312600005,16.695092016000046],[103.46423544100008,16.720852582000077]]]}},{"type":"Feature","properties":{"code":"461504","name":"หนองช้าง","parentCode":"4615"},"geometry":{"type":"Polygon","coordinates":[[[103.59759351700006,16.94925304000003],[103.56483685500007,16.98352993900005],[103.54360051600008,16.945753788000047],[103.55355194500004,16.85670808200007],[103.59001316000007,16.849415859000032],[103.59237522800004,16.89284466500004],[103.59759351700006,16.94925304000003]]]}},{"type":"Feature","properties":{"code":"460509","name":"หนองห้าง","parentCode":"4605"},"geometry":{"type":"Polygon","coordinates":[[[104.17708392600008,16.597859693000032],[104.09545658300004,16.618907421000074],[104.07338242600008,16.56016895700003],[104.09405916800006,16.532041562000074],[104.16327703700006,16.565799996000067],[104.17708392600008,16.597859693000032]]]}},{"type":"Feature","properties":{"code":"461209","name":"หนองหิน","parentCode":"4612"},"geometry":{"type":"Polygon","coordinates":[[[103.41366030300009,16.807004590000076],[103.40076142800007,16.854806452000048],[103.35148696000005,16.84435185500007],[103.33715665500006,16.839494283000022],[103.32490927200007,16.829279292000024],[103.31606276300005,16.802172037000048],[103.37119453400004,16.79461090700005],[103.41366030300009,16.807004590000076]]]}},{"type":"Feature","properties":{"code":"461404","name":"หนองอีบุตร","parentCode":"4614"},"geometry":{"type":"Polygon","coordinates":[[[103.86080767900006,16.633994530000052],[103.83057492500006,16.60832894200007],[103.83577309300006,16.603265098000065],[103.85370129300009,16.57597861000005],[103.89061390200004,16.568392837000033],[103.91939047300008,16.570234137000057],[103.91378937800005,16.584228711000037],[103.86080767900006,16.633994530000052]]]}},{"type":"Feature","properties":{"code":"460708","name":"หนองอิเฒ่า","parentCode":"4607"},"geometry":{"type":"Polygon","coordinates":[[[103.40349692800004,16.350787293000053],[103.36921746300004,16.382253238000033],[103.34293523000008,16.36104406900006],[103.35383265800004,16.308426995000048],[103.35511270000006,16.307401991000063],[103.37385421000005,16.300610549000055],[103.40349692800004,16.350787293000053]]]}},{"type":"Feature","properties":{"code":"460115","name":"หนองกุง","parentCode":"4601"},"geometry":{"type":"Polygon","coordinates":[[[103.54417300000006,16.554579598000032],[103.54926887600004,16.592082701000038],[103.50939739800003,16.56412537700004],[103.49244874100003,16.51954008900003],[103.51297745500005,16.477202817000034],[103.50918693400007,16.46904423700005],[103.53446413300009,16.490672628000027],[103.54417300000006,16.554579598000032]]]}},{"type":"Feature","properties":{"code":"461201","name":"หนองกุงศรี","parentCode":"4612"},"geometry":{"type":"Polygon","coordinates":[[[103.32847892600006,16.644692512000063],[103.27485669600009,16.678634054000042],[103.24720277600005,16.644874610000045],[103.21617644400004,16.658004885000025],[103.25145052800008,16.624804055000027],[103.32467827200009,16.608201044000054],[103.33484148200006,16.612469032000035],[103.32847892600006,16.644692512000063]]]}},{"type":"Feature","properties":{"code":"460308","name":"หนองแปน","parentCode":"4603"},"geometry":{"type":"Polygon","coordinates":[[[103.52542296500008,16.292896496000026],[103.52385813700005,16.317587071000048],[103.46397990400004,16.311245556000074],[103.45694237000004,16.27739555200003],[103.50978034800005,16.267129020000027],[103.52940083800007,16.26985876200007],[103.52542296500008,16.292896496000026]]]}},{"type":"Feature","properties":{"code":"460603","name":"หนองผือ","parentCode":"4606"},"geometry":{"type":"Polygon","coordinates":[[[104.13081013100003,16.741552288000037],[104.09871321400004,16.784213385000044],[104.04738342600007,16.73645275100006],[104.08277054900009,16.716001711000047],[104.13081013100003,16.741552288000037]]]}},{"type":"Feature","properties":{"code":"461204","name":"หนองสรวง","parentCode":"4612"},"geometry":{"type":"Polygon","coordinates":[[[103.47738413300004,16.759700124000062],[103.42162529600006,16.803074037000044],[103.41366030300009,16.807004590000076],[103.37119453400004,16.79461090700005],[103.36306189900006,16.773869783000066],[103.46423544100008,16.720852582000077],[103.46677240500009,16.725969545000055],[103.47738413300004,16.759700124000062]]]}},{"type":"Feature","properties":{"code":"460715","name":"หนองตอกแป้น","parentCode":"4607"},"geometry":{"type":"Polygon","coordinates":[[[103.43825163400004,16.319124807000037],[103.40349692800004,16.350787293000053],[103.37385421000005,16.300610549000055],[103.41107347500008,16.28600246900004],[103.43825163400004,16.319124807000037]]]}},{"type":"Feature","properties":{"code":"461302","name":"หนองแวง","parentCode":"4613"},"geometry":{"type":"Polygon","coordinates":[[[103.73158409200005,16.70305883700007],[103.69641835900006,16.71822181600004],[103.66680197700003,16.69705930300006],[103.66149510300005,16.629811440000026],[103.66192853300004,16.614177823000034],[103.68683308000004,16.597998292000057],[103.72611181400003,16.67912018800007],[103.73158409200005,16.70305883700007]]]}},{"type":"Feature","properties":{"code":"461206","name":"หนองใหญ่","parentCode":"4612"},"geometry":{"type":"Polygon","coordinates":[[[103.26958893300008,16.68883561000007],[103.21721184200004,16.746638241000028],[103.20255413700005,16.787617881000074],[103.17951094200004,16.78619587000003],[103.17136768500006,16.771122873000024],[103.19437167500007,16.727103192000072],[103.20810592400005,16.667334286000028],[103.21617644400004,16.658004885000025],[103.24720277600005,16.644874610000045],[103.27485669600009,16.678634054000042],[103.26958893300008,16.68883561000007]]]}},{"type":"Feature","properties":{"code":"460102","name":"เหนือ","parentCode":"4601"},"geometry":{"type":"Polygon","coordinates":[[[103.59790618700004,16.48939566300004],[103.58027000500005,16.49023317600006],[103.54697567600005,16.44800461600005],[103.52705684700004,16.422154651000028],[103.56511611100007,16.419878809000068],[103.60229150000004,16.409100050000063],[103.60037065300008,16.463288505000037],[103.59790618700004,16.48939566300004]]]}},{"type":"Feature","properties":{"code":"461306","name":"ผาเสวย","parentCode":"4613"},"geometry":{"type":"Polygon","coordinates":[[[103.90706371700009,16.80290506500006],[103.83663161400005,16.847928473000024],[103.79677865200006,16.773525266000036],[103.73977101600008,16.765392718000044],[103.76634290500004,16.744393432000038],[103.78766834000004,16.743006555000022],[103.82940424600008,16.737377396000056],[103.90706371700009,16.80290506500006]]]}},{"type":"Feature","properties":{"code":"460104","name":"ไผ่","parentCode":"4601"},"geometry":{"type":"Polygon","coordinates":[[[103.57133268000007,16.55038178600006],[103.54417300000006,16.554579598000032],[103.53446413300009,16.490672628000027],[103.58027000500005,16.49023317600006],[103.59790618700004,16.48939566300004],[103.61324590500004,16.495650042000022],[103.60413401400007,16.532360389000075],[103.57133268000007,16.55038178600006]]]}},{"type":"Feature","properties":{"code":"460806","name":"พิมูล","parentCode":"4608"},"geometry":{"type":"Polygon","coordinates":[[[103.20810592400005,16.667334286000028],[103.19437167500007,16.727103192000072],[103.14510714500005,16.701411224000026],[103.15504465600009,16.68365356700002],[103.15703476000004,16.677295065000067],[103.20810592400005,16.667334286000028]]]}},{"type":"Feature","properties":{"code":"461002","name":"โพน","parentCode":"4610"},"geometry":{"type":"Polygon","coordinates":[[[103.65433428900008,16.84374344400004],[103.62549410300005,16.90949949900005],[103.59237522800004,16.89284466500004],[103.59001316000007,16.849415859000032],[103.58848292800008,16.839763506000054],[103.63351392400006,16.826578073000064],[103.65433428900008,16.84374344400004]]]}},{"type":"Feature","properties":{"code":"460303","name":"โพนงาม","parentCode":"4603"},"geometry":{"type":"Polygon","coordinates":[[[103.68985390800003,16.329559017000065],[103.62999659000008,16.34797979700005],[103.66130574600004,16.28292044500006],[103.68790801500006,16.287005602000022],[103.68985390800003,16.329559017000065]]]}},{"type":"Feature","properties":{"code":"460119","name":"โพนทอง","parentCode":"4601"},"geometry":{"type":"Polygon","coordinates":[[[103.58027000500005,16.49023317600006],[103.53446413300009,16.490672628000027],[103.50918693400007,16.46904423700005],[103.50186900800009,16.445875079000075],[103.54697567600005,16.44800461600005],[103.58027000500005,16.49023317600006]]]}},{"type":"Feature","properties":{"code":"460113","name":"ภูดิน","parentCode":"4601"},"geometry":{"type":"Polygon","coordinates":[[[103.52244982700006,16.654046247000053],[103.46020127600008,16.676757725000073],[103.44900655500004,16.61943238400005],[103.50992699500006,16.605867482000065],[103.54733503300008,16.62195078600007],[103.55287249800006,16.661353077000058],[103.52244982700006,16.654046247000053]]]}},{"type":"Feature","properties":{"code":"461605","name":"ภูแล่นช้าง","parentCode":"4616"},"geometry":{"type":"Polygon","coordinates":[[[104.00406607600007,16.687495394000052],[103.95854714100005,16.728652347000036],[103.94703890000005,16.663330216000077],[103.96458293700005,16.63458404900007],[103.99147482200004,16.679772684000056],[104.00406607600007,16.687495394000052]]]}},{"type":"Feature","properties":{"code":"460111","name":"ภูปอ","parentCode":"4601"},"geometry":{"type":"Polygon","coordinates":[[[103.66149510300005,16.629811440000026],[103.58877297400005,16.63612546400003],[103.59941104000006,16.58401755600005],[103.57133268000007,16.55038178600006],[103.60413401400007,16.532360389000075],[103.66192853300004,16.614177823000034],[103.66149510300005,16.629811440000026]]]}},{"type":"Feature","properties":{"code":"460901","name":"ภูสิงห์","parentCode":"4609"},"geometry":{"type":"Polygon","coordinates":[[[103.50437327400005,16.767292198000064],[103.47738413300004,16.759700124000062],[103.46677240500009,16.725969545000055],[103.52465428000005,16.71951290800007],[103.54219957500004,16.763394258000062],[103.53961528900004,16.76525854600004],[103.50437327400005,16.767292198000064]]]}},{"type":"Feature","properties":{"code":"460401","name":"ร่องคำ","parentCode":"4604"},"geometry":{"type":"Polygon","coordinates":[[[103.75408545300007,16.278179000000023],[103.75602096900008,16.30032331700005],[103.72593844200009,16.27955614700005],[103.73224880800007,16.23645664000003],[103.75408545300007,16.278179000000023]]]}},{"type":"Feature","properties":{"code":"461702","name":"สะอาดไชยศรี","parentCode":"4617"},"geometry":{"type":"Polygon","coordinates":[[[103.81547801700003,16.495507187000044],[103.79290492200005,16.503535120000038],[103.73924934000007,16.47399319400006],[103.71757448900007,16.432113490000063],[103.74325269400003,16.411719896000022],[103.79416966300005,16.44807412700004],[103.82283783900004,16.470103490000042],[103.83200475000007,16.489048358000048],[103.81547801700003,16.495507187000044]]]}},{"type":"Feature","properties":{"code":"460608","name":"สระพังทอง","parentCode":"4606"},"geometry":{"type":"Polygon","coordinates":[[[104.08277054900009,16.716001711000047],[104.04738342600007,16.73645275100006],[104.03113100000007,16.71087906100007],[104.02914425100005,16.705088120000028],[104.06479206200004,16.701743125000064],[104.08333556200006,16.709033756000053],[104.08277054900009,16.716001711000047]]]}},{"type":"Feature","properties":{"code":"461303","name":"แซงบาดาล","parentCode":"4613"},"geometry":{"type":"Polygon","coordinates":[[[103.78911199700008,16.903718180000055],[103.76315579000004,16.964307833000078],[103.72599936600005,16.878624471000023],[103.68557223700009,16.851781560000063],[103.67875748100005,16.813614562000055],[103.67096502200008,16.773673984000027],[103.71976753700005,16.78375195800004],[103.78911199700008,16.903718180000055]]]}},{"type":"Feature","properties":{"code":"460902","name":"สหัสขันธ์","parentCode":"4609"},"geometry":{"type":"Polygon","coordinates":[[[103.52921116600004,16.70255096300002],[103.60152448800005,16.682467063000047],[103.62085826800006,16.728401270000063],[103.56962609800007,16.751297161000025],[103.54219957500004,16.763394258000062],[103.52465428000005,16.71951290800007],[103.52921116600004,16.70255096300002]]]}},{"type":"Feature","properties":{"code":"461602","name":"สายนาวัง","parentCode":"4616"},"geometry":{"type":"Polygon","coordinates":[[[104.09871321400004,16.784213385000044],[104.09055722100004,16.810917345000064],[104.02543628500007,16.72192620800007],[104.03113100000007,16.71087906100007],[104.04738342600007,16.73645275100006],[104.09871321400004,16.784213385000044]]]}},{"type":"Feature","properties":{"code":"460809","name":"ทรายทอง","parentCode":"4608"},"geometry":{"type":"Polygon","coordinates":[[[103.19437167500007,16.727103192000072],[103.17136768500006,16.771122873000024],[103.15147908300008,16.762660693000043],[103.14510714500005,16.701411224000026],[103.19437167500007,16.727103192000072]]]}},{"type":"Feature","properties":{"code":"460507","name":"สามขา","parentCode":"4605"},"geometry":{"type":"Polygon","coordinates":[[[104.01292621800008,16.468991064000022],[103.97887418600004,16.507758559000024],[103.94500565200008,16.500851687000022],[103.91989709200004,16.439625251000052],[103.95588616800006,16.438161020000052],[104.03003136900008,16.44345001100004],[104.01292621800008,16.468991064000022]]]}},{"type":"Feature","properties":{"code":"460402","name":"สามัคคี","parentCode":"4604"},"geometry":{"type":"Polygon","coordinates":[[[103.72305414200008,16.349417293000045],[103.70942319400007,16.36466936000005],[103.68985390800003,16.329559017000065],[103.68790801500006,16.287005602000022],[103.68777497600007,16.286478548000048],[103.72593844200009,16.27955614700005],[103.75602096900008,16.30032331700005],[103.72305414200008,16.349417293000045]]]}},{"type":"Feature","properties":{"code":"461501","name":"สำราญ","parentCode":"4615"},"geometry":{"type":"Polygon","coordinates":[[[103.53019888300008,17.062729473000047],[103.52617198800004,17.060852787000044],[103.49701553500006,16.964060623000023],[103.47004902300006,16.878111699000044],[103.46018545500004,16.869955006000055],[103.52991563900008,16.849615803000063],[103.55355194500004,16.85670808200007],[103.54360051600008,16.945753788000047],[103.56483685500007,16.98352993900005],[103.57893677500005,16.98974923700007],[103.53019888300008,17.062729473000047]]]}},{"type":"Feature","properties":{"code":"461502","name":"สำราญใต้","parentCode":"4615"},"geometry":{"type":"Polygon","coordinates":[[[103.52991563900008,16.849615803000063],[103.46018545500004,16.869955006000055],[103.42162529600006,16.803074037000044],[103.47738413300004,16.759700124000062],[103.50437327400005,16.767292198000064],[103.52991563900008,16.849615803000063]]]}},{"type":"Feature","properties":{"code":"461205","name":"เสาเล้า","parentCode":"4612"},"geometry":{"type":"Polygon","coordinates":[[[103.46020127600008,16.676757725000073],[103.36844580100006,16.689290570000026],[103.34812177200007,16.676738459000035],[103.32847892600006,16.644692512000063],[103.33484148200006,16.612469032000035],[103.37383616500006,16.61877170300005],[103.41203757300008,16.60659411200004],[103.44665541200004,16.616160300000047],[103.44900655500004,16.61943238400005],[103.46020127600008,16.676757725000073]]]}},{"type":"Feature","properties":{"code":"461307","name":"ศรีสมเด็จ","parentCode":"4613"},"geometry":{"type":"Polygon","coordinates":[[[103.73977101600008,16.765392718000044],[103.71072984000006,16.764863732000038],[103.68540863400005,16.72604537600006],[103.69641835900006,16.71822181600004],[103.73158409200005,16.70305883700007],[103.76634290500004,16.744393432000038],[103.73977101600008,16.765392718000044]]]}},{"type":"Feature","properties":{"code":"460511","name":"สมสะอาด","parentCode":"4605"},"geometry":{"type":"Polygon","coordinates":[[[104.04121208900006,16.401589939000075],[104.07715253600009,16.440916393000066],[104.07581867900007,16.487017325000068],[104.02250596000005,16.47898346900007],[104.01292621800008,16.468991064000022],[104.03003136900008,16.44345001100004],[104.04121208900006,16.401589939000075]]]}},{"type":"Feature","properties":{"code":"461301","name":"สมเด็จ","parentCode":"4613"},"geometry":{"type":"Polygon","coordinates":[[[103.78766834000004,16.743006555000022],[103.76634290500004,16.744393432000038],[103.73158409200005,16.70305883700007],[103.72611181400003,16.67912018800007],[103.77186494300008,16.67557165200003],[103.78766834000004,16.743006555000022]]]}},{"type":"Feature","properties":{"code":"460203","name":"สงเปลือย","parentCode":"4602"},"geometry":{"type":"Polygon","coordinates":[[[103.80061721200008,16.645121262000032],[103.77612626600006,16.664974658000062],[103.76173926000007,16.620447757000022],[103.81673356300007,16.58933090200003],[103.83577309300006,16.603265098000065],[103.83057492500006,16.60832894200007],[103.80061721200008,16.645121262000032]]]}},{"type":"Feature","properties":{"code":"460602","name":"สงเปลือย","parentCode":"4606"},"geometry":{"type":"Polygon","coordinates":[[[104.19909079400009,16.66002331800007],[104.18648036000008,16.667377947000034],[104.14037277700004,16.650005200000066],[104.10101561200008,16.663183872000047],[104.09025317200008,16.62352129800007],[104.09545658300004,16.618907421000074],[104.17708392600008,16.597859693000032],[104.19909079400009,16.66002331800007]]]}},{"type":"Feature","properties":{"code":"461101","name":"ท่าคันโท","parentCode":"4611"},"geometry":{"type":"Polygon","coordinates":[[[103.23440574500006,16.958456441000067],[103.19830721600005,16.948159024000063],[103.19807815200005,16.881309680000072],[103.22314499000004,16.83695065200004],[103.25024128000007,16.866503488000035],[103.22748226200008,16.89828660200004],[103.23440574500006,16.958456441000067]]]}},{"type":"Feature","properties":{"code":"460305","name":"ธัญญา","parentCode":"4603"},"geometry":{"type":"Polygon","coordinates":[[[103.61704653900006,16.254552432000025],[103.57862348600008,16.290474560000064],[103.52542296500008,16.292896496000026],[103.52940083800007,16.26985876200007],[103.54916347100004,16.230390046000025],[103.54787464000003,16.213760356000023],[103.56019765600007,16.20299764300006],[103.61704653900006,16.254552432000025]]]}},{"type":"Feature","properties":{"code":"461001","name":"ทุ่งคลอง","parentCode":"4610"},"geometry":{"type":"Polygon","coordinates":[[[103.67496729400006,16.965175532000046],[103.59759351700006,16.94925304000003],[103.59237522800004,16.89284466500004],[103.62549410300005,16.90949949900005],[103.69479985600009,16.927437319000035],[103.67496729400006,16.965175532000046]]]}},{"type":"Feature","properties":{"code":"460703","name":"อุ่มเม่า","parentCode":"4607"},"geometry":{"type":"Polygon","coordinates":[[[103.48182882500004,16.381445462000045],[103.46711039400009,16.411208679000026],[103.41004911200008,16.406574825000064],[103.40038504800003,16.382322772000066],[103.44489704100005,16.35420638900007],[103.48182882500004,16.381445462000045]]]}},{"type":"Feature","properties":{"code":"460705","name":"เว่อ","parentCode":"4607"},"geometry":{"type":"Polygon","coordinates":[[[103.36243207000007,16.586549842000068],[103.34016992000005,16.56776793800003],[103.33135772700007,16.487704199000063],[103.35772283900008,16.470482082000046],[103.36243207000007,16.586549842000068]]]}},{"type":"Feature","properties":{"code":"460701","name":"ยางตลาด","parentCode":"4607"},"geometry":{"type":"Polygon","coordinates":[[[103.40256061400004,16.415291729000046],[103.36377255200006,16.421422747000065],[103.29180294400004,16.393240642000023],[103.30193298200004,16.369224304000056],[103.34293523000008,16.36104406900006],[103.36921746300004,16.382253238000033],[103.40038504800003,16.382322772000066],[103.41004911200008,16.406574825000064],[103.40256061400004,16.415291729000046]]]}},{"type":"Feature","properties":{"code":"461103","name":"ยางอู้ม","parentCode":"4611"},"geometry":{"type":"Polygon","coordinates":[[[103.33011977600006,16.924071163000065],[103.27953260300006,16.934509812000044],[103.26153986400004,16.88205256200007],[103.33715665500006,16.839494283000022],[103.35148696000005,16.84435185500007],[103.31731474500003,16.88289536800005],[103.36405480900004,16.910203559000024],[103.33011977600006,16.924071163000065]]]}},{"type":"Feature","properties":{"code":"460202","name":"ยอดแกง","parentCode":"4602"},"geometry":{"type":"Polygon","coordinates":[[[103.77186494300008,16.67557165200003],[103.72611181400003,16.67912018800007],[103.68683308000004,16.597998292000057],[103.70440305800008,16.568928302000074],[103.72695083300005,16.56647969200003],[103.76173926000007,16.620447757000022],[103.77612626600006,16.664974658000062],[103.77186494300008,16.67557165200003]]]}}]}