{"type":"FeatureCollection","features":[{"type":"Feature","properties":{"code":"471101","name":"อากาศ","parentCode":"4711"},"geometry":{"type":"Polygon","coordinates":[[[104.03444078500007,17.630938956000023],[103.98021565800008,17.65700693100007],[103.95434809400007,17.64463392400006],[103.96178236700007,17.591891513000064],[103.99895564400003,17.52626784100005],[104.02413932400003,17.502687003000062],[104.03932423100008,17.52382588100005],[104.05132903100008,17.573576949000028],[104.03444078500007,17.630938956000023]]]}},{"type":"Feature","properties":{"code":"470409","name":"บะฮี","parentCode":"4704"},"geometry":{"type":"Polygon","coordinates":[[[103.96927829600008,17.46761058800007],[103.87612133300007,17.46523127300003],[103.85722902000003,17.465376623000054],[103.85508897200003,17.373101430000077],[103.90013931900006,17.37677129100007],[103.92602042700008,17.37636494000003],[103.95026409900004,17.418398482000043],[103.96927829600008,17.46761058800007]]]}},{"type":"Feature","properties":{"code":"471601","name":"บ้านเหล่า","parentCode":"4716"},"geometry":{"type":"Polygon","coordinates":[[[103.51173151700004,17.755355654000027],[103.46292857400005,17.762190228000065],[103.48467263500004,17.66352104400005],[103.49263099600006,17.640812956000048],[103.57622726000005,17.66140631600007],[103.59069480600004,17.70122506200005],[103.57568216000004,17.72956558900006],[103.51173151700004,17.755355654000027]]]}},{"type":"Feature","properties":{"code":"471704","name":"บ้านแป้น","parentCode":"4717"},"geometry":{"type":"Polygon","coordinates":[[[104.27557057800004,17.210484179000048],[104.20898188100006,17.240827375000038],[104.18627508400004,17.191456118000076],[104.19013937700004,17.180012024000064],[104.25480134000009,17.142726292000077],[104.26010987100005,17.145049569000037],[104.27724885100008,17.15306135700007],[104.27557057800004,17.210484179000048]]]}},{"type":"Feature","properties":{"code":"471701","name":"บ้านโพน","parentCode":"4717"},"geometry":{"type":"Polygon","coordinates":[[[104.40564739800004,17.28010683900004],[104.33778554000008,17.270448131000023],[104.36225959900008,17.236378829000046],[104.29009293300004,17.14722213500005],[104.32059949400008,17.15308384900004],[104.39080872500006,17.162240547000067],[104.43523858100008,17.240470600000037],[104.40564739800004,17.28010683900004]]]}},{"type":"Feature","properties":{"code":"471204","name":"บ้านต้าย","parentCode":"4712"},"geometry":{"type":"Polygon","coordinates":[[[103.39296069900007,17.467806384000028],[103.34697597300004,17.44651867400006],[103.38091018100005,17.411689314000057],[103.40588917200006,17.407092428000055],[103.42593103700005,17.438066562000074],[103.39296069900007,17.467806384000028]]]}},{"type":"Feature","properties":{"code":"471221","name":"บ้านถ่อน","parentCode":"4712"},"geometry":{"type":"Polygon","coordinates":[[[103.48488107000009,17.58469313200004],[103.40625323700004,17.568039244000033],[103.44495924300008,17.49341015300007],[103.49711026300008,17.494830463000028],[103.49758973000007,17.535369076000052],[103.49210379400006,17.53757243900003],[103.48488107000009,17.58469313200004]]]}},{"type":"Feature","properties":{"code":"471107","name":"บะหว้า","parentCode":"4711"},"geometry":{"type":"Polygon","coordinates":[[[104.02413932400003,17.502687003000062],[103.99895564400003,17.52626784100005],[103.90349270600007,17.49588446200005],[103.87612133300007,17.46523127300003],[103.96927829600008,17.46761058800007],[104.01574161500008,17.46211291900005],[104.01321928700008,17.471909648000064],[104.02413932400003,17.502687003000062]]]}},{"type":"Feature","properties":{"code":"471009","name":"บ่อแก้ว","parentCode":"4710"},"geometry":{"type":"Polygon","coordinates":[[[103.67449733600006,17.883840001000067],[103.59675720500007,17.93356502100005],[103.58142920000006,17.932308188000036],[103.57644241900005,17.862227392000023],[103.59298021300003,17.811437255000044],[103.61895585900004,17.81950838000006],[103.63323929300009,17.826015263000045],[103.67850904700003,17.85078302900007],[103.67449733600006,17.883840001000067]]]}},{"type":"Feature","properties":{"code":"471206","name":"บงเหนือ","parentCode":"4712"},"geometry":{"type":"Polygon","coordinates":[[[103.36381201700004,17.316626797000026],[103.35142342600005,17.346020372000055],[103.28814041000004,17.371392615000047],[103.25379723900005,17.31794883200007],[103.28116911300003,17.266657443000042],[103.29969806800005,17.269534340000064],[103.32714220600008,17.31781423800004],[103.36381201700004,17.316626797000026]]]}},{"type":"Feature","properties":{"code":"471211","name":"บงใต้","parentCode":"4712"},"geometry":{"type":"Polygon","coordinates":[[[103.29977752500008,17.50480404700005],[103.27616605000009,17.43676797100005],[103.29543837700004,17.385761942000045],[103.35653264300004,17.399688093000066],[103.38091018100005,17.411689314000057],[103.34697597300004,17.44651867400006],[103.29977752500008,17.50480404700005]]]}},{"type":"Feature","properties":{"code":"471402","name":"บึงทวาย","parentCode":"4714"},"geometry":{"type":"Polygon","coordinates":[[[104.13927718100007,17.072403700000052],[104.12756335500006,17.001609853000048],[104.16042414300006,16.99751963800003],[104.18973739600006,17.016914436000036],[104.15205006300005,17.072009946000037],[104.13927718100007,17.072403700000052]]]}},{"type":"Feature","properties":{"code":"471404","name":"จันทร์เพ็ญ","parentCode":"4714"},"geometry":{"type":"Polygon","coordinates":[[[104.26677734500004,16.920423208000045],[104.16522548800003,16.976043874000027],[104.12509718800004,16.933963093000045],[104.09104032500005,16.951994066000054],[104.10215775000006,16.943013260000043],[104.04959994900008,16.86700097800002],[104.02281402700004,16.855939136000075],[104.07010685000006,16.82129992800003],[104.10464790600008,16.836462680000068],[104.11935609000005,16.880306292000057],[104.20830305400005,16.872980178000034],[104.25217686200006,16.906934723000063],[104.26677734500004,16.920423208000045]]]}},{"type":"Feature","properties":{"code":"470406","name":"ช้างมิ่ง","parentCode":"4704"},"geometry":{"type":"Polygon","coordinates":[[[103.82318060300008,17.33456721500005],[103.81559336300006,17.397508965000043],[103.80433615600003,17.388356456000054],[103.78528294800009,17.363890189000074],[103.77937296500005,17.31066267500006],[103.82515117800006,17.30683758400005],[103.82318060300008,17.33456721500005]]]}},{"type":"Feature","properties":{"code":"471602","name":"เจริญศิลป์","parentCode":"4716"},"geometry":{"type":"Polygon","coordinates":[[[103.62902033100005,17.590622392000057],[103.59725593700006,17.627913875000047],[103.49210379400006,17.53757243900003],[103.49758973000007,17.535369076000052],[103.55899744100009,17.529248780000046],[103.58533357500005,17.548207923000064],[103.62902033100005,17.590622392000057]]]}},{"type":"Feature","properties":{"code":"470106","name":"เชียงเครือ","parentCode":"4701"},"geometry":{"type":"Polygon","coordinates":[[[104.18229383500005,17.315856259000043],[104.10042697700004,17.317713801000025],[104.04434714300004,17.28536631700007],[104.07036445300008,17.265294452000035],[104.14875247200007,17.232579249000025],[104.18627508400004,17.191456118000076],[104.15433769700007,17.27491483800003],[104.18501295500005,17.293580329000065],[104.18229383500005,17.315856259000043]]]}},{"type":"Feature","properties":{"code":"471705","name":"เชียงสือ","parentCode":"4717"},"geometry":{"type":"Polygon","coordinates":[[[104.39080872500006,17.162240547000067],[104.32059949400008,17.15308384900004],[104.32718941900004,17.130615308000074],[104.36236801700005,17.099424466000073],[104.39679045900004,17.12958690100004],[104.40881935600004,17.138654186000053],[104.39080872500006,17.162240547000067]]]}},{"type":"Feature","properties":{"code":"470410","name":"เชิงชุม","parentCode":"4704"},"geometry":{"type":"Polygon","coordinates":[[[104.01574161500008,17.46211291900005],[103.96927829600008,17.46761058800007],[103.95026409900004,17.418398482000043],[104.03679307100003,17.392049585000052],[104.04011328300004,17.374013670000068],[104.06281397700008,17.388874632000068],[104.03488130300008,17.43223454500003],[104.01574161500008,17.46211291900005]]]}},{"type":"Feature","properties":{"code":"471503","name":"ด่านม่วงคำ","parentCode":"4715"},"geometry":{"type":"Polygon","coordinates":[[[104.32718941900004,17.130615308000074],[104.29268794000006,17.101298147000023],[104.27638930800003,17.08483997600007],[104.31552929500003,17.06271565000003],[104.35260226400004,17.069355047000045],[104.36236801700005,17.099424466000073],[104.32718941900004,17.130615308000074]]]}},{"type":"Feature","properties":{"code":"470111","name":"ดงชน","parentCode":"4701"},"geometry":{"type":"Polygon","coordinates":[[[104.26613302000004,17.082485382000073],[104.25016052300003,17.132340030000023],[104.21571711800004,17.08415755900006],[104.23533985600005,17.066877212000065],[104.26613302000004,17.082485382000073]]]}},{"type":"Feature","properties":{"code":"470115","name":"ดงมะไฟ","parentCode":"4701"},"geometry":{"type":"Polygon","coordinates":[[[104.14013962500007,17.129242861000023],[104.10829598800007,17.136355993000052],[104.08114884000008,17.06765987500006],[104.04111715800008,17.053514294000024],[104.06668966600006,17.017666027000075],[104.12756335500006,17.001609853000048],[104.13927718100007,17.072403700000052],[104.14013962500007,17.129242861000023]]]}},{"type":"Feature","properties":{"code":"471003","name":"ดงหม้อทอง","parentCode":"4710"},"geometry":{"type":"Polygon","coordinates":[[[103.52755350700005,18.06637375500003],[103.49666732200006,18.06518952500005],[103.50385269100008,17.996696881000048],[103.48054598700008,18.000570769000035],[103.49759765300007,17.929501103000064],[103.53779497600004,17.91698625300006],[103.53923532900006,17.919478210000023],[103.54205079100007,18.05752683000003],[103.52755350700005,18.06637375500003]]]}},{"type":"Feature","properties":{"code":"471005","name":"ดงหม้อทองใต้","parentCode":"4710"},"geometry":{"type":"Polygon","coordinates":[[[103.49759765300007,17.929501103000064],[103.48054598700008,18.000570769000035],[103.44653413700007,17.97524143800007],[103.40515220900005,17.99225767200005],[103.38852877700003,17.969726097000034],[103.39971421400008,17.904579917000035],[103.41100251600005,17.89304110000006],[103.42147517200004,17.88985421500007],[103.48725964000005,17.891853319000063],[103.49759765300007,17.929501103000064]]]}},{"type":"Feature","properties":{"code":"471004","name":"ดงเหนือ","parentCode":"4710"},"geometry":{"type":"Polygon","coordinates":[[[103.59454247400004,18.05009312800007],[103.54244245900009,18.08804716000003],[103.52755350700005,18.06637375500003],[103.54205079100007,18.05752683000003],[103.53923532900006,17.919478210000023],[103.58142920000006,17.932308188000036],[103.59675720500007,17.93356502100005],[103.63853032300005,17.96527947800007],[103.63790441800006,17.976693923000028],[103.63936669600008,18.014048935000062],[103.59454247400004,18.05009312800007]]]}},{"type":"Feature","properties":{"code":"470802","name":"เดื่อศรีคันไชย","parentCode":"4708"},"geometry":{"type":"Polygon","coordinates":[[[103.78211496800009,17.49926430900007],[103.65411434600009,17.513033481000036],[103.66565890100009,17.434710289000066],[103.70924802600007,17.43941899400005],[103.74028196200004,17.43216734200007],[103.78609111800006,17.438672826000072],[103.81750822900005,17.477176316000055],[103.78211496800009,17.49926430900007]]]}},{"type":"Feature","properties":{"code":"470504","name":"ไฮหย่อง","parentCode":"4705"},"geometry":{"type":"Polygon","coordinates":[[[103.78609111800006,17.438672826000072],[103.74028196200004,17.43216734200007],[103.73348496500006,17.386053876000062],[103.78528294800009,17.363890189000074],[103.80433615600003,17.388356456000054],[103.78609111800006,17.438672826000072]]]}},{"type":"Feature","properties":{"code":"470120","name":"ฮางโฮง","parentCode":"4701"},"geometry":{"type":"Polygon","coordinates":[[[104.18627508400004,17.191456118000076],[104.14875247200007,17.232579249000025],[104.07036445300008,17.265294452000035],[104.07266023500006,17.248576611000033],[104.08407245500007,17.20602110300007],[104.18627508400004,17.191456118000076]]]}},{"type":"Feature","properties":{"code":"471006","name":"ห้วยหลัว","parentCode":"4710"},"geometry":{"type":"Polygon","coordinates":[[[103.42147517200004,17.88985421500007],[103.41100251600005,17.89304110000006],[103.41454208900007,17.842592379000052],[103.36842442600005,17.77917672700005],[103.40314380800004,17.751599890000023],[103.44227541900005,17.769705560000034],[103.43222588100008,17.82588938200007],[103.46116724000007,17.876050375000034],[103.42147517200004,17.88985421500007]]]}},{"type":"Feature","properties":{"code":"470112","name":"ห้วยยาง","parentCode":"4701"},"geometry":{"type":"Polygon","coordinates":[[[104.10504890700008,17.143394687000068],[104.08386740300006,17.142826331000037],[103.96451367500003,17.13007778900004],[103.98304340000004,17.033954510000058],[103.98686484800004,17.03091418500003],[104.04111715800008,17.053514294000024],[104.08114884000008,17.06765987500006],[104.10829598800007,17.136355993000052],[104.10504890700008,17.143394687000068]]]}},{"type":"Feature","properties":{"code":"470810","name":"อินทร์แปลง","parentCode":"4708"},"geometry":{"type":"Polygon","coordinates":[[[103.61520268400005,17.756953363000036],[103.63824304600007,17.795064194000076],[103.61895585900004,17.81950838000006],[103.59298021300003,17.811437255000044],[103.54225467100008,17.785319879000042],[103.61520268400005,17.756953363000036]]]}},{"type":"Feature","properties":{"code":"470604","name":"คำบ่อ","parentCode":"4706"},"geometry":{"type":"Polygon","coordinates":[[[103.59713671400004,17.280183687000033],[103.56340022200004,17.293802330000062],[103.51565040400004,17.24287183900003],[103.48278645400006,17.250690319000057],[103.46867446700008,17.250654234000024],[103.47025972500006,17.229916415000048],[103.57264483500006,17.157303365000075],[103.59001346300005,17.170948833000068],[103.59713671400004,17.280183687000033]]]}},{"type":"Feature","properties":{"code":"471203","name":"คำสะอาด","parentCode":"4712"},"geometry":{"type":"Polygon","coordinates":[[[103.37515743200004,17.579319002000034],[103.36055641700005,17.591685545000075],[103.32044880200004,17.549345294000034],[103.29977752500008,17.50480404700005],[103.34697597300004,17.44651867400006],[103.39296069900007,17.467806384000028],[103.39244365900004,17.481464858000038],[103.37515743200004,17.579319002000034]]]}},{"type":"Feature","properties":{"code":"470901","name":"คำตากล้า","parentCode":"4709"},"geometry":{"type":"Polygon","coordinates":[[[103.77819582000006,17.931570876000023],[103.74635813800006,17.91133455800008],[103.70168983500008,17.788930449000077],[103.76080940400004,17.75477399500005],[103.78134396800004,17.766987091000033],[103.80661703500004,17.82779069000003],[103.79540215900005,17.841910607000045],[103.76424602900005,17.886228947000063],[103.77819582000006,17.931570876000023]]]}},{"type":"Feature","properties":{"code":"470102","name":"ขมิ้น","parentCode":"4701"},"geometry":{"type":"Polygon","coordinates":[[[104.04434714300004,17.28536631700007],[103.98530810100004,17.30442429800007],[103.98644594000007,17.299780362000035],[103.95240729400007,17.191007909000064],[104.07266023500006,17.248576611000033],[104.07036445300008,17.265294452000035],[104.04434714300004,17.28536631700007]]]}},{"type":"Feature","properties":{"code":"470605","name":"ค้อเขียว","parentCode":"4706"},"geometry":{"type":"Polygon","coordinates":[[[103.56340022200004,17.293802330000062],[103.51816632200007,17.308891311000025],[103.48278645400006,17.250690319000057],[103.51565040400004,17.24287183900003],[103.56340022200004,17.293802330000062]]]}},{"type":"Feature","properties":{"code":"471212","name":"ค้อใต้","parentCode":"4712"},"geometry":{"type":"Polygon","coordinates":[[[103.37037589200008,17.31634693500007],[103.35653264300004,17.399688093000066],[103.29543837700004,17.385761942000045],[103.28814041000004,17.371392615000047],[103.35142342600005,17.346020372000055],[103.36381201700004,17.316626797000026],[103.37037589200008,17.31634693500007]]]}},{"type":"Feature","properties":{"code":"470121","name":"โคกก่อง","parentCode":"4701"},"geometry":{"type":"Polygon","coordinates":[[[104.32059949400008,17.15308384900004],[104.29009293300004,17.14722213500005],[104.27724885100008,17.15306135700007],[104.26010987100005,17.145049569000037],[104.29268794000006,17.101298147000023],[104.32718941900004,17.130615308000074],[104.32059949400008,17.15308384900004]]]}},{"type":"Feature","properties":{"code":"471803","name":"โคกภู","parentCode":"4718"},"geometry":{"type":"Polygon","coordinates":[[[103.85869552800006,17.038168185000075],[103.81109808300005,17.044059566000044],[103.77203598500006,17.021678763000068],[103.73999944000008,16.971270779000065],[103.76315579000004,16.964307833000078],[103.78911199700008,16.903718180000055],[103.83668822900006,16.85911356200006],[103.86463217400006,16.918285489000027],[103.90929278300007,16.967649996000034],[103.95119401500006,16.956245006000074],[103.99349757600004,16.979502395000054],[103.98686484800004,17.03091418500003],[103.98304340000004,17.033954510000058],[103.92451420100008,17.01367103900003],[103.85869552800006,17.038168185000075]]]}},{"type":"Feature","properties":{"code":"471208","name":"โคกสี","parentCode":"4712"},"geometry":{"type":"Polygon","coordinates":[[[103.48467263500004,17.66352104400005],[103.44833123800004,17.64412022600004],[103.40381173500003,17.68399583000007],[103.40774231200004,17.591489152000065],[103.40625323700004,17.568039244000033],[103.48488107000009,17.58469313200004],[103.49263099600006,17.640812956000048],[103.48467263500004,17.66352104400005]]]}},{"type":"Feature","properties":{"code":"471604","name":"โคกศิลา","parentCode":"4716"},"geometry":{"type":"Polygon","coordinates":[[[103.67028769600006,17.578118437000057],[103.62902033100005,17.590622392000057],[103.58533357500005,17.548207923000064],[103.61119886600005,17.505613182000047],[103.65411434600009,17.513033481000036],[103.67028769600006,17.578118437000057]]]}},{"type":"Feature","properties":{"code":"470812","name":"คอนสวรรค์","parentCode":"4708"},"geometry":{"type":"Polygon","coordinates":[[[103.78474884500008,17.57252955900003],[103.75972774800005,17.62520775100006],[103.70989383600005,17.617698021000024],[103.71905189500006,17.565196971000034],[103.78474884500008,17.57252955900003]]]}},{"type":"Feature","properties":{"code":"470805","name":"คูสะคาม","parentCode":"4708"},"geometry":{"type":"Polygon","coordinates":[[[103.61520268400005,17.756953363000036],[103.54225467100008,17.785319879000042],[103.51173151700004,17.755355654000027],[103.57568216000004,17.72956558900006],[103.59069480600004,17.70122506200005],[103.64292304600008,17.700705511000024],[103.61520268400005,17.756953363000036]]]}},{"type":"Feature","properties":{"code":"470803","name":"ขัวก่าย","parentCode":"4708"},"geometry":{"type":"Polygon","coordinates":[[[103.89385127600008,17.58119840200004],[103.89093262600005,17.65595151100007],[103.85561898100008,17.616725400000064],[103.82360096300005,17.62003486900005],[103.79502722600006,17.618731209000032],[103.79258849200005,17.57338520600007],[103.78973293900003,17.538855452000064],[103.83214678000007,17.582607720000055],[103.89385127600008,17.58119840200004]]]}},{"type":"Feature","properties":{"code":"471804","name":"กกปลาซิว","parentCode":"4718"},"geometry":{"type":"Polygon","coordinates":[[[104.04111715800008,17.053514294000024],[103.98686484800004,17.03091418500003],[103.99349757600004,16.979502395000054],[104.04959994900008,16.86700097800002],[104.10215775000006,16.943013260000043],[104.09104032500005,16.951994066000054],[104.06668966600006,17.017666027000075],[104.04111715800008,17.053514294000024]]]}},{"type":"Feature","properties":{"code":"470201","name":"กุสุมาลย์","parentCode":"4702"},"geometry":{"type":"Polygon","coordinates":[[[104.41604005400006,17.321296460000042],[104.35797651400009,17.32775945900005],[104.32053334600005,17.411872972000026],[104.30983465600008,17.28037198800007],[104.29642231000008,17.266180103000067],[104.33778554000008,17.270448131000023],[104.40564739800004,17.28010683900004],[104.41604987800008,17.32124114900006],[104.41604005400006,17.321296460000042]]]}},{"type":"Feature","properties":{"code":"470301","name":"กุดบาก","parentCode":"4703"},"geometry":{"type":"Polygon","coordinates":[[[103.83196156700006,17.09425716900006],[103.74618580800006,17.08655959600003],[103.66542805600005,17.056801956000072],[103.66212023000008,17.019615229000067],[103.70552120600007,17.020655394000073],[103.73999944000008,16.971270779000065],[103.77203598500006,17.021678763000068],[103.81109808300005,17.044059566000044],[103.85869552800006,17.038168185000075],[103.83196156700006,17.09425716900006]]]}},{"type":"Feature","properties":{"code":"470305","name":"กุดไห","parentCode":"4703"},"geometry":{"type":"Polygon","coordinates":[[[103.84128889700008,17.122353084000054],[103.81888623800006,17.121056101000022],[103.79179955700005,17.182382550000057],[103.75220090100004,17.151184236000063],[103.68582698900008,17.133976794000034],[103.64484206900005,17.114699504000043],[103.66542805600005,17.056801956000072],[103.74618580800006,17.08655959600003],[103.83196156700006,17.09425716900006],[103.84128889700008,17.122353084000054]]]}},{"type":"Feature","properties":{"code":"470813","name":"กุดเรือคำ","parentCode":"4708"},"geometry":{"type":"Polygon","coordinates":[[[103.66146006700006,17.79316992200006],[103.63323929300009,17.826015263000045],[103.61895585900004,17.81950838000006],[103.63824304600007,17.795064194000076],[103.61520268400005,17.756953363000036],[103.64292304600008,17.700705511000024],[103.66531731400005,17.70808814800006],[103.66146006700006,17.79316992200006]]]}},{"type":"Feature","properties":{"code":"471502","name":"เหล่าโพนค้อ","parentCode":"4715"},"geometry":{"type":"Polygon","coordinates":[[[104.38130823000006,17.01684738800003],[104.30313312500004,17.01874005800005],[104.31520264800008,16.960258905000046],[104.38130823000006,17.01684738800003]]]}},{"type":"Feature","properties":{"code":"470117","name":"เหล่าปอแดง","parentCode":"4701"},"geometry":{"type":"Polygon","coordinates":[[[104.25480134000009,17.142726292000077],[104.19013937700004,17.180012024000064],[104.18652808000007,17.09618213500005],[104.21571711800004,17.08415755900006],[104.25016052300003,17.132340030000023],[104.25480134000009,17.142726292000077]]]}},{"type":"Feature","properties":{"code":"471802","name":"หลุบเลา","parentCode":"4718"},"geometry":{"type":"Polygon","coordinates":[[[104.04959994900008,16.86700097800002],[103.99349757600004,16.979502395000054],[103.95119401500006,16.956245006000074],[103.94133973600003,16.903997428000025],[104.00018545900008,16.837035101000026],[104.02281402700004,16.855939136000075],[104.04959994900008,16.86700097800002]]]}},{"type":"Feature","properties":{"code":"471504","name":"แมดนาท่ม","parentCode":"4715"},"geometry":{"type":"Polygon","coordinates":[[[104.39668693900006,17.034422492000033],[104.35260226400004,17.069355047000045],[104.31552929500003,17.06271565000003],[104.30313312500004,17.01874005800005],[104.38130823000006,17.01684738800003],[104.39668693900006,17.034422492000033]]]}},{"type":"Feature","properties":{"code":"471002","name":"มาย","parentCode":"4710"},"geometry":{"type":"Polygon","coordinates":[[[103.53779497600004,17.91698625300006],[103.49759765300007,17.929501103000064],[103.48725964000005,17.891853319000063],[103.42147517200004,17.88985421500007],[103.46116724000007,17.876050375000034],[103.43222588100008,17.82588938200007],[103.54113875200005,17.82588123100004],[103.53779497600004,17.91698625300006]]]}},{"type":"Feature","properties":{"code":"471001","name":"ม่วง","parentCode":"4710"},"geometry":{"type":"Polygon","coordinates":[[[103.58142920000006,17.932308188000036],[103.53923532900006,17.919478210000023],[103.53779497600004,17.91698625300006],[103.54113875200005,17.82588123100004],[103.54225467100008,17.785319879000042],[103.59298021300003,17.811437255000044],[103.57644241900005,17.862227392000023],[103.58142920000006,17.932308188000036]]]}},{"type":"Feature","properties":{"code":"470502","name":"ม่วงไข่","parentCode":"4705"},"geometry":{"type":"Polygon","coordinates":[[[103.70924802600007,17.43941899400005],[103.66565890100009,17.434710289000066],[103.62607851600006,17.389741549000064],[103.64028445900004,17.366147898000065],[103.65793213400008,17.36866359000004],[103.70924802600007,17.43941899400005]]]}},{"type":"Feature","properties":{"code":"470109","name":"ม่วงลาย","parentCode":"4701"},"geometry":{"type":"Polygon","coordinates":[[[104.29268794000006,17.101298147000023],[104.26010987100005,17.145049569000037],[104.25480134000009,17.142726292000077],[104.25016052300003,17.132340030000023],[104.26613302000004,17.082485382000073],[104.27638930800003,17.08483997600007],[104.29268794000006,17.101298147000023]]]}},{"type":"Feature","properties":{"code":"471106","name":"นาฮี","parentCode":"4711"},"geometry":{"type":"Polygon","coordinates":[[[103.96373542900005,17.73767767000004],[103.89801199400006,17.74990656600005],[103.89959161900003,17.732769664000045],[103.88197929600005,17.673469770000054],[103.95984066200003,17.709720748000052],[103.96373542900005,17.73767767000004]]]}},{"type":"Feature","properties":{"code":"470404","name":"นาหัวบ่อ","parentCode":"4704"},"geometry":{"type":"Polygon","coordinates":[[[103.98644594000007,17.299780362000035],[103.91250943100005,17.303883169000073],[103.89034523400005,17.21181193800004],[103.93173540400005,17.19105956900006],[103.95240729400007,17.191007909000064],[103.98644594000007,17.299780362000035]]]}},{"type":"Feature","properties":{"code":"471702","name":"นาแก้ว","parentCode":"4717"},"geometry":{"type":"Polygon","coordinates":[[[104.23294553600005,17.30989835200006],[104.20719057900004,17.325922409000043],[104.18229383500005,17.315856259000043],[104.18501295500005,17.293580329000065],[104.20898188100006,17.240827375000038],[104.27557057800004,17.210484179000048],[104.29642231000008,17.266180103000067],[104.23294553600005,17.30989835200006]]]}},{"type":"Feature","properties":{"code":"470811","name":"นาคำ","parentCode":"4708"},"geometry":{"type":"Polygon","coordinates":[[[103.82740232900005,17.73748424200005],[103.80031030800006,17.767065858000024],[103.77771083200008,17.701203219000035],[103.75454609900004,17.697269471000027],[103.74828158800005,17.668051693000052],[103.81330433900007,17.633551605000036],[103.82740232900005,17.73748424200005]]]}},{"type":"Feature","properties":{"code":"470303","name":"นาม่อง","parentCode":"4703"},"geometry":{"type":"Polygon","coordinates":[[[103.96451367500003,17.13007778900004],[103.91482687300004,17.169463939000025],[103.85961716700007,17.15567089900003],[103.84128889700008,17.122353084000054],[103.83196156700006,17.09425716900006],[103.85869552800006,17.038168185000075],[103.92451420100008,17.01367103900003],[103.98304340000004,17.033954510000058],[103.96451367500003,17.13007778900004]]]}},{"type":"Feature","properties":{"code":"470407","name":"นาใน","parentCode":"4704"},"geometry":{"type":"Polygon","coordinates":[[[103.76169299100007,17.259082963000026],[103.72943416700008,17.26024301500007],[103.70939120400004,17.252736217000063],[103.71689846600003,17.239527242000065],[103.74450355700009,17.215202048000037],[103.79289653600006,17.18552438100005],[103.85961716700007,17.15567089900003],[103.91482687300004,17.169463939000025],[103.93173540400005,17.19105956900006],[103.89034523400005,17.21181193800004],[103.76169299100007,17.259082963000026]]]}},{"type":"Feature","properties":{"code":"470203","name":"นาเพียง","parentCode":"4702"},"geometry":{"type":"Polygon","coordinates":[[[104.26319639300004,17.418353903000025],[104.19778359000009,17.42938244100003],[104.18108162500005,17.427060148000066],[104.17654955400008,17.415431756000032],[104.16916996000003,17.335183981000057],[104.20719057900004,17.325922409000043],[104.23294553600005,17.30989835200006],[104.26315960500006,17.327684490000024],[104.26319639300004,17.418353903000025]]]}},{"type":"Feature","properties":{"code":"470202","name":"นาโพธิ์","parentCode":"4702"},"geometry":{"type":"Polygon","coordinates":[[[104.31785396600009,17.431940172000054],[104.26319639300004,17.418353903000025],[104.26315960500006,17.327684490000024],[104.23294553600005,17.30989835200006],[104.29642231000008,17.266180103000067],[104.30983465600008,17.28037198800007],[104.32053334600005,17.411872972000026],[104.31785396600009,17.431940172000054]]]}},{"type":"Feature","properties":{"code":"470809","name":"นาซอ","parentCode":"4708"},"geometry":{"type":"Polygon","coordinates":[[[103.89959161900003,17.732769664000045],[103.82740232900005,17.73748424200005],[103.81330433900007,17.633551605000036],[103.82360096300005,17.62003486900005],[103.85561898100008,17.616725400000064],[103.89093262600005,17.65595151100007],[103.88197929600005,17.673469770000054],[103.89959161900003,17.732769664000045]]]}},{"type":"Feature","properties":{"code":"470903","name":"นาแต้","parentCode":"4709"},"geometry":{"type":"Polygon","coordinates":[[[103.74635813800006,17.91133455800008],[103.70894168400008,17.940503767000052],[103.70350282800007,17.941563193000036],[103.67449733600006,17.883840001000067],[103.67850904700003,17.85078302900007],[103.63323929300009,17.826015263000045],[103.66146006700006,17.79316992200006],[103.68756384700004,17.78828925600004],[103.70168983500008,17.788930449000077],[103.74635813800006,17.91133455800008]]]}},{"type":"Feature","properties":{"code":"471403","name":"นาตาล","parentCode":"4714"},"geometry":{"type":"Polygon","coordinates":[[[104.12756335500006,17.001609853000048],[104.06668966600006,17.017666027000075],[104.09104032500005,16.951994066000054],[104.12509718800004,16.933963093000045],[104.16522548800003,16.976043874000027],[104.16042414300006,16.99751963800003],[104.12756335500006,17.001609853000048]]]}},{"type":"Feature","properties":{"code":"471703","name":"นาตงวัฒนา","parentCode":"4717"},"geometry":{"type":"Polygon","coordinates":[[[104.29009293300004,17.14722213500005],[104.36225959900008,17.236378829000046],[104.33778554000008,17.270448131000023],[104.29642231000008,17.266180103000067],[104.27557057800004,17.210484179000048],[104.27724885100008,17.15306135700007],[104.29009293300004,17.14722213500005]]]}},{"type":"Feature","properties":{"code":"470103","name":"งิ้วด่อน","parentCode":"4701"},"geometry":{"type":"Polygon","coordinates":[[[104.18652808000007,17.09618213500005],[104.19013937700004,17.180012024000064],[104.14013962500007,17.129242861000023],[104.13927718100007,17.072403700000052],[104.15205006300005,17.072009946000037],[104.18652808000007,17.09618213500005]]]}},{"type":"Feature","properties":{"code":"470701","name":"นิคมน้ำอูน","parentCode":"4707"},"geometry":{"type":"Polygon","coordinates":[[[103.74450355700009,17.215202048000037],[103.71689846600003,17.239527242000065],[103.68209731900004,17.232015313000034],[103.68260366900006,17.179516294000052],[103.61353067400006,17.15172246900005],[103.64484206900005,17.114699504000043],[103.68582698900008,17.133976794000034],[103.71193122900007,17.18396322500007],[103.74450355700009,17.215202048000037]]]}},{"type":"Feature","properties":{"code":"470104","name":"โนนหอม","parentCode":"4701"},"geometry":{"type":"Polygon","coordinates":[[[104.21571711800004,17.08415755900006],[104.18652808000007,17.09618213500005],[104.15205006300005,17.072009946000037],[104.18973739600006,17.016914436000036],[104.19645184300003,17.017549090000045],[104.23533985600005,17.066877212000065],[104.21571711800004,17.08415755900006]]]}},{"type":"Feature","properties":{"code":"471007","name":"โนนสะอาด","parentCode":"4710"},"geometry":{"type":"Polygon","coordinates":[[[103.70350282800007,17.941563193000036],[103.63853032300005,17.96527947800007],[103.59675720500007,17.93356502100005],[103.67449733600006,17.883840001000067],[103.70350282800007,17.941563193000036]]]}},{"type":"Feature","properties":{"code":"470703","name":"หนองบัว","parentCode":"4707"},"geometry":{"type":"Polygon","coordinates":[[[103.79179955700005,17.182382550000057],[103.81888623800006,17.121056101000022],[103.84128889700008,17.122353084000054],[103.85961716700007,17.15567089900003],[103.79289653600006,17.18552438100005],[103.79179955700005,17.182382550000057]]]}},{"type":"Feature","properties":{"code":"470902","name":"หนองบัวสิม","parentCode":"4709"},"geometry":{"type":"Polygon","coordinates":[[[103.86032055100009,17.88201473400005],[103.79338595300004,17.87259503100006],[103.79540215900005,17.841910607000045],[103.80661703500004,17.82779069000003],[103.85685441400005,17.798884114000032],[103.90042103700006,17.799348559000066],[103.91813412300007,17.82228226600006],[103.90581604400006,17.880158950000066],[103.86032055100009,17.88201473400005]]]}},{"type":"Feature","properties":{"code":"471008","name":"หนองกวั่ง","parentCode":"4710"},"geometry":{"type":"Polygon","coordinates":[[[103.54113875200005,17.82588123100004],[103.43222588100008,17.82588938200007],[103.44227541900005,17.769705560000034],[103.46292857400005,17.762190228000065],[103.51173151700004,17.755355654000027],[103.54225467100008,17.785319879000042],[103.54113875200005,17.82588123100004]]]}},{"type":"Feature","properties":{"code":"470118","name":"หนองลาด","parentCode":"4701"},"geometry":{"type":"Polygon","coordinates":[[[103.98530810100004,17.30442429800007],[104.04434714300004,17.28536631700007],[104.10042697700004,17.317713801000025],[104.07248385000008,17.377941558000032],[104.06281397700008,17.388874632000068],[104.04011328300004,17.374013670000068],[104.03811880300003,17.34623601900006],[103.98962137300003,17.318851722000034],[103.98530810100004,17.30442429800007]]]}},{"type":"Feature","properties":{"code":"470603","name":"หนองลาด","parentCode":"4706"},"geometry":{"type":"Polygon","coordinates":[[[103.58593029500008,17.32409403300005],[103.54867896100006,17.332887094000057],[103.54421870400006,17.329514619000065],[103.51816632200007,17.308891311000025],[103.56340022200004,17.293802330000062],[103.59713671400004,17.280183687000033],[103.61376982100006,17.29177068100006],[103.61749083900008,17.318421388000047],[103.58593029500008,17.32409403300005]]]}},{"type":"Feature","properties":{"code":"471210","name":"หนองหลวง","parentCode":"4712"},"geometry":{"type":"Polygon","coordinates":[[[103.40588917200006,17.407092428000055],[103.38091018100005,17.411689314000057],[103.35653264300004,17.399688093000066],[103.37037589200008,17.31634693500007],[103.41000785300008,17.358163282000078],[103.41856978800007,17.390339136000023],[103.40588917200006,17.407092428000055]]]}},{"type":"Feature","properties":{"code":"471605","name":"หนองแปน","parentCode":"4716"},"geometry":{"type":"Polygon","coordinates":[[[103.46292857400005,17.762190228000065],[103.44227541900005,17.769705560000034],[103.40314380800004,17.751599890000023],[103.40145125200007,17.69024040900007],[103.40381173500003,17.68399583000007],[103.44833123800004,17.64412022600004],[103.48467263500004,17.66352104400005],[103.46292857400005,17.762190228000065]]]}},{"type":"Feature","properties":{"code":"470702","name":"หนองปลิง","parentCode":"4707"},"geometry":{"type":"Polygon","coordinates":[[[103.79289653600006,17.18552438100005],[103.74450355700009,17.215202048000037],[103.71193122900007,17.18396322500007],[103.75220090100004,17.151184236000063],[103.79179955700005,17.182382550000057],[103.79289653600006,17.18552438100005]]]}},{"type":"Feature","properties":{"code":"470804","name":"หนองสนม","parentCode":"4708"},"geometry":{"type":"Polygon","coordinates":[[[103.89385127600008,17.58119840200004],[103.83214678000007,17.582607720000055],[103.78973293900003,17.538855452000064],[103.78211496800009,17.49926430900007],[103.81750822900005,17.477176316000055],[103.85722902000003,17.465376623000054],[103.87612133300007,17.46523127300003],[103.90349270600007,17.49588446200005],[103.93634704700008,17.551709177000077],[103.89385127600008,17.58119840200004]]]}},{"type":"Feature","properties":{"code":"470807","name":"หนองแวง","parentCode":"4708"},"geometry":{"type":"Polygon","coordinates":[[[103.76080940400004,17.75477399500005],[103.70168983500008,17.788930449000077],[103.68756384700004,17.78828925600004],[103.67953631100005,17.77421141600007],[103.76080940400004,17.75477399500005]]]}},{"type":"Feature","properties":{"code":"470814","name":"หนองแวงใต้","parentCode":"4708"},"geometry":{"type":"Polygon","coordinates":[[[103.68756384700004,17.78828925600004],[103.66146006700006,17.79316992200006],[103.66531731400005,17.70808814800006],[103.68078973600007,17.694689741000047],[103.75454609900004,17.697269471000027],[103.77771083200008,17.701203219000035],[103.80031030800006,17.767065858000024],[103.78134396800004,17.766987091000033],[103.76080940400004,17.75477399500005],[103.67953631100005,17.77421141600007],[103.68756384700004,17.78828925600004]]]}},{"type":"Feature","properties":{"code":"471304","name":"ปทุมวาปี","parentCode":"4713"},"geometry":{"type":"Polygon","coordinates":[[[103.54421870400006,17.329514619000065],[103.51386463300008,17.346682405000024],[103.42762159500006,17.290342726000063],[103.46867446700008,17.250654234000024],[103.48278645400006,17.250690319000057],[103.51816632200007,17.308891311000025],[103.54421870400006,17.329514619000065]]]}},{"type":"Feature","properties":{"code":"470904","name":"แพด","parentCode":"4709"},"geometry":{"type":"Polygon","coordinates":[[[103.90042103700006,17.799348559000066],[103.85685441400005,17.798884114000032],[103.80661703500004,17.82779069000003],[103.78134396800004,17.766987091000033],[103.80031030800006,17.767065858000024],[103.82740232900005,17.73748424200005],[103.89959161900003,17.732769664000045],[103.89801199400006,17.74990656600005],[103.90042103700006,17.799348559000066]]]}},{"type":"Feature","properties":{"code":"471213","name":"พันนา","parentCode":"4712"},"geometry":{"type":"Polygon","coordinates":[[[103.59600907600009,17.432323820000022],[103.56442079100003,17.452590576000034],[103.52899464400008,17.404514135000056],[103.54502412700003,17.391928367000048],[103.56987011500007,17.383103036000023],[103.60951031700006,17.392666064000025],[103.59600907600009,17.432323820000022]]]}},{"type":"Feature","properties":{"code":"470501","name":"พังโคน","parentCode":"4705"},"geometry":{"type":"Polygon","coordinates":[[[103.74028196200004,17.43216734200007],[103.70924802600007,17.43941899400005],[103.65793213400008,17.36866359000004],[103.71187868500004,17.342313682000054],[103.73348496500006,17.386053876000062],[103.74028196200004,17.43216734200007]]]}},{"type":"Feature","properties":{"code":"470113","name":"พังขว้าง","parentCode":"4701"},"geometry":{"type":"Polygon","coordinates":[[[104.08407245500007,17.20602110300007],[104.07266023500006,17.248576611000033],[103.95240729400007,17.191007909000064],[103.93173540400005,17.19105956900006],[103.91482687300004,17.169463939000025],[103.96451367500003,17.13007778900004],[104.08386740300006,17.142826331000037],[104.08407245500007,17.20602110300007]]]}},{"type":"Feature","properties":{"code":"470401","name":"พรรณา","parentCode":"4704"},"geometry":{"type":"Polygon","coordinates":[[[103.85508897200003,17.373101430000077],[103.81559336300006,17.397508965000043],[103.82318060300008,17.33456721500005],[103.87313177700008,17.316635208000037],[103.90013931900006,17.37677129100007],[103.85508897200003,17.373101430000077]]]}},{"type":"Feature","properties":{"code":"470204","name":"โพธิไพศาล","parentCode":"4702"},"geometry":{"type":"Polygon","coordinates":[[[104.41270767900005,17.36140455800006],[104.41379600000005,17.42696077900007],[104.32216492500004,17.42922151700003],[104.31785396600009,17.431940172000054],[104.32053334600005,17.411872972000026],[104.35797651400009,17.32775945900005],[104.41604005400006,17.321296460000042],[104.41270767900005,17.36140455800006]]]}},{"type":"Feature","properties":{"code":"470403","name":"พอกน้อย","parentCode":"4704"},"geometry":{"type":"Polygon","coordinates":[[[103.95181956900007,17.348628657000063],[103.91250943100005,17.303883169000073],[103.98644594000007,17.299780362000035],[103.98530810100004,17.30442429800007],[103.98962137300003,17.318851722000034],[103.95181956900007,17.348628657000063]]]}},{"type":"Feature","properties":{"code":"471104","name":"โพนงาม","parentCode":"4711"},"geometry":{"type":"Polygon","coordinates":[[[104.01503372400003,17.777535921000037],[104.01223071700008,17.810801542000036],[103.97940158000006,17.770859407000046],[103.96373542900005,17.73767767000004],[103.95984066200003,17.709720748000052],[103.95434809400007,17.64463392400006],[103.98021565800008,17.65700693100007],[103.99999391500006,17.711098510000056],[104.04943447800008,17.740347780000036],[104.01503372400003,17.777535921000037]]]}},{"type":"Feature","properties":{"code":"471102","name":"โพนแพง","parentCode":"4711"},"geometry":{"type":"Polygon","coordinates":[[[103.99895564400003,17.52626784100005],[103.96178236700007,17.591891513000064],[103.93634704700008,17.551709177000077],[103.90349270600007,17.49588446200005],[103.99895564400003,17.52626784100005]]]}},{"type":"Feature","properties":{"code":"471207","name":"โพนสูง","parentCode":"4712"},"geometry":{"type":"Polygon","coordinates":[[[103.40774231200004,17.591489152000065],[103.37515743200004,17.579319002000034],[103.39244365900004,17.481464858000038],[103.44495924300008,17.49341015300007],[103.40625323700004,17.568039244000033],[103.40774231200004,17.591489152000065]]]}},{"type":"Feature","properties":{"code":"470602","name":"ปลาโหล","parentCode":"4706"},"geometry":{"type":"Polygon","coordinates":[[[103.71187868500004,17.342313682000054],[103.65793213400008,17.36866359000004],[103.64028445900004,17.366147898000065],[103.61749083900008,17.318421388000047],[103.61376982100006,17.29177068100006],[103.63111449000007,17.317960305000042],[103.70939120400004,17.252736217000063],[103.72943416700008,17.26024301500007],[103.74040620300008,17.300130060000072],[103.71187868500004,17.342313682000054]]]}},{"type":"Feature","properties":{"code":"470503","name":"แร่","parentCode":"4705"},"geometry":{"type":"Polygon","coordinates":[[[103.78528294800009,17.363890189000074],[103.73348496500006,17.386053876000062],[103.71187868500004,17.342313682000054],[103.74040620300008,17.300130060000072],[103.72943416700008,17.26024301500007],[103.76169299100007,17.259082963000026],[103.77937296500005,17.31066267500006],[103.78528294800009,17.363890189000074]]]}},{"type":"Feature","properties":{"code":"470405","name":"ไร่","parentCode":"4704"},"geometry":{"type":"Polygon","coordinates":[[[103.91250943100005,17.303883169000073],[103.87313177700008,17.316635208000037],[103.82318060300008,17.33456721500005],[103.82515117800006,17.30683758400005],[103.77937296500005,17.31066267500006],[103.76169299100007,17.259082963000026],[103.89034523400005,17.21181193800004],[103.91250943100005,17.303883169000073]]]}},{"type":"Feature","properties":{"code":"471215","name":"ทรายมูล","parentCode":"4712"},"geometry":{"type":"Polygon","coordinates":[[[103.55899744100009,17.529248780000046],[103.49758973000007,17.535369076000052],[103.49711026300008,17.494830463000028],[103.50177482200007,17.427155667000022],[103.52899464400008,17.404514135000056],[103.56442079100003,17.452590576000034],[103.55899744100009,17.529248780000046]]]}},{"type":"Feature","properties":{"code":"471108","name":"สามัคคีพัฒนา","parentCode":"4711"},"geometry":{"type":"Polygon","coordinates":[[[104.07734806700006,17.706578019000062],[104.06658163400004,17.740210094000076],[104.04943447800008,17.740347780000036],[103.99999391500006,17.711098510000056],[103.98021565800008,17.65700693100007],[104.03444078500007,17.630938956000023],[104.07114564800008,17.65158096400006],[104.07734806700006,17.706578019000062]]]}},{"type":"Feature","properties":{"code":"471801","name":"สร้างค้อ","parentCode":"4718"},"geometry":{"type":"Polygon","coordinates":[[[103.95119401500006,16.956245006000074],[103.90929278300007,16.967649996000034],[103.86463217400006,16.918285489000027],[103.83668822900006,16.85911356200006],[103.83663161400005,16.847928473000024],[103.90706371700009,16.80290506500006],[103.95029845500005,16.77606519400007],[103.95658418300007,16.81935924900006],[104.00018545900008,16.837035101000026],[103.94133973600003,16.903997428000025],[103.95119401500006,16.956245006000074]]]}},{"type":"Feature","properties":{"code":"470408","name":"สว่าง","parentCode":"4704"},"geometry":{"type":"Polygon","coordinates":[[[104.04011328300004,17.374013670000068],[104.03679307100003,17.392049585000052],[103.95026409900004,17.418398482000043],[103.92602042700008,17.37636494000003],[103.95181956900007,17.348628657000063],[103.98962137300003,17.318851722000034],[104.03811880300003,17.34623601900006],[104.04011328300004,17.374013670000068]]]}},{"type":"Feature","properties":{"code":"471201","name":"สว่างแดนดิน","parentCode":"4712"},"geometry":{"type":"Polygon","coordinates":[[[103.49711026300008,17.494830463000028],[103.44495924300008,17.49341015300007],[103.39244365900004,17.481464858000038],[103.39296069900007,17.467806384000028],[103.42593103700005,17.438066562000074],[103.40588917200006,17.407092428000055],[103.41856978800007,17.390339136000023],[103.45134998800006,17.406531353000048],[103.54502412700003,17.391928367000048],[103.52899464400008,17.404514135000056],[103.50177482200007,17.427155667000022],[103.49711026300008,17.494830463000028]]]}},{"type":"Feature","properties":{"code":"470808","name":"ศรีวิชัย","parentCode":"4708"},"geometry":{"type":"Polygon","coordinates":[[[103.79258849200005,17.57338520600007],[103.78474884500008,17.57252955900003],[103.71905189500006,17.565196971000034],[103.67028769600006,17.578118437000057],[103.65411434600009,17.513033481000036],[103.78211496800009,17.49926430900007],[103.78973293900003,17.538855452000064],[103.79258849200005,17.57338520600007]]]}},{"type":"Feature","properties":{"code":"471301","name":"ส่องดาว","parentCode":"4713"},"geometry":{"type":"Polygon","coordinates":[[[103.51386463300008,17.346682405000024],[103.45134998800006,17.406531353000048],[103.41856978800007,17.390339136000023],[103.41000785300008,17.358163282000078],[103.42762159500006,17.290342726000063],[103.51386463300008,17.346682405000024]]]}},{"type":"Feature","properties":{"code":"470704","name":"สุวรรณคาม","parentCode":"4707"},"geometry":{"type":"Polygon","coordinates":[[[103.75220090100004,17.151184236000063],[103.71193122900007,17.18396322500007],[103.68582698900008,17.133976794000034],[103.75220090100004,17.151184236000063]]]}},{"type":"Feature","properties":{"code":"471216","name":"ตาลโกน","parentCode":"4712"},"geometry":{"type":"Polygon","coordinates":[[[103.62406350100008,17.389906306000057],[103.60951031700006,17.392666064000025],[103.56987011500007,17.383103036000023],[103.54867896100006,17.332887094000057],[103.58593029500008,17.32409403300005],[103.62406350100008,17.389906306000057]]]}},{"type":"Feature","properties":{"code":"471217","name":"ตาลเนิ้ง","parentCode":"4712"},"geometry":{"type":"Polygon","coordinates":[[[103.64028445900004,17.366147898000065],[103.62607851600006,17.389741549000064],[103.62406350100008,17.389906306000057],[103.58593029500008,17.32409403300005],[103.61749083900008,17.318421388000047],[103.64028445900004,17.366147898000065]]]}},{"type":"Feature","properties":{"code":"471401","name":"เต่างอย","parentCode":"4714"},"geometry":{"type":"Polygon","coordinates":[[[104.19645184300003,17.017549090000045],[104.18973739600006,17.016914436000036],[104.16042414300006,16.99751963800003],[104.16522548800003,16.976043874000027],[104.26677734500004,16.920423208000045],[104.19645184300003,17.017549090000045]]]}},{"type":"Feature","properties":{"code":"471105","name":"ท่าก้อน","parentCode":"4711"},"geometry":{"type":"Polygon","coordinates":[[[103.91813412300007,17.82228226600006],[103.90042103700006,17.799348559000066],[103.89801199400006,17.74990656600005],[103.96373542900005,17.73767767000004],[103.97940158000006,17.770859407000046],[103.91813412300007,17.82228226600006]]]}},{"type":"Feature","properties":{"code":"470107","name":"ท่าแร่","parentCode":"4701"},"geometry":{"type":"Polygon","coordinates":[[[104.20898188100006,17.240827375000038],[104.18501295500005,17.293580329000065],[104.15433769700007,17.27491483800003],[104.18627508400004,17.191456118000076],[104.20898188100006,17.240827375000038]]]}},{"type":"Feature","properties":{"code":"471302","name":"ท่าศิลา","parentCode":"4713"},"geometry":{"type":"Polygon","coordinates":[[[103.41000785300008,17.358163282000078],[103.37037589200008,17.31634693500007],[103.36381201700004,17.316626797000026],[103.32714220600008,17.31781423800004],[103.29969806800005,17.269534340000064],[103.44048773200007,17.213253829000053],[103.47025972500006,17.229916415000048],[103.46867446700008,17.250654234000024],[103.42762159500006,17.290342726000063],[103.41000785300008,17.358163282000078]]]}},{"type":"Feature","properties":{"code":"470806","name":"ธาตุ","parentCode":"4708"},"geometry":{"type":"Polygon","coordinates":[[[103.68078973600007,17.694689741000047],[103.66531731400005,17.70808814800006],[103.64292304600008,17.700705511000024],[103.59069480600004,17.70122506200005],[103.57622726000005,17.66140631600007],[103.59725593700006,17.627913875000047],[103.62902033100005,17.590622392000057],[103.67028769600006,17.578118437000057],[103.71905189500006,17.565196971000034],[103.70989383600005,17.617698021000024],[103.68248045900003,17.63625331800006],[103.70910989600009,17.678418946000022],[103.68078973600007,17.694689741000047]]]}},{"type":"Feature","properties":{"code":"470101","name":"ธาตุเชิงชุม","parentCode":"4701"},"geometry":{"type":"Polygon","coordinates":[[[104.18627508400004,17.191456118000076],[104.13881012300004,17.180738020000035],[104.09032643900008,17.20510632500003],[104.10504890700008,17.143394687000068],[104.10829598800007,17.136355993000052],[104.14013962500007,17.129242861000023],[104.19013937700004,17.180012024000064],[104.18627508400004,17.191456118000076]]]}},{"type":"Feature","properties":{"code":"470116","name":"ธาตุนาเวง","parentCode":"4701"},"geometry":{"type":"Polygon","coordinates":[[[104.18627508400004,17.191456118000076],[104.08407245500007,17.20602110300007],[104.08386740300006,17.142826331000037],[104.10504890700008,17.143394687000068],[104.09032643900008,17.20510632500003],[104.13881012300004,17.180738020000035],[104.18627508400004,17.191456118000076]]]}},{"type":"Feature","properties":{"code":"471220","name":"ธาตุทอง","parentCode":"4712"},"geometry":{"type":"Polygon","coordinates":[[[103.58533357500005,17.548207923000064],[103.55899744100009,17.529248780000046],[103.56442079100003,17.452590576000034],[103.59600907600009,17.432323820000022],[103.61119886600005,17.505613182000047],[103.58533357500005,17.548207923000064]]]}},{"type":"Feature","properties":{"code":"471603","name":"ทุ่งแก","parentCode":"4716"},"geometry":{"type":"Polygon","coordinates":[[[103.59725593700006,17.627913875000047],[103.57622726000005,17.66140631600007],[103.49263099600006,17.640812956000048],[103.48488107000009,17.58469313200004],[103.49210379400006,17.53757243900003],[103.59725593700006,17.627913875000047]]]}},{"type":"Feature","properties":{"code":"470505","name":"ต้นผึ้ง","parentCode":"4705"},"geometry":{"type":"Polygon","coordinates":[[[103.85722902000003,17.465376623000054],[103.81750822900005,17.477176316000055],[103.78609111800006,17.438672826000072],[103.80433615600003,17.388356456000054],[103.81559336300006,17.397508965000043],[103.85508897200003,17.373101430000077],[103.85722902000003,17.465376623000054]]]}},{"type":"Feature","properties":{"code":"471501","name":"ตองโขบ","parentCode":"4715"},"geometry":{"type":"Polygon","coordinates":[[[104.27638930800003,17.08483997600007],[104.26613302000004,17.082485382000073],[104.23533985600005,17.066877212000065],[104.19645184300003,17.017549090000045],[104.26677734500004,16.920423208000045],[104.31520264800008,16.960258905000046],[104.30313312500004,17.01874005800005],[104.31552929500003,17.06271565000003],[104.27638930800003,17.08483997600007]]]}},{"type":"Feature","properties":{"code":"470205","name":"อุ่มจาน","parentCode":"4702"},"geometry":{"type":"Polygon","coordinates":[[[104.20719057900004,17.325922409000043],[104.16916996000003,17.335183981000057],[104.17654955400008,17.415431756000032],[104.09585906700005,17.403585629000077],[104.07248385000008,17.377941558000032],[104.10042697700004,17.317713801000025],[104.18229383500005,17.315856259000043],[104.20719057900004,17.325922409000043]]]}},{"type":"Feature","properties":{"code":"471103","name":"วาใหญ่","parentCode":"4711"},"geometry":{"type":"Polygon","coordinates":[[[103.95434809400007,17.64463392400006],[103.95984066200003,17.709720748000052],[103.88197929600005,17.673469770000054],[103.89093262600005,17.65595151100007],[103.89385127600008,17.58119840200004],[103.93634704700008,17.551709177000077],[103.96178236700007,17.591891513000064],[103.95434809400007,17.64463392400006]]]}},{"type":"Feature","properties":{"code":"471214","name":"แวง","parentCode":"4712"},"geometry":{"type":"Polygon","coordinates":[[[103.66565890100009,17.434710289000066],[103.65411434600009,17.513033481000036],[103.61119886600005,17.505613182000047],[103.59600907600009,17.432323820000022],[103.60951031700006,17.392666064000025],[103.62406350100008,17.389906306000057],[103.62607851600006,17.389741549000064],[103.66565890100009,17.434710289000066]]]}},{"type":"Feature","properties":{"code":"470402","name":"วังยาง","parentCode":"4704"},"geometry":{"type":"Polygon","coordinates":[[[103.92602042700008,17.37636494000003],[103.90013931900006,17.37677129100007],[103.87313177700008,17.316635208000037],[103.91250943100005,17.303883169000073],[103.95181956900007,17.348628657000063],[103.92602042700008,17.37636494000003]]]}},{"type":"Feature","properties":{"code":"470801","name":"วานรนิวาส","parentCode":"4708"},"geometry":{"type":"Polygon","coordinates":[[[103.75454609900004,17.697269471000027],[103.68078973600007,17.694689741000047],[103.70910989600009,17.678418946000022],[103.68248045900003,17.63625331800006],[103.70989383600005,17.617698021000024],[103.75972774800005,17.62520775100006],[103.78474884500008,17.57252955900003],[103.79258849200005,17.57338520600007],[103.79502722600006,17.618731209000032],[103.82360096300005,17.62003486900005],[103.81330433900007,17.633551605000036],[103.74828158800005,17.668051693000052],[103.75454609900004,17.697269471000027]]]}},{"type":"Feature","properties":{"code":"470601","name":"วาริชภูมิ","parentCode":"4706"},"geometry":{"type":"Polygon","coordinates":[[[103.70939120400004,17.252736217000063],[103.63111449000007,17.317960305000042],[103.61376982100006,17.29177068100006],[103.59713671400004,17.280183687000033],[103.59001346300005,17.170948833000068],[103.61353067400006,17.15172246900005],[103.68260366900006,17.179516294000052],[103.68209731900004,17.232015313000034],[103.71689846600003,17.239527242000065],[103.70939120400004,17.252736217000063]]]}},{"type":"Feature","properties":{"code":"471303","name":"วัฒนา","parentCode":"4713"},"geometry":{"type":"Polygon","coordinates":[[[103.54502412700003,17.391928367000048],[103.45134998800006,17.406531353000048],[103.51386463300008,17.346682405000024],[103.54421870400006,17.329514619000065],[103.54867896100006,17.332887094000057],[103.56987011500007,17.383103036000023],[103.54502412700003,17.391928367000048]]]}}]}