{"type":"FeatureCollection","features":[{"type":"Feature","properties":{"code":"480107","name":"อาจสามารถ","parentCode":"4801"},"geometry":{"type":"Polygon","coordinates":[[[104.76580677500004,17.437851952000074],[104.72793005900007,17.49150611300007],[104.70031823800008,17.47325246400004],[104.70704286300008,17.446133431000078],[104.75202215500008,17.400289084000065],[104.77510423400008,17.40257131100003],[104.77071864300007,17.41219073900004],[104.76580677500004,17.437851952000074]]]}},{"type":"Feature","properties":{"code":"480712","name":"บ้านแก้ง","parentCode":"4807"},"geometry":{"type":"Polygon","coordinates":[[[104.49354982700004,16.95983596900004],[104.46212906000005,16.961143770000035],[104.41510170500004,16.941173607000053],[104.40735131000008,16.896195130000024],[104.41123899000007,16.892676379000022],[104.44151913800005,16.87250631200004],[104.49354982700004,16.95983596900004]]]}},{"type":"Feature","properties":{"code":"480806","name":"บ้านข่า","parentCode":"4808"},"geometry":{"type":"Polygon","coordinates":[[[104.20367864900004,17.693369093000058],[104.07734806700006,17.706578019000062],[104.07114564800008,17.65158096400006],[104.11958603400006,17.605493872000068],[104.15927781300007,17.672813149000035],[104.20367864900004,17.693369093000058]]]}},{"type":"Feature","properties":{"code":"481005","name":"บ้านค้อ","parentCode":"4810"},"geometry":{"type":"Polygon","coordinates":[[[104.35438244400007,17.52351243800007],[104.28581104800008,17.53697052800004],[104.26426526500006,17.501185276000058],[104.19960256000007,17.506309741000052],[104.17852222100004,17.502659970000025],[104.19778359000009,17.42938244100003],[104.26319639300004,17.418353903000025],[104.31785396600009,17.431940172000054],[104.32216492500004,17.42922151700003],[104.33211261800005,17.445315454000024],[104.32927849300006,17.497020159000044],[104.35438244400007,17.52351243800007]]]}},{"type":"Feature","properties":{"code":"480109","name":"บ้านกลาง","parentCode":"4801"},"geometry":{"type":"Polygon","coordinates":[[[104.75785215500008,17.208183442000063],[104.73057366500007,17.17039618700005],[104.78841509400007,17.12754256100004],[104.80256765700005,17.18265784400006],[104.75785215500008,17.208183442000063]]]}},{"type":"Feature","properties":{"code":"480401","name":"บ้านแพง","parentCode":"4804"},"geometry":{"type":"Polygon","coordinates":[[[104.25612940000008,17.906356302000063],[104.20075587500008,18.012252515000057],[104.19880985300006,17.976072228000078],[104.22756986800005,17.93012819000006],[104.24539889600004,17.905191267000077],[104.25612940000008,17.906356302000063]]]}},{"type":"Feature","properties":{"code":"480106","name":"บ้านผึ้ง","parentCode":"4801"},"geometry":{"type":"Polygon","coordinates":[[[104.62231033700004,17.42029901500007],[104.55972387900005,17.43079959800002],[104.53186116900008,17.401707156000043],[104.59970870600006,17.332507082000063],[104.59238572900006,17.282543796000027],[104.63066126100006,17.277838922000058],[104.66103154800004,17.328923195000073],[104.65950036700008,17.369937522000043],[104.62231033700004,17.42029901500007]]]}},{"type":"Feature","properties":{"code":"480903","name":"บ้านเสียว","parentCode":"4809"},"geometry":{"type":"Polygon","coordinates":[[[104.14189079900007,17.565029697000057],[104.05132903100008,17.573576949000028],[104.03932423100008,17.52382588100005],[104.09613412800007,17.53723227100005],[104.12562942500006,17.537609313000075],[104.14189079900007,17.565029697000057]]]}},{"type":"Feature","properties":{"code":"480803","name":"บ้านเอื้อง","parentCode":"4808"},"geometry":{"type":"Polygon","coordinates":[[[104.25496367000005,17.605392429000062],[104.23962335000004,17.614758866000045],[104.19748656300004,17.580825108000056],[104.19252651300008,17.568094291000023],[104.19960256000007,17.506309741000052],[104.26426526500006,17.501185276000058],[104.28581104800008,17.53697052800004],[104.25496367000005,17.605392429000062]]]}},{"type":"Feature","properties":{"code":"480304","name":"ไชยบุรี","parentCode":"4803"},"geometry":{"type":"Polygon","coordinates":[[[104.49216259500008,17.64009443200007],[104.44836771800004,17.68283324400005],[104.37757935300004,17.650535267000066],[104.40303095900003,17.59617492500007],[104.44900543400007,17.589130830000045],[104.49216259500008,17.64009443200007]]]}},{"type":"Feature","properties":{"code":"480507","name":"ดอนนางหงส์","parentCode":"4805"},"geometry":{"type":"Polygon","coordinates":[[[104.77840493400004,17.104873079000072],[104.71718675600005,17.107913281000037],[104.71120555600004,17.093500680000034],[104.71403017500006,17.08177389900004],[104.73951810700004,17.083931755000037],[104.76522165400007,17.075748456000042],[104.77840493400004,17.104873079000072]]]}},{"type":"Feature","properties":{"code":"481103","name":"ดอนเตย","parentCode":"4811"},"geometry":{"type":"Polygon","coordinates":[[[104.13607772700004,17.785269777000053],[104.13034729800006,17.83345614600006],[104.07920663400006,17.869306004000066],[104.09645184000004,17.844615605000058],[104.07631389800008,17.796230054000034],[104.01503372400003,17.777535921000037],[104.04943447800008,17.740347780000036],[104.06658163400004,17.740210094000076],[104.10527293400008,17.737511609000023],[104.13607772700004,17.785269777000053]]]}},{"type":"Feature","properties":{"code":"480113","name":"ดงขวาง","parentCode":"4801"},"geometry":{"type":"Polygon","coordinates":[[[104.80714627900005,17.223409752000066],[104.77378053800004,17.236418451000077],[104.75785215500008,17.208183442000063],[104.80256765700005,17.18265784400006],[104.80714627900005,17.223409752000066]]]}},{"type":"Feature","properties":{"code":"480502","name":"ฝั่งแดง","parentCode":"4805"},"geometry":{"type":"Polygon","coordinates":[[[104.67186312100006,16.954376230000037],[104.65761252100003,16.953595353000026],[104.67457110500004,16.884940777000054],[104.69103175400005,16.88856439600005],[104.68792064900003,16.931216778000078],[104.67186312100006,16.954376230000037]]]}},{"type":"Feature","properties":{"code":"480809","name":"หาดแพง","parentCode":"4808"},"geometry":{"type":"Polygon","coordinates":[[[104.37525261600007,17.720587083000055],[104.33960494900003,17.75222498100004],[104.29980124700006,17.74438655700004],[104.24505486200007,17.724866993000035],[104.25381060300003,17.701432030000035],[104.30052233300006,17.65851037400006],[104.33372371000007,17.697491179000053],[104.37525261600007,17.720587083000055]]]}},{"type":"Feature","properties":{"code":"480707","name":"ก้านเหลือง","parentCode":"4807"},"geometry":{"type":"Polygon","coordinates":[[[104.46212906000005,16.961143770000035],[104.42167414200009,17.000820051000062],[104.35579780200004,16.880055689000073],[104.39810769100006,16.837871585000073],[104.40735131000008,16.896195130000024],[104.41510170500004,16.941173607000053],[104.46212906000005,16.961143770000035]]]}},{"type":"Feature","properties":{"code":"480713","name":"คำพี้","parentCode":"4807"},"geometry":{"type":"Polygon","coordinates":[[[104.42642907300007,17.003051796000022],[104.41247332200004,17.01030588900005],[104.35475537900004,16.954892208000047],[104.31942663800004,16.87465980500002],[104.35579780200004,16.880055689000073],[104.42167414200009,17.000820051000062],[104.42642907300007,17.003051796000022]]]}},{"type":"Feature","properties":{"code":"480108","name":"ขามเฒ่า","parentCode":"4801"},"geometry":{"type":"Polygon","coordinates":[[[104.80260892900009,17.274626381000076],[104.79016354600009,17.29580780400005],[104.72941657100006,17.289130632000024],[104.71732486300004,17.266950032000068],[104.69967813500006,17.245276337000064],[104.77378053800004,17.236418451000077],[104.80714627900005,17.223409752000066],[104.80260892900009,17.274626381000076]]]}},{"type":"Feature","properties":{"code":"480111","name":"คำเตย","parentCode":"4801"},"geometry":{"type":"Polygon","coordinates":[[[104.71732486300004,17.266950032000068],[104.68324701800009,17.28449864600003],[104.67568475500008,17.22926495300004],[104.64558055600008,17.155221668000024],[104.66201997300004,17.16285997500006],[104.72188253000007,17.176888903000076],[104.73057366500007,17.17039618700005],[104.75785215500008,17.208183442000063],[104.77378053800004,17.236418451000077],[104.69967813500006,17.245276337000064],[104.71732486300004,17.266950032000068]]]}},{"type":"Feature","properties":{"code":"480605","name":"โคกหินแฮ่","parentCode":"4806"},"geometry":{"type":"Polygon","coordinates":[[[104.64965264800009,17.03878327500007],[104.60909928800004,17.099961544000053],[104.57325743300004,17.07395323000003],[104.58361158300005,17.02918139700006],[104.60514390400004,17.02761151200002],[104.63260730800005,17.026019431000066],[104.64965264800009,17.03878327500007]]]}},{"type":"Feature","properties":{"code":"480204","name":"โคกสว่าง","parentCode":"4802"},"geometry":{"type":"Polygon","coordinates":[[[104.45725688100003,17.175007234000077],[104.40881935600004,17.138654186000053],[104.45344018700007,17.11770580800004],[104.46577991800007,17.113596722000068],[104.49258462300008,17.116224097000043],[104.52411731900008,17.16051606800005],[104.45725688100003,17.175007234000077]]]}},{"type":"Feature","properties":{"code":"481202","name":"โคกสี","parentCode":"4812"},"geometry":{"type":"Polygon","coordinates":[[[104.51716458600004,17.096843294000053],[104.49258462300008,17.116224097000043],[104.46577991800007,17.113596722000068],[104.51648547900004,17.052602986000068],[104.51716458600004,17.096843294000053]]]}},{"type":"Feature","properties":{"code":"480205","name":"โคกสูง","parentCode":"4802"},"geometry":{"type":"Polygon","coordinates":[[[104.48183950400005,17.213682953000045],[104.43523858100008,17.240470600000037],[104.39080872500006,17.162240547000067],[104.40881935600004,17.138654186000053],[104.45725688100003,17.175007234000077],[104.48183950400005,17.213682953000045]]]}},{"type":"Feature","properties":{"code":"480203","name":"กุตาไก้","parentCode":"4802"},"geometry":{"type":"Polygon","coordinates":[[[104.67568475500008,17.22926495300004],[104.63044387100007,17.23744113400005],[104.59238572900006,17.282543796000027],[104.55275109400009,17.28324702900005],[104.55510243400005,17.21928069300003],[104.58261150800007,17.165583009000045],[104.64558055600008,17.155221668000024],[104.67568475500008,17.22926495300004]]]}},{"type":"Feature","properties":{"code":"480105","name":"กุรุคุ","parentCode":"4801"},"geometry":{"type":"Polygon","coordinates":[[[104.59238572900006,17.282543796000027],[104.59970870600006,17.332507082000063],[104.53186116900008,17.401707156000043],[104.51496219500007,17.387255097000036],[104.47948295000003,17.373776416000055],[104.52745181800009,17.31462460700004],[104.51584106000007,17.27691175700005],[104.55275109400009,17.28324702900005],[104.59238572900006,17.282543796000027]]]}},{"type":"Feature","properties":{"code":"480511","name":"กุดฉิม","parentCode":"4805"},"geometry":{"type":"Polygon","coordinates":[[[104.73951810700004,17.083931755000037],[104.71403017500006,17.08177389900004],[104.71786363700005,17.046252710000033],[104.71568043000008,17.035210317000065],[104.73410187100006,17.028917474000025],[104.73951810700004,17.083931755000037]]]}},{"type":"Feature","properties":{"code":"480905","name":"เหล่าพัฒนา","parentCode":"4809"},"geometry":{"type":"Polygon","coordinates":[[[104.05132903100008,17.573576949000028],[104.14189079900007,17.565029697000057],[104.19252651300008,17.568094291000023],[104.19748656300004,17.580825108000056],[104.11958603400006,17.605493872000068],[104.07114564800008,17.65158096400006],[104.03444078500007,17.630938956000023],[104.05132903100008,17.573576949000028]]]}},{"type":"Feature","properties":{"code":"480206","name":"มหาชัย","parentCode":"4802"},"geometry":{"type":"Polygon","coordinates":[[[104.51584106000007,17.27691175700005],[104.46383484100005,17.284998076000022],[104.41604987800008,17.32124114900006],[104.40564739800004,17.28010683900004],[104.43523858100008,17.240470600000037],[104.48183950400005,17.213682953000045],[104.52606707100006,17.23478430600005],[104.51584106000007,17.27691175700005]]]}},{"type":"Feature","properties":{"code":"480802","name":"นาเดื่อ","parentCode":"4808"},"geometry":{"type":"Polygon","coordinates":[[[104.30464449600004,17.614846336000028],[104.25496367000005,17.605392429000062],[104.28581104800008,17.53697052800004],[104.35438244400007,17.52351243800007],[104.36664648000004,17.546874975000037],[104.36703718500007,17.568826406000028],[104.30464449600004,17.614846336000028]]]}},{"type":"Feature","properties":{"code":"481002","name":"นาหัวบ่อ","parentCode":"4810"},"geometry":{"type":"Polygon","coordinates":[[[104.39143360600008,17.530015943000024],[104.36664648000004,17.546874975000037],[104.35438244400007,17.52351243800007],[104.32927849300006,17.497020159000044],[104.33211261800005,17.445315454000024],[104.38553373000008,17.431862199000022],[104.41215909500005,17.458885830000042],[104.40712115300005,17.519554671000037],[104.39143360600008,17.530015943000024]]]}},{"type":"Feature","properties":{"code":"480701","name":"นาแก","parentCode":"4807"},"geometry":{"type":"Polygon","coordinates":[[[104.53687213900008,16.950993115000074],[104.51204997400004,16.960959699000057],[104.49354982700004,16.95983596900004],[104.44151913800005,16.87250631200004],[104.52600135500006,16.86308934300007],[104.53687213900008,16.950993115000074]]]}},{"type":"Feature","properties":{"code":"480609","name":"นาขาม","parentCode":"4806"},"geometry":{"type":"Polygon","coordinates":[[[104.63260730800005,17.026019431000066],[104.60514390400004,17.02761151200002],[104.60243839300006,16.986784014000023],[104.60040332900007,16.97263180500005],[104.60466637200005,16.97369119600006],[104.63331671700007,16.95155767600005],[104.64895910700005,16.96038855300003],[104.65749275800005,16.992498873000045],[104.63260730800005,17.026019431000066]]]}},{"type":"Feature","properties":{"code":"480807","name":"นาคำ","parentCode":"4808"},"geometry":{"type":"Polygon","coordinates":[[[104.33372371000007,17.697491179000053],[104.30052233300006,17.65851037400006],[104.30464449600004,17.614846336000028],[104.36703718500007,17.568826406000028],[104.36664648000004,17.546874975000037],[104.39143360600008,17.530015943000024],[104.41258912200004,17.54709474400005],[104.40303095900003,17.59617492500007],[104.37757935300004,17.650535267000066],[104.33372371000007,17.697491179000053]]]}},{"type":"Feature","properties":{"code":"481003","name":"นาขมิ้น","parentCode":"4810"},"geometry":{"type":"Polygon","coordinates":[[[104.53510642800006,17.548659420000035],[104.41258912200004,17.54709474400005],[104.39143360600008,17.530015943000024],[104.40712115300005,17.519554671000037],[104.48334067300004,17.467715605000024],[104.52657737900006,17.494821509000076],[104.55499191800004,17.513835623000034],[104.53510642800006,17.548659420000035]]]}},{"type":"Feature","properties":{"code":"480409","name":"นาเข","parentCode":"4804"},"geometry":{"type":"Polygon","coordinates":[[[104.24539889600004,17.905191267000077],[104.26293093400005,17.862638193000066],[104.28072170200005,17.837192738000056],[104.30079630700004,17.84538763000006],[104.25612940000008,17.906356302000063],[104.24539889600004,17.905191267000077]]]}},{"type":"Feature","properties":{"code":"480704","name":"นาคู่","parentCode":"4807"},"geometry":{"type":"Polygon","coordinates":[[[104.56274295900005,16.991371121000043],[104.51673563200006,17.007748975000027],[104.50005432200004,17.006957073000024],[104.51204997400004,16.960959699000057],[104.53687213900008,16.950993115000074],[104.57768835800005,16.981229705000032],[104.56274295900005,16.991371121000043]]]}},{"type":"Feature","properties":{"code":"480904","name":"นาคูณใหญ่","parentCode":"4809"},"geometry":{"type":"Polygon","coordinates":[[[104.12654015000004,17.517926938000073],[104.11178426300006,17.490441650000037],[104.17852222100004,17.502659970000025],[104.12654015000004,17.517926938000073]]]}},{"type":"Feature","properties":{"code":"480709","name":"นาเลียง","parentCode":"4807"},"geometry":{"type":"Polygon","coordinates":[[[104.55803099100007,17.09121107800007],[104.51716458600004,17.096843294000053],[104.51648547900004,17.052602986000068],[104.48975636300008,17.035993658000052],[104.49244081600006,17.029166274000033],[104.50005432200004,17.006957073000024],[104.51673563200006,17.007748975000027],[104.57279258900007,17.07754945800002],[104.55803099100007,17.09121107800007]]]}},{"type":"Feature","properties":{"code":"480207","name":"นามะเขือ","parentCode":"4802"},"geometry":{"type":"Polygon","coordinates":[[[104.68239423700004,17.290804129000037],[104.66103154800004,17.328923195000073],[104.63066126100006,17.277838922000058],[104.59238572900006,17.282543796000027],[104.63044387100007,17.23744113400005],[104.67568475500008,17.22926495300004],[104.68324701800009,17.28449864600003],[104.68239423700004,17.290804129000037]]]}},{"type":"Feature","properties":{"code":"481007","name":"นาใน","parentCode":"4810"},"geometry":{"type":"Polygon","coordinates":[[[104.56172367400006,17.508620605000033],[104.55499191800004,17.513835623000034],[104.52657737900006,17.494821509000076],[104.55972387900005,17.43079959800002],[104.62231033700004,17.42029901500007],[104.64756535700008,17.426938732000053],[104.60896734400006,17.44086952500004],[104.56172367400006,17.508620605000033]]]}},{"type":"Feature","properties":{"code":"480510","name":"นาหนาด","parentCode":"4805"},"geometry":{"type":"Polygon","coordinates":[[[104.65761252100003,16.953595353000026],[104.64895910700005,16.96038855300003],[104.63331671700007,16.95155767600005],[104.63818158600009,16.879131895000057],[104.67457110500004,16.884940777000054],[104.65761252100003,16.953595353000026]]]}},{"type":"Feature","properties":{"code":"480604","name":"นางาม","parentCode":"4806"},"geometry":{"type":"Polygon","coordinates":[[[104.69962031500006,17.124026679000053],[104.66201997300004,17.16285997500006],[104.64558055600008,17.155221668000024],[104.62775878900004,17.123058437000054],[104.67659690100004,17.076312275000078],[104.71120555600004,17.093500680000034],[104.71718675600005,17.107913281000037],[104.69962031500006,17.124026679000053]]]}},{"type":"Feature","properties":{"code":"480408","name":"นางัว","parentCode":"4804"},"geometry":{"type":"Polygon","coordinates":[[[104.22756986800005,17.93012819000006],[104.19880985300006,17.976072228000078],[104.13413812400006,17.955929068000046],[104.18630240500005,17.911182508000024],[104.22756986800005,17.93012819000006]]]}},{"type":"Feature","properties":{"code":"480902","name":"นางัว","parentCode":"4809"},"geometry":{"type":"Polygon","coordinates":[[[104.18108162500005,17.427060148000066],[104.14210820200009,17.474219964000042],[104.07715101800005,17.469090238000035],[104.03488130300008,17.43223454500003],[104.06281397700008,17.388874632000068],[104.07248385000008,17.377941558000032],[104.09585906700005,17.403585629000077],[104.17654955400008,17.415431756000032],[104.18108162500005,17.427060148000066]]]}},{"type":"Feature","properties":{"code":"480104","name":"นาราชควาย","parentCode":"4801"},"geometry":{"type":"Polygon","coordinates":[[[104.70704286300008,17.446133431000078],[104.66008812500007,17.434206577000054],[104.72406535100004,17.39177490800006],[104.75202215500008,17.400289084000065],[104.70704286300008,17.446133431000078]]]}},{"type":"Feature","properties":{"code":"480103","name":"นาทราย","parentCode":"4801"},"geometry":{"type":"Polygon","coordinates":[[[104.72406535100004,17.39177490800006],[104.66008812500007,17.434206577000054],[104.64756535700008,17.426938732000053],[104.62231033700004,17.42029901500007],[104.65950036700008,17.369937522000043],[104.72484897000004,17.369499473000076],[104.72406535100004,17.39177490800006]]]}},{"type":"Feature","properties":{"code":"481101","name":"นาทม","parentCode":"4811"},"geometry":{"type":"Polygon","coordinates":[[[104.06945912000003,17.878159667000034],[104.05722469900007,17.90569405100007],[103.99928523500006,17.89304935100006],[103.98916815800004,17.875534341000048],[104.01223071700008,17.810801542000036],[104.01503372400003,17.777535921000037],[104.07631389800008,17.796230054000034],[104.09645184000004,17.844615605000058],[104.07920663400006,17.869306004000066],[104.06945912000003,17.878159667000034]]]}},{"type":"Feature","properties":{"code":"480505","name":"นาถ่อน","parentCode":"4805"},"geometry":{"type":"Polygon","coordinates":[[[104.73057366500007,17.17039618700005],[104.72188253000007,17.176888903000076],[104.69962031500006,17.124026679000053],[104.71718675600005,17.107913281000037],[104.77840493400004,17.104873079000072],[104.78841509400007,17.12754256100004],[104.73057366500007,17.17039618700005]]]}},{"type":"Feature","properties":{"code":"480901","name":"นาหว้า","parentCode":"4809"},"geometry":{"type":"Polygon","coordinates":[[[104.12654015000004,17.517926938000073],[104.12562942500006,17.537609313000075],[104.09613412800007,17.53723227100005],[104.06571660000009,17.486602150000067],[104.01321928700008,17.471909648000064],[104.01574161500008,17.46211291900005],[104.03488130300008,17.43223454500003],[104.07715101800005,17.469090238000035],[104.14210820200009,17.474219964000042],[104.18108162500005,17.427060148000066],[104.19778359000009,17.42938244100003],[104.17852222100004,17.502659970000025],[104.11178426300006,17.490441650000037],[104.12654015000004,17.517926938000073]]]}},{"type":"Feature","properties":{"code":"480101","name":"ในเมือง","parentCode":"4801"},"geometry":{"type":"Polygon","coordinates":[[[104.80401082100008,17.36801177800004],[104.78375515200008,17.41811711200006],[104.77071864300007,17.41219073900004],[104.77510423400008,17.40257131100003],[104.77590441800004,17.368154616000027],[104.80401082100008,17.36801177800004]]]}},{"type":"Feature","properties":{"code":"480508","name":"น้ำก่ำ","parentCode":"4805"},"geometry":{"type":"Polygon","coordinates":[[[104.73548363500004,16.926243679000038],[104.68792064900003,16.931216778000078],[104.69103175400005,16.88856439600005],[104.71052544000008,16.82831128400005],[104.72341287100005,16.80895859700007],[104.73726180000006,16.80471362800006],[104.76241813400009,16.84091624900003],[104.73548363500004,16.926243679000038]]]}},{"type":"Feature","properties":{"code":"480302","name":"โนนตาล","parentCode":"4803"},"geometry":{"type":"Polygon","coordinates":[[[104.55417715300007,17.592980503000035],[104.53510642800006,17.548659420000035],[104.55499191800004,17.513835623000034],[104.56172367400006,17.508620605000033],[104.62515202000009,17.51153368300004],[104.66141146100006,17.542401951000045],[104.56410869100006,17.57480318100005],[104.55417715300007,17.592980503000035]]]}},{"type":"Feature","properties":{"code":"480708","name":"หนองบ่อ","parentCode":"4807"},"geometry":{"type":"Polygon","coordinates":[[[104.41247332200004,17.01030588900005],[104.40338121100007,17.038155379000045],[104.39668693900006,17.034422492000033],[104.38130823000006,17.01684738800003],[104.31520264800008,16.960258905000046],[104.26677734500004,16.920423208000045],[104.25217686200006,16.906934723000063],[104.24840135900007,16.871934599000042],[104.29602014900007,16.837767927000073],[104.31942663800004,16.87465980500002],[104.35475537900004,16.954892208000047],[104.41247332200004,17.01030588900005]]]}},{"type":"Feature","properties":{"code":"480202","name":"หนองฮี","parentCode":"4802"},"geometry":{"type":"Polygon","coordinates":[[[104.64558055600008,17.155221668000024],[104.58261150800007,17.165583009000045],[104.53895040700007,17.143464712000025],[104.55803099100007,17.09121107800007],[104.57279258900007,17.07754945800002],[104.57325743300004,17.07395323000003],[104.60909928800004,17.099961544000053],[104.62775878900004,17.123058437000054],[104.64558055600008,17.155221668000024]]]}},{"type":"Feature","properties":{"code":"481204","name":"หนองโพธิ์","parentCode":"4812"},"geometry":{"type":"Polygon","coordinates":[[[104.46577991800007,17.113596722000068],[104.45344018700007,17.11770580800004],[104.48975636300008,17.035993658000052],[104.51648547900004,17.052602986000068],[104.46577991800007,17.113596722000068]]]}},{"type":"Feature","properties":{"code":"480102","name":"หนองแสง","parentCode":"4801"},"geometry":{"type":"Polygon","coordinates":[[[104.78375515200008,17.41811711200006],[104.76580677500004,17.437851952000074],[104.77071864300007,17.41219073900004],[104.78375515200008,17.41811711200006]]]}},{"type":"Feature","properties":{"code":"480703","name":"หนองสังข์","parentCode":"4807"},"geometry":{"type":"Polygon","coordinates":[[[104.49244081600006,17.029166274000033],[104.42642907300007,17.003051796000022],[104.42167414200009,17.000820051000062],[104.46212906000005,16.961143770000035],[104.49354982700004,16.95983596900004],[104.51204997400004,16.960959699000057],[104.50005432200004,17.006957073000024],[104.49244081600006,17.029166274000033]]]}},{"type":"Feature","properties":{"code":"481102","name":"หนองซน","parentCode":"4811"},"geometry":{"type":"Polygon","coordinates":[[[104.18630240500005,17.911182508000024],[104.13413812400006,17.955929068000046],[104.12349390900005,17.921602508000035],[104.06945912000003,17.878159667000034],[104.07920663400006,17.869306004000066],[104.13034729800006,17.83345614600006],[104.13607772700004,17.785269777000053],[104.17884968300007,17.786631576000048],[104.18997542900007,17.82273271100007],[104.18630240500005,17.911182508000024]]]}},{"type":"Feature","properties":{"code":"480314","name":"หนองเทา","parentCode":"4803"},"geometry":{"type":"Polygon","coordinates":[[[104.39645700900007,17.753846442000054],[104.33510933200006,17.83699099300003],[104.31768185000004,17.825556996000046],[104.33960494900003,17.75222498100004],[104.37525261600007,17.720587083000055],[104.39645700900007,17.753846442000054]]]}},{"type":"Feature","properties":{"code":"480208","name":"หนองเทาใหญ่","parentCode":"4802"},"geometry":{"type":"Polygon","coordinates":[[[104.53895040700007,17.143464712000025],[104.52411731900008,17.16051606800005],[104.49258462300008,17.116224097000043],[104.51716458600004,17.096843294000053],[104.55803099100007,17.09121107800007],[104.53895040700007,17.143464712000025]]]}},{"type":"Feature","properties":{"code":"480404","name":"หนองแวง","parentCode":"4804"},"geometry":{"type":"Polygon","coordinates":[[[104.28072170200005,17.837192738000056],[104.26293093400005,17.862638193000066],[104.18997542900007,17.82273271100007],[104.17884968300007,17.786631576000048],[104.18618044600004,17.753899627000067],[104.24505486200007,17.724866993000035],[104.29980124700006,17.74438655700004],[104.28072170200005,17.837192738000056]]]}},{"type":"Feature","properties":{"code":"480607","name":"หนองย่างชิ้น","parentCode":"4806"},"geometry":{"type":"Polygon","coordinates":[[[104.71568043000008,17.035210317000065],[104.71786363700005,17.046252710000033],[104.68225203600008,17.03304753200007],[104.68227219800008,16.997786159000043],[104.71568043000008,17.035210317000065]]]}},{"type":"Feature","properties":{"code":"480112","name":"หนองญาติ","parentCode":"4801"},"geometry":{"type":"Polygon","coordinates":[[[104.77590441800004,17.368154616000027],[104.77510423400008,17.40257131100003],[104.75202215500008,17.400289084000065],[104.72406535100004,17.39177490800006],[104.72484897000004,17.369499473000076],[104.68239423700004,17.290804129000037],[104.68324701800009,17.28449864600003],[104.71732486300004,17.266950032000068],[104.72941657100006,17.289130632000024],[104.74196257000006,17.342013396000027],[104.77590441800004,17.368154616000027]]]}},{"type":"Feature","properties":{"code":"480402","name":"ไผ่ล้อม","parentCode":"4804"},"geometry":{"type":"Polygon","coordinates":[[[104.20075587500008,18.012252515000057],[104.18998160400008,18.023739802000023],[104.11171349400007,17.999453458000062],[104.13413812400006,17.955929068000046],[104.19880985300006,17.976072228000078],[104.20075587500008,18.012252515000057]]]}},{"type":"Feature","properties":{"code":"480305","name":"พนอม","parentCode":"4803"},"geometry":{"type":"Polygon","coordinates":[[[104.44836771800004,17.68283324400005],[104.39645700900007,17.753846442000054],[104.37525261600007,17.720587083000055],[104.33372371000007,17.697491179000053],[104.37757935300004,17.650535267000066],[104.44836771800004,17.68283324400005]]]}},{"type":"Feature","properties":{"code":"480306","name":"พะทาย","parentCode":"4803"},"geometry":{"type":"Polygon","coordinates":[[[104.33510933200006,17.83699099300003],[104.30079630700004,17.84538763000006],[104.28072170200005,17.837192738000056],[104.29980124700006,17.74438655700004],[104.33960494900003,17.75222498100004],[104.31768185000004,17.825556996000046],[104.33510933200006,17.83699099300003]]]}},{"type":"Feature","properties":{"code":"480705","name":"พิมาน","parentCode":"4807"},"geometry":{"type":"Polygon","coordinates":[[[104.60243839300006,16.986784014000023],[104.57768835800005,16.981229705000032],[104.53687213900008,16.950993115000074],[104.52600135500006,16.86308934300007],[104.54199971600008,16.865830198000026],[104.57067102300005,16.954650942000058],[104.60040332900007,16.97263180500005],[104.60243839300006,16.986784014000023]]]}},{"type":"Feature","properties":{"code":"480115","name":"โพธิ์ตาก","parentCode":"4801"},"geometry":{"type":"Polygon","coordinates":[[[104.72484897000004,17.369499473000076],[104.65950036700008,17.369937522000043],[104.66103154800004,17.328923195000073],[104.68239423700004,17.290804129000037],[104.72484897000004,17.369499473000076]]]}},{"type":"Feature","properties":{"code":"481004","name":"โพนบก","parentCode":"4810"},"geometry":{"type":"Polygon","coordinates":[[[104.55972387900005,17.43079959800002],[104.52657737900006,17.494821509000076],[104.48334067300004,17.467715605000024],[104.51496219500007,17.387255097000036],[104.53186116900008,17.401707156000043],[104.55972387900005,17.43079959800002]]]}},{"type":"Feature","properties":{"code":"481006","name":"โพนจาน","parentCode":"4810"},"geometry":{"type":"Polygon","coordinates":[[[104.44702596900004,17.365215431000024],[104.43613214100009,17.45513470000003],[104.41215909500005,17.458885830000042],[104.38553373000008,17.431862199000022],[104.33211261800005,17.445315454000024],[104.32216492500004,17.42922151700003],[104.41379600000005,17.42696077900007],[104.41270767900005,17.36140455800006],[104.44702596900004,17.365215431000024]]]}},{"type":"Feature","properties":{"code":"480503","name":"โพนแพง","parentCode":"4805"},"geometry":{"type":"Polygon","coordinates":[[[104.72188253000007,17.176888903000076],[104.66201997300004,17.16285997500006],[104.69962031500006,17.124026679000053],[104.72188253000007,17.176888903000076]]]}},{"type":"Feature","properties":{"code":"481001","name":"โพนสวรรค์","parentCode":"4810"},"geometry":{"type":"Polygon","coordinates":[[[104.48334067300004,17.467715605000024],[104.40712115300005,17.519554671000037],[104.41215909500005,17.458885830000042],[104.43613214100009,17.45513470000003],[104.44702596900004,17.365215431000024],[104.47948295000003,17.373776416000055],[104.51496219500007,17.387255097000036],[104.48334067300004,17.467715605000024]]]}},{"type":"Feature","properties":{"code":"480808","name":"โพนสว่าง","parentCode":"4808"},"geometry":{"type":"Polygon","coordinates":[[[104.19252651300008,17.568094291000023],[104.14189079900007,17.565029697000057],[104.12562942500006,17.537609313000075],[104.12654015000004,17.517926938000073],[104.17852222100004,17.502659970000025],[104.19960256000007,17.506309741000052],[104.19252651300008,17.568094291000023]]]}},{"type":"Feature","properties":{"code":"480403","name":"โพนทอง","parentCode":"4804"},"geometry":{"type":"Polygon","coordinates":[[[104.24539889600004,17.905191267000077],[104.22756986800005,17.93012819000006],[104.18630240500005,17.911182508000024],[104.18997542900007,17.82273271100007],[104.26293093400005,17.862638193000066],[104.24539889600004,17.905191267000077]]]}},{"type":"Feature","properties":{"code":"480602","name":"โพนทอง","parentCode":"4806"},"geometry":{"type":"Polygon","coordinates":[[[104.71120555600004,17.093500680000034],[104.67659690100004,17.076312275000078],[104.68099204500004,17.03312031400003],[104.68225203600008,17.03304753200007],[104.71786363700005,17.046252710000033],[104.71403017500006,17.08177389900004],[104.71120555600004,17.093500680000034]]]}},{"type":"Feature","properties":{"code":"480504","name":"พระกลางทุ่ง","parentCode":"4805"},"geometry":{"type":"Polygon","coordinates":[[[104.73410187100006,17.028917474000025],[104.71568043000008,17.035210317000065],[104.68227219800008,16.997786159000043],[104.67125898800003,16.98847674700005],[104.73417166000007,16.970537807000028],[104.73500512400005,17.028434891000074],[104.73410187100006,17.028917474000025]]]}},{"type":"Feature","properties":{"code":"480702","name":"พระซอง","parentCode":"4807"},"geometry":{"type":"Polygon","coordinates":[[[104.57279258900007,17.07754945800002],[104.51673563200006,17.007748975000027],[104.56274295900005,16.991371121000043],[104.58361158300005,17.02918139700006],[104.57325743300004,17.07395323000003],[104.57279258900007,17.07754945800002]]]}},{"type":"Feature","properties":{"code":"480706","name":"พุ่มแก","parentCode":"4807"},"geometry":{"type":"Polygon","coordinates":[[[104.63331671700007,16.95155767600005],[104.60466637200005,16.97369119600006],[104.56442063900005,16.864398865000055],[104.59242975000006,16.867043425000077],[104.62832921900008,16.863108625000052],[104.63818158600009,16.879131895000057],[104.63331671700007,16.95155767600005]]]}},{"type":"Feature","properties":{"code":"480201","name":"ปลาปาก","parentCode":"4802"},"geometry":{"type":"Polygon","coordinates":[[[104.55275109400009,17.28324702900005],[104.51584106000007,17.27691175700005],[104.52606707100006,17.23478430600005],[104.48183950400005,17.213682953000045],[104.45725688100003,17.175007234000077],[104.52411731900008,17.16051606800005],[104.53895040700007,17.143464712000025],[104.58261150800007,17.165583009000045],[104.55510243400005,17.21928069300003],[104.55275109400009,17.28324702900005]]]}},{"type":"Feature","properties":{"code":"480312","name":"รามราช","parentCode":"4803"},"geometry":{"type":"Polygon","coordinates":[[[104.62515202000009,17.51153368300004],[104.56172367400006,17.508620605000033],[104.60896734400006,17.44086952500004],[104.64756535700008,17.426938732000053],[104.66008812500007,17.434206577000054],[104.70704286300008,17.446133431000078],[104.70031823800008,17.47325246400004],[104.62515202000009,17.51153368300004]]]}},{"type":"Feature","properties":{"code":"480601","name":"เรณู","parentCode":"4806"},"geometry":{"type":"Polygon","coordinates":[[[104.67659690100004,17.076312275000078],[104.62775878900004,17.123058437000054],[104.60909928800004,17.099961544000053],[104.64965264800009,17.03878327500007],[104.68099204500004,17.03312031400003],[104.67659690100004,17.076312275000078]]]}},{"type":"Feature","properties":{"code":"480608","name":"เรณูใต้","parentCode":"4806"},"geometry":{"type":"Polygon","coordinates":[[[104.68099204500004,17.03312031400003],[104.64965264800009,17.03878327500007],[104.63260730800005,17.026019431000066],[104.65749275800005,16.992498873000045],[104.67125898800003,16.98847674700005],[104.68227219800008,16.997786159000043],[104.68225203600008,17.03304753200007],[104.68099204500004,17.03312031400003]]]}},{"type":"Feature","properties":{"code":"480506","name":"แสนพัน","parentCode":"4805"},"geometry":{"type":"Polygon","coordinates":[[[104.76522165400007,17.075748456000042],[104.73951810700004,17.083931755000037],[104.73410187100006,17.028917474000025],[104.73500512400005,17.028434891000074],[104.76522165400007,17.075748456000042]]]}},{"type":"Feature","properties":{"code":"480804","name":"สามผง","parentCode":"4808"},"geometry":{"type":"Polygon","coordinates":[[[104.17884968300007,17.786631576000048],[104.13607772700004,17.785269777000053],[104.10527293400008,17.737511609000023],[104.06658163400004,17.740210094000076],[104.07734806700006,17.706578019000062],[104.20367864900004,17.693369093000058],[104.24268254200007,17.686855905000073],[104.25381060300003,17.701432030000035],[104.24505486200007,17.724866993000035],[104.18618044600004,17.753899627000067],[104.17884968300007,17.786631576000048]]]}},{"type":"Feature","properties":{"code":"480715","name":"สีชมพู","parentCode":"4807"},"geometry":{"type":"Polygon","coordinates":[[[104.60466637200005,16.97369119600006],[104.60040332900007,16.97263180500005],[104.57067102300005,16.954650942000058],[104.54199971600008,16.865830198000026],[104.54973756200008,16.86648322600007],[104.56442063900005,16.864398865000055],[104.60466637200005,16.97369119600006]]]}},{"type":"Feature","properties":{"code":"480801","name":"ศรีสงคราม","parentCode":"4808"},"geometry":{"type":"Polygon","coordinates":[[[104.25381060300003,17.701432030000035],[104.24268254200007,17.686855905000073],[104.27360088400007,17.65429475700006],[104.23962335000004,17.614758866000045],[104.25496367000005,17.605392429000062],[104.30464449600004,17.614846336000028],[104.30052233300006,17.65851037400006],[104.25381060300003,17.701432030000035]]]}},{"type":"Feature","properties":{"code":"480805","name":"ท่าบ่อสงคราม","parentCode":"4808"},"geometry":{"type":"Polygon","coordinates":[[[104.24268254200007,17.686855905000073],[104.20367864900004,17.693369093000058],[104.15927781300007,17.672813149000035],[104.11958603400006,17.605493872000068],[104.19748656300004,17.580825108000056],[104.23962335000004,17.614758866000045],[104.27360088400007,17.65429475700006],[104.24268254200007,17.686855905000073]]]}},{"type":"Feature","properties":{"code":"480303","name":"ท่าจำปา","parentCode":"4803"},"geometry":{"type":"Polygon","coordinates":[[[104.56343513800005,17.601963241000078],[104.49216259500008,17.64009443200007],[104.44900543400007,17.589130830000045],[104.40303095900003,17.59617492500007],[104.41258912200004,17.54709474400005],[104.53510642800006,17.548659420000035],[104.55417715300007,17.592980503000035],[104.56343513800005,17.601963241000078]]]}},{"type":"Feature","properties":{"code":"480110","name":"ท่าค้อ","parentCode":"4801"},"geometry":{"type":"Polygon","coordinates":[[[104.80260892900009,17.274626381000076],[104.80401082100008,17.36801177800004],[104.77590441800004,17.368154616000027],[104.74196257000006,17.342013396000027],[104.72941657100006,17.289130632000024],[104.79016354600009,17.29580780400005],[104.80260892900009,17.274626381000076]]]}},{"type":"Feature","properties":{"code":"480603","name":"ท่าลาด","parentCode":"4806"},"geometry":{"type":"Polygon","coordinates":[[[104.60514390400004,17.02761151200002],[104.58361158300005,17.02918139700006],[104.56274295900005,16.991371121000043],[104.57768835800005,16.981229705000032],[104.60243839300006,16.986784014000023],[104.60514390400004,17.02761151200002]]]}},{"type":"Feature","properties":{"code":"480906","name":"ท่าเรือ","parentCode":"4809"},"geometry":{"type":"Polygon","coordinates":[[[104.09613412800007,17.53723227100005],[104.03932423100008,17.52382588100005],[104.02413932400003,17.502687003000062],[104.01321928700008,17.471909648000064],[104.06571660000009,17.486602150000067],[104.09613412800007,17.53723227100005]]]}},{"type":"Feature","properties":{"code":"480301","name":"ท่าอุเทน","parentCode":"4803"},"geometry":{"type":"Polygon","coordinates":[[[104.66786238500003,17.54661410600005],[104.56343513800005,17.601963241000078],[104.55417715300007,17.592980503000035],[104.56410869100006,17.57480318100005],[104.66141146100006,17.542401951000045],[104.66786238500003,17.54661410600005]]]}},{"type":"Feature","properties":{"code":"480501","name":"ธาตุพนม","parentCode":"4805"},"geometry":{"type":"Polygon","coordinates":[[[104.73554256400007,16.949260435000042],[104.67186312100006,16.954376230000037],[104.68792064900003,16.931216778000078],[104.73548363500004,16.926243679000038],[104.73554256400007,16.949260435000042]]]}},{"type":"Feature","properties":{"code":"480512","name":"ธาตุพนมเหนือ","parentCode":"4805"},"geometry":{"type":"Polygon","coordinates":[[[104.67125898800003,16.98847674700005],[104.65749275800005,16.992498873000045],[104.64895910700005,16.96038855300003],[104.65761252100003,16.953595353000026],[104.67186312100006,16.954376230000037],[104.73554256400007,16.949260435000042],[104.73417166000007,16.970537807000028],[104.67125898800003,16.98847674700005]]]}},{"type":"Feature","properties":{"code":"480509","name":"อุ่มเหม้า","parentCode":"4805"},"geometry":{"type":"Polygon","coordinates":[[[104.69103175400005,16.88856439600005],[104.67457110500004,16.884940777000054],[104.63818158600009,16.879131895000057],[104.62832921900008,16.863108625000052],[104.65998811600008,16.792268300000046],[104.69235618900007,16.79042377600007],[104.71052544000008,16.82831128400005],[104.69103175400005,16.88856439600005]]]}},{"type":"Feature","properties":{"code":"480114","name":"วังตามัว","parentCode":"4801"},"geometry":{"type":"Polygon","coordinates":[[[104.51584106000007,17.27691175700005],[104.52745181800009,17.31462460700004],[104.47948295000003,17.373776416000055],[104.44702596900004,17.365215431000024],[104.41270767900005,17.36140455800006],[104.41604005400006,17.321296460000042],[104.41604987800008,17.32124114900006],[104.46383484100005,17.284998076000022],[104.51584106000007,17.27691175700005]]]}},{"type":"Feature","properties":{"code":"481201","name":"วังยาง","parentCode":"4812"},"geometry":{"type":"Polygon","coordinates":[[[104.48975636300008,17.035993658000052],[104.45344018700007,17.11770580800004],[104.40881935600004,17.138654186000053],[104.39679045900004,17.12958690100004],[104.41919100000007,17.072268801000064],[104.40338121100007,17.038155379000045],[104.41247332200004,17.01030588900005],[104.42642907300007,17.003051796000022],[104.49244081600006,17.029166274000033],[104.48975636300008,17.035993658000052]]]}},{"type":"Feature","properties":{"code":"480311","name":"เวินพระบาท","parentCode":"4803"},"geometry":{"type":"Polygon","coordinates":[[[104.72793005900007,17.49150611300007],[104.66786238500003,17.54661410600005],[104.66141146100006,17.542401951000045],[104.62515202000009,17.51153368300004],[104.70031823800008,17.47325246400004],[104.72793005900007,17.49150611300007]]]}},{"type":"Feature","properties":{"code":"481203","name":"ยอดชาด","parentCode":"4812"},"geometry":{"type":"Polygon","coordinates":[[[104.40338121100007,17.038155379000045],[104.41919100000007,17.072268801000064],[104.39679045900004,17.12958690100004],[104.36236801700005,17.099424466000073],[104.35260226400004,17.069355047000045],[104.39668693900006,17.034422492000033],[104.40338121100007,17.038155379000045]]]}}]}