{"type":"FeatureCollection","features":[{"type":"Feature","properties":{"code":"490305","name":"บ้านบาก","parentCode":"4903"},"geometry":{"type":"Polygon","coordinates":[[[104.95636219200009,16.27787944100004],[104.87889603500008,16.26579061900003],[104.82759764200006,16.25672509700007],[104.77732234400008,16.197769188000052],[104.87320060900004,16.20900933000007],[104.88558782700005,16.23516308300003],[104.95636219200009,16.27787944100004]]]}},{"type":"Feature","properties":{"code":"490307","name":"บ้านแก้ง","parentCode":"4903"},"geometry":{"type":"Polygon","coordinates":[[[104.84847107200005,16.426907458000073],[104.77954840500007,16.426412581000022],[104.77918738900007,16.409780434000027],[104.83749089600008,16.38976176500006],[104.84847107200005,16.426907458000073]]]}},{"type":"Feature","properties":{"code":"490506","name":"บ้านค้อ","parentCode":"4905"},"geometry":{"type":"Polygon","coordinates":[[[104.38465993900007,16.728328437000073],[104.28494256900007,16.759124755000073],[104.26756251400008,16.74673141200003],[104.30678259200005,16.700130744000035],[104.43137749200008,16.62093827900003],[104.44268320700007,16.62805496200002],[104.40827825700006,16.662529821000078],[104.38465993900007,16.728328437000073]]]}},{"type":"Feature","properties":{"code":"490103","name":"บ้านโคก","parentCode":"4901"},"geometry":{"type":"Polygon","coordinates":[[[104.62359098800005,16.662290089000066],[104.59369232200004,16.68918763800002],[104.53832437900007,16.669255563000036],[104.50694598000007,16.625119425000037],[104.51457713800005,16.560590449000074],[104.51596308800003,16.54812910100003],[104.53646099800005,16.54468811000004],[104.54605906300009,16.583594701000038],[104.59468829700006,16.61022713600005],[104.62359098800005,16.662290089000066]]]}},{"type":"Feature","properties":{"code":"490507","name":"บ้านเหล่า","parentCode":"4905"},"geometry":{"type":"Polygon","coordinates":[[[104.43137749200008,16.62093827900003],[104.30678259200005,16.700130744000035],[104.26756251400008,16.74673141200003],[104.23197191900005,16.686171453000043],[104.35577883100007,16.59677717200003],[104.41864349000008,16.606665785000075],[104.43137749200008,16.62093827900003]]]}},{"type":"Feature","properties":{"code":"490704","name":"บ้านเป้า","parentCode":"4907"},"geometry":{"type":"Polygon","coordinates":[[[104.32496034700006,16.357934517000047],[104.36247115000003,16.428631147000033],[104.33198618600005,16.459595843000045],[104.31121288700007,16.45239656900003],[104.31815580200004,16.375188739000066],[104.32496034700006,16.357934517000047]]]}},{"type":"Feature","properties":{"code":"490503","name":"บ้านซ่ง","parentCode":"4905"},"geometry":{"type":"Polygon","coordinates":[[[104.47488990600004,16.587096092000024],[104.41864349000008,16.606665785000075],[104.43468850900007,16.534034443000053],[104.44456413700004,16.529505362000066],[104.47192470100003,16.529066301000057],[104.47488990600004,16.587096092000024]]]}},{"type":"Feature","properties":{"code":"490603","name":"บางทรายน้อย","parentCode":"4906"},"geometry":{"type":"Polygon","coordinates":[[[104.75262392400003,16.654683547000047],[104.70438450000006,16.68608098200002],[104.69319360500003,16.675235850000035],[104.74233543100007,16.626180987000055],[104.75262392400003,16.654683547000047]]]}},{"type":"Feature","properties":{"code":"490104","name":"บางทรายใหญ่","parentCode":"4901"},"geometry":{"type":"Polygon","coordinates":[[[104.69319360500003,16.675235850000035],[104.64828332100006,16.668050660000063],[104.65379979900007,16.61254703900005],[104.73755120900006,16.58563539900007],[104.74233543100007,16.626180987000055],[104.69319360500003,16.675235850000035]]]}},{"type":"Feature","properties":{"code":"490604","name":"ชะโนด","parentCode":"4906"},"geometry":{"type":"Polygon","coordinates":[[[104.76180793400005,16.68706259100003],[104.71273963900006,16.69922719500005],[104.70438450000006,16.68608098200002],[104.75262392400003,16.654683547000047],[104.76180793400005,16.68706259100003]]]}},{"type":"Feature","properties":{"code":"490405","name":"ชะโนดน้อย","parentCode":"4904"},"geometry":{"type":"Polygon","coordinates":[[[104.62832921900008,16.863108625000052],[104.59242975000006,16.867043425000077],[104.58638772300009,16.76445274200006],[104.64434801800007,16.75914017300005],[104.65998811600008,16.792268300000046],[104.62832921900008,16.863108625000052]]]}},{"type":"Feature","properties":{"code":"490206","name":"โชคชัย","parentCode":"4902"},"geometry":{"type":"Polygon","coordinates":[[[104.53831308300005,16.31719484100006],[104.51013773900007,16.37931099900004],[104.45794877900005,16.371181354000043],[104.45267968200005,16.34343741400005],[104.50661579300004,16.330438626000046],[104.53831308300005,16.31719484100006]]]}},{"type":"Feature","properties":{"code":"490301","name":"ดอนตาล","parentCode":"4903"},"geometry":{"type":"Polygon","coordinates":[[[104.89263271400006,16.345563385000048],[104.88339821400007,16.345971854000027],[104.87889603500008,16.26579061900003],[104.95636219200009,16.27787944100004],[104.97872389200006,16.279131600000028],[104.92996848200005,16.332005381000045],[104.89263271400006,16.345563385000048]]]}},{"type":"Feature","properties":{"code":"490401","name":"ดงหลวง","parentCode":"4904"},"geometry":{"type":"Polygon","coordinates":[[[104.44151913800005,16.87250631200004],[104.41123899000007,16.892676379000022],[104.42041177500005,16.840615900000046],[104.45874921400008,16.81265813600004],[104.53798039200007,16.769840599000077],[104.55688289000005,16.80015067900007],[104.54973756200008,16.86648322600007],[104.54199971600008,16.865830198000026],[104.52600135500006,16.86308934300007],[104.44151913800005,16.87250631200004]]]}},{"type":"Feature","properties":{"code":"490112","name":"ดงมอน","parentCode":"4901"},"geometry":{"type":"Polygon","coordinates":[[[104.54579636800008,16.72761465800005],[104.50647531600004,16.739222943000073],[104.45109400900009,16.71425845500005],[104.45934786100008,16.651752315000067],[104.50694598000007,16.625119425000037],[104.53832437900007,16.669255563000036],[104.54579636800008,16.72761465800005]]]}},{"type":"Feature","properties":{"code":"490605","name":"ดงหมู","parentCode":"4906"},"geometry":{"type":"Polygon","coordinates":[[[104.72341287100005,16.80895859700007],[104.71052544000008,16.82831128400005],[104.69235618900007,16.79042377600007],[104.70710882800006,16.78619512000006],[104.72341287100005,16.80895859700007]]]}},{"type":"Feature","properties":{"code":"490111","name":"ดงเย็น","parentCode":"4901"},"geometry":{"type":"Polygon","coordinates":[[[104.77954840500007,16.426412581000022],[104.73440200600004,16.442082071000073],[104.67298173100005,16.445117930000038],[104.63789763200003,16.41931054300005],[104.64021731200006,16.368268741000065],[104.62480959300007,16.33539726300006],[104.65218867200008,16.328131607000046],[104.66135443700006,16.270345768000027],[104.72518696100008,16.310594225000045],[104.76299724800003,16.404615015000047],[104.77918738900007,16.409780434000027],[104.77954840500007,16.426412581000022]]]}},{"type":"Feature","properties":{"code":"490110","name":"คำอาฮวน","parentCode":"4901"},"geometry":{"type":"Polygon","coordinates":[[[104.71070888100007,16.524828418000027],[104.66986687100007,16.54354330500007],[104.61498309100006,16.53759922200004],[104.60016220200004,16.50849908600003],[104.60330490000007,16.457289823000053],[104.63789763200003,16.41931054300005],[104.67298173100005,16.445117930000038],[104.73440200600004,16.442082071000073],[104.71070888100007,16.524828418000027]]]}},{"type":"Feature","properties":{"code":"490512","name":"คำบก","parentCode":"4905"},"geometry":{"type":"Polygon","coordinates":[[[104.43468850900007,16.534034443000053],[104.40608319300009,16.53392013100006],[104.36023583400004,16.500868832000037],[104.37677836200004,16.487510343000054],[104.38332898300007,16.48211679900004],[104.44597394500005,16.47207187300006],[104.44456413700004,16.529505362000066],[104.43468850900007,16.534034443000053]]]}},{"type":"Feature","properties":{"code":"490109","name":"คำป่าหลาย","parentCode":"4901"},"geometry":{"type":"Polygon","coordinates":[[[104.69235618900007,16.79042377600007],[104.65998811600008,16.792268300000046],[104.64434801800007,16.75914017300005],[104.58638772300009,16.76445274200006],[104.57653182800004,16.75618171900004],[104.54579636800008,16.72761465800005],[104.53832437900007,16.669255563000036],[104.59369232200004,16.68918763800002],[104.62359098800005,16.662290089000066],[104.64828332100006,16.668050660000063],[104.69319360500003,16.675235850000035],[104.70438450000006,16.68608098200002],[104.71273963900006,16.69922719500005],[104.69661165200006,16.736325419000025],[104.70710882800006,16.78619512000006],[104.69235618900007,16.79042377600007]]]}},{"type":"Feature","properties":{"code":"490504","name":"คำชะอี","parentCode":"4905"},"geometry":{"type":"Polygon","coordinates":[[[104.23197191900005,16.686171453000043],[104.19909079400009,16.66002331800007],[104.17708392600008,16.597859693000032],[104.22106505200009,16.542185678000067],[104.30703369300005,16.53145612000003],[104.36023583400004,16.500868832000037],[104.40608319300009,16.53392013100006],[104.36658269100008,16.55649625800004],[104.35577883100007,16.59677717200003],[104.23197191900005,16.686171453000043]]]}},{"type":"Feature","properties":{"code":"490204","name":"กกแดง","parentCode":"4902"},"geometry":{"type":"Polygon","coordinates":[[[104.53956554900009,16.423637963000033],[104.47401801300003,16.449156842000036],[104.47071953000005,16.445016418000023],[104.45794877900005,16.371181354000043],[104.51013773900007,16.37931099900004],[104.54919865100004,16.38335083800007],[104.53956554900009,16.423637963000033]]]}},{"type":"Feature","properties":{"code":"490403","name":"กกตูม","parentCode":"4904"},"geometry":{"type":"Polygon","coordinates":[[[104.18648036000008,16.667377947000034],[104.19909079400009,16.66002331800007],[104.23197191900005,16.686171453000043],[104.26756251400008,16.74673141200003],[104.28494256900007,16.759124755000073],[104.29602014900007,16.837767927000073],[104.24840135900007,16.871934599000042],[104.25217686200006,16.906934723000063],[104.20830305400005,16.872980178000034],[104.11935609000005,16.880306292000057],[104.10464790600008,16.836462680000068],[104.07010685000006,16.82129992800003],[104.09055722100004,16.810917345000064],[104.09871321400004,16.784213385000044],[104.13081013100003,16.741552288000037],[104.14461241900005,16.723017567000056],[104.18648036000008,16.667377947000034]]]}},{"type":"Feature","properties":{"code":"490113","name":"กุดแข้","parentCode":"4901"},"geometry":{"type":"Polygon","coordinates":[[[104.59468829700006,16.61022713600005],[104.54605906300009,16.583594701000038],[104.53646099800005,16.54468811000004],[104.55789540700005,16.540354063000052],[104.59468829700006,16.61022713600005]]]}},{"type":"Feature","properties":{"code":"490304","name":"เหล่าหมี","parentCode":"4903"},"geometry":{"type":"Polygon","coordinates":[[[104.83749089600008,16.38976176500006],[104.77918738900007,16.409780434000027],[104.76299724800003,16.404615015000047],[104.72518696100008,16.310594225000045],[104.70980351200006,16.289352746000077],[104.75199838500004,16.266091608000067],[104.78745155000007,16.29451683800005],[104.83831925700008,16.317380236000076],[104.85179646700004,16.351811036000072],[104.83749089600008,16.38976176500006]]]}},{"type":"Feature","properties":{"code":"490511","name":"เหล่าสร้างถ่อ","parentCode":"4905"},"geometry":{"type":"Polygon","coordinates":[[[104.51457713800005,16.560590449000074],[104.48516745300009,16.603760531000034],[104.47488990600004,16.587096092000024],[104.47192470100003,16.529066301000057],[104.51596308800003,16.54812910100003],[104.51457713800005,16.560590449000074]]]}},{"type":"Feature","properties":{"code":"490101","name":"มุกดาหาร","parentCode":"4901"},"geometry":{"type":"Polygon","coordinates":[[[104.73755120900006,16.58563539900007],[104.65379979900007,16.61254703900005],[104.61498309100006,16.53759922200004],[104.66986687100007,16.54354330500007],[104.71070888100007,16.524828418000027],[104.71451943200009,16.52795167000005],[104.73629090900005,16.54272224500005],[104.73755120900006,16.58563539900007]]]}},{"type":"Feature","properties":{"code":"490202","name":"นากอก","parentCode":"4902"},"geometry":{"type":"Polygon","coordinates":[[[104.56685445000005,16.40604969700007],[104.53956554900009,16.423637963000033],[104.54919865100004,16.38335083800007],[104.60634272300007,16.316416229000026],[104.62480959300007,16.33539726300006],[104.64021731200006,16.368268741000065],[104.61668821400008,16.359276735000037],[104.56685445000005,16.40604969700007]]]}},{"type":"Feature","properties":{"code":"490306","name":"นาสะเม็ง","parentCode":"4903"},"geometry":{"type":"Polygon","coordinates":[[[104.88339821400007,16.345971854000027],[104.85179646700004,16.351811036000072],[104.83831925700008,16.317380236000076],[104.78745155000007,16.29451683800005],[104.80232844700004,16.24908324200004],[104.82759764200006,16.25672509700007],[104.87889603500008,16.26579061900003],[104.88339821400007,16.345971854000027]]]}},{"type":"Feature","properties":{"code":"490108","name":"นาสีนวน","parentCode":"4901"},"geometry":{"type":"Polygon","coordinates":[[[104.75724018700004,16.511970829000063],[104.71451943200009,16.52795167000005],[104.71070888100007,16.524828418000027],[104.73440200600004,16.442082071000073],[104.77954840500007,16.426412581000022],[104.84847107200005,16.426907458000073],[104.86012962800004,16.428825489000076],[104.84436397700006,16.455802474000052],[104.75724018700004,16.511970829000063]]]}},{"type":"Feature","properties":{"code":"490107","name":"นาโสก","parentCode":"4901"},"geometry":{"type":"Polygon","coordinates":[[[104.53646099800005,16.54468811000004],[104.51596308800003,16.54812910100003],[104.47192470100003,16.529066301000057],[104.44456413700004,16.529505362000066],[104.44597394500005,16.47207187300006],[104.47401801300003,16.449156842000036],[104.53956554900009,16.423637963000033],[104.56685445000005,16.40604969700007],[104.60330490000007,16.457289823000053],[104.60016220200004,16.50849908600003],[104.55789540700005,16.540354063000052],[104.53646099800005,16.54468811000004]]]}},{"type":"Feature","properties":{"code":"490205","name":"นาอุดม","parentCode":"4902"},"geometry":{"type":"Polygon","coordinates":[[[104.66135443700006,16.270345768000027],[104.65218867200008,16.328131607000046],[104.62480959300007,16.33539726300006],[104.60634272300007,16.316416229000026],[104.56268434900005,16.283284998000056],[104.55674777900003,16.260521819000076],[104.62705030800004,16.211229995000053],[104.66334631200004,16.243951980000077],[104.66135443700006,16.270345768000027]]]}},{"type":"Feature","properties":{"code":"490514","name":"น้ำเที่ยง","parentCode":"4905"},"geometry":{"type":"Polygon","coordinates":[[[104.43468850900007,16.534034443000053],[104.41864349000008,16.606665785000075],[104.35577883100007,16.59677717200003],[104.36658269100008,16.55649625800004],[104.40608319300009,16.53392013100006],[104.43468850900007,16.534034443000053]]]}},{"type":"Feature","properties":{"code":"490201","name":"นิคมคำสร้อย","parentCode":"4902"},"geometry":{"type":"Polygon","coordinates":[[[104.54919865100004,16.38335083800007],[104.51013773900007,16.37931099900004],[104.53831308300005,16.31719484100006],[104.56268434900005,16.283284998000056],[104.60634272300007,16.316416229000026],[104.54919865100004,16.38335083800007]]]}},{"type":"Feature","properties":{"code":"490702","name":"โนนยาง","parentCode":"4907"},"geometry":{"type":"Polygon","coordinates":[[[104.30703369300005,16.53145612000003],[104.22106505200009,16.542185678000067],[104.23883462000003,16.491855678000036],[104.23785792300004,16.428572174000067],[104.28957218200009,16.471616924000045],[104.31121288700007,16.45239656900003],[104.33198618600005,16.459595843000045],[104.34414696800008,16.471158132000028],[104.30703369300005,16.53145612000003]]]}},{"type":"Feature","properties":{"code":"490402","name":"หนองบัว","parentCode":"4904"},"geometry":{"type":"Polygon","coordinates":[[[104.56442063900005,16.864398865000055],[104.54973756200008,16.86648322600007],[104.55688289000005,16.80015067900007],[104.53798039200007,16.769840599000077],[104.57653182800004,16.75618171900004],[104.58638772300009,16.76445274200006],[104.59242975000006,16.867043425000077],[104.56442063900005,16.864398865000055]]]}},{"type":"Feature","properties":{"code":"490505","name":"หนองเอี่ยน","parentCode":"4905"},"geometry":{"type":"Polygon","coordinates":[[[104.48516745300009,16.603760531000034],[104.45659612700007,16.63360573700004],[104.44268320700007,16.62805496200002],[104.43137749200008,16.62093827900003],[104.41864349000008,16.606665785000075],[104.47488990600004,16.587096092000024],[104.48516745300009,16.603760531000034]]]}},{"type":"Feature","properties":{"code":"490404","name":"หนองแคน","parentCode":"4904"},"geometry":{"type":"Polygon","coordinates":[[[104.53798039200007,16.769840599000077],[104.45874921400008,16.81265813600004],[104.46941799700005,16.791508841000052],[104.41649942700008,16.731463159000043],[104.40987867900009,16.68460436600003],[104.45109400900009,16.71425845500005],[104.50647531600004,16.739222943000073],[104.54579636800008,16.72761465800005],[104.57653182800004,16.75618171900004],[104.53798039200007,16.769840599000077]]]}},{"type":"Feature","properties":{"code":"490701","name":"หนองสูง","parentCode":"4907"},"geometry":{"type":"Polygon","coordinates":[[[104.38332898300007,16.48211679900004],[104.37677836200004,16.487510343000054],[104.34414696800008,16.471158132000028],[104.33198618600005,16.459595843000045],[104.36247115000003,16.428631147000033],[104.38332898300007,16.48211679900004]]]}},{"type":"Feature","properties":{"code":"490706","name":"หนองสูงเหนือ","parentCode":"4907"},"geometry":{"type":"Polygon","coordinates":[[[104.36023583400004,16.500868832000037],[104.30703369300005,16.53145612000003],[104.34414696800008,16.471158132000028],[104.37677836200004,16.487510343000054],[104.36023583400004,16.500868832000037]]]}},{"type":"Feature","properties":{"code":"490705","name":"หนองสูงใต้","parentCode":"4907"},"geometry":{"type":"Polygon","coordinates":[[[104.45745861300009,16.42769393100002],[104.42110170800004,16.44812012700004],[104.36247115000003,16.428631147000033],[104.32496034700006,16.357934517000047],[104.34800461400005,16.323211225000023],[104.36721472000005,16.340916377000042],[104.40004486300006,16.346589562000077],[104.42338326000004,16.40345370600005],[104.45745861300009,16.42769393100002]]]}},{"type":"Feature","properties":{"code":"490203","name":"หนองแวง","parentCode":"4902"},"geometry":{"type":"Polygon","coordinates":[[[104.60330490000007,16.457289823000053],[104.56685445000005,16.40604969700007],[104.61668821400008,16.359276735000037],[104.64021731200006,16.368268741000065],[104.63789763200003,16.41931054300005],[104.60330490000007,16.457289823000053]]]}},{"type":"Feature","properties":{"code":"490303","name":"ป่าไร่","parentCode":"4903"},"geometry":{"type":"Polygon","coordinates":[[[104.78745155000007,16.29451683800005],[104.75199838500004,16.266091608000067],[104.70980351200006,16.289352746000077],[104.72518696100008,16.310594225000045],[104.66135443700006,16.270345768000027],[104.66334631200004,16.243951980000077],[104.71646693900004,16.20393193500007],[104.76607414700004,16.196444264000036],[104.77732234400008,16.197769188000052],[104.82759764200006,16.25672509700007],[104.80232844700004,16.24908324200004],[104.78745155000007,16.29451683800005]]]}},{"type":"Feature","properties":{"code":"490406","name":"พังแดง","parentCode":"4904"},"geometry":{"type":"Polygon","coordinates":[[[104.41123899000007,16.892676379000022],[104.40735131000008,16.896195130000024],[104.39810769100006,16.837871585000073],[104.35579780200004,16.880055689000073],[104.31942663800004,16.87465980500002],[104.29602014900007,16.837767927000073],[104.28494256900007,16.759124755000073],[104.38465993900007,16.728328437000073],[104.40987867900009,16.68460436600003],[104.41649942700008,16.731463159000043],[104.46941799700005,16.791508841000052],[104.45874921400008,16.81265813600004],[104.42041177500005,16.840615900000046],[104.41123899000007,16.892676379000022]]]}},{"type":"Feature","properties":{"code":"490302","name":"โพธิ์ไทร","parentCode":"4903"},"geometry":{"type":"Polygon","coordinates":[[[104.89263271400006,16.345563385000048],[104.86012962800004,16.428825489000076],[104.84847107200005,16.426907458000073],[104.83749089600008,16.38976176500006],[104.85179646700004,16.351811036000072],[104.88339821400007,16.345971854000027],[104.89263271400006,16.345563385000048]]]}},{"type":"Feature","properties":{"code":"490508","name":"โพนงาม","parentCode":"4905"},"geometry":{"type":"Polygon","coordinates":[[[104.40987867900009,16.68460436600003],[104.38465993900007,16.728328437000073],[104.40827825700006,16.662529821000078],[104.44268320700007,16.62805496200002],[104.45659612700007,16.63360573700004],[104.45934786100008,16.651752315000067],[104.45109400900009,16.71425845500005],[104.40987867900009,16.68460436600003]]]}},{"type":"Feature","properties":{"code":"490105","name":"โพนทราย","parentCode":"4901"},"geometry":{"type":"Polygon","coordinates":[[[104.64828332100006,16.668050660000063],[104.62359098800005,16.662290089000066],[104.59468829700006,16.61022713600005],[104.55789540700005,16.540354063000052],[104.60016220200004,16.50849908600003],[104.61498309100006,16.53759922200004],[104.65379979900007,16.61254703900005],[104.64828332100006,16.668050660000063]]]}},{"type":"Feature","properties":{"code":"490703","name":"ภูวง","parentCode":"4907"},"geometry":{"type":"Polygon","coordinates":[[[104.44597394500005,16.47207187300006],[104.38332898300007,16.48211679900004],[104.36247115000003,16.428631147000033],[104.42110170800004,16.44812012700004],[104.45745861300009,16.42769393100002],[104.47071953000005,16.445016418000023],[104.47401801300003,16.449156842000036],[104.44597394500005,16.47207187300006]]]}},{"type":"Feature","properties":{"code":"490106","name":"ผึ่งแดด","parentCode":"4901"},"geometry":{"type":"Polygon","coordinates":[[[104.50694598000007,16.625119425000037],[104.45934786100008,16.651752315000067],[104.45659612700007,16.63360573700004],[104.48516745300009,16.603760531000034],[104.51457713800005,16.560590449000074],[104.50694598000007,16.625119425000037]]]}},{"type":"Feature","properties":{"code":"490602","name":"ป่งขาม","parentCode":"4906"},"geometry":{"type":"Polygon","coordinates":[[[104.69661165200006,16.736325419000025],[104.75871581600006,16.72926244200005],[104.73726180000006,16.80471362800006],[104.72341287100005,16.80895859700007],[104.70710882800006,16.78619512000006],[104.69661165200006,16.736325419000025]]]}},{"type":"Feature","properties":{"code":"490207","name":"ร่มเกล้า","parentCode":"4902"},"geometry":{"type":"Polygon","coordinates":[[[104.45794877900005,16.371181354000043],[104.47071953000005,16.445016418000023],[104.45745861300009,16.42769393100002],[104.42338326000004,16.40345370600005],[104.40004486300006,16.346589562000077],[104.45267968200005,16.34343741400005],[104.45794877900005,16.371181354000043]]]}},{"type":"Feature","properties":{"code":"490102","name":"ศรีบุญเรือง","parentCode":"4901"},"geometry":{"type":"Polygon","coordinates":[[[104.75724018700004,16.511970829000063],[104.73629090900005,16.54272224500005],[104.71451943200009,16.52795167000005],[104.75724018700004,16.511970829000063]]]}},{"type":"Feature","properties":{"code":"490601","name":"หว้านใหญ่","parentCode":"4906"},"geometry":{"type":"Polygon","coordinates":[[[104.75871581600006,16.72926244200005],[104.69661165200006,16.736325419000025],[104.71273963900006,16.69922719500005],[104.76180793400005,16.68706259100003],[104.75871581600006,16.72926244200005]]]}}]}