{"type":"FeatureCollection","features":[{"type":"Feature","properties":{"code":"501704","name":"บ้านแอ่น","parentCode":"5017"},"geometry":{"type":"Polygon","coordinates":[[[98.66326952500003,18.06160244600005],[98.64195593100004,18.080968873000074],[98.59200101700009,18.07166232800006],[98.60861782600006,18.03162818100003],[98.66326952500003,18.06160244600005]]]}},{"type":"Feature","properties":{"code":"502501","name":"บ้านจันทร์","parentCode":"5025"},"geometry":{"type":"Polygon","coordinates":[[[98.37026924900005,19.085586377000027],[98.32529505200006,19.15579918700007],[98.24311915900006,19.153501365000068],[98.23043657000005,19.089503767000053],[98.25172106400004,19.05890034300006],[98.32308500800008,19.04258460500006],[98.31286430600005,19.023206908000077],[98.36883529400006,18.97919329000007],[98.41187110100003,19.03161849600008],[98.37026924900005,19.085586377000027]]]}},{"type":"Feature","properties":{"code":"500611","name":"บ้านช้าง","parentCode":"5006"},"geometry":{"type":"Polygon","coordinates":[[[98.87232868600006,19.175249762000078],[98.82219253100004,19.19155865700003],[98.84236124100005,19.12856442800006],[98.87613147500008,19.101034901000048],[98.89939494500004,19.131747951000023],[98.87232868600006,19.175249762000078]]]}},{"type":"Feature","properties":{"code":"502201","name":"บ้านกาด","parentCode":"5022"},"geometry":{"type":"Polygon","coordinates":[[[98.83464062700006,18.60566407700003],[98.81928107800007,18.599194270000055],[98.72434022500005,18.663043850000065],[98.71892977500005,18.62230916900006],[98.82071057500008,18.586733560000027],[98.83652975700005,18.583602404000032],[98.83464062700006,18.60566407700003]]]}},{"type":"Feature","properties":{"code":"501207","name":"บ้านกลาง","parentCode":"5012"},"geometry":{"type":"Polygon","coordinates":[[[98.87995530900008,18.574236520000056],[98.88906005600006,18.59546249300007],[98.86560932400005,18.593869993000055],[98.85950747000004,18.593820505000053],[98.86045712400005,18.549726212000053],[98.87747577000005,18.54627374000006],[98.90929485000004,18.547005084000034],[98.87995530900008,18.574236520000056]]]}},{"type":"Feature","properties":{"code":"500203","name":"บ้านหลวง","parentCode":"5002"},"geometry":{"type":"Polygon","coordinates":[[[98.69001189900007,18.535401981000064],[98.62398487900003,18.59980338400004],[98.59537693600004,18.581684822000057],[98.48777166000008,18.592997336000053],[98.49233025900008,18.53825732200005],[98.51061332700004,18.48960481900002],[98.47872121300009,18.468194191000066],[98.48855472300005,18.419713556000033],[98.49885289000008,18.404349180000054],[98.64166538000006,18.427419223000072],[98.68406987700007,18.40729447800004],[98.69529034500005,18.411802375000036],[98.69504488400008,18.420082447000027],[98.65814753600006,18.46895792400005],[98.72766480300004,18.50024138300006],[98.69001189900007,18.535401981000064]]]}},{"type":"Feature","properties":{"code":"501006","name":"บ้านหลวง","parentCode":"5010"},"geometry":{"type":"Polygon","coordinates":[[[99.31136967600008,19.93263382600003],[99.27004800800006,19.93913788900005],[99.25278605000005,19.908826731000033],[99.29598087100004,19.881898136000075],[99.36152524500005,19.77732618700003],[99.42067977200008,19.822170236000034],[99.38126585000003,19.888308120000033],[99.39992822700003,19.912171430000058],[99.31136967600008,19.93263382600003]]]}},{"type":"Feature","properties":{"code":"501206","name":"บ้านแม","parentCode":"5012"},"geometry":{"type":"Polygon","coordinates":[[[98.86566861200004,18.636928943000044],[98.81836432100005,18.67531008700007],[98.83840401500004,18.61629559100004],[98.85950747000004,18.593820505000053],[98.86560932400005,18.593869993000055],[98.86566861200004,18.636928943000044]]]}},{"type":"Feature","properties":{"code":"500206","name":"บ้านแปะ","parentCode":"5002"},"geometry":{"type":"Polygon","coordinates":[[[98.53206127200008,18.33951182100003],[98.46762222200005,18.36645677300004],[98.46041080700007,18.269604211000058],[98.42061418300005,18.246774525000035],[98.43735387800007,18.23248452200005],[98.47781166900006,18.221611394000035],[98.55403968400003,18.233667824000065],[98.63420680000007,18.182238909000034],[98.73802375900004,18.154734826000038],[98.69062006400009,18.182609128000024],[98.70219715900004,18.25206639000004],[98.62928844500004,18.269144308000023],[98.62302353000007,18.290907151000056],[98.55794854100009,18.284800849000078],[98.53206127200008,18.33951182100003]]]}},{"type":"Feature","properties":{"code":"500607","name":"บ้านเป้า","parentCode":"5006"},"geometry":{"type":"Polygon","coordinates":[[[99.07684222500006,19.26237414800005],[98.96965942300005,19.266410393000058],[98.97054564600006,19.206621374000065],[99.01182754800004,19.153171738000026],[99.03920083700007,19.160914193000053],[99.15392281600003,19.200440582000056],[99.07684222500006,19.26237414800005]]]}},{"type":"Feature","properties":{"code":"501106","name":"บ้านโป่ง","parentCode":"5011"},"geometry":{"type":"Polygon","coordinates":[[[99.13344319100008,19.411574278000046],[99.09768893400008,19.38302403700004],[99.10586191600004,19.372657927000034],[99.18741107800008,19.366812123000045],[99.18537298900009,19.375342386000057],[99.13344319100008,19.411574278000046]]]}},{"type":"Feature","properties":{"code":"501510","name":"บ้านปง","parentCode":"5015"},"geometry":{"type":"Polygon","coordinates":[[[98.86761333100009,18.838004959000045],[98.85467231000007,18.85844219200004],[98.79080543000003,18.848919582000065],[98.80318037300003,18.782849681000073],[98.88952752600005,18.73500281200006],[98.89885383600006,18.745195968000075],[98.89250418600005,18.765976224000042],[98.86201040800006,18.800337889000048],[98.86761333100009,18.838004959000045]]]}},{"type":"Feature","properties":{"code":"502303","name":"บ้านสหกรณ์","parentCode":"5023"},"geometry":{"type":"Polygon","coordinates":[[[99.33380048100008,18.854046297000025],[99.27733105100003,18.841532218000054],[99.25612262600004,18.882485571000075],[99.23481378700006,18.868762795000066],[99.20727043900007,18.813453793000065],[99.21056783300008,18.75947663900007],[99.23061608600005,18.74710221400005],[99.24586935700006,18.77670669500003],[99.25979835200008,18.825598571000057],[99.33380048100008,18.854046297000025]]]}},{"type":"Feature","properties":{"code":"501603","name":"บ้านตาล","parentCode":"5016"},"geometry":{"type":"Polygon","coordinates":[[[98.73802375900004,18.154734826000038],[98.63420680000007,18.182238909000034],[98.62790779500006,18.12554652800003],[98.60587153000006,18.130116101000056],[98.64195593100004,18.080968873000074],[98.66326952500003,18.06160244600005],[98.68129027900005,18.028283173000034],[98.73336884800005,18.019730538000033],[98.77690865400007,18.000566738000032],[98.79756502500004,18.048046659000022],[98.80694891400003,18.13718274000007],[98.78273338500009,18.17929635400003],[98.73802375900004,18.154734826000038]]]}},{"type":"Feature","properties":{"code":"500303","name":"บ้านทับ","parentCode":"5003"},"geometry":{"type":"Polygon","coordinates":[[[98.29821189800003,18.51915550800004],[98.24173283100004,18.50531359400003],[98.21593539300005,18.43022671400007],[98.16258078500005,18.442632807000052],[98.12858010100007,18.39043351600003],[98.17039806200006,18.34598751900006],[98.20698385300005,18.302795569000068],[98.13838687100008,18.281156019000036],[98.15041914600005,18.22446287100007],[98.16950111500006,18.221995106000065],[98.18883820500008,18.25762830700006],[98.22587251300007,18.20961965300006],[98.30581776700006,18.25513754700006],[98.31669699400004,18.28280443500006],[98.30334530000005,18.32535875900004],[98.26601313800006,18.34238822900005],[98.28354018300007,18.400146406000033],[98.32543141600007,18.424483520000024],[98.33752008500005,18.485112781000055],[98.29821189800003,18.51915550800004]]]}},{"type":"Feature","properties":{"code":"501507","name":"บ้านแหวน","parentCode":"5015"},"geometry":{"type":"Polygon","coordinates":[[[98.93639101800005,18.709179379000034],[98.91152803100005,18.723018988000035],[98.91361919600007,18.70404154700003],[98.92529261200008,18.68815323800004],[98.94196436700008,18.68947349900003],[98.97432144600003,18.683666407000032],[98.97664467300007,18.695448389000035],[98.93639101800005,18.709179379000034]]]}},{"type":"Feature","properties":{"code":"500804","name":"บ่อแก้ว","parentCode":"5008"},"geometry":{"type":"Polygon","coordinates":[[[98.57967275200008,18.91206010800005],[98.50463510500003,18.975919737000027],[98.47212974400009,18.961971859000073],[98.47821860500005,18.926825187000077],[98.52609193200004,18.88851504300004],[98.55975095000008,18.802656286000058],[98.60228745900008,18.727364100000045],[98.65913853800004,18.743536279000068],[98.63814557000006,18.76460415300005],[98.63783195300005,18.832156171000065],[98.58629707600005,18.861813287000075],[98.57967275200008,18.91206010800005]]]}},{"type":"Feature","properties":{"code":"501604","name":"บ่อหลวง","parentCode":"5016"},"geometry":{"type":"Polygon","coordinates":[[[98.42061418300005,18.246774525000035],[98.38492506800009,18.276580048000028],[98.31669699400004,18.28280443500006],[98.30581776700006,18.25513754700006],[98.31230245100005,18.19436178500007],[98.27877995300008,18.11845397600007],[98.33582566600006,18.088550672000054],[98.27260434800007,18.04845044500007],[98.25906910400005,18.039117657000077],[98.31620993700005,18.027539364000063],[98.38477631800004,18.040717146000077],[98.42616792200005,17.98592682700007],[98.43233041400003,18.066727386000025],[98.48803357500003,18.084683006000034],[98.44440652000009,18.15137878200005],[98.43735387800007,18.23248452200005],[98.42061418300005,18.246774525000035]]]}},{"type":"Feature","properties":{"code":"501605","name":"บ่อสลี","parentCode":"5016"},"geometry":{"type":"Polygon","coordinates":[[[98.30581776700006,18.25513754700006],[98.22587251300007,18.20961965300006],[98.18883820500008,18.25762830700006],[98.16950111500006,18.221995106000065],[98.16205680400009,18.147055864000038],[98.19483541100004,18.10615389000003],[98.20170501300004,18.090727842000035],[98.28945313400004,18.078209725000022],[98.27260434800007,18.04845044500007],[98.33582566600006,18.088550672000054],[98.27877995300008,18.11845397600007],[98.31230245100005,18.19436178500007],[98.30581776700006,18.25513754700006]]]}},{"type":"Feature","properties":{"code":"501705","name":"บงตัน","parentCode":"5017"},"geometry":{"type":"Polygon","coordinates":[[[98.73336884800005,18.019730538000033],[98.68129027900005,18.028283173000034],[98.66326952500003,18.06160244600005],[98.60861782600006,18.03162818100003],[98.61229381300006,18.007985895000047],[98.65095818400005,17.990946973000064],[98.73336884800005,18.019730538000033]]]}},{"type":"Feature","properties":{"code":"501304","name":"บวกค้าง","parentCode":"5013"},"geometry":{"type":"Polygon","coordinates":[[[99.10841219700006,18.728380034000054],[99.07653076200006,18.704824186000053],[99.08073869600008,18.68126535500005],[99.10741255800008,18.679627122000056],[99.13754437100005,18.701493431000074],[99.10841219700006,18.728380034000054]]]}},{"type":"Feature","properties":{"code":"501305","name":"แช่ช้าง","parentCode":"5013"},"geometry":{"type":"Polygon","coordinates":[[[99.18146898100008,18.731863109000074],[99.15929375600007,18.739871080000057],[99.12042891200008,18.736808303000032],[99.10841219700006,18.728380034000054],[99.13754437100005,18.701493431000074],[99.17445377400009,18.706572598000037],[99.18146898100008,18.731863109000074]]]}},{"type":"Feature","properties":{"code":"502503","name":"แจ่มหลวง","parentCode":"5025"},"geometry":{"type":"Polygon","coordinates":[[[98.36883529400006,18.97919329000007],[98.31286430600005,19.023206908000077],[98.32308500800008,19.04258460500006],[98.25172106400004,19.05890034300006],[98.23043657000005,19.089503767000053],[98.18440854500005,19.03175127700007],[98.15664094200008,18.936987738000028],[98.10626124800007,18.885460613000078],[98.20961319800006,18.86975674300004],[98.26555292200004,18.930753511000034],[98.22189855300007,18.97768802400003],[98.32225075700006,18.969518236000056],[98.34039180000008,18.939218056000072],[98.36883529400006,18.97919329000007]]]}},{"type":"Feature","properties":{"code":"501904","name":"ไชยสถาน","parentCode":"5019"},"geometry":{"type":"Polygon","coordinates":[[[99.05028974700008,18.761307594000073],[99.04857072900006,18.76886724800005],[99.03396611500006,18.757480157000032],[99.03913486600004,18.724275931000022],[99.04116411900009,18.719977166000035],[99.04933126800006,18.724064214000066],[99.05028974700008,18.761307594000073]]]}},{"type":"Feature","properties":{"code":"500105","name":"ช้างคลาน","parentCode":"5001"},"geometry":{"type":"Polygon","coordinates":[[[99.00390106000003,18.787613624000073],[98.99325522200007,18.78778371800007],[98.99297594000006,18.78103050200008],[98.97743512800008,18.769048964000035],[99.00294821000006,18.766079975000025],[99.00390106000003,18.787613624000073]]]}},{"type":"Feature","properties":{"code":"500301","name":"ช่างเคิ่ง","parentCode":"5003"},"geometry":{"type":"Polygon","coordinates":[[[98.48963915700006,18.60330987800006],[98.36244937200007,18.616232842000045],[98.35402768700004,18.546420257000023],[98.31444733800004,18.562988415000063],[98.29821189800003,18.51915550800004],[98.33752008500005,18.485112781000055],[98.41698172600007,18.515282598000056],[98.47609068600008,18.51092145700005],[98.49233025900008,18.53825732200005],[98.48777166000008,18.592997336000053],[98.48963915700006,18.60330987800006]]]}},{"type":"Feature","properties":{"code":"500104","name":"ช้างม่อย","parentCode":"5001"},"geometry":{"type":"Polygon","coordinates":[[[99.00428351300008,18.804469526000048],[98.99374280100005,18.803737515000023],[98.99325522200007,18.78778371800007],[99.00390106000003,18.787613624000073],[99.00428351300008,18.804469526000048]]]}},{"type":"Feature","properties":{"code":"500107","name":"ช้างเผือก","parentCode":"5001"},"geometry":{"type":"Polygon","coordinates":[[[98.98437192600005,18.84175510800003],[98.88854854900006,18.831724553000072],[98.92326597700009,18.791960629000073],[98.97827492200008,18.796042156000055],[98.99374280100005,18.803737515000023],[98.98437192600005,18.84175510800003]]]}},{"type":"Feature","properties":{"code":"500401","name":"เชียงดาว","parentCode":"5004"},"geometry":{"type":"Polygon","coordinates":[[[98.97323363700008,19.41969474600006],[98.91343481300004,19.447651646000054],[98.82252666700003,19.43522863100003],[98.78903054200003,19.466070358000024],[98.81197079100008,19.374664214000063],[98.87120144400006,19.384100469000032],[98.96563547300008,19.335330101000068],[99.08516952900004,19.325684055000067],[99.10586191600004,19.372657927000034],[99.09768893400008,19.38302403700004],[99.08096912600007,19.373604768000064],[98.97323363700008,19.41969474600006]]]}},{"type":"Feature","properties":{"code":"500604","name":"ช่อแล","parentCode":"5006"},"geometry":{"type":"Polygon","coordinates":[[[98.99756824900004,19.12064496000005],[99.03920083700007,19.160914193000053],[99.01182754800004,19.153171738000026],[98.99756824900004,19.12064496000005]]]}},{"type":"Feature","properties":{"code":"500501","name":"เชิงดอย","parentCode":"5005"},"geometry":{"type":"Polygon","coordinates":[[[99.21989287400004,18.951954071000046],[99.17203752800003,18.951301691000026],[99.17579773000006,18.91862569700004],[99.11529082600003,18.87959359100006],[99.10145590400003,18.86649069400005],[99.10216142900003,18.857396854000058],[99.12359588100009,18.84664321300005],[99.12789469200004,18.841349193000042],[99.18787301100008,18.87907910200005],[99.22019264100004,18.89474387200005],[99.21989287400004,18.951954071000046]]]}},{"type":"Feature","properties":{"code":"501903","name":"ชมภู","parentCode":"5019"},"geometry":{"type":"Polygon","coordinates":[[[99.06626831300008,18.725410692000025],[99.04933126800006,18.724064214000066],[99.04116411900009,18.719977166000035],[99.05901871900005,18.69424881900005],[99.06519419600005,18.659682958000076],[99.08073869600008,18.68126535500005],[99.07653076200006,18.704824186000053],[99.06626831300008,18.725410692000025]]]}},{"type":"Feature","properties":{"code":"500207","name":"ดอยแก้ว","parentCode":"5002"},"geometry":{"type":"Polygon","coordinates":[[[98.68406987700007,18.40729447800004],[98.64166538000006,18.427419223000072],[98.49885289000008,18.404349180000054],[98.48855472300005,18.419713556000033],[98.46762222200005,18.36645677300004],[98.53206127200008,18.33951182100003],[98.62949662100004,18.361417621000044],[98.62650828500006,18.385611207000068],[98.68406987700007,18.40729447800004]]]}},{"type":"Feature","properties":{"code":"502401","name":"ดอยหล่อ","parentCode":"5024"},"geometry":{"type":"Polygon","coordinates":[[[98.82728532400006,18.51570747900007],[98.72977305100005,18.538990471000034],[98.69001189900007,18.535401981000064],[98.72766480300004,18.50024138300006],[98.74009256200009,18.43522835300007],[98.77811012900008,18.449773986000025],[98.82481072900003,18.479288187000066],[98.82728532400006,18.51570747900007]]]}},{"type":"Feature","properties":{"code":"501701","name":"ดอยเต่า","parentCode":"5017"},"geometry":{"type":"Polygon","coordinates":[[[98.65634586300007,17.872826583000062],[98.70732566900006,17.86021590000007],[98.77189852700008,17.87793273500006],[98.79017561500007,17.931425114000035],[98.78946297800007,18.000052752000045],[98.73633639900004,17.920844099000078],[98.69794284000005,17.925074349000056],[98.65634586300007,17.872826583000062]]]}},{"type":"Feature","properties":{"code":"500710","name":"ดอนแก้ว","parentCode":"5007"},"geometry":{"type":"Polygon","coordinates":[[[98.97464728800009,18.88688241400007],[98.91591680000005,18.890845377000062],[98.88854854900006,18.831724553000072],[98.98437192600005,18.84175510800003],[98.98616147600006,18.84294871900005],[98.97537052700005,18.87520166300004],[98.97464728800009,18.88688241400007]]]}},{"type":"Feature","properties":{"code":"501909","name":"ดอนแก้ว","parentCode":"5019"},"geometry":{"type":"Polygon","coordinates":[[[99.00971518600005,18.704477505000057],[98.98583559600007,18.71373403900003],[98.98623983800007,18.699356056000056],[98.98659645300006,18.683984099000043],[99.00066207100008,18.681866781000053],[99.00651227700007,18.676342935000037],[99.00971518600005,18.704477505000057]]]}},{"type":"Feature","properties":{"code":"502205","name":"ดอนเปา","parentCode":"5022"},"geometry":{"type":"Polygon","coordinates":[[[98.81566672100007,18.73262628300006],[98.72439746500004,18.773345126000038],[98.73968786500006,18.713919633000046],[98.72434022500005,18.663043850000065],[98.81928107800007,18.599194270000055],[98.83464062700006,18.60566407700003],[98.83840401500004,18.61629559100004],[98.81836432100005,18.67531008700007],[98.82361273500004,18.718489744000067],[98.81566672100007,18.73262628300006]]]}},{"type":"Feature","properties":{"code":"500114","name":"ฟ้าฮ่าม","parentCode":"5001"},"geometry":{"type":"Polygon","coordinates":[[[99.01722985100008,18.82412068900004],[99.00892498700006,18.82522356000004],[98.99755187000005,18.826862678000055],[99.00428351300008,18.804469526000048],[99.01953077800005,18.804598072000033],[99.02390988600007,18.80774815500007],[99.01722985100008,18.82412068900004]]]}},{"type":"Feature","properties":{"code":"500103","name":"หายยา","parentCode":"5001"},"geometry":{"type":"Polygon","coordinates":[[[98.99297594000006,18.78103050200008],[98.97761330300006,18.78136220300007],[98.97743512800008,18.769048964000035],[98.99297594000006,18.78103050200008]]]}},{"type":"Feature","properties":{"code":"501503","name":"หารแก้ว","parentCode":"5015"},"geometry":{"type":"Polygon","coordinates":[[[98.91962998200006,18.663234330000023],[98.88573845500008,18.664654529000074],[98.92034648100008,18.63283149700004],[98.92525191400006,18.629068735000033],[98.95396489800004,18.63249547600003],[98.95418246900005,18.641213165000067],[98.94996302600003,18.643962446000046],[98.91962998200006,18.663234330000023]]]}},{"type":"Feature","properties":{"code":"501501","name":"หางดง","parentCode":"5015"},"geometry":{"type":"Polygon","coordinates":[[[98.91361919600007,18.70404154700003],[98.91756568800008,18.669337161000044],[98.92529261200008,18.68815323800004],[98.91361919600007,18.70404154700003]]]}},{"type":"Feature","properties":{"code":"501601","name":"หางดง","parentCode":"5016"},"geometry":{"type":"Polygon","coordinates":[[[98.63420680000007,18.182238909000034],[98.55403968400003,18.233667824000065],[98.47781166900006,18.221611394000035],[98.43735387800007,18.23248452200005],[98.44440652000009,18.15137878200005],[98.48803357500003,18.084683006000034],[98.54449794600004,18.096999114000027],[98.53904238300004,18.13221907700006],[98.60587153000006,18.130116101000056],[98.62790779500006,18.12554652800003],[98.63420680000007,18.182238909000034]]]}},{"type":"Feature","properties":{"code":"501602","name":"ฮอด","parentCode":"5016"},"geometry":{"type":"Polygon","coordinates":[[[98.60587153000006,18.130116101000056],[98.53904238300004,18.13221907700006],[98.54449794600004,18.096999114000027],[98.59200101700009,18.07166232800006],[98.64195593100004,18.080968873000074],[98.60587153000006,18.130116101000056]]]}},{"type":"Feature","properties":{"code":"502304","name":"ห้วยแก้ว","parentCode":"5023"},"geometry":{"type":"Polygon","coordinates":[[[99.36143598600006,18.85199866100004],[99.39141397400005,18.884335700000065],[99.37764141900004,18.92171617200006],[99.26247371900007,18.891025699000068],[99.25612262600004,18.882485571000075],[99.27733105100003,18.841532218000054],[99.33380048100008,18.854046297000025],[99.36143598600006,18.85199866100004]]]}},{"type":"Feature","properties":{"code":"500706","name":"ห้วยทราย","parentCode":"5007"},"geometry":{"type":"Polygon","coordinates":[[[98.92631666200003,18.992570469000043],[98.85262580100004,18.97872723200004],[98.92947593600007,18.94156950400003],[98.93114253600004,18.977834049000023],[98.92631666200003,18.992570469000043]]]}},{"type":"Feature","properties":{"code":"501311","name":"ห้วยทราย","parentCode":"5013"},"geometry":{"type":"Polygon","coordinates":[[[99.21056783300008,18.75947663900007],[99.20727043900007,18.813453793000065],[99.16844678200005,18.803456535000066],[99.15208976800005,18.78792228900005],[99.14048984300007,18.773590730000024],[99.15300852200005,18.77138073800006],[99.21056783300008,18.75947663900007]]]}},{"type":"Feature","properties":{"code":"500613","name":"อินทขิล","parentCode":"5006"},"geometry":{"type":"Polygon","coordinates":[[[98.96965942300005,19.266410393000058],[98.89916836900005,19.266197302000023],[98.91369740000005,19.18033497700003],[98.94637654400003,19.14671294900006],[98.97590478600006,19.10393404900003],[98.97977649500007,19.098241260000066],[98.99756824900004,19.12064496000005],[99.01182754800004,19.153171738000026],[98.97054564600006,19.206621374000065],[98.96965942300005,19.266410393000058]]]}},{"type":"Feature","properties":{"code":"500603","name":"ขี้เหล็ก","parentCode":"5006"},"geometry":{"type":"Polygon","coordinates":[[[98.94472992300007,19.099838488000046],[98.90563518100004,19.12650984900006],[98.89939494500004,19.131747951000023],[98.87613147500008,19.101034901000048],[98.87551621000006,19.054760017000035],[98.87937412700006,19.027937391000023],[98.91171183500006,19.041157602000055],[98.95829688000003,19.043293447000053],[98.94472992300007,19.099838488000046]]]}},{"type":"Feature","properties":{"code":"500704","name":"ขี้เหล็ก","parentCode":"5007"},"geometry":{"type":"Polygon","coordinates":[[[98.95829688000003,19.043293447000053],[98.91171183500006,19.041157602000055],[98.92631666200003,18.992570469000043],[98.93114253600004,18.977834049000023],[98.96371832300008,18.977235730000075],[98.96497729500004,19.000539394000043],[98.95829688000003,19.043293447000053]]]}},{"type":"Feature","properties":{"code":"501905","name":"ขัวมุง","parentCode":"5019"},"geometry":{"type":"Polygon","coordinates":[[[99.00066207100008,18.681866781000053],[98.98659645300006,18.683984099000043],[98.96452917000005,18.660638748000054],[98.96179083400006,18.65472640400003],[98.98882338100003,18.646131764000074],[99.00066207100008,18.681866781000053]]]}},{"type":"Feature","properties":{"code":"500204","name":"ข่วงเปา","parentCode":"5002"},"geometry":{"type":"Polygon","coordinates":[[[98.74009256200009,18.43522835300007],[98.72766480300004,18.50024138300006],[98.65814753600006,18.46895792400005],[98.69504488400008,18.420082447000027],[98.70163460500004,18.428929664000066],[98.74009256200009,18.43522835300007]]]}},{"type":"Feature","properties":{"code":"501108","name":"เขื่อนผาก","parentCode":"5011"},"geometry":{"type":"Polygon","coordinates":[[[99.20063611300009,19.347750744000052],[99.18703651100009,19.34923838700007],[99.13891104800007,19.31861979300004],[99.18018958800008,19.269025314000032],[99.18419367100006,19.32359930800004],[99.24006310900006,19.335568409000075],[99.20063611300009,19.347750744000052]]]}},{"type":"Feature","properties":{"code":"501505","name":"ขุนคง","parentCode":"5015"},"geometry":{"type":"Polygon","coordinates":[[[98.97432144600003,18.683666407000032],[98.94196436700008,18.68947349900003],[98.94996302600003,18.643962446000046],[98.95418246900005,18.641213165000067],[98.96179083400006,18.65472640400003],[98.96452917000005,18.660638748000054],[98.97432144600003,18.683666407000032]]]}},{"type":"Feature","properties":{"code":"500308","name":"กองแขก","parentCode":"5003"},"geometry":{"type":"Polygon","coordinates":[[[98.47872121300009,18.468194191000066],[98.39410080600004,18.458043300000043],[98.32543141600007,18.424483520000024],[98.28354018300007,18.400146406000033],[98.26601313800006,18.34238822900005],[98.30334530000005,18.32535875900004],[98.31669699400004,18.28280443500006],[98.38492506800009,18.276580048000028],[98.42061418300005,18.246774525000035],[98.46041080700007,18.269604211000058],[98.46762222200005,18.36645677300004],[98.48855472300005,18.419713556000033],[98.47872121300009,18.468194191000066]]]}},{"type":"Feature","properties":{"code":"500612","name":"กื้ดช้าง","parentCode":"5006"},"geometry":{"type":"Polygon","coordinates":[[[98.59518662600004,19.353982962000032],[98.60333733300007,19.278064631000063],[98.65612599000008,19.27178271100007],[98.70143918100007,19.237152896000055],[98.79262608100004,19.226535844000068],[98.82219253100004,19.19155865700003],[98.87232868600006,19.175249762000078],[98.91369740000005,19.18033497700003],[98.89916836900005,19.266197302000023],[98.85649490900005,19.296656116000065],[98.78555402200004,19.304502358000036],[98.74764247400003,19.325721088000023],[98.70597715300005,19.298705495000036],[98.69503433100004,19.33536831200007],[98.59518662600004,19.353982962000032]]]}},{"type":"Feature","properties":{"code":"501111","name":"โหล่งขอด","parentCode":"5011"},"geometry":{"type":"Polygon","coordinates":[[[99.32107571400007,19.123614392000036],[99.20502377900004,19.143512101000056],[99.13993605200005,19.180732712000065],[99.10867565300003,19.130559350000055],[99.13600961900005,19.096945651000055],[99.11348677500007,19.071894409000038],[99.15885914600005,19.00747977900005],[99.18962947600005,19.004281994000053],[99.25250033700007,19.00052755400003],[99.34065982600004,19.095649593000076],[99.32107571400007,19.123614392000036]]]}},{"type":"Feature","properties":{"code":"500503","name":"ลวงเหนือ","parentCode":"5005"},"geometry":{"type":"Polygon","coordinates":[[[99.18962947600005,19.004281994000053],[99.15885914600005,19.00747977900005],[99.11348677500007,19.071894409000038],[99.07850829900008,19.039834255000073],[99.07831326900003,19.014207729000077],[99.06092503200006,18.97250821500006],[99.08538067000006,18.95087360100007],[99.12756360400004,18.92209446100003],[99.11529082600003,18.87959359100006],[99.17579773000006,18.91862569700004],[99.17203752800003,18.951301691000026],[99.21989287400004,18.951954071000046],[99.18962947600005,19.004281994000053]]]}},{"type":"Feature","properties":{"code":"501001","name":"แม่อาย","parentCode":"5010"},"geometry":{"type":"Polygon","coordinates":[[[99.29061768300005,20.113896633000024],[99.21047485800005,20.13250241000003],[99.14702626100006,20.126644385000077],[99.19250172400007,20.104564304000064],[99.23992720300004,20.029308464000053],[99.29499509100003,19.994164544000057],[99.30138130400007,19.992826686000058],[99.32372807000007,20.015493958000036],[99.29762452700004,20.033237924000048],[99.29061768300005,20.113896633000024]]]}},{"type":"Feature","properties":{"code":"502502","name":"แม่แดด","parentCode":"5025"},"geometry":{"type":"Polygon","coordinates":[[[98.42098377800005,19.027148382000064],[98.41187110100003,19.03161849600008],[98.36883529400006,18.97919329000007],[98.34039180000008,18.939218056000072],[98.32225075700006,18.969518236000056],[98.22189855300007,18.97768802400003],[98.26555292200004,18.930753511000034],[98.32250326700006,18.93831213900006],[98.37536582200005,18.88269885400007],[98.47821860500005,18.926825187000077],[98.47212974400009,18.961971859000073],[98.42559658100004,18.94689840600006],[98.42098377800005,19.027148382000064]]]}},{"type":"Feature","properties":{"code":"501409","name":"แม่แฝก","parentCode":"5014"},"geometry":{"type":"Polygon","coordinates":[[[98.97590478600006,19.10393404900003],[98.94472992300007,19.099838488000046],[98.95829688000003,19.043293447000053],[98.96497729500004,19.000539394000043],[99.02860460500006,19.027300249000064],[99.07831326900003,19.014207729000077],[99.07850829900008,19.039834255000073],[98.97977649500007,19.098241260000066],[98.97590478600006,19.10393404900003]]]}},{"type":"Feature","properties":{"code":"501410","name":"แม่แฝกใหม่","parentCode":"5014"},"geometry":{"type":"Polygon","coordinates":[[[99.07831326900003,19.014207729000077],[99.02860460500006,19.027300249000064],[98.96497729500004,19.000539394000043],[98.96371832300008,18.977235730000075],[98.97672845900007,18.950009049000073],[99.03803610100005,18.973093366000057],[99.06092503200006,18.97250821500006],[99.07831326900003,19.014207729000077]]]}},{"type":"Feature","properties":{"code":"500109","name":"แม่เหียะ","parentCode":"5001"},"geometry":{"type":"Polygon","coordinates":[[[98.96881029000008,18.756608838000034],[98.89250418600005,18.765976224000042],[98.89885383600006,18.745195968000075],[98.95303273000007,18.733487770000067],[98.97025612200008,18.736227635000034],[98.96881029000008,18.756608838000034]]]}},{"type":"Feature","properties":{"code":"500605","name":"แม่หอพระ","parentCode":"5006"},"geometry":{"type":"Polygon","coordinates":[[[99.15392281600003,19.200440582000056],[99.03920083700007,19.160914193000053],[98.99756824900004,19.12064496000005],[98.97977649500007,19.098241260000066],[99.07850829900008,19.039834255000073],[99.11348677500007,19.071894409000038],[99.13600961900005,19.096945651000055],[99.10867565300003,19.130559350000055],[99.13993605200005,19.180732712000065],[99.15392281600003,19.200440582000056]]]}},{"type":"Feature","properties":{"code":"500511","name":"แม่ฮ้อยเงิน","parentCode":"5005"},"geometry":{"type":"Polygon","coordinates":[[[99.15639882100004,18.821143102000065],[99.15100088000008,18.819606004000036],[99.14427022900009,18.816050118000078],[99.12878174100007,18.80068684300005],[99.15208976800005,18.78792228900005],[99.16844678200005,18.803456535000066],[99.15639882100004,18.821143102000065]]]}},{"type":"Feature","properties":{"code":"501205","name":"แม่ก๊า","parentCode":"5012"},"geometry":{"type":"Polygon","coordinates":[[[98.96013162200006,18.595402575000037],[98.94577670500007,18.58825751300003],[98.92651584500004,18.571292895000056],[98.90929485000004,18.547005084000034],[98.87747577000005,18.54627374000006],[98.87167316000006,18.516632808000054],[98.90187674800006,18.526189766000073],[98.93475897700006,18.54283755000006],[98.94783436900008,18.570545405000075],[98.96013162200006,18.595402575000037]]]}},{"type":"Feature","properties":{"code":"500911","name":"แม่ข่า","parentCode":"5009"},"geometry":{"type":"Polygon","coordinates":[[[99.17508647600005,19.82554777100006],[99.16234545000003,19.803987593000045],[99.11071790100004,19.772764579000068],[99.16993366900005,19.743178563000072],[99.21848847900009,19.76958700700004],[99.31361504000006,19.746971921000068],[99.34408176700003,19.711672320000048],[99.34682556800004,19.712252142000068],[99.32510315200005,19.772440811000024],[99.25755114900005,19.780086433000065],[99.17508647600005,19.82554777100006]]]}},{"type":"Feature","properties":{"code":"500910","name":"แม่คะ","parentCode":"5009"},"geometry":{"type":"Polygon","coordinates":[[[99.29598087100004,19.881898136000075],[99.24644948300005,19.861860985000078],[99.22519811800004,19.89582302900004],[99.19549870900005,19.855994886000076],[99.17508647600005,19.82554777100006],[99.25755114900005,19.780086433000065],[99.32510315200005,19.772440811000024],[99.34682556800004,19.712252142000068],[99.36152524500005,19.77732618700003],[99.29598087100004,19.881898136000075]]]}},{"type":"Feature","properties":{"code":"500509","name":"แม่คือ","parentCode":"5005"},"geometry":{"type":"Polygon","coordinates":[[[99.11599610300004,18.796550316000037],[99.10615252200006,18.801169344000073],[99.08302897500005,18.786529701000063],[99.08318277400008,18.782846299000028],[99.09969325500003,18.768245713000056],[99.11599610300004,18.796550316000037]]]}},{"type":"Feature","properties":{"code":"500404","name":"แม่นะ","parentCode":"5004"},"geometry":{"type":"Polygon","coordinates":[[[99.08516952900004,19.325684055000067],[98.96563547300008,19.335330101000068],[98.87120144400006,19.384100469000032],[98.81197079100008,19.374664214000063],[98.78555402200004,19.304502358000036],[98.85649490900005,19.296656116000065],[98.89916836900005,19.266197302000023],[98.96965942300005,19.266410393000058],[99.07684222500006,19.26237414800005],[99.09090549000007,19.28559561800006],[99.08516952900004,19.325684055000067]]]}},{"type":"Feature","properties":{"code":"500305","name":"แม่นาจร","parentCode":"5003"},"geometry":{"type":"Polygon","coordinates":[[[98.47821860500005,18.926825187000077],[98.37536582200005,18.88269885400007],[98.32250326700006,18.93831213900006],[98.26555292200004,18.930753511000034],[98.20961319800006,18.86975674300004],[98.27757622700005,18.84032785100004],[98.30580974800006,18.767234063000046],[98.35343655300005,18.700807862000033],[98.36244937200007,18.616232842000045],[98.48963915700006,18.60330987800006],[98.50017651200005,18.661346224000056],[98.48909302300007,18.738465043000076],[98.50398932700006,18.773612005000075],[98.55975095000008,18.802656286000058],[98.52609193200004,18.88851504300004],[98.47821860500005,18.926825187000077]]]}},{"type":"Feature","properties":{"code":"501004","name":"แม่นาวาง","parentCode":"5010"},"geometry":{"type":"Polygon","coordinates":[[[99.47630030500005,20.03938055800006],[99.42876892600003,20.05990700800004],[99.37959262600003,20.040127147000078],[99.32372807000007,20.015493958000036],[99.30138130400007,19.992826686000058],[99.28313872700005,19.97036759300005],[99.31136967600008,19.93263382600003],[99.39992822700003,19.912171430000058],[99.45267458400008,19.981626249000044],[99.47630030500005,20.03938055800006]]]}},{"type":"Feature","properties":{"code":"500904","name":"แม่งอน","parentCode":"5009"},"geometry":{"type":"Polygon","coordinates":[[[99.04066167100007,19.92992070400004],[99.02871395300008,19.832232085000044],[99.03969542800007,19.783389791000047],[99.11071790100004,19.772764579000068],[99.16234545000003,19.803987593000045],[99.10809636600004,19.822038390000046],[99.05984658200003,19.880119700000023],[99.04066167100007,19.92992070400004]]]}},{"type":"Feature","properties":{"code":"501110","name":"แม่ปั๋ง","parentCode":"5011"},"geometry":{"type":"Polygon","coordinates":[[[99.13891104800007,19.31861979300004],[99.09090549000007,19.28559561800006],[99.07684222500006,19.26237414800005],[99.15392281600003,19.200440582000056],[99.13993605200005,19.180732712000065],[99.20502377900004,19.143512101000056],[99.32107571400007,19.123614392000036],[99.30844948500004,19.17477387300005],[99.31058336100006,19.222381639000048],[99.22414832300007,19.285092290000023],[99.18018958800008,19.269025314000032],[99.13891104800007,19.31861979300004]]]}},{"type":"Feature","properties":{"code":"500512","name":"แม่โป่ง","parentCode":"5005"},"geometry":{"type":"Polygon","coordinates":[[[99.23481378700006,18.868762795000066],[99.22019264100004,18.89474387200005],[99.18787301100008,18.87907910200005],[99.15639882100004,18.821143102000065],[99.16844678200005,18.803456535000066],[99.20727043900007,18.813453793000065],[99.23481378700006,18.868762795000066]]]}},{"type":"Feature","properties":{"code":"501310","name":"แม่ปูคา","parentCode":"5013"},"geometry":{"type":"Polygon","coordinates":[[[99.12878174100007,18.80068684300005],[99.11599610300004,18.796550316000037],[99.09969325500003,18.768245713000056],[99.09891872800006,18.757771372000036],[99.14048984300007,18.773590730000024],[99.15208976800005,18.78792228900005],[99.12878174100007,18.80068684300005]]]}},{"type":"Feature","properties":{"code":"500707","name":"แม่แรม","parentCode":"5007"},"geometry":{"type":"Polygon","coordinates":[[[98.92947593600007,18.94156950400003],[98.85262580100004,18.97872723200004],[98.77624835600005,18.975676100000044],[98.79908626300005,18.930544912000073],[98.86095214300008,18.91393746800003],[98.85467231000007,18.85844219200004],[98.86761333100009,18.838004959000045],[98.88854854900006,18.831724553000072],[98.91591680000005,18.890845377000062],[98.92593566900007,18.91109273400002],[98.93121953500008,18.92868975600004],[98.92947593600007,18.94156950400003]]]}},{"type":"Feature","properties":{"code":"500709","name":"แม่สา","parentCode":"5007"},"geometry":{"type":"Polygon","coordinates":[[[98.96676745600007,18.898659526000074],[98.92593566900007,18.91109273400002],[98.91591680000005,18.890845377000062],[98.97464728800009,18.88688241400007],[98.96676745600007,18.898659526000074]]]}},{"type":"Feature","properties":{"code":"501002","name":"แม่สาว","parentCode":"5010"},"geometry":{"type":"Polygon","coordinates":[[[99.29499509100003,19.994164544000057],[99.23992720300004,20.029308464000053],[99.19250172400007,20.104564304000064],[99.14702626100006,20.126644385000077],[99.12808041800008,20.106677482000066],[99.15352983900004,20.02009148800005],[99.20522904900008,19.98513143300005],[99.24426421300006,19.958890955000072],[99.29499509100003,19.994164544000057]]]}},{"type":"Feature","properties":{"code":"500803","name":"แม่สาบ","parentCode":"5008"},"geometry":{"type":"Polygon","coordinates":[[[98.69454364400008,19.065748073000066],[98.64074559200009,19.068578924000064],[98.65903180200007,19.04695541700005],[98.57967275200008,18.91206010800005],[98.58629707600005,18.861813287000075],[98.63783195300005,18.832156171000065],[98.69034447100006,18.963564046000045],[98.69454364400008,19.065748073000066]]]}},{"type":"Feature","properties":{"code":"500209","name":"แม่สอย","parentCode":"5002"},"geometry":{"type":"Polygon","coordinates":[[[98.67249592300004,18.310097961000054],[98.63956140000005,18.315890181000043],[98.62949662100004,18.361417621000044],[98.53206127200008,18.33951182100003],[98.55794854100009,18.284800849000078],[98.62302353000007,18.290907151000056],[98.62928844500004,18.269144308000023],[98.70219715900004,18.25206639000004],[98.69062006400009,18.182609128000024],[98.73802375900004,18.154734826000038],[98.78273338500009,18.17929635400003],[98.77388073900005,18.25080350500002],[98.67249592300004,18.310097961000054]]]}},{"type":"Feature","properties":{"code":"500304","name":"แม่ศึก","parentCode":"5003"},"geometry":{"type":"Polygon","coordinates":[[[98.20961319800006,18.86975674300004],[98.10626124800007,18.885460613000078],[98.07959711400008,18.817492625000057],[98.09021570900006,18.789557323000054],[98.12101871200008,18.77727130900007],[98.09370354800006,18.73830503000005],[98.10480502500008,18.67702553600003],[98.10543449600004,18.648619265000036],[98.20956617200005,18.60744956700006],[98.25672486200006,18.630165584000054],[98.26945398800007,18.59326180100004],[98.31444733800004,18.562988415000063],[98.35402768700004,18.546420257000023],[98.36244937200007,18.616232842000045],[98.35343655300005,18.700807862000033],[98.30580974800006,18.767234063000046],[98.27757622700005,18.84032785100004],[98.20961319800006,18.86975674300004]]]}},{"type":"Feature","properties":{"code":"500905","name":"แม่สูน","parentCode":"5009"},"geometry":{"type":"Polygon","coordinates":[[[99.19549870900005,19.855994886000076],[99.12022129500008,19.89410423000004],[99.05984658200003,19.880119700000023],[99.10809636600004,19.822038390000046],[99.16234545000003,19.803987593000045],[99.17508647600005,19.82554777100006],[99.19549870900005,19.855994886000076]]]}},{"type":"Feature","properties":{"code":"500602","name":"แม่แตง","parentCode":"5006"},"geometry":{"type":"Polygon","coordinates":[[[98.94637654400003,19.14671294900006],[98.91369740000005,19.18033497700003],[98.87232868600006,19.175249762000078],[98.89939494500004,19.131747951000023],[98.90563518100004,19.12650984900006],[98.94637654400003,19.14671294900006]]]}},{"type":"Feature","properties":{"code":"502305","name":"แม่ทา","parentCode":"5023"},"geometry":{"type":"Polygon","coordinates":[[[99.24680427400006,18.663538188000075],[99.23097689300005,18.653950219000023],[99.21750745600008,18.592009204000078],[99.22536616900004,18.589318134000052],[99.31733741600004,18.532171919000064],[99.32843871900008,18.545564696000042],[99.35345439600007,18.579382274000068],[99.32695603700006,18.628334261000077],[99.24680427400006,18.663538188000075]]]}},{"type":"Feature","properties":{"code":"502103","name":"แม่ทะลบ","parentCode":"5021"},"geometry":{"type":"Polygon","coordinates":[[[99.34408176700003,19.711672320000048],[99.31361504000006,19.746971921000068],[99.21848847900009,19.76958700700004],[99.16993366900005,19.743178563000072],[99.15311671100005,19.72868417600006],[99.29344965600006,19.68013313700004],[99.34408176700003,19.711672320000048]]]}},{"type":"Feature","properties":{"code":"501803","name":"แม่ตื่น","parentCode":"5018"},"geometry":{"type":"Polygon","coordinates":[[[98.42114515400004,17.540981146000036],[98.38764785600006,17.56098925400005],[98.30975253900004,17.52997293800007],[98.32960759800005,17.469299986000067],[98.32249516400003,17.41704665700007],[98.29176497900005,17.407327330000044],[98.33412042400005,17.347604895000075],[98.31724650400008,17.32165591300003],[98.36122589000007,17.271138620000045],[98.39178977600005,17.242274746000078],[98.44170183200004,17.270992069000044],[98.49613038000007,17.27307985400006],[98.50949878200004,17.335275117000037],[98.45506583500008,17.39326262000003],[98.44065242700003,17.49359005200006],[98.40456873000005,17.50222042400003],[98.42114515400004,17.540981146000036]]]}},{"type":"Feature","properties":{"code":"501109","name":"แม่แวน","parentCode":"5011"},"geometry":{"type":"Polygon","coordinates":[[[99.33818021100006,19.289104034000047],[99.33272877900004,19.362286226000037],[99.24006310900006,19.335568409000075],[99.18419367100006,19.32359930800004],[99.18018958800008,19.269025314000032],[99.22414832300007,19.285092290000023],[99.31058336100006,19.222381639000048],[99.34173110600005,19.268874367000024],[99.33818021100006,19.289104034000047]]]}},{"type":"Feature","properties":{"code":"502204","name":"แม่วิน","parentCode":"5022"},"geometry":{"type":"Polygon","coordinates":[[[98.63814557000006,18.76460415300005],[98.65913853800004,18.743536279000068],[98.60228745900008,18.727364100000045],[98.55975095000008,18.802656286000058],[98.50398932700006,18.773612005000075],[98.48909302300007,18.738465043000076],[98.50017651200005,18.661346224000056],[98.48963915700006,18.60330987800006],[98.48777166000008,18.592997336000053],[98.59537693600004,18.581684822000057],[98.62398487900003,18.59980338400004],[98.69440413400008,18.620238013000062],[98.71446413800004,18.599329158000046],[98.71892977500005,18.62230916900006],[98.72434022500005,18.663043850000065],[98.73968786500006,18.713919633000046],[98.72439746500004,18.773345126000038],[98.63814557000006,18.76460415300005]]]}},{"type":"Feature","properties":{"code":"501204","name":"มะขามหลวง","parentCode":"5012"},"geometry":{"type":"Polygon","coordinates":[[[98.91888913100007,18.58623245600006],[98.89619969900008,18.62247003600004],[98.88906005600006,18.59546249300007],[98.87995530900008,18.574236520000056],[98.91888913100007,18.58623245600006]]]}},{"type":"Feature","properties":{"code":"501215","name":"มะขุนหวาน","parentCode":"5012"},"geometry":{"type":"Polygon","coordinates":[[[98.91888913100007,18.58623245600006],[98.87995530900008,18.574236520000056],[98.90929485000004,18.547005084000034],[98.92651584500004,18.571292895000056],[98.91888913100007,18.58623245600006]]]}},{"type":"Feature","properties":{"code":"501007","name":"มะลิกา","parentCode":"5010"},"geometry":{"type":"Polygon","coordinates":[[[99.31528914900008,20.110242516000028],[99.29061768300005,20.113896633000024],[99.29762452700004,20.033237924000048],[99.32372807000007,20.015493958000036],[99.37959262600003,20.040127147000078],[99.32629453000004,20.036493995000058],[99.31528914900008,20.110242516000028]]]}},{"type":"Feature","properties":{"code":"501804","name":"ม่อนจอง","parentCode":"5018"},"geometry":{"type":"Polygon","coordinates":[[[98.57885419400009,17.29440177600003],[98.53749428200007,17.361876814000027],[98.55765000100007,17.426606440000057],[98.51857059100007,17.477616300000022],[98.52732706100005,17.53637080900006],[98.57800388000004,17.573944149000056],[98.53270760500004,17.61905174000003],[98.51723188000005,17.569226121000042],[98.42114515400004,17.540981146000036],[98.40456873000005,17.50222042400003],[98.44065242700003,17.49359005200006],[98.45506583500008,17.39326262000003],[98.50949878200004,17.335275117000037],[98.49613038000007,17.27307985400006],[98.57885419400009,17.29440177600003]]]}},{"type":"Feature","properties":{"code":"500903","name":"ม่อนปิ่น","parentCode":"5009"},"geometry":{"type":"Polygon","coordinates":[[[99.19603131100007,19.91233602500006],[99.12654949500006,19.93473952900007],[99.09128911000005,20.103791613000055],[99.04396621200004,20.038742409000065],[99.04066167100007,19.92992070400004],[99.05984658200003,19.880119700000023],[99.12022129500008,19.89410423000004],[99.19562270000006,19.910064773000045],[99.19603131100007,19.91233602500006]]]}},{"type":"Feature","properties":{"code":"502001","name":"เมืองแหง","parentCode":"5020"},"geometry":{"type":"Polygon","coordinates":[[[98.56603002400004,19.672108182000045],[98.51981088400004,19.71487786700004],[98.46652037100006,19.692231639000056],[98.47208126300006,19.656276495000043],[98.54018482900005,19.611056311000027],[98.54479210400007,19.556069663000073],[98.60002075800008,19.471051395000075],[98.58517280300003,19.422967048000032],[98.64042176600003,19.441624670000067],[98.70518900900004,19.42918527200004],[98.78903054200003,19.466070358000024],[98.77846254600007,19.50793386500004],[98.74111959700008,19.595383441000024],[98.72889273600003,19.624919943000066],[98.69849468600006,19.628131860000053],[98.64417483200003,19.590351871000053],[98.56951157800006,19.649826682000025],[98.56603002400004,19.672108182000045]]]}},{"type":"Feature","properties":{"code":"500711","name":"เหมืองแก้ว","parentCode":"5007"},"geometry":{"type":"Polygon","coordinates":[[[98.99999181400005,18.875240544000064],[98.97769679100008,18.937295997000035],[98.96790206600008,18.92752437300004],[98.96784923300004,18.920193182000048],[98.96676745600007,18.898659526000074],[98.97464728800009,18.88688241400007],[98.97537052700005,18.87520166300004],[98.99999181400005,18.875240544000064]]]}},{"type":"Feature","properties":{"code":"500610","name":"เมืองก๋าย","parentCode":"5006"},"geometry":{"type":"Polygon","coordinates":[[[98.70143918100007,19.237152896000055],[98.68803954400005,19.205348380000032],[98.76968455800005,19.176425081000048],[98.76884982600006,19.146046126000044],[98.80357432600005,19.172704793000037],[98.84236124100005,19.12856442800006],[98.82219253100004,19.19155865700003],[98.79262608100004,19.226535844000068],[98.70143918100007,19.237152896000055]]]}},{"type":"Feature","properties":{"code":"500405","name":"เมืองคอง","parentCode":"5004"},"geometry":{"type":"Polygon","coordinates":[[[98.81197079100008,19.374664214000063],[98.78903054200003,19.466070358000024],[98.70518900900004,19.42918527200004],[98.64042176600003,19.441624670000067],[98.58517280300003,19.422967048000032],[98.57521150400004,19.379353562000063],[98.59518662600004,19.353982962000032],[98.69503433100004,19.33536831200007],[98.70597715300005,19.298705495000036],[98.74764247400003,19.325721088000023],[98.78555402200004,19.304502358000036],[98.81197079100008,19.374664214000063]]]}},{"type":"Feature","properties":{"code":"501411","name":"เมืองเล็น","parentCode":"5014"},"geometry":{"type":"Polygon","coordinates":[[[99.08547391700006,18.882648739000047],[99.07812426200007,18.91705515900003],[99.05975581100006,18.865613449000023],[99.05934739800006,18.853931844000044],[99.06948123100005,18.857642936000047],[99.08547391700006,18.882648739000047]]]}},{"type":"Feature","properties":{"code":"500402","name":"เมืองนะ","parentCode":"5004"},"geometry":{"type":"Polygon","coordinates":[[[99.00727848000008,19.792039190000025],[98.89866507700003,19.765763763000052],[98.83321859200004,19.811584652000022],[98.77937217000004,19.75305873600007],[98.70424413100005,19.758176699000046],[98.72370382200006,19.723474896000027],[98.72889273600003,19.624919943000066],[98.74111959700008,19.595383441000024],[98.77998607100005,19.584306026000036],[98.88255334300004,19.620552960000055],[98.93060014700006,19.57859813500005],[99.00173396800005,19.566558659000066],[99.07740732900004,19.639054084000065],[99.02727097800005,19.70296328200004],[99.00727848000008,19.792039190000025]]]}},{"type":"Feature","properties":{"code":"500403","name":"เมืองงาย","parentCode":"5004"},"geometry":{"type":"Polygon","coordinates":[[[98.98276968000005,19.47341195000007],[98.96513521800006,19.504130721000024],[98.89104327900009,19.527923878000024],[98.77846254600007,19.50793386500004],[98.78903054200003,19.466070358000024],[98.82252666700003,19.43522863100003],[98.91343481300004,19.447651646000054],[98.97323363700008,19.41969474600006],[98.98276968000005,19.47341195000007]]]}},{"type":"Feature","properties":{"code":"501703","name":"มืดกา","parentCode":"5017"},"geometry":{"type":"Polygon","coordinates":[[[98.78946297800007,18.000052752000045],[98.77690865400007,18.000566738000032],[98.70516812800008,17.94206441500006],[98.61758761600004,17.92876499700003],[98.59808235800006,17.94137513100003],[98.48260111500008,17.909554962000072],[98.43164964600004,17.891270200000065],[98.43051757000006,17.865239924000036],[98.48095153700007,17.839732307000077],[98.49329682800004,17.813907706000066],[98.52243189400008,17.82425593100004],[98.63045930200008,17.780978808000043],[98.66911404200005,17.83454137900003],[98.65634586300007,17.872826583000062],[98.69794284000005,17.925074349000056],[98.73633639900004,17.920844099000078],[98.78946297800007,18.000052752000045]]]}},{"type":"Feature","properties":{"code":"501606","name":"นาคอเรือ","parentCode":"5016"},"geometry":{"type":"Polygon","coordinates":[[[98.54449794600004,18.096999114000027],[98.48803357500003,18.084683006000034],[98.43233041400003,18.066727386000025],[98.42616792200005,17.98592682700007],[98.48260111500008,17.909554962000072],[98.59808235800006,17.94137513100003],[98.57463155000005,17.980360568000037],[98.61229381300006,18.007985895000047],[98.60861782600006,18.03162818100003],[98.59200101700009,18.07166232800006],[98.54449794600004,18.096999114000027]]]}},{"type":"Feature","properties":{"code":"501806","name":"นาเกียน","parentCode":"5018"},"geometry":{"type":"Polygon","coordinates":[[[98.20804830500003,17.981993180000075],[98.15020290700005,17.94064202800007],[98.08999289100007,17.963342070000067],[98.06260957200004,17.951195916000074],[98.00803905300006,17.921877031000065],[98.01036106000004,17.89583139900003],[98.06995881600005,17.852775982000026],[98.08622297700003,17.81056809300003],[98.14721293300005,17.776606683000068],[98.14492524900004,17.682376113000032],[98.16453290500004,17.72060890000006],[98.23226976800004,17.767682723000064],[98.23322759900003,17.870966270000054],[98.25181908200005,17.917005936000066],[98.20804830500003,17.981993180000075]]]}},{"type":"Feature","properties":{"code":"501214","name":"น้ำบ่อหลวง","parentCode":"5012"},"geometry":{"type":"Polygon","coordinates":[[[98.87371887100005,18.675068433000035],[98.82361273500004,18.718489744000067],[98.81836432100005,18.67531008700007],[98.86566861200004,18.636928943000044],[98.87015254900007,18.640945739000074],[98.87371887100005,18.675068433000035]]]}},{"type":"Feature","properties":{"code":"501107","name":"น้ำแพร่","parentCode":"5011"},"geometry":{"type":"Polygon","coordinates":[[[99.18741107800008,19.366812123000045],[99.10586191600004,19.372657927000034],[99.08516952900004,19.325684055000067],[99.09090549000007,19.28559561800006],[99.13891104800007,19.31861979300004],[99.18703651100009,19.34923838700007],[99.18741107800008,19.366812123000045]]]}},{"type":"Feature","properties":{"code":"501511","name":"น้ำแพร่","parentCode":"5015"},"geometry":{"type":"Polygon","coordinates":[[[98.88952752600005,18.73500281200006],[98.80318037300003,18.782849681000073],[98.81566672100007,18.73262628300006],[98.82361273500004,18.718489744000067],[98.87371887100005,18.675068433000035],[98.88573845500008,18.664654529000074],[98.91962998200006,18.663234330000023],[98.91756568800008,18.669337161000044],[98.91361919600007,18.70404154700003],[98.91152803100005,18.723018988000035],[98.88952752600005,18.73500281200006]]]}},{"type":"Feature","properties":{"code":"502104","name":"หนองบัว","parentCode":"5021"},"geometry":{"type":"Polygon","coordinates":[[[99.03969542800007,19.783389791000047],[99.02871395300008,19.832232085000044],[99.00727848000008,19.792039190000025],[99.02727097800005,19.70296328200004],[99.10205067500004,19.693968116000065],[99.14268300700007,19.719230664000065],[99.13276825400004,19.750216306000027],[99.05603505300007,19.749989155000037],[99.03969542800007,19.783389791000047]]]}},{"type":"Feature","properties":{"code":"501407","name":"หนองจ๊อม","parentCode":"5014"},"geometry":{"type":"Polygon","coordinates":[[[99.04484765600006,18.871406226000033],[99.02482914100005,18.87660364900006],[99.00389610400003,18.861830019000024],[99.00892498700006,18.82522356000004],[99.01722985100008,18.82412068900004],[99.03711439600005,18.84140437700006],[99.04484765600006,18.871406226000033]]]}},{"type":"Feature","properties":{"code":"501906","name":"หนองแฝก","parentCode":"5019"},"geometry":{"type":"Polygon","coordinates":[[[99.03594999300003,18.695657974000028],[99.00856993400004,18.714312066000048],[99.00971518600005,18.704477505000057],[99.00651227700007,18.676342935000037],[99.01366586100005,18.671086290000062],[99.02122855100004,18.672466281000027],[99.02802492600006,18.671542000000045],[99.03594999300003,18.695657974000028]]]}},{"type":"Feature","properties":{"code":"501408","name":"หนองหาร","parentCode":"5014"},"geometry":{"type":"Polygon","coordinates":[[[99.02482914100005,18.87660364900006],[99.02226896700006,18.91189578700005],[99.05926039600007,18.948103511000056],[99.03803610100005,18.973093366000057],[98.97672845900007,18.950009049000073],[98.97769679100008,18.937295997000035],[98.99999181400005,18.875240544000064],[99.00389610400003,18.861830019000024],[99.02482914100005,18.87660364900006]]]}},{"type":"Feature","properties":{"code":"500111","name":"หนองหอย","parentCode":"5001"},"geometry":{"type":"Polygon","coordinates":[[[99.02894748500006,18.750309850000065],[99.01952724100005,18.773914433000073],[99.00345594600009,18.76624223400006],[98.99498261800005,18.754482464000034],[99.00988951800008,18.748772977000044],[99.02894748500006,18.750309850000065]]]}},{"type":"Feature","properties":{"code":"501502","name":"หนองแก๋ว","parentCode":"5015"},"geometry":{"type":"Polygon","coordinates":[[[98.94996302600003,18.643962446000046],[98.94196436700008,18.68947349900003],[98.92529261200008,18.68815323800004],[98.91756568800008,18.669337161000044],[98.91962998200006,18.663234330000023],[98.94996302600003,18.643962446000046]]]}},{"type":"Feature","properties":{"code":"501509","name":"หนองควาย","parentCode":"5015"},"geometry":{"type":"Polygon","coordinates":[[[98.95303273000007,18.733487770000067],[98.89885383600006,18.745195968000075],[98.88952752600005,18.73500281200006],[98.91152803100005,18.723018988000035],[98.93639101800005,18.709179379000034],[98.95303273000007,18.733487770000067]]]}},{"type":"Feature","properties":{"code":"500113","name":"หนองป่าครั่ง","parentCode":"5001"},"geometry":{"type":"Polygon","coordinates":[[[99.03876674200006,18.793364128000064],[99.02390988600007,18.80774815500007],[99.01953077800005,18.804598072000033],[99.01994546700007,18.784868284000027],[99.04555379000004,18.779657691000068],[99.03876674200006,18.793364128000064]]]}},{"type":"Feature","properties":{"code":"501907","name":"หนองผึ้ง","parentCode":"5019"},"geometry":{"type":"Polygon","coordinates":[[[99.03913486600004,18.724275931000022],[99.03396611500006,18.757480157000032],[99.02894748500006,18.750309850000065],[99.00988951800008,18.748772977000044],[99.01120148200005,18.719057106000037],[99.03913486600004,18.724275931000022]]]}},{"type":"Feature","properties":{"code":"501504","name":"หนองตอง","parentCode":"5015"},"geometry":{"type":"Polygon","coordinates":[[[98.95396489800004,18.63249547600003],[98.92525191400006,18.629068735000033],[98.94577670500007,18.58825751300003],[98.96013162200006,18.595402575000037],[98.96618763000004,18.613157794000074],[98.95396489800004,18.63249547600003]]]}},{"type":"Feature","properties":{"code":"501406","name":"หนองแหย่ง","parentCode":"5014"},"geometry":{"type":"Polygon","coordinates":[[[99.08538067000006,18.95087360100007],[99.07812426200007,18.91705515900003],[99.08547391700006,18.882648739000047],[99.10145590400003,18.86649069400005],[99.11529082600003,18.87959359100006],[99.12756360400004,18.92209446100003],[99.08538067000006,18.95087360100007]]]}},{"type":"Feature","properties":{"code":"501801","name":"อมก๋อย","parentCode":"5018"},"geometry":{"type":"Polygon","coordinates":[[[98.42616792200005,17.98592682700007],[98.38477631800004,18.040717146000077],[98.31620993700005,18.027539364000063],[98.25906910400005,18.039117657000077],[98.24668485700005,17.992694221000022],[98.20804830500003,17.981993180000075],[98.25181908200005,17.917005936000066],[98.23322759900003,17.870966270000054],[98.23226976800004,17.767682723000064],[98.34003603700006,17.794488086000058],[98.43218614000006,17.799068230000046],[98.48095153700007,17.839732307000077],[98.43051757000006,17.865239924000036],[98.43164964600004,17.891270200000065],[98.48260111500008,17.909554962000072],[98.42616792200005,17.98592682700007]]]}},{"type":"Feature","properties":{"code":"502302","name":"ออนกลาง","parentCode":"5023"},"geometry":{"type":"Polygon","coordinates":[[[99.28676072100006,18.769498377000048],[99.24586935700006,18.77670669500003],[99.23061608600005,18.74710221400005],[99.23190638300008,18.745367161000047],[99.26860286900006,18.717286814000033],[99.28676072100006,18.769498377000048]]]}},{"type":"Feature","properties":{"code":"502301","name":"ออนเหนือ","parentCode":"5023"},"geometry":{"type":"Polygon","coordinates":[[[99.36143598600006,18.85199866100004],[99.33380048100008,18.854046297000025],[99.25979835200008,18.825598571000057],[99.24586935700006,18.77670669500003],[99.28676072100006,18.769498377000048],[99.29992321000003,18.75205175800005],[99.36705099500006,18.77488789000006],[99.35252102200008,18.84644090000006],[99.36143598600006,18.85199866100004]]]}},{"type":"Feature","properties":{"code":"501306","name":"ออนใต้","parentCode":"5013"},"geometry":{"type":"Polygon","coordinates":[[[99.26860286900006,18.717286814000033],[99.23190638300008,18.745367161000047],[99.18146898100008,18.731863109000074],[99.17445377400009,18.706572598000037],[99.21757223200007,18.654625827000075],[99.23097689300005,18.653950219000023],[99.24680427400006,18.663538188000075],[99.26860286900006,18.717286814000033]]]}},{"type":"Feature","properties":{"code":"501912","name":"ป่าบง","parentCode":"5019"},"geometry":{"type":"Polygon","coordinates":[[[99.05735293400005,18.749639393000052],[99.05028974700008,18.761307594000073],[99.04933126800006,18.724064214000066],[99.06626831300008,18.725410692000025],[99.07140283700005,18.732813548000024],[99.05735293400005,18.749639393000052]]]}},{"type":"Feature","properties":{"code":"500110","name":"ป่าแดด","parentCode":"5001"},"geometry":{"type":"Polygon","coordinates":[[[99.00294821000006,18.766079975000025],[98.97743512800008,18.769048964000035],[98.96881029000008,18.756608838000034],[98.97025612200008,18.736227635000034],[98.97924808200008,18.700099287000057],[98.98623983800007,18.699356056000056],[98.98583559600007,18.71373403900003],[98.99498261800005,18.754482464000034],[99.00345594600009,18.76624223400006],[99.00294821000006,18.766079975000025]]]}},{"type":"Feature","properties":{"code":"500506","name":"ป่าลาน","parentCode":"5005"},"geometry":{"type":"Polygon","coordinates":[[[99.12359588100009,18.84664321300005],[99.10216142900003,18.857396854000058],[99.09504569400008,18.828995425000073],[99.09343524700006,18.827636607000045],[99.10973525600008,18.82045004500003],[99.12359588100009,18.84664321300005]]]}},{"type":"Feature","properties":{"code":"500513","name":"ป่าเมี่ยง","parentCode":"5005"},"geometry":{"type":"Polygon","coordinates":[[[99.40180343500003,19.00014822000003],[99.38159178000006,19.06519984700003],[99.34065982600004,19.095649593000076],[99.25250033700007,19.00052755400003],[99.18962947600005,19.004281994000053],[99.21989287400004,18.951954071000046],[99.22019264100004,18.89474387200005],[99.23481378700006,18.868762795000066],[99.25612262600004,18.882485571000075],[99.26247371900007,18.891025699000068],[99.24653903100005,18.948883091000027],[99.29735864600008,19.002447639000025],[99.40180343500003,19.00014822000003]]]}},{"type":"Feature","properties":{"code":"501104","name":"ป่าไหน่","parentCode":"5011"},"geometry":{"type":"Polygon","coordinates":[[[99.30951401900006,19.43112726800007],[99.29453392400006,19.496108624000044],[99.21364072500006,19.444999431000042],[99.20160459600004,19.39195036800004],[99.22098295800004,19.389296224000077],[99.30979477100004,19.42802473100005],[99.30951401900006,19.43112726800007]]]}},{"type":"Feature","properties":{"code":"500609","name":"ป่าแป๋","parentCode":"5006"},"geometry":{"type":"Polygon","coordinates":[[[98.70143918100007,19.237152896000055],[98.65612599000008,19.27178271100007],[98.60333733300007,19.278064631000063],[98.59848984200005,19.22850685800006],[98.56911342500007,19.212814527000035],[98.63829808200006,19.15465165300003],[98.64074559200009,19.068578924000064],[98.69454364400008,19.065748073000066],[98.75361600100007,19.071521150000024],[98.76884982600006,19.146046126000044],[98.76968455800005,19.176425081000048],[98.68803954400005,19.205348380000032],[98.70143918100007,19.237152896000055]]]}},{"type":"Feature","properties":{"code":"501412","name":"ป่าไผ่","parentCode":"5014"},"geometry":{"type":"Polygon","coordinates":[[[99.06092503200006,18.97250821500006],[99.03803610100005,18.973093366000057],[99.05926039600007,18.948103511000056],[99.02226896700006,18.91189578700005],[99.02482914100005,18.87660364900006],[99.04484765600006,18.871406226000033],[99.05975581100006,18.865613449000023],[99.07812426200007,18.91705515900003],[99.08538067000006,18.95087360100007],[99.06092503200006,18.97250821500006]]]}},{"type":"Feature","properties":{"code":"500504","name":"ป่าป้อง","parentCode":"5005"},"geometry":{"type":"Polygon","coordinates":[[[99.15639882100004,18.821143102000065],[99.18787301100008,18.87907910200005],[99.12789469200004,18.841349193000042],[99.15100088000008,18.819606004000036],[99.15639882100004,18.821143102000065]]]}},{"type":"Feature","properties":{"code":"500115","name":"ป่าตัน","parentCode":"5001"},"geometry":{"type":"Polygon","coordinates":[[[98.99755187000005,18.826862678000055],[98.98616147600006,18.84294871900005],[98.98437192600005,18.84175510800003],[98.99374280100005,18.803737515000023],[99.00428351300008,18.804469526000048],[98.99755187000005,18.826862678000055]]]}},{"type":"Feature","properties":{"code":"501103","name":"ป่าตุ้ม","parentCode":"5011"},"geometry":{"type":"Polygon","coordinates":[[[99.30979477100004,19.42802473100005],[99.22098295800004,19.389296224000077],[99.20778624600007,19.363964370000076],[99.20063611300009,19.347750744000052],[99.24006310900006,19.335568409000075],[99.33272877900004,19.362286226000037],[99.30979477100004,19.42802473100005]]]}},{"type":"Feature","properties":{"code":"500307","name":"ปางหินฝน","parentCode":"5003"},"geometry":{"type":"Polygon","coordinates":[[[98.31444733800004,18.562988415000063],[98.26945398800007,18.59326180100004],[98.25672486200006,18.630165584000054],[98.20956617200005,18.60744956700006],[98.23720248600006,18.571549323000056],[98.17466924200005,18.54171431700007],[98.12244949100005,18.50256626500004],[98.08211914100008,18.41805451600004],[98.12858010100007,18.39043351600003],[98.16258078500005,18.442632807000052],[98.21593539300005,18.43022671400007],[98.24173283100004,18.50531359400003],[98.29821189800003,18.51915550800004],[98.31444733800004,18.562988415000063]]]}},{"type":"Feature","properties":{"code":"500102","name":"พระสิงห์","parentCode":"5001"},"geometry":{"type":"Polygon","coordinates":[[[98.99325522200007,18.78778371800007],[98.97815230300006,18.788843262000057],[98.97761330300006,18.78136220300007],[98.99297594000006,18.78103050200008],[98.99325522200007,18.78778371800007]]]}},{"type":"Feature","properties":{"code":"502002","name":"เปียงหลวง","parentCode":"5020"},"geometry":{"type":"Polygon","coordinates":[[[98.72889273600003,19.624919943000066],[98.72370382200006,19.723474896000027],[98.70424413100005,19.758176699000046],[98.57226138100003,19.704375085000038],[98.61801267200008,19.641387768000072],[98.69849468600006,19.628131860000053],[98.72889273600003,19.624919943000066]]]}},{"type":"Feature","properties":{"code":"500406","name":"ปิงโค้ง","parentCode":"5004"},"geometry":{"type":"Polygon","coordinates":[[[98.98276968000005,19.47341195000007],[98.97323363700008,19.41969474600006],[99.08096912600007,19.373604768000064],[99.09768893400008,19.38302403700004],[99.13344319100008,19.411574278000046],[99.12305593600007,19.429892531000064],[99.15608687300005,19.511338007000063],[99.12016517300003,19.523635257000024],[99.13593834600005,19.57097314400005],[99.07740732900004,19.639054084000065],[99.00173396800005,19.566558659000066],[98.98276968000005,19.47341195000007]]]}},{"type":"Feature","properties":{"code":"500912","name":"โป่งน้ำร้อน","parentCode":"5009"},"geometry":{"type":"Polygon","coordinates":[[[99.12808041800008,20.106677482000066],[99.09128911000005,20.103791613000055],[99.12654949500006,19.93473952900007],[99.19603131100007,19.91233602500006],[99.20522904900008,19.98513143300005],[99.15352983900004,20.02009148800005],[99.12808041800008,20.106677482000066]]]}},{"type":"Feature","properties":{"code":"502101","name":"ปงตำ","parentCode":"5021"},"geometry":{"type":"Polygon","coordinates":[[[99.11071790100004,19.772764579000068],[99.03969542800007,19.783389791000047],[99.05603505300007,19.749989155000037],[99.13276825400004,19.750216306000027],[99.14268300700007,19.719230664000065],[99.15311671100005,19.72868417600006],[99.16993366900005,19.743178563000072],[99.11071790100004,19.772764579000068]]]}},{"type":"Feature","properties":{"code":"501706","name":"โปงทุ่ง","parentCode":"5017"},"geometry":{"type":"Polygon","coordinates":[[[98.86076924000008,17.895331697000074],[98.83356665400004,17.986091104000025],[98.78946297800007,18.000052752000045],[98.79017561500007,17.931425114000035],[98.77189852700008,17.87793273500006],[98.70732566900006,17.86021590000007],[98.65634586300007,17.872826583000062],[98.66911404200005,17.83454137900003],[98.68537518300008,17.790962026000045],[98.72700461600004,17.793558915000062],[98.77745892600007,17.831007647000035],[98.79982991400004,17.795880615000044],[98.85396882300006,17.826913468000043],[98.86076924000008,17.895331697000074]]]}},{"type":"Feature","properties":{"code":"500708","name":"โป่งแยง","parentCode":"5007"},"geometry":{"type":"Polygon","coordinates":[[[98.85467231000007,18.85844219200004],[98.86095214300008,18.91393746800003],[98.79908626300005,18.930544912000073],[98.78361251500007,18.884662568000067],[98.79080543000003,18.848919582000065],[98.85467231000007,18.85844219200004]]]}},{"type":"Feature","properties":{"code":"500702","name":"ริมเหนือ","parentCode":"5007"},"geometry":{"type":"Polygon","coordinates":[[[98.96790206600008,18.92752437300004],[98.92947593600007,18.94156950400003],[98.93121953500008,18.92868975600004],[98.96784923300004,18.920193182000048],[98.96790206600008,18.92752437300004]]]}},{"type":"Feature","properties":{"code":"500701","name":"ริมใต้","parentCode":"5007"},"geometry":{"type":"Polygon","coordinates":[[[98.96784923300004,18.920193182000048],[98.93121953500008,18.92868975600004],[98.92593566900007,18.91109273400002],[98.96676745600007,18.898659526000074],[98.96784923300004,18.920193182000048]]]}},{"type":"Feature","properties":{"code":"501303","name":"ร้องวัวแดง","parentCode":"5013"},"geometry":{"type":"Polygon","coordinates":[[[99.21056783300008,18.75947663900007],[99.15300852200005,18.77138073800006],[99.14749720900005,18.74962190900004],[99.15929375600007,18.739871080000057],[99.18146898100008,18.731863109000074],[99.23190638300008,18.745367161000047],[99.23061608600005,18.74710221400005],[99.21056783300008,18.75947663900007]]]}},{"type":"Feature","properties":{"code":"500505","name":"สง่าบ้าน","parentCode":"5005"},"geometry":{"type":"Polygon","coordinates":[[[99.12789469200004,18.841349193000042],[99.12359588100009,18.84664321300005],[99.10973525600008,18.82045004500003],[99.11162317200007,18.82069197100003],[99.14427022900009,18.816050118000078],[99.15100088000008,18.819606004000036],[99.12789469200004,18.841349193000042]]]}},{"type":"Feature","properties":{"code":"502003","name":"แสนไห","parentCode":"5020"},"geometry":{"type":"Polygon","coordinates":[[[98.69849468600006,19.628131860000053],[98.61801267200008,19.641387768000072],[98.57226138100003,19.704375085000038],[98.56603002400004,19.672108182000045],[98.56951157800006,19.649826682000025],[98.64417483200003,19.590351871000053],[98.69849468600006,19.628131860000053]]]}},{"type":"Feature","properties":{"code":"501302","name":"ทรายมูล","parentCode":"5013"},"geometry":{"type":"Polygon","coordinates":[[[99.14749720900005,18.74962190900004],[99.12042891200008,18.736808303000032],[99.15929375600007,18.739871080000057],[99.14749720900005,18.74962190900004]]]}},{"type":"Feature","properties":{"code":"500705","name":"สะลวง","parentCode":"5007"},"geometry":{"type":"Polygon","coordinates":[[[98.87937412700006,19.027937391000023],[98.82098643200004,19.032180702000062],[98.77078390300005,19.076314602000025],[98.74760281700009,19.023051648000035],[98.77624835600005,18.975676100000044],[98.85262580100004,18.97872723200004],[98.92631666200003,18.992570469000043],[98.91171183500006,19.041157602000055],[98.87937412700006,19.027937391000023]]]}},{"type":"Feature","properties":{"code":"500802","name":"สะเมิงเหนือ","parentCode":"5008"},"geometry":{"type":"Polygon","coordinates":[[[98.77624835600005,18.975676100000044],[98.74760281700009,19.023051648000035],[98.77078390300005,19.076314602000025],[98.75361600100007,19.071521150000024],[98.69454364400008,19.065748073000066],[98.69034447100006,18.963564046000045],[98.73192472300008,18.914899933000072],[98.78361251500007,18.884662568000067],[98.79908626300005,18.930544912000073],[98.77624835600005,18.975676100000044]]]}},{"type":"Feature","properties":{"code":"500801","name":"สะเมิงใต้","parentCode":"5008"},"geometry":{"type":"Polygon","coordinates":[[[98.78361251500007,18.884662568000067],[98.73192472300008,18.914899933000072],[98.69034447100006,18.963564046000045],[98.63783195300005,18.832156171000065],[98.63814557000006,18.76460415300005],[98.72439746500004,18.773345126000038],[98.81566672100007,18.73262628300006],[98.80318037300003,18.782849681000073],[98.79080543000003,18.848919582000065],[98.78361251500007,18.884662568000067]]]}},{"type":"Feature","properties":{"code":"500508","name":"สำราญราษฎร์","parentCode":"5005"},"geometry":{"type":"Polygon","coordinates":[[[99.10973525600008,18.82045004500003],[99.09343524700006,18.827636607000045],[99.08302897500005,18.786529701000063],[99.10615252200006,18.801169344000073],[99.11162317200007,18.82069197100003],[99.10973525600008,18.82045004500003]]]}},{"type":"Feature","properties":{"code":"501301","name":"สันกำแพง","parentCode":"5013"},"geometry":{"type":"Polygon","coordinates":[[[99.15300852200005,18.77138073800006],[99.14048984300007,18.773590730000024],[99.09891872800006,18.757771372000036],[99.07140283700005,18.732813548000024],[99.06626831300008,18.725410692000025],[99.07653076200006,18.704824186000053],[99.10841219700006,18.728380034000054],[99.12042891200008,18.736808303000032],[99.14749720900005,18.74962190900004],[99.15300852200005,18.77138073800006]]]}},{"type":"Feature","properties":{"code":"501202","name":"สันกลาง","parentCode":"5012"},"geometry":{"type":"Polygon","coordinates":[[[98.88573845500008,18.664654529000074],[98.87371887100005,18.675068433000035],[98.87015254900007,18.640945739000074],[98.89856177100006,18.634522611000023],[98.92034648100008,18.63283149700004],[98.88573845500008,18.664654529000074]]]}},{"type":"Feature","properties":{"code":"501313","name":"สันกลาง","parentCode":"5013"},"geometry":{"type":"Polygon","coordinates":[[[99.05617602700005,18.78921285100006],[99.03876674200006,18.793364128000064],[99.04555379000004,18.779657691000068],[99.04857072900006,18.76886724800005],[99.05028974700008,18.761307594000073],[99.05735293400005,18.749639393000052],[99.07632495600006,18.777380825000023],[99.05617602700005,18.78921285100006]]]}},{"type":"Feature","properties":{"code":"500601","name":"สันมหาพน","parentCode":"5006"},"geometry":{"type":"Polygon","coordinates":[[[98.97590478600006,19.10393404900003],[98.94637654400003,19.14671294900006],[98.90563518100004,19.12650984900006],[98.94472992300007,19.099838488000046],[98.97590478600006,19.10393404900003]]]}},{"type":"Feature","properties":{"code":"501404","name":"สันนาเม็ง","parentCode":"5014"},"geometry":{"type":"Polygon","coordinates":[[[99.06948123100005,18.857642936000047],[99.05934739800006,18.853931844000044],[99.04777637700005,18.84299324500006],[99.05199880300006,18.829501406000077],[99.05228004200006,18.820305726000072],[99.07221812600005,18.83713919400003],[99.07519695900004,18.844572931000073],[99.06948123100005,18.857642936000047]]]}},{"type":"Feature","properties":{"code":"501405","name":"สันป่าเปา","parentCode":"5014"},"geometry":{"type":"Polygon","coordinates":[[[99.10145590400003,18.86649069400005],[99.08547391700006,18.882648739000047],[99.06948123100005,18.857642936000047],[99.07519695900004,18.844572931000073],[99.10216142900003,18.857396854000058],[99.10145590400003,18.86649069400005]]]}},{"type":"Feature","properties":{"code":"500608","name":"สันป่ายาง","parentCode":"5006"},"geometry":{"type":"Polygon","coordinates":[[[98.77078390300005,19.076314602000025],[98.82098643200004,19.032180702000062],[98.87937412700006,19.027937391000023],[98.87551621000006,19.054760017000035],[98.77078390300005,19.076314602000025]]]}},{"type":"Feature","properties":{"code":"501508","name":"สันผักหวาน","parentCode":"5015"},"geometry":{"type":"Polygon","coordinates":[[[98.97924808200008,18.700099287000057],[98.97025612200008,18.736227635000034],[98.95303273000007,18.733487770000067],[98.93639101800005,18.709179379000034],[98.97664467300007,18.695448389000035],[98.97924808200008,18.700099287000057]]]}},{"type":"Feature","properties":{"code":"500116","name":"สันผีเสื้อ","parentCode":"5001"},"geometry":{"type":"Polygon","coordinates":[[[98.99999181400005,18.875240544000064],[98.97537052700005,18.87520166300004],[98.98616147600006,18.84294871900005],[98.99755187000005,18.826862678000055],[99.00892498700006,18.82522356000004],[99.00389610400003,18.861830019000024],[98.99999181400005,18.875240544000064]]]}},{"type":"Feature","properties":{"code":"501403","name":"สันพระเนตร","parentCode":"5014"},"geometry":{"type":"Polygon","coordinates":[[[99.05228004200006,18.820305726000072],[99.05199880300006,18.829501406000077],[99.02390988600007,18.80774815500007],[99.03876674200006,18.793364128000064],[99.05617602700005,18.78921285100006],[99.05228004200006,18.820305726000072]]]}},{"type":"Feature","properties":{"code":"500703","name":"สันโป่ง","parentCode":"5007"},"geometry":{"type":"Polygon","coordinates":[[[98.96371832300008,18.977235730000075],[98.93114253600004,18.977834049000023],[98.92947593600007,18.94156950400003],[98.96790206600008,18.92752437300004],[98.97769679100008,18.937295997000035],[98.97672845900007,18.950009049000073],[98.96371832300008,18.977235730000075]]]}},{"type":"Feature","properties":{"code":"500502","name":"สันปูเลย","parentCode":"5005"},"geometry":{"type":"Polygon","coordinates":[[[99.09504569400008,18.828995425000073],[99.07221812600005,18.83713919400003],[99.05228004200006,18.820305726000072],[99.05617602700005,18.78921285100006],[99.07632495600006,18.777380825000023],[99.08318277400008,18.782846299000028],[99.08302897500005,18.786529701000063],[99.09343524700006,18.827636607000045],[99.09504569400008,18.828995425000073]]]}},{"type":"Feature","properties":{"code":"500906","name":"สันทราย","parentCode":"5009"},"geometry":{"type":"Polygon","coordinates":[[[99.22519811800004,19.89582302900004],[99.19562270000006,19.910064773000045],[99.12022129500008,19.89410423000004],[99.19549870900005,19.855994886000076],[99.22519811800004,19.89582302900004]]]}},{"type":"Feature","properties":{"code":"501105","name":"สันทราย","parentCode":"5011"},"geometry":{"type":"Polygon","coordinates":[[[99.29515801400004,19.570782958000052],[99.24485639900007,19.560797062000063],[99.19332267300007,19.581663311000057],[99.13593834600005,19.57097314400005],[99.12016517300003,19.523635257000024],[99.15608687300005,19.511338007000063],[99.12305593600007,19.429892531000064],[99.13344319100008,19.411574278000046],[99.18537298900009,19.375342386000057],[99.20160459600004,19.39195036800004],[99.21364072500006,19.444999431000042],[99.29453392400006,19.496108624000044],[99.32599403000006,19.539399118000063],[99.29515801400004,19.570782958000052]]]}},{"type":"Feature","properties":{"code":"501911","name":"สันทราย","parentCode":"5019"},"geometry":{"type":"Polygon","coordinates":[[[98.98882338100003,18.646131764000074],[98.96179083400006,18.65472640400003],[98.95418246900005,18.641213165000067],[98.95396489800004,18.63249547600003],[98.96618763000004,18.613157794000074],[98.96770337400005,18.61897447900003],[98.99073923200007,18.63974161300007],[98.98882338100003,18.646131764000074]]]}},{"type":"Feature","properties":{"code":"501401","name":"สันทรายหลวง","parentCode":"5014"},"geometry":{"type":"Polygon","coordinates":[[[99.05975581100006,18.865613449000023],[99.04484765600006,18.871406226000033],[99.03711439600005,18.84140437700006],[99.04777637700005,18.84299324500006],[99.05934739800006,18.853931844000044],[99.05975581100006,18.865613449000023]]]}},{"type":"Feature","properties":{"code":"501402","name":"สันทรายน้อย","parentCode":"5014"},"geometry":{"type":"Polygon","coordinates":[[[99.04777637700005,18.84299324500006],[99.03711439600005,18.84140437700006],[99.01722985100008,18.82412068900004],[99.02390988600007,18.80774815500007],[99.05199880300006,18.829501406000077],[99.04777637700005,18.84299324500006]]]}},{"type":"Feature","properties":{"code":"501003","name":"สันต้นหมื้อ","parentCode":"5010"},"geometry":{"type":"Polygon","coordinates":[[[99.30138130400007,19.992826686000058],[99.29499509100003,19.994164544000057],[99.24426421300006,19.958890955000072],[99.25278605000005,19.908826731000033],[99.27004800800006,19.93913788900005],[99.31136967600008,19.93263382600003],[99.28313872700005,19.97036759300005],[99.30138130400007,19.992826686000058]]]}},{"type":"Feature","properties":{"code":"502404","name":"สันติสุข","parentCode":"5024"},"geometry":{"type":"Polygon","coordinates":[[[98.71446413800004,18.599329158000046],[98.69440413400008,18.620238013000062],[98.62398487900003,18.59980338400004],[98.69001189900007,18.535401981000064],[98.72977305100005,18.538990471000034],[98.82728532400006,18.51570747900007],[98.85788763300008,18.528561167000078],[98.85708001100005,18.540944874000047],[98.71852568800006,18.55132658800005],[98.71150191600003,18.58311099100007],[98.71446413800004,18.599329158000046]]]}},{"type":"Feature","properties":{"code":"501902","name":"สารภี","parentCode":"5019"},"geometry":{"type":"Polygon","coordinates":[[[99.05901871900005,18.69424881900005],[99.03594999300003,18.695657974000028],[99.02802492600006,18.671542000000045],[99.06519419600005,18.659682958000076],[99.05901871900005,18.69424881900005]]]}},{"type":"Feature","properties":{"code":"502102","name":"ศรีดงเย็น","parentCode":"5021"},"geometry":{"type":"Polygon","coordinates":[[[99.29344965600006,19.68013313700004],[99.15311671100005,19.72868417600006],[99.14268300700007,19.719230664000065],[99.10205067500004,19.693968116000065],[99.02727097800005,19.70296328200004],[99.07740732900004,19.639054084000065],[99.13593834600005,19.57097314400005],[99.19332267300007,19.581663311000057],[99.24485639900007,19.560797062000063],[99.29515801400004,19.570782958000052],[99.26011339000007,19.632974087000036],[99.29344965600006,19.68013313700004]]]}},{"type":"Feature","properties":{"code":"500101","name":"ศรีภูมิ","parentCode":"5001"},"geometry":{"type":"Polygon","coordinates":[[[98.99325522200007,18.78778371800007],[98.99374280100005,18.803737515000023],[98.97827492200008,18.796042156000055],[98.97815230300006,18.788843262000057],[98.99325522200007,18.78778371800007]]]}},{"type":"Feature","properties":{"code":"502402","name":"สองแคว","parentCode":"5024"},"geometry":{"type":"Polygon","coordinates":[[[98.85788763300008,18.528561167000078],[98.82728532400006,18.51570747900007],[98.82481072900003,18.479288187000066],[98.83891611100006,18.486367423000047],[98.85145931300008,18.500960857000052],[98.85788763300008,18.528561167000078]]]}},{"type":"Feature","properties":{"code":"501805","name":"แม่หลอง","parentCode":"5018"},"geometry":{"type":"Polygon","coordinates":[[[98.34003603700006,17.794488086000058],[98.23226976800004,17.767682723000064],[98.16453290500004,17.72060890000006],[98.14492524900004,17.682376113000032],[98.08921456500008,17.63717831100007],[98.10920715000003,17.590203812000027],[98.13597998800003,17.541729334000024],[98.23908080900009,17.550394526000048],[98.25438111300008,17.572153339000067],[98.24492152000005,17.607579737000037],[98.29355744300005,17.661057807000077],[98.29378431500004,17.734446897000055],[98.34003603700006,17.794488086000058]]]}},{"type":"Feature","properties":{"code":"501506","name":"สบแม่ข่า","parentCode":"5015"},"geometry":{"type":"Polygon","coordinates":[[[98.98623983800007,18.699356056000056],[98.97924808200008,18.700099287000057],[98.97664467300007,18.695448389000035],[98.97432144600003,18.683666407000032],[98.96452917000005,18.660638748000054],[98.98659645300006,18.683984099000043],[98.98623983800007,18.699356056000056]]]}},{"type":"Feature","properties":{"code":"500606","name":"สบเปิง","parentCode":"5006"},"geometry":{"type":"Polygon","coordinates":[[[98.84236124100005,19.12856442800006],[98.80357432600005,19.172704793000037],[98.76884982600006,19.146046126000044],[98.75361600100007,19.071521150000024],[98.77078390300005,19.076314602000025],[98.87551621000006,19.054760017000035],[98.87613147500008,19.101034901000048],[98.84236124100005,19.12856442800006]]]}},{"type":"Feature","properties":{"code":"500205","name":"สบเตี๊ยะ","parentCode":"5002"},"geometry":{"type":"Polygon","coordinates":[[[98.68759555500009,18.380676008000023],[98.69529034500005,18.411802375000036],[98.68406987700007,18.40729447800004],[98.62650828500006,18.385611207000068],[98.62949662100004,18.361417621000044],[98.63956140000005,18.315890181000043],[98.67249592300004,18.310097961000054],[98.70297197900004,18.331205100000034],[98.68759555500009,18.380676008000023]]]}},{"type":"Feature","properties":{"code":"500108","name":"สุเทพ","parentCode":"5001"},"geometry":{"type":"Polygon","coordinates":[[[98.88854854900006,18.831724553000072],[98.86761333100009,18.838004959000045],[98.86201040800006,18.800337889000048],[98.89250418600005,18.765976224000042],[98.96881029000008,18.756608838000034],[98.97743512800008,18.769048964000035],[98.97761330300006,18.78136220300007],[98.97815230300006,18.788843262000057],[98.97827492200008,18.796042156000055],[98.92326597700009,18.791960629000073],[98.88854854900006,18.831724553000072]]]}},{"type":"Feature","properties":{"code":"500507","name":"ตลาดขวัญ","parentCode":"5005"},"geometry":{"type":"Polygon","coordinates":[[[99.09504569400008,18.828995425000073],[99.10216142900003,18.857396854000058],[99.07519695900004,18.844572931000073],[99.07221812600005,18.83713919400003],[99.09504569400008,18.828995425000073]]]}},{"type":"Feature","properties":{"code":"500510","name":"ตลาดใหญ่","parentCode":"5005"},"geometry":{"type":"Polygon","coordinates":[[[99.14427022900009,18.816050118000078],[99.11162317200007,18.82069197100003],[99.10615252200006,18.801169344000073],[99.11599610300004,18.796550316000037],[99.12878174100007,18.80068684300005],[99.14427022900009,18.816050118000078]]]}},{"type":"Feature","properties":{"code":"501702","name":"ท่าเดื่อ","parentCode":"5017"},"geometry":{"type":"Polygon","coordinates":[[[98.77690865400007,18.000566738000032],[98.73336884800005,18.019730538000033],[98.65095818400005,17.990946973000064],[98.61229381300006,18.007985895000047],[98.57463155000005,17.980360568000037],[98.59808235800006,17.94137513100003],[98.61758761600004,17.92876499700003],[98.70516812800008,17.94206441500006],[98.77690865400007,18.000566738000032]]]}},{"type":"Feature","properties":{"code":"501908","name":"ท่ากว้าง","parentCode":"5019"},"geometry":{"type":"Polygon","coordinates":[[[99.00651227700007,18.676342935000037],[99.00066207100008,18.681866781000053],[98.98882338100003,18.646131764000074],[98.99073923200007,18.63974161300007],[98.99989552700004,18.640078170000038],[99.01366586100005,18.671086290000062],[99.00651227700007,18.676342935000037]]]}},{"type":"Feature","properties":{"code":"502306","name":"ทาเหนือ","parentCode":"5023"},"geometry":{"type":"Polygon","coordinates":[[[99.36705099500006,18.77488789000006],[99.29992321000003,18.75205175800005],[99.28676072100006,18.769498377000048],[99.26860286900006,18.717286814000033],[99.24680427400006,18.663538188000075],[99.32695603700006,18.628334261000077],[99.34829959200005,18.656521741000063],[99.32718864700007,18.68445945900004],[99.37147500200007,18.753420277000032],[99.36705099500006,18.77488789000006]]]}},{"type":"Feature","properties":{"code":"500302","name":"ท่าผา","parentCode":"5003"},"geometry":{"type":"Polygon","coordinates":[[[98.47872121300009,18.468194191000066],[98.51061332700004,18.48960481900002],[98.49233025900008,18.53825732200005],[98.47609068600008,18.51092145700005],[98.41698172600007,18.515282598000056],[98.33752008500005,18.485112781000055],[98.32543141600007,18.424483520000024],[98.39410080600004,18.458043300000043],[98.47872121300009,18.468194191000066]]]}},{"type":"Feature","properties":{"code":"500112","name":"ท่าศาลา","parentCode":"5001"},"geometry":{"type":"Polygon","coordinates":[[[99.04555379000004,18.779657691000068],[99.01994546700007,18.784868284000027],[99.01952724100005,18.773914433000073],[99.02894748500006,18.750309850000065],[99.03396611500006,18.757480157000032],[99.04857072900006,18.76886724800005],[99.04555379000004,18.779657691000068]]]}},{"type":"Feature","properties":{"code":"501005","name":"ท่าตอน","parentCode":"5010"},"geometry":{"type":"Polygon","coordinates":[[[99.50518798700006,20.053703366000036],[99.49116114300006,20.078987056000074],[99.57287003500005,20.11948959700004],[99.51307463500007,20.147433560000024],[99.49906356400004,20.117672748000075],[99.40015360300004,20.086209765000035],[99.31528914900008,20.110242516000028],[99.32629453000004,20.036493995000058],[99.37959262600003,20.040127147000078],[99.42876892600003,20.05990700800004],[99.47630030500005,20.03938055800006],[99.50518798700006,20.053703366000036]]]}},{"type":"Feature","properties":{"code":"501203","name":"ท่าวังพร้าว","parentCode":"5012"},"geometry":{"type":"Polygon","coordinates":[[[98.86045712400005,18.549726212000053],[98.85794488600004,18.549846530000025],[98.85294123900007,18.545292287000052],[98.85708001100005,18.540944874000047],[98.85788763300008,18.528561167000078],[98.85145931300008,18.500960857000052],[98.85975438700007,18.50094110200007],[98.87167316000006,18.516632808000054],[98.87747577000005,18.54627374000006],[98.86045712400005,18.549726212000053]]]}},{"type":"Feature","properties":{"code":"501910","name":"ท่าวังตาล","parentCode":"5019"},"geometry":{"type":"Polygon","coordinates":[[[99.00988951800008,18.748772977000044],[98.99498261800005,18.754482464000034],[98.98583559600007,18.71373403900003],[99.00971518600005,18.704477505000057],[99.00856993400004,18.714312066000048],[99.01120148200005,18.719057106000037],[99.00988951800008,18.748772977000044]]]}},{"type":"Feature","properties":{"code":"500514","name":"เทพเสด็จ","parentCode":"5005"},"geometry":{"type":"Polygon","coordinates":[[[99.40180343500003,19.00014822000003],[99.29735864600008,19.002447639000025],[99.24653903100005,18.948883091000027],[99.26247371900007,18.891025699000068],[99.37764141900004,18.92171617200006],[99.37747823000007,18.982452857000055],[99.40180343500003,19.00014822000003]]]}},{"type":"Feature","properties":{"code":"500407","name":"ทุ่งข้าวพวง","parentCode":"5004"},"geometry":{"type":"Polygon","coordinates":[[[99.00173396800005,19.566558659000066],[98.93060014700006,19.57859813500005],[98.88255334300004,19.620552960000055],[98.77998607100005,19.584306026000036],[98.74111959700008,19.595383441000024],[98.77846254600007,19.50793386500004],[98.89104327900009,19.527923878000024],[98.96513521800006,19.504130721000024],[98.98276968000005,19.47341195000007],[99.00173396800005,19.566558659000066]]]}},{"type":"Feature","properties":{"code":"501102","name":"ทุ่งหลวง","parentCode":"5011"},"geometry":{"type":"Polygon","coordinates":[[[99.20778624600007,19.363964370000076],[99.18741107800008,19.366812123000045],[99.18703651100009,19.34923838700007],[99.20063611300009,19.347750744000052],[99.20778624600007,19.363964370000076]]]}},{"type":"Feature","properties":{"code":"502202","name":"ทุ่งปี๊","parentCode":"5022"},"geometry":{"type":"Polygon","coordinates":[[[98.82071057500008,18.586733560000027],[98.71892977500005,18.62230916900006],[98.71446413800004,18.599329158000046],[98.71150191600003,18.58311099100007],[98.74135698500004,18.55218833500004],[98.79907580100007,18.58467283500005],[98.82742974400009,18.563568607000036],[98.82071057500008,18.586733560000027]]]}},{"type":"Feature","properties":{"code":"502203","name":"ทุ่งรวงทอง","parentCode":"5022"},"geometry":{"type":"Polygon","coordinates":[[[98.83652975700005,18.583602404000032],[98.82071057500008,18.586733560000027],[98.82742974400009,18.563568607000036],[98.85294123900007,18.545292287000052],[98.85794488600004,18.549846530000025],[98.83652975700005,18.583602404000032]]]}},{"type":"Feature","properties":{"code":"501208","name":"ทุ่งสะโตก","parentCode":"5012"},"geometry":{"type":"Polygon","coordinates":[[[98.85950747000004,18.593820505000053],[98.83840401500004,18.61629559100004],[98.83464062700006,18.60566407700003],[98.83652975700005,18.583602404000032],[98.85794488600004,18.549846530000025],[98.86045712400005,18.549726212000053],[98.85950747000004,18.593820505000053]]]}},{"type":"Feature","properties":{"code":"501210","name":"ทุ่งต้อม","parentCode":"5012"},"geometry":{"type":"Polygon","coordinates":[[[98.92034648100008,18.63283149700004],[98.89856177100006,18.634522611000023],[98.89619969900008,18.62247003600004],[98.91888913100007,18.58623245600006],[98.92651584500004,18.571292895000056],[98.94577670500007,18.58825751300003],[98.92525191400006,18.629068735000033],[98.92034648100008,18.63283149700004]]]}},{"type":"Feature","properties":{"code":"501312","name":"ต้นเปา","parentCode":"5013"},"geometry":{"type":"Polygon","coordinates":[[[99.09969325500003,18.768245713000056],[99.08318277400008,18.782846299000028],[99.07632495600006,18.777380825000023],[99.05735293400005,18.749639393000052],[99.07140283700005,18.732813548000024],[99.09891872800006,18.757771372000036],[99.09969325500003,18.768245713000056]]]}},{"type":"Feature","properties":{"code":"500106","name":"วัดเกต","parentCode":"5001"},"geometry":{"type":"Polygon","coordinates":[[[99.01953077800005,18.804598072000033],[99.00428351300008,18.804469526000048],[99.00390106000003,18.787613624000073],[99.00294821000006,18.766079975000025],[99.00345594600009,18.76624223400006],[99.01952724100005,18.773914433000073],[99.01994546700007,18.784868284000027],[99.01953077800005,18.804598072000033]]]}},{"type":"Feature","properties":{"code":"500901","name":"เวียง","parentCode":"5009"},"geometry":{"type":"Polygon","coordinates":[[[99.24426421300006,19.958890955000072],[99.20522904900008,19.98513143300005],[99.19603131100007,19.91233602500006],[99.19562270000006,19.910064773000045],[99.22519811800004,19.89582302900004],[99.24644948300005,19.861860985000078],[99.29598087100004,19.881898136000075],[99.25278605000005,19.908826731000033],[99.24426421300006,19.958890955000072]]]}},{"type":"Feature","properties":{"code":"501101","name":"เวียง","parentCode":"5011"},"geometry":{"type":"Polygon","coordinates":[[[99.22098295800004,19.389296224000077],[99.20160459600004,19.39195036800004],[99.18537298900009,19.375342386000057],[99.18741107800008,19.366812123000045],[99.20778624600007,19.363964370000076],[99.22098295800004,19.389296224000077]]]}},{"type":"Feature","properties":{"code":"502403","name":"ยางคราม","parentCode":"5024"},"geometry":{"type":"Polygon","coordinates":[[[98.82742974400009,18.563568607000036],[98.79907580100007,18.58467283500005],[98.74135698500004,18.55218833500004],[98.71150191600003,18.58311099100007],[98.71852568800006,18.55132658800005],[98.85708001100005,18.540944874000047],[98.85294123900007,18.545292287000052],[98.82742974400009,18.563568607000036]]]}},{"type":"Feature","properties":{"code":"501901","name":"ยางเนิ้ง","parentCode":"5019"},"geometry":{"type":"Polygon","coordinates":[[[99.03913486600004,18.724275931000022],[99.01120148200005,18.719057106000037],[99.00856993400004,18.714312066000048],[99.03594999300003,18.695657974000028],[99.05901871900005,18.69424881900005],[99.04116411900009,18.719977166000035],[99.03913486600004,18.724275931000022]]]}},{"type":"Feature","properties":{"code":"501802","name":"ยางเปียง","parentCode":"5018"},"geometry":{"type":"Polygon","coordinates":[[[98.49329682800004,17.813907706000066],[98.48095153700007,17.839732307000077],[98.43218614000006,17.799068230000046],[98.34003603700006,17.794488086000058],[98.29378431500004,17.734446897000055],[98.29355744300005,17.661057807000077],[98.24492152000005,17.607579737000037],[98.25438111300008,17.572153339000067],[98.29790907700004,17.575534336000032],[98.30975253900004,17.52997293800007],[98.38764785600006,17.56098925400005],[98.42114515400004,17.540981146000036],[98.51723188000005,17.569226121000042],[98.53270760500004,17.61905174000003],[98.50986952200009,17.78803117800004],[98.49329682800004,17.813907706000066]]]}},{"type":"Feature","properties":{"code":"501201","name":"ยุหว่า","parentCode":"5012"},"geometry":{"type":"Polygon","coordinates":[[[98.89856177100006,18.634522611000023],[98.87015254900007,18.640945739000074],[98.86566861200004,18.636928943000044],[98.86560932400005,18.593869993000055],[98.88906005600006,18.59546249300007],[98.89619969900008,18.62247003600004],[98.89856177100006,18.634522611000023]]]}},{"type":"Feature","properties":{"code":"500805","name":"ยั้งเมิน","parentCode":"5008"},"geometry":{"type":"Polygon","coordinates":[[[98.57967275200008,18.91206010800005],[98.65903180200007,19.04695541700005],[98.64074559200009,19.068578924000064],[98.54191550500008,19.026204420000056],[98.43921050900008,19.04844296500005],[98.42098377800005,19.027148382000064],[98.42559658100004,18.94689840600006],[98.47212974400009,18.961971859000073],[98.50463510500003,18.975919737000027],[98.57967275200008,18.91206010800005]]]}}]}