{"type":"FeatureCollection","features":[{"type":"Feature","properties":{"code":"510301","name":"บ้านโฮ่ง","parentCode":"5103"},"geometry":{"type":"Polygon","coordinates":[[[98.88157916300008,18.301357164000024],[98.86651027500005,18.345823137000025],[98.76320122800007,18.33179668400004],[98.77388073900005,18.25080350500002],[98.79471682500008,18.274112036000076],[98.88157916300008,18.301357164000024]]]}},{"type":"Feature","properties":{"code":"510112","name":"บ้านกลาง","parentCode":"5101"},"geometry":{"type":"Polygon","coordinates":[[[99.10292643400004,18.55424834300004],[99.07053962100008,18.59190454900005],[99.03072315700007,18.597535524000023],[99.02478580900004,18.58766900100005],[99.04521956400004,18.562461341000073],[99.05647030000006,18.55425679800004],[99.10292643400004,18.55424834300004]]]}},{"type":"Feature","properties":{"code":"510108","name":"บ้านแป้น","parentCode":"5101"},"geometry":{"type":"Polygon","coordinates":[[[98.98113109100007,18.53465325800005],[98.97408688700006,18.544462190000047],[98.94156455400008,18.539881636000075],[98.94129242400004,18.532227396000053],[98.94706012800003,18.512606150000067],[98.96563415400004,18.496863848000032],[98.98113109100007,18.53465325800005]]]}},{"type":"Feature","properties":{"code":"510502","name":"บ้านปวง","parentCode":"5105"},"geometry":{"type":"Polygon","coordinates":[[[99.10816085400006,17.913342202000024],[99.01331077800006,17.936726331000045],[99.01832249300008,17.87429601900004],[99.00452435000005,17.843889011000044],[99.04371811900006,17.844513047000078],[99.10317652900005,17.81260705400007],[99.17467766800007,17.810430979000046],[99.18331551700004,17.860529032000045],[99.10816085400006,17.913342202000024]]]}},{"type":"Feature","properties":{"code":"510605","name":"บ้านเรือน","parentCode":"5106"},"geometry":{"type":"Polygon","coordinates":[[[98.90420304200006,18.52147924700006],[98.90187674800006,18.526189766000073],[98.87167316000006,18.516632808000054],[98.85975438700007,18.50094110200007],[98.88776382100008,18.499311013000067],[98.90420304200006,18.52147924700006]]]}},{"type":"Feature","properties":{"code":"510701","name":"บ้านธิ","parentCode":"5107"},"geometry":{"type":"Polygon","coordinates":[[[99.08073869600008,18.68126535500005],[99.06519419600005,18.659682958000076],[99.05509686200008,18.63216124400003],[99.13007646300008,18.630391055000075],[99.16843008900008,18.59175834000007],[99.21750745600008,18.592009204000078],[99.23097689300005,18.653950219000023],[99.21757223200007,18.654625827000075],[99.20926132400007,18.633389118000025],[99.10741255800008,18.679627122000056],[99.08073869600008,18.68126535500005]]]}},{"type":"Feature","properties":{"code":"510404","name":"ดงดำ","parentCode":"5104"},"geometry":{"type":"Polygon","coordinates":[[[99.10982138200006,17.792763723000064],[99.06233122500004,17.788138022000055],[99.00426988100008,17.75129441200005],[99.00931562000005,17.722901550000074],[99.06495480700005,17.67368119200006],[99.10414606100005,17.74089923400004],[99.10982138200006,17.792763723000064]]]}},{"type":"Feature","properties":{"code":"510702","name":"ห้วยยาบ","parentCode":"5107"},"geometry":{"type":"Polygon","coordinates":[[[99.21757223200007,18.654625827000075],[99.17445377400009,18.706572598000037],[99.13754437100005,18.701493431000074],[99.10741255800008,18.679627122000056],[99.20926132400007,18.633389118000025],[99.21757223200007,18.654625827000075]]]}},{"type":"Feature","properties":{"code":"510405","name":"ก้อ","parentCode":"5104"},"geometry":{"type":"Polygon","coordinates":[[[98.72700461600004,17.793558915000062],[98.68537518300008,17.790962026000045],[98.74543544600004,17.697934926000073],[98.68394189700007,17.66364687300006],[98.68258703700008,17.596825110000054],[98.70243107800007,17.55452546300006],[98.69095582400007,17.425889056000074],[98.72398412700005,17.46365291500007],[98.85339686400005,17.51375082800007],[98.87963366800005,17.49095266000006],[98.91015032500007,17.536710051000057],[98.91073096500008,17.582245086000057],[98.88086685900004,17.627184847000024],[98.90749783800004,17.648618637000027],[98.88925601700004,17.671617909000076],[98.82203523700008,17.683680509000055],[98.79617704400005,17.735936602000038],[98.74822204800006,17.75222881600007],[98.72700461600004,17.793558915000062]]]}},{"type":"Feature","properties":{"code":"510303","name":"เหล่ายาว","parentCode":"5103"},"geometry":{"type":"Polygon","coordinates":[[[98.82357188800006,18.388387176000037],[98.78627707500004,18.397790732000033],[98.78283072400006,18.36617349100004],[98.73190765900006,18.346236874000056],[98.76320122800007,18.33179668400004],[98.86651027500005,18.345823137000025],[98.84824732000004,18.35458154400004],[98.82357188800006,18.388387176000037]]]}},{"type":"Feature","properties":{"code":"510401","name":"ลี้","parentCode":"5104"},"geometry":{"type":"Polygon","coordinates":[[[99.00452435000005,17.843889011000044],[98.95190240000005,17.811524744000053],[98.89168286500006,17.812698246000025],[98.88845577100005,17.75118704500005],[98.96782042200005,17.750060149000035],[99.00931562000005,17.722901550000074],[99.00426988100008,17.75129441200005],[99.06233122500004,17.788138022000055],[99.10982138200006,17.792763723000064],[99.10317652900005,17.81260705400007],[99.04371811900006,17.844513047000078],[99.00452435000005,17.843889011000044]]]}},{"type":"Feature","properties":{"code":"510406","name":"แม่ลาน","parentCode":"5104"},"geometry":{"type":"Polygon","coordinates":[[[98.85396882300006,17.826913468000043],[98.79982991400004,17.795880615000044],[98.77745892600007,17.831007647000035],[98.72700461600004,17.793558915000062],[98.74822204800006,17.75222881600007],[98.79617704400005,17.735936602000038],[98.82203523700008,17.683680509000055],[98.88925601700004,17.671617909000076],[98.88845577100005,17.75118704500005],[98.89168286500006,17.812698246000025],[98.85396882300006,17.826913468000043]]]}},{"type":"Feature","properties":{"code":"510603","name":"แม่แรง","parentCode":"5106"},"geometry":{"type":"Polygon","coordinates":[[[98.91196381000003,18.520247565000034],[98.90420304200006,18.52147924700006],[98.88776382100008,18.499311013000067],[98.90550514400007,18.47770489100003],[98.92551496100003,18.48190872400005],[98.93513155100004,18.493365211000025],[98.91196381000003,18.520247565000034]]]}},{"type":"Feature","properties":{"code":"510402","name":"แม่ตืน","parentCode":"5104"},"geometry":{"type":"Polygon","coordinates":[[[98.98970948000004,18.015720052000063],[98.92830802200007,18.00560672100005],[98.80567279500008,18.03163141300007],[98.79756502500004,18.048046659000022],[98.77690865400007,18.000566738000032],[98.78946297800007,18.000052752000045],[98.83356665400004,17.986091104000025],[98.86076924000008,17.895331697000074],[98.89366883300005,17.905096291000064],[98.99973812500008,17.89432802700003],[99.01832249300008,17.87429601900004],[99.01331077800006,17.936726331000045],[98.98970948000004,18.015720052000063]]]}},{"type":"Feature","properties":{"code":"510113","name":"มะเขือแจ้","parentCode":"5101"},"geometry":{"type":"Polygon","coordinates":[[[99.21750745600008,18.592009204000078],[99.16843008900008,18.59175834000007],[99.13007646300008,18.630391055000075],[99.05509686200008,18.63216124400003],[99.04696416800004,18.614348540000037],[99.03072315700007,18.597535524000023],[99.07053962100008,18.59190454900005],[99.10292643400004,18.55424834300004],[99.20676806000006,18.547773961000075],[99.22536616900004,18.589318134000052],[99.21750745600008,18.592009204000078]]]}},{"type":"Feature","properties":{"code":"510606","name":"มะกอก","parentCode":"5106"},"geometry":{"type":"Polygon","coordinates":[[[98.95045515400005,18.461470837000036],[98.92551496100003,18.48190872400005],[98.90550514400007,18.47770489100003],[98.89200814400004,18.45785398000004],[98.93236429200005,18.39040454900004],[98.95102298300009,18.43694905900003],[98.95045515400005,18.461470837000036]]]}},{"type":"Feature","properties":{"code":"510604","name":"ม่วงน้อย","parentCode":"5106"},"geometry":{"type":"Polygon","coordinates":[[[98.95045515400005,18.461470837000036],[98.94364644100006,18.495419231000028],[98.93513155100004,18.493365211000025],[98.92551496100003,18.48190872400005],[98.95045515400005,18.461470837000036]]]}},{"type":"Feature","properties":{"code":"510109","name":"เหมืองจี้","parentCode":"5101"},"geometry":{"type":"Polygon","coordinates":[[[98.96563415400004,18.496863848000032],[98.94706012800003,18.512606150000067],[98.94364644100006,18.495419231000028],[98.95045515400005,18.461470837000036],[98.95102298300009,18.43694905900003],[98.99972352900005,18.45069174300005],[99.01048831800006,18.46469736000006],[99.01174759300005,18.467627923000066],[99.00513400200003,18.472772073000044],[98.96563415400004,18.496863848000032]]]}},{"type":"Feature","properties":{"code":"510102","name":"เหมืองง่า","parentCode":"5101"},"geometry":{"type":"Polygon","coordinates":[[[99.02425479100003,18.64197328100005],[99.00374533900003,18.637646675000042],[98.99647463400004,18.600246214000038],[98.98540992000005,18.58799091800006],[98.99688462400007,18.581694218000052],[99.02332470800008,18.58684608300007],[99.02478580900004,18.58766900100005],[99.03072315700007,18.597535524000023],[99.04696416800004,18.614348540000037],[99.02425479100003,18.64197328100005]]]}},{"type":"Feature","properties":{"code":"510403","name":"นาทราย","parentCode":"5104"},"geometry":{"type":"Polygon","coordinates":[[[99.00931562000005,17.722901550000074],[98.96782042200005,17.750060149000035],[98.88845577100005,17.75118704500005],[98.88925601700004,17.671617909000076],[98.90749783800004,17.648618637000027],[98.99847629700008,17.637163040000075],[99.04706932500005,17.61166908200005],[99.04967538000005,17.61252663700003],[99.06495480700005,17.67368119200006],[99.00931562000005,17.722901550000074]]]}},{"type":"Feature","properties":{"code":"510101","name":"ในเมือง","parentCode":"5101"},"geometry":{"type":"Polygon","coordinates":[[[99.02332470800008,18.58684608300007],[98.99688462400007,18.581694218000052],[99.00355743800009,18.564183368000045],[99.02332470800008,18.58684608300007]]]}},{"type":"Feature","properties":{"code":"510611","name":"นครเจดีย์","parentCode":"5106"},"geometry":{"type":"Polygon","coordinates":[[[98.89200814400004,18.45785398000004],[98.85894602300004,18.462926469000024],[98.84824732000004,18.35458154400004],[98.86651027500005,18.345823137000025],[98.88157916300008,18.301357164000024],[98.90443143100003,18.27501177700003],[98.96226452000008,18.280116037000028],[98.93201803300008,18.308872329000053],[98.93236429200005,18.39040454900004],[98.89200814400004,18.45785398000004]]]}},{"type":"Feature","properties":{"code":"510608","name":"น้ำดิบ","parentCode":"5106"},"geometry":{"type":"Polygon","coordinates":[[[98.85894602300004,18.462926469000024],[98.83891611100006,18.486367423000047],[98.82481072900003,18.479288187000066],[98.77811012900008,18.449773986000025],[98.78733741000008,18.436863165000034],[98.82357188800006,18.388387176000037],[98.84824732000004,18.35458154400004],[98.85894602300004,18.462926469000024]]]}},{"type":"Feature","properties":{"code":"510104","name":"หนองช้างคืน","parentCode":"5101"},"geometry":{"type":"Polygon","coordinates":[[[99.02122855100004,18.672466281000027],[99.01366586100005,18.671086290000062],[98.99989552700004,18.640078170000038],[99.00374533900003,18.637646675000042],[99.02425479100003,18.64197328100005],[99.02122855100004,18.672466281000027]]]}},{"type":"Feature","properties":{"code":"510801","name":"หนองล่อง","parentCode":"5108"},"geometry":{"type":"Polygon","coordinates":[[[98.77582407100005,18.39791036500003],[98.70163460500004,18.428929664000066],[98.69504488400008,18.420082447000027],[98.69529034500005,18.411802375000036],[98.68759555500009,18.380676008000023],[98.71271206500006,18.38512130400005],[98.77582407100005,18.39791036500003]]]}},{"type":"Feature","properties":{"code":"510117","name":"หนองหนาม","parentCode":"5101"},"geometry":{"type":"Polygon","coordinates":[[[98.98113109100007,18.53465325800005],[98.96563415400004,18.496863848000032],[99.00513400200003,18.472772073000044],[98.98611437700004,18.523956089000023],[98.98113109100007,18.53465325800005]]]}},{"type":"Feature","properties":{"code":"510305","name":"หนองปลาสะวาย","parentCode":"5103"},"geometry":{"type":"Polygon","coordinates":[[[98.71271206500006,18.38512130400005],[98.68759555500009,18.380676008000023],[98.70297197900004,18.331205100000034],[98.67249592300004,18.310097961000054],[98.77388073900005,18.25080350500002],[98.76320122800007,18.33179668400004],[98.73190765900006,18.346236874000056],[98.71271206500006,18.38512130400005]]]}},{"type":"Feature","properties":{"code":"510802","name":"หนองยวง","parentCode":"5108"},"geometry":{"type":"Polygon","coordinates":[[[98.82357188800006,18.388387176000037],[98.78733741000008,18.436863165000034],[98.78627707500004,18.397790732000033],[98.82357188800006,18.388387176000037]]]}},{"type":"Feature","properties":{"code":"510408","name":"ป่าไผ่","parentCode":"5104"},"geometry":{"type":"Polygon","coordinates":[[[99.01832249300008,17.87429601900004],[98.99973812500008,17.89432802700003],[98.89366883300005,17.905096291000064],[98.86076924000008,17.895331697000074],[98.85396882300006,17.826913468000043],[98.89168286500006,17.812698246000025],[98.95190240000005,17.811524744000053],[99.00452435000005,17.843889011000044],[99.01832249300008,17.87429601900004]]]}},{"type":"Feature","properties":{"code":"510302","name":"ป่าพลู","parentCode":"5103"},"geometry":{"type":"Polygon","coordinates":[[[98.90443143100003,18.27501177700003],[98.88157916300008,18.301357164000024],[98.79471682500008,18.274112036000076],[98.77388073900005,18.25080350500002],[98.78273338500009,18.17929635400003],[98.80694891400003,18.13718274000007],[98.92388124700005,18.141407552000032],[98.95857012600004,18.165988527000025],[98.98847852000006,18.171407189000035],[98.90443143100003,18.27501177700003]]]}},{"type":"Feature","properties":{"code":"510110","name":"ป่าสัก","parentCode":"5101"},"geometry":{"type":"Polygon","coordinates":[[[99.05647030000006,18.55425679800004],[99.04521956400004,18.562461341000073],[98.98611437700004,18.523956089000023],[99.00513400200003,18.472772073000044],[99.01174759300005,18.467627923000066],[99.06404745300006,18.500588743000037],[99.05647030000006,18.55425679800004]]]}},{"type":"Feature","properties":{"code":"510602","name":"ป่าซาง","parentCode":"5106"},"geometry":{"type":"Polygon","coordinates":[[[98.94129242400004,18.532227396000053],[98.91196381000003,18.520247565000034],[98.93513155100004,18.493365211000025],[98.94364644100006,18.495419231000028],[98.94706012800003,18.512606150000067],[98.94129242400004,18.532227396000053]]]}},{"type":"Feature","properties":{"code":"510601","name":"ปากบ่อง","parentCode":"5106"},"geometry":{"type":"Polygon","coordinates":[[[98.94156455400008,18.539881636000075],[98.93475897700006,18.54283755000006],[98.90187674800006,18.526189766000073],[98.90420304200006,18.52147924700006],[98.91196381000003,18.520247565000034],[98.94129242400004,18.532227396000053],[98.94156455400008,18.539881636000075]]]}},{"type":"Feature","properties":{"code":"510105","name":"ประตูป่า","parentCode":"5101"},"geometry":{"type":"Polygon","coordinates":[[[99.00374533900003,18.637646675000042],[98.99989552700004,18.640078170000038],[98.99073923200007,18.63974161300007],[98.96770337400005,18.61897447900003],[98.99647463400004,18.600246214000038],[99.00374533900003,18.637646675000042]]]}},{"type":"Feature","properties":{"code":"510106","name":"ริมปิง","parentCode":"5101"},"geometry":{"type":"Polygon","coordinates":[[[98.99647463400004,18.600246214000038],[98.96770337400005,18.61897447900003],[98.96618763000004,18.613157794000074],[98.96013162200006,18.595402575000037],[98.94783436900008,18.570545405000075],[98.98540992000005,18.58799091800006],[98.99647463400004,18.600246214000038]]]}},{"type":"Feature","properties":{"code":"510116","name":"ศรีบัวบาน","parentCode":"5101"},"geometry":{"type":"Polygon","coordinates":[[[99.10292643400004,18.55424834300004],[99.05647030000006,18.55425679800004],[99.06404745300006,18.500588743000037],[99.01174759300005,18.467627923000066],[99.01048831800006,18.46469736000006],[99.06664975700005,18.456436317000055],[99.08658498200003,18.481478510000045],[99.17198392500006,18.502390072000026],[99.20676806000006,18.547773961000075],[99.10292643400004,18.55424834300004]]]}},{"type":"Feature","properties":{"code":"510304","name":"ศรีเตี้ย","parentCode":"5103"},"geometry":{"type":"Polygon","coordinates":[[[98.77582407100005,18.39791036500003],[98.71271206500006,18.38512130400005],[98.73190765900006,18.346236874000056],[98.78283072400006,18.36617349100004],[98.78627707500004,18.397790732000033],[98.77582407100005,18.39791036500003]]]}},{"type":"Feature","properties":{"code":"510409","name":"ศรีวิชัย","parentCode":"5104"},"geometry":{"type":"Polygon","coordinates":[[[98.99621085500007,18.040170941000042],[98.97569959600008,18.06642774100004],[98.97923415300005,18.139385693000065],[98.95857012600004,18.165988527000025],[98.92388124700005,18.141407552000032],[98.80694891400003,18.13718274000007],[98.79756502500004,18.048046659000022],[98.80567279500008,18.03163141300007],[98.92830802200007,18.00560672100005],[98.98970948000004,18.015720052000063],[98.99621085500007,18.040170941000042]]]}},{"type":"Feature","properties":{"code":"510503","name":"ตะเคียนปม","parentCode":"5105"},"geometry":{"type":"Polygon","coordinates":[[[99.07548034100006,18.05419089800006],[99.05688221200006,18.172660047000022],[99.03732912500004,18.19987437700007],[99.01854188200008,18.162022399000023],[98.98847852000006,18.171407189000035],[98.95857012600004,18.165988527000025],[98.97923415300005,18.139385693000065],[98.97569959600008,18.06642774100004],[98.99621085500007,18.040170941000042],[99.04278851700008,18.049582421000025],[99.09227660800008,18.02432372800007],[99.07548034100006,18.05419089800006]]]}},{"type":"Feature","properties":{"code":"510203","name":"ทากาศ","parentCode":"5102"},"geometry":{"type":"Polygon","coordinates":[[[99.13243863800005,18.31434502600007],[99.07634084200004,18.380021312000054],[99.07416828900006,18.43678105400005],[98.99410880800008,18.42201078100004],[98.98488889300006,18.39541003100004],[99.00066888000003,18.302185992000034],[99.02921161500007,18.26504794600004],[99.11919304400004,18.297983015000057],[99.13243863800005,18.31434502600007]]]}},{"type":"Feature","properties":{"code":"510204","name":"ทาขุมเงิน","parentCode":"5102"},"geometry":{"type":"Polygon","coordinates":[[[98.99410880800008,18.42201078100004],[98.99972352900005,18.45069174300005],[98.95102298300009,18.43694905900003],[98.93236429200005,18.39040454900004],[98.93201803300008,18.308872329000053],[99.00066888000003,18.302185992000034],[98.98488889300006,18.39541003100004],[98.99410880800008,18.42201078100004]]]}},{"type":"Feature","properties":{"code":"510206","name":"ทาแม่ลอบ","parentCode":"5102"},"geometry":{"type":"Polygon","coordinates":[[[99.00066888000003,18.302185992000034],[98.93201803300008,18.308872329000053],[98.96226452000008,18.280116037000028],[98.90443143100003,18.27501177700003],[98.98847852000006,18.171407189000035],[99.01854188200008,18.162022399000023],[99.03732912500004,18.19987437700007],[99.02913563100009,18.216055347000065],[99.02921161500007,18.26504794600004],[99.00066888000003,18.302185992000034]]]}},{"type":"Feature","properties":{"code":"510201","name":"ทาปลาดุก","parentCode":"5102"},"geometry":{"type":"Polygon","coordinates":[[[99.31733741600004,18.532171919000064],[99.22536616900004,18.589318134000052],[99.20676806000006,18.547773961000075],[99.17198392500006,18.502390072000026],[99.20862486100003,18.426053083000056],[99.23950120600006,18.472715926000035],[99.30231199800005,18.49100291700006],[99.31733741600004,18.532171919000064]]]}},{"type":"Feature","properties":{"code":"510202","name":"ทาสบเส้า","parentCode":"5102"},"geometry":{"type":"Polygon","coordinates":[[[99.20862486100003,18.426053083000056],[99.17198392500006,18.502390072000026],[99.08658498200003,18.481478510000045],[99.06664975700005,18.456436317000055],[99.07416828900006,18.43678105400005],[99.07634084200004,18.380021312000054],[99.13243863800005,18.31434502600007],[99.17147776600007,18.374676435000026],[99.19540356100003,18.406474670000023],[99.20862486100003,18.426053083000056]]]}},{"type":"Feature","properties":{"code":"510205","name":"ทาทุ่งหลวง","parentCode":"5102"},"geometry":{"type":"Polygon","coordinates":[[[99.06664975700005,18.456436317000055],[99.01048831800006,18.46469736000006],[98.99972352900005,18.45069174300005],[98.99410880800008,18.42201078100004],[99.07416828900006,18.43678105400005],[99.06664975700005,18.456436317000055]]]}},{"type":"Feature","properties":{"code":"510607","name":"ท่าตุ้ม","parentCode":"5106"},"geometry":{"type":"Polygon","coordinates":[[[98.85975438700007,18.50094110200007],[98.85145931300008,18.500960857000052],[98.83891611100006,18.486367423000047],[98.85894602300004,18.462926469000024],[98.89200814400004,18.45785398000004],[98.90550514400007,18.47770489100003],[98.88776382100008,18.499311013000067],[98.85975438700007,18.50094110200007]]]}},{"type":"Feature","properties":{"code":"510501","name":"ทุ่งหัวช้าง","parentCode":"5105"},"geometry":{"type":"Polygon","coordinates":[[[99.09227660800008,18.02432372800007],[99.04278851700008,18.049582421000025],[98.99621085500007,18.040170941000042],[98.98970948000004,18.015720052000063],[99.01331077800006,17.936726331000045],[99.10816085400006,17.913342202000024],[99.09227660800008,18.02432372800007]]]}},{"type":"Feature","properties":{"code":"510107","name":"ต้นธง","parentCode":"5101"},"geometry":{"type":"Polygon","coordinates":[[[98.99688462400007,18.581694218000052],[98.98540992000005,18.58799091800006],[98.94783436900008,18.570545405000075],[98.93475897700006,18.54283755000006],[98.94156455400008,18.539881636000075],[98.97408688700006,18.544462190000047],[99.00355743800009,18.564183368000045],[98.99688462400007,18.581694218000052]]]}},{"type":"Feature","properties":{"code":"510103","name":"อุโมงค์","parentCode":"5101"},"geometry":{"type":"Polygon","coordinates":[[[99.02802492600006,18.671542000000045],[99.02122855100004,18.672466281000027],[99.02425479100003,18.64197328100005],[99.04696416800004,18.614348540000037],[99.05509686200008,18.63216124400003],[99.06519419600005,18.659682958000076],[99.02802492600006,18.671542000000045]]]}},{"type":"Feature","properties":{"code":"510803","name":"วังผาง","parentCode":"5108"},"geometry":{"type":"Polygon","coordinates":[[[98.78733741000008,18.436863165000034],[98.77811012900008,18.449773986000025],[98.74009256200009,18.43522835300007],[98.70163460500004,18.428929664000066],[98.77582407100005,18.39791036500003],[98.78627707500004,18.397790732000033],[98.78733741000008,18.436863165000034]]]}},{"type":"Feature","properties":{"code":"510111","name":"เวียงยอง","parentCode":"5101"},"geometry":{"type":"Polygon","coordinates":[[[99.04521956400004,18.562461341000073],[99.02478580900004,18.58766900100005],[99.02332470800008,18.58684608300007],[99.00355743800009,18.564183368000045],[98.97408688700006,18.544462190000047],[98.98113109100007,18.53465325800005],[98.98611437700004,18.523956089000023],[99.04521956400004,18.562461341000073]]]}}]}