{"type":"FeatureCollection","features":[{"type":"Feature","properties":{"code":"521005","name":"บ้านบอม","parentCode":"5210"},"geometry":{"type":"Polygon","coordinates":[[[99.55221897300004,18.021439375000057],[99.51706718400004,18.07617957100007],[99.44994951700005,18.09319610400007],[99.43429119900009,18.088243101000046],[99.44258953100007,18.032106718000023],[99.55221897300004,18.021439375000057]]]}},{"type":"Feature","properties":{"code":"520201","name":"บ้านดง","parentCode":"5202"},"geometry":{"type":"Polygon","coordinates":[[[99.80840826800005,18.603593942000032],[99.76664144800009,18.624226260000057],[99.71966184100006,18.604573122000033],[99.71370245400004,18.576622377000035],[99.76778402100007,18.538801180000064],[99.72306341100006,18.44696613800005],[99.70701954000003,18.444144255000026],[99.65588868000003,18.340152097000043],[99.70960068300008,18.326518951000025],[99.75423979100003,18.408410851000042],[99.79646464800004,18.425852019000047],[99.82519470200003,18.460239442000045],[99.83375660700005,18.48221022100006],[99.80840826800005,18.603593942000032]]]}},{"type":"Feature","properties":{"code":"520508","name":"บ้านแหง","parentCode":"5205"},"geometry":{"type":"Polygon","coordinates":[[[100.11402458500004,18.808551408000028],[100.06594746400003,18.817548757000054],[100.06705900900005,18.866730362000055],[99.98512629100009,18.80326827500005],[100.00885498800005,18.72879411100007],[100.10466742900007,18.690095178000036],[100.11402458500004,18.808551408000028]]]}},{"type":"Feature","properties":{"code":"520509","name":"บ้านหวด","parentCode":"5205"},"geometry":{"type":"Polygon","coordinates":[[[99.95253192200005,18.69272783200006],[99.89858694000009,18.70684031600007],[99.81355638000008,18.69083596300004],[99.81196798400003,18.690648425000063],[99.83671202100004,18.656932441000038],[99.80840826800005,18.603593942000032],[99.83375660700005,18.48221022100006],[99.92968874800005,18.56255656700006],[99.97853008500005,18.555556935000027],[99.98484360600008,18.672638861000053],[99.95253192200005,18.69272783200006]]]}},{"type":"Feature","properties":{"code":"520115","name":"บ้านค่า","parentCode":"5201"},"geometry":{"type":"Polygon","coordinates":[[[99.50009376100007,18.52816909200004],[99.45959399900005,18.527790345000028],[99.41118964800006,18.56690310500005],[99.35345439600007,18.579382274000068],[99.32843871900008,18.545564696000042],[99.39046087000008,18.497210362000033],[99.50122121300006,18.46184912800004],[99.50750011700006,18.496596339000064],[99.50009376100007,18.52816909200004]]]}},{"type":"Feature","properties":{"code":"521302","name":"บ้านขอ","parentCode":"5213"},"geometry":{"type":"Polygon","coordinates":[[[99.53273131200007,18.73708500300006],[99.47100517000007,18.766791909000062],[99.43192196300004,18.741368159000046],[99.37147500200007,18.753420277000032],[99.32718864700007,18.68445945900004],[99.34829959200005,18.656521741000063],[99.42188489800009,18.65630154100006],[99.41759842800008,18.630136352000022],[99.51795622200007,18.615851018000058],[99.52219713900007,18.682757175000063],[99.53273131200007,18.73708500300006]]]}},{"type":"Feature","properties":{"code":"521004","name":"บ้านกิ่ว","parentCode":"5210"},"geometry":{"type":"Polygon","coordinates":[[[99.52011928400003,18.106992216000037],[99.44994951700005,18.09319610400007],[99.51706718400004,18.07617957100007],[99.55221897300004,18.021439375000057],[99.56744526200004,17.992434255000035],[99.57861723100007,17.999171326000067],[99.61003819400008,18.049824623000063],[99.55805139900008,18.084908558000052],[99.52011928400003,18.106992216000037]]]}},{"type":"Feature","properties":{"code":"520109","name":"บ้านแลง","parentCode":"5201"},"geometry":{"type":"Polygon","coordinates":[[[99.71966184100006,18.604573122000033],[99.68239905500008,18.609793715000023],[99.61300330700004,18.533442326000056],[99.60985691800005,18.513118865000024],[99.63321127600005,18.49758640300007],[99.63170973000007,18.439912082000035],[99.70701954000003,18.444144255000026],[99.72306341100006,18.44696613800005],[99.76778402100007,18.538801180000064],[99.71370245400004,18.576622377000035],[99.71966184100006,18.604573122000033]]]}},{"type":"Feature","properties":{"code":"520507","name":"บ้านอ้อน","parentCode":"5205"},"geometry":{"type":"Polygon","coordinates":[[[99.94419611000006,18.76962938300005],[99.86535533600005,18.792671738000024],[99.80438926000005,18.845888242000058],[99.79541305000004,18.75745313400006],[99.77692141400007,18.732591266000043],[99.77697994000005,18.70880882000006],[99.81196798400003,18.690648425000063],[99.81355638000008,18.69083596300004],[99.81736023500008,18.76456753900004],[99.85673892000005,18.76642375600005],[99.94283892600004,18.736977266000054],[99.94419611000006,18.76962938300005]]]}},{"type":"Feature","properties":{"code":"520114","name":"บ้านเป้า","parentCode":"5201"},"geometry":{"type":"Polygon","coordinates":[[[99.47376468400006,18.380680151000035],[99.42196158400009,18.380803023000055],[99.43471675100005,18.320965238000042],[99.48876788100006,18.324652465000042],[99.47376468400006,18.380680151000035]]]}},{"type":"Feature","properties":{"code":"520503","name":"บ้านโป่ง","parentCode":"5205"},"geometry":{"type":"Polygon","coordinates":[[[99.94283892600004,18.736977266000054],[99.85673892000005,18.76642375600005],[99.81736023500008,18.76456753900004],[99.81355638000008,18.69083596300004],[99.89858694000009,18.70684031600007],[99.95253192200005,18.69272783200006],[99.98122520100009,18.72114827200005],[99.94283892600004,18.736977266000054]]]}},{"type":"Feature","properties":{"code":"520504","name":"บ้านร้อง","parentCode":"5205"},"geometry":{"type":"Polygon","coordinates":[[[99.83481311500003,19.027038756000024],[99.82006800900007,19.06045447300005],[99.77327042900004,19.06421116300004],[99.75267938800005,19.04407199900004],[99.75675699700008,18.97610786100006],[99.78802612600003,18.899725185000023],[99.85883416300004,18.90874764700004],[99.92246588800003,18.861029802000076],[99.98357879200006,18.845206483000027],[100.04149928900006,18.890113849000045],[100.03336234100004,18.902418359000023],[100.02705928900008,18.89745862700005],[100.00726112300003,18.904687590000037],[99.94674464800005,18.942461998000056],[99.92620639200004,18.978787302000057],[99.84486095900007,19.00410272700003],[99.83481311500003,19.027038756000024]]]}},{"type":"Feature","properties":{"code":"520602","name":"บ้านสา","parentCode":"5206"},"geometry":{"type":"Polygon","coordinates":[[[99.56271583800009,18.681016749000037],[99.52219713900007,18.682757175000063],[99.51795622200007,18.615851018000058],[99.50009376100007,18.52816909200004],[99.50750011700006,18.496596339000064],[99.57618768500004,18.50555113100006],[99.60985691800005,18.513118865000024],[99.61300330700004,18.533442326000056],[99.59567500800006,18.560445456000025],[99.60449347900004,18.622841960000073],[99.65214179500003,18.66310720000007],[99.56271583800009,18.681016749000037]]]}},{"type":"Feature","properties":{"code":"520110","name":"บ้านเสด็จ","parentCode":"5201"},"geometry":{"type":"Polygon","coordinates":[[[99.65588868000003,18.340152097000043],[99.70701954000003,18.444144255000026],[99.63170973000007,18.439912082000035],[99.58994886800008,18.392922990000045],[99.59248026000006,18.377375912000048],[99.62852940300007,18.310317355000052],[99.65588868000003,18.340152097000043]]]}},{"type":"Feature","properties":{"code":"520113","name":"บ้านเอื้อม","parentCode":"5201"},"geometry":{"type":"Polygon","coordinates":[[[99.50122121300006,18.46184912800004],[99.39046087000008,18.497210362000033],[99.32843871900008,18.545564696000042],[99.31733741600004,18.532171919000064],[99.30231199800005,18.49100291700006],[99.36349570800007,18.438185261000058],[99.38104824100009,18.40066027900002],[99.42196158400009,18.380803023000055],[99.47376468400006,18.380680151000035],[99.50122121300006,18.46184912800004]]]}},{"type":"Feature","properties":{"code":"520116","name":"บ่อแฮ้ว","parentCode":"5201"},"geometry":{"type":"Polygon","coordinates":[[[99.48876788100006,18.324652465000042],[99.43471675100005,18.320965238000042],[99.40823392100003,18.314975418000074],[99.42266649900006,18.307009839000045],[99.46394960400005,18.284267370000066],[99.48212358900008,18.297434383000052],[99.49824280700005,18.29975021200005],[99.48876788100006,18.324652465000042]]]}},{"type":"Feature","properties":{"code":"520119","name":"บุญนาคพัฒนา","parentCode":"5201"},"geometry":{"type":"Polygon","coordinates":[[[99.60985691800005,18.513118865000024],[99.57618768500004,18.50555113100006],[99.56575816800006,18.471655630000043],[99.58632562200006,18.395517237000035],[99.58994886800008,18.392922990000045],[99.63170973000007,18.439912082000035],[99.63321127600005,18.49758640300007],[99.60985691800005,18.513118865000024]]]}},{"type":"Feature","properties":{"code":"520601","name":"แจ้ห่ม","parentCode":"5206"},"geometry":{"type":"Polygon","coordinates":[[[99.59150455000008,18.73699866800007],[99.56271583800009,18.681016749000037],[99.65214179500003,18.66310720000007],[99.67971141400005,18.68962547700005],[99.73386466600004,18.677142740000022],[99.77697994000005,18.70880882000006],[99.77692141400007,18.732591266000043],[99.67919089100008,18.705707575000076],[99.59150455000008,18.73699866800007]]]}},{"type":"Feature","properties":{"code":"521304","name":"แจ้ซ้อน","parentCode":"5213"},"geometry":{"type":"Polygon","coordinates":[[[99.53911355500009,18.870699407000075],[99.46593371900008,18.903499883000052],[99.47484236600008,18.958332562000066],[99.43715423500004,19.009720684000058],[99.40180343500003,19.00014822000003],[99.37747823000007,18.982452857000055],[99.37764141900004,18.92171617200006],[99.39141397400005,18.884335700000065],[99.36143598600006,18.85199866100004],[99.35252102200008,18.84644090000006],[99.38382490300006,18.81295714500004],[99.41823795900007,18.850550757000065],[99.50607431900005,18.77966179200007],[99.53969274300005,18.77411161200007],[99.53911355500009,18.870699407000075]]]}},{"type":"Feature","properties":{"code":"520203","name":"จางเหนือ","parentCode":"5202"},"geometry":{"type":"Polygon","coordinates":[[[99.97853008500005,18.555556935000027],[99.92968874800005,18.56255656700006],[99.83375660700005,18.48221022100006],[99.82519470200003,18.460239442000045],[99.83717379500007,18.388856829000076],[99.92699109300008,18.313382104000027],[99.96041342600006,18.383792904000074],[99.99920720100005,18.402593799000044],[100.04491489200007,18.49185628300006],[100.04929202100004,18.531813655000065],[99.97853008500005,18.555556935000027]]]}},{"type":"Feature","properties":{"code":"520106","name":"ชมพู","parentCode":"5201"},"geometry":{"type":"Polygon","coordinates":[[[99.47951966500005,18.273097380000024],[99.46235622500006,18.280930080000076],[99.42134694700007,18.223948238000048],[99.43242440900008,18.21902381600006],[99.51361765400009,18.226239587000066],[99.47951966500005,18.273097380000024]]]}},{"type":"Feature","properties":{"code":"521007","name":"ดอนไฟ","parentCode":"5210"},"geometry":{"type":"Polygon","coordinates":[[[99.73781863900007,18.106119295000042],[99.65525218200008,18.12949496600004],[99.60354948700007,18.16159130500006],[99.59495387500004,18.151095204000057],[99.67262547000007,18.056707835000054],[99.69178258800008,18.05671200300003],[99.71918122600005,18.069717989000026],[99.73781863900007,18.106119295000042]]]}},{"type":"Feature","properties":{"code":"521201","name":"ห้างฉัตร","parentCode":"5212"},"geometry":{"type":"Polygon","coordinates":[[[99.33776111500003,18.382869131000064],[99.31578109900005,18.39439490500007],[99.35866704500006,18.30367452200005],[99.39393782000008,18.322844891000045],[99.33776111500003,18.382869131000064]]]}},{"type":"Feature","properties":{"code":"521305","name":"หัวเมือง","parentCode":"5213"},"geometry":{"type":"Polygon","coordinates":[[[99.52560412800005,19.076851488000045],[99.48316887700008,19.071443060000036],[99.43715423500004,19.009720684000058],[99.47484236600008,18.958332562000066],[99.46593371900008,18.903499883000052],[99.53911355500009,18.870699407000075],[99.55974797300007,18.94853228000005],[99.52866051400008,19.026117105000026],[99.54946366100006,19.052746487000036],[99.52560412800005,19.076851488000045]]]}},{"type":"Feature","properties":{"code":"521008","name":"หัวเสือ","parentCode":"5210"},"geometry":{"type":"Polygon","coordinates":[[[99.79240393600008,18.193500493000045],[99.71072678000007,18.234889520000024],[99.68529660200005,18.217878537000047],[99.62445817500009,18.234741201000077],[99.60354948700007,18.16159130500006],[99.65525218200008,18.12949496600004],[99.73781863900007,18.106119295000042],[99.76201626700004,18.12342329300003],[99.79240393600008,18.193500493000045]]]}},{"type":"Feature","properties":{"code":"520102","name":"หัวเวียง","parentCode":"5201"},"geometry":{"type":"Polygon","coordinates":[[[99.51226987900009,18.29397605400004],[99.49832354300008,18.29243377100005],[99.49974319500006,18.28161233900005],[99.51616295400004,18.291133842000022],[99.51226987900009,18.29397605400004]]]}},{"type":"Feature","properties":{"code":"520107","name":"กล้วยแพะ","parentCode":"5201"},"geometry":{"type":"Polygon","coordinates":[[[99.51361765400009,18.226239587000066],[99.43242440900008,18.21902381600006],[99.42766282400004,18.18984746700005],[99.50614364900008,18.18099348100003],[99.57477335200008,18.21357697800005],[99.51361765400009,18.226239587000066]]]}},{"type":"Feature","properties":{"code":"520306","name":"เกาะคา","parentCode":"5203"},"geometry":{"type":"Polygon","coordinates":[[[99.38978530900005,18.211839670000074],[99.35838621900007,18.219673673000045],[99.31585992200007,18.157306323000057],[99.32592933300003,18.14011225400003],[99.34524962500006,18.15387247700005],[99.38978530900005,18.211839670000074]]]}},{"type":"Feature","properties":{"code":"520303","name":"ไหล่หิน","parentCode":"5203"},"geometry":{"type":"Polygon","coordinates":[[[99.35838621900007,18.219673673000045],[99.35988813400007,18.23936819200003],[99.27730579900003,18.210880933000055],[99.27242946600006,18.234680996000066],[99.21728568000003,18.189827887000035],[99.24806685700008,18.15928554800007],[99.27462200400004,18.145405666000045],[99.32592933300003,18.14011225400003],[99.31585992200007,18.157306323000057],[99.35838621900007,18.219673673000045]]]}},{"type":"Feature","properties":{"code":"520301","name":"ลำปางหลวง","parentCode":"5203"},"geometry":{"type":"Polygon","coordinates":[[[99.40542319800005,18.264618776000077],[99.35477680900004,18.270080648000032],[99.35988813400007,18.23936819200003],[99.35838621900007,18.219673673000045],[99.38978530900005,18.211839670000074],[99.41134930200008,18.231599561000053],[99.40542319800005,18.264618776000077]]]}},{"type":"Feature","properties":{"code":"520801","name":"ล้อมแรด","parentCode":"5208"},"geometry":{"type":"Polygon","coordinates":[[[99.23305304300004,17.675720383000055],[99.19471836700006,17.654737776000047],[99.18480426500008,17.629235820000076],[99.19831151900007,17.57752305200006],[99.24657063600006,17.593803191000063],[99.27485669800006,17.563374602000067],[99.29223936000005,17.59906981000006],[99.23305304300004,17.675720383000055]]]}},{"type":"Feature","properties":{"code":"520501","name":"หลวงเหนือ","parentCode":"5205"},"geometry":{"type":"Polygon","coordinates":[[[99.98512629100009,18.80326827500005],[99.98088106700004,18.804253521000078],[99.97244083700008,18.760826304000034],[100.00885498800005,18.72879411100007],[99.98512629100009,18.80326827500005]]]}},{"type":"Feature","properties":{"code":"520502","name":"หลวงใต้","parentCode":"5205"},"geometry":{"type":"Polygon","coordinates":[[[99.97244083700008,18.760826304000034],[99.94419611000006,18.76962938300005],[99.94283892600004,18.736977266000054],[99.98122520100009,18.72114827200005],[100.00885498800005,18.72879411100007],[99.97244083700008,18.760826304000034]]]}},{"type":"Feature","properties":{"code":"521103","name":"แม่กัวะ","parentCode":"5211"},"geometry":{"type":"Polygon","coordinates":[[[99.42184271400004,18.007084433000045],[99.35723869300006,18.011968226000022],[99.31153120100004,17.981407583000077],[99.28486135200006,17.97795560900005],[99.33171593600008,17.90708717700005],[99.37733594700006,17.930674844000066],[99.41788105000006,17.951290967000034],[99.42184271400004,18.007084433000045]]]}},{"type":"Feature","properties":{"code":"520204","name":"แม่เมาะ","parentCode":"5202"},"geometry":{"type":"Polygon","coordinates":[[[99.78203367800006,18.27095833000004],[99.77176267900006,18.33932068200005],[99.79328671100006,18.349878637000074],[99.79646464800004,18.425852019000047],[99.75423979100003,18.408410851000042],[99.70960068300008,18.326518951000025],[99.65588868000003,18.340152097000043],[99.62852940300007,18.310317355000052],[99.62670502400005,18.308623281000052],[99.62895774900005,18.258570402000032],[99.70056480700003,18.254183230000024],[99.78203367800006,18.27095833000004]]]}},{"type":"Feature","properties":{"code":"520804","name":"แม่มอก","parentCode":"5208"},"geometry":{"type":"Polygon","coordinates":[[[99.47635387500009,17.677101537000055],[99.47105082100006,17.73786806100003],[99.38720594500006,17.687556630000074],[99.31125210200008,17.63254010000003],[99.29223936000005,17.59906981000006],[99.27485669800006,17.563374602000067],[99.30128915400007,17.51489020300005],[99.43936212100004,17.527422650000062],[99.41304272200006,17.57407357900007],[99.45433214400003,17.598105516000032],[99.44753976300007,17.64463068400005],[99.47635387500009,17.677101537000055]]]}},{"type":"Feature","properties":{"code":"520803","name":"แม่ปะ","parentCode":"5208"},"geometry":{"type":"Polygon","coordinates":[[[99.36757282600007,17.773487857000077],[99.31011959000006,17.77708887400007],[99.23305304300004,17.675720383000055],[99.29223936000005,17.59906981000006],[99.31125210200008,17.63254010000003],[99.38720594500006,17.687556630000074],[99.36757282600007,17.773487857000077]]]}},{"type":"Feature","properties":{"code":"520901","name":"แม่พริก","parentCode":"5209"},"geometry":{"type":"Polygon","coordinates":[[[98.90749783800004,17.648618637000027],[98.88086685900004,17.627184847000024],[98.91073096500008,17.582245086000057],[98.91015032500007,17.536710051000057],[98.93131895600004,17.473867158000076],[98.98024673700007,17.46774829000003],[99.04694865400006,17.385633650000045],[99.11206775900007,17.360977539000032],[99.10700361900007,17.398462825000024],[99.13806632400008,17.421999397000036],[99.15030205600004,17.488781498000037],[99.11101597800007,17.479800494000074],[99.07266322200007,17.511388846000045],[99.01566786200004,17.568376587000046],[99.04706932500005,17.61166908200005],[98.99847629700008,17.637163040000075],[98.90749783800004,17.648618637000027]]]}},{"type":"Feature","properties":{"code":"520903","name":"แม่ปุ","parentCode":"5209"},"geometry":{"type":"Polygon","coordinates":[[[99.14114148200008,17.56962821600007],[99.13775870000006,17.570456772000057],[99.07266322200007,17.511388846000045],[99.11101597800007,17.479800494000074],[99.15030205600004,17.488781498000037],[99.16017877100006,17.510634425000035],[99.17856471100004,17.536067224000078],[99.14114148200008,17.56962821600007]]]}},{"type":"Feature","properties":{"code":"521206","name":"แม่สัน","parentCode":"5212"},"geometry":{"type":"Polygon","coordinates":[[[99.30848959500008,18.29380633100004],[99.23861611200005,18.33209656100007],[99.19540356100003,18.406474670000023],[99.17147776600007,18.374676435000026],[99.25223394500006,18.273490025000058],[99.29470274700009,18.25928155300005],[99.30848959500008,18.29380633100004]]]}},{"type":"Feature","properties":{"code":"520604","name":"แม่สุก","parentCode":"5206"},"geometry":{"type":"Polygon","coordinates":[[[99.61354152500007,18.898860183000068],[99.57669949300004,18.900666562000026],[99.55974797300007,18.94853228000005],[99.53911355500009,18.870699407000075],[99.53969274300005,18.77411161200007],[99.58732186600008,18.766671385000052],[99.62497407600006,18.867613731000063],[99.61354152500007,18.898860183000068]]]}},{"type":"Feature","properties":{"code":"521001","name":"แม่ทะ","parentCode":"5210"},"geometry":{"type":"Polygon","coordinates":[[[99.60354948700007,18.16159130500006],[99.62445817500009,18.234741201000077],[99.62895774900005,18.258570402000032],[99.57477335200008,18.21357697800005],[99.50614364900008,18.18099348100003],[99.50430626100007,18.16129757300007],[99.57431039600004,18.119277827000076],[99.59495387500004,18.151095204000057],[99.60354948700007,18.16159130500006]]]}},{"type":"Feature","properties":{"code":"520807","name":"แม่ถอด","parentCode":"5208"},"geometry":{"type":"Polygon","coordinates":[[[99.27234526600006,17.814587191000044],[99.21056689800008,17.886211785000057],[99.18331551700004,17.860529032000045],[99.17467766800007,17.810430979000046],[99.10317652900005,17.81260705400007],[99.10982138200006,17.792763723000064],[99.10414606100005,17.74089923400004],[99.12191890800005,17.700506301000075],[99.19471836700006,17.654737776000047],[99.23305304300004,17.675720383000055],[99.31011959000006,17.77708887400007],[99.27234526600006,17.814587191000044]]]}},{"type":"Feature","properties":{"code":"520510","name":"แม่ตีบ","parentCode":"5205"},"geometry":{"type":"Polygon","coordinates":[[[100.10466742900007,18.690095178000036],[100.00885498800005,18.72879411100007],[99.98122520100009,18.72114827200005],[99.95253192200005,18.69272783200006],[99.98484360600008,18.672638861000053],[99.97853008500005,18.555556935000027],[100.04929202100004,18.531813655000065],[100.05186085900004,18.542301930000065],[100.10804098800008,18.562627150000026],[100.10595463100003,18.617836650000072],[100.10466742900007,18.690095178000036]]]}},{"type":"Feature","properties":{"code":"520802","name":"แม่วะ","parentCode":"5208"},"geometry":{"type":"Polygon","coordinates":[[[99.23734707000006,17.51689955200004],[99.17856471100004,17.536067224000078],[99.16017877100006,17.510634425000035],[99.16985789600005,17.448660250000046],[99.21382698200006,17.390242512000043],[99.24998955500007,17.406687815000055],[99.26490427000005,17.469199341000035],[99.23734707000006,17.51689955200004]]]}},{"type":"Feature","properties":{"code":"520309","name":"ใหม่พัฒนา","parentCode":"5203"},"geometry":{"type":"Polygon","coordinates":[[[99.34525075700009,18.285360291000075],[99.30848959500008,18.29380633100004],[99.29470274700009,18.25928155300005],[99.27242946600006,18.234680996000066],[99.27730579900003,18.210880933000055],[99.35988813400007,18.23936819200003],[99.35477680900004,18.270080648000032],[99.34525075700009,18.285360291000075]]]}},{"type":"Feature","properties":{"code":"520605","name":"เมืองมาย","parentCode":"5206"},"geometry":{"type":"Polygon","coordinates":[[[99.77697994000005,18.70880882000006],[99.73386466600004,18.677142740000022],[99.67971141400005,18.68962547700005],[99.65214179500003,18.66310720000007],[99.60449347900004,18.622841960000073],[99.59567500800006,18.560445456000025],[99.61300330700004,18.533442326000056],[99.68239905500008,18.609793715000023],[99.71966184100006,18.604573122000033],[99.76664144800009,18.624226260000057],[99.80840826800005,18.603593942000032],[99.83671202100004,18.656932441000038],[99.81196798400003,18.690648425000063],[99.77697994000005,18.70880882000006]]]}},{"type":"Feature","properties":{"code":"521301","name":"เมืองปาน","parentCode":"5213"},"geometry":{"type":"Polygon","coordinates":[[[99.53969274300005,18.77411161200007],[99.50607431900005,18.77966179200007],[99.41823795900007,18.850550757000065],[99.38382490300006,18.81295714500004],[99.35252102200008,18.84644090000006],[99.36705099500006,18.77488789000006],[99.37147500200007,18.753420277000032],[99.43192196300004,18.741368159000046],[99.47100517000007,18.766791909000062],[99.53273131200007,18.73708500300006],[99.53969274300005,18.77411161200007]]]}},{"type":"Feature","properties":{"code":"521203","name":"เมืองยาว","parentCode":"5212"},"geometry":{"type":"Polygon","coordinates":[[[99.17147776600007,18.374676435000026],[99.13243863800005,18.31434502600007],[99.11919304400004,18.297983015000057],[99.18073112500008,18.205736116000026],[99.21728568000003,18.189827887000035],[99.27242946600006,18.234680996000066],[99.29470274700009,18.25928155300005],[99.25223394500006,18.273490025000058],[99.17147776600007,18.374676435000026]]]}},{"type":"Feature","properties":{"code":"520506","name":"นาแก","parentCode":"5205"},"geometry":{"type":"Polygon","coordinates":[[[99.98088106700004,18.804253521000078],[99.95304963000007,18.783812472000022],[99.83841414000005,18.871340146000023],[99.80053255200005,18.876560771000072],[99.80438926000005,18.845888242000058],[99.86535533600005,18.792671738000024],[99.94419611000006,18.76962938300005],[99.97244083700008,18.760826304000034],[99.98088106700004,18.804253521000078]]]}},{"type":"Feature","properties":{"code":"520302","name":"นาแก้ว","parentCode":"5203"},"geometry":{"type":"Polygon","coordinates":[[[99.38389500500006,18.157284004000076],[99.34524962500006,18.15387247700005],[99.32592933300003,18.14011225400003],[99.27462200400004,18.145405666000045],[99.30243505900006,18.08269098200003],[99.28676058000008,18.002191074000052],[99.27434931000005,17.98262863900004],[99.28486135200006,17.97795560900005],[99.31153120100004,17.981407583000077],[99.34411531800004,18.04699454100006],[99.32357193300004,18.073571326000035],[99.37524718100008,18.144197306000024],[99.38389500500006,18.157284004000076]]]}},{"type":"Feature","properties":{"code":"521002","name":"นาครัว","parentCode":"5210"},"geometry":{"type":"Polygon","coordinates":[[[99.57431039600004,18.119277827000076],[99.50430626100007,18.16129757300007],[99.47765524900007,18.142156752000062],[99.52011928400003,18.106992216000037],[99.55805139900008,18.084908558000052],[99.57431039600004,18.119277827000076]]]}},{"type":"Feature","properties":{"code":"520806","name":"นาโป่ง","parentCode":"5208"},"geometry":{"type":"Polygon","coordinates":[[[99.10414606100005,17.74089923400004],[99.06495480700005,17.67368119200006],[99.04967538000005,17.61252663700003],[99.13775870000006,17.570456772000057],[99.14114148200008,17.56962821600007],[99.15604020800004,17.622515126000053],[99.18480426500008,17.629235820000076],[99.19471836700006,17.654737776000047],[99.12191890800005,17.700506301000075],[99.10414606100005,17.74089923400004]]]}},{"type":"Feature","properties":{"code":"520307","name":"นาแส่ง","parentCode":"5203"},"geometry":{"type":"Polygon","coordinates":[[[99.37524718100008,18.144197306000024],[99.32357193300004,18.073571326000035],[99.34411531800004,18.04699454100006],[99.31153120100004,17.981407583000077],[99.35723869300006,18.011968226000022],[99.42184271400004,18.007084433000045],[99.44258953100007,18.032106718000023],[99.43429119900009,18.088243101000046],[99.43283316800006,18.095245410000075],[99.43088490400004,18.128791312000033],[99.37524718100008,18.144197306000024]]]}},{"type":"Feature","properties":{"code":"520202","name":"นาสัก","parentCode":"5202"},"geometry":{"type":"Polygon","coordinates":[[[99.92699109300008,18.313382104000027],[99.83717379500007,18.388856829000076],[99.82519470200003,18.460239442000045],[99.79646464800004,18.425852019000047],[99.79328671100006,18.349878637000074],[99.77176267900006,18.33932068200005],[99.78203367800006,18.27095833000004],[99.84059378900008,18.30327339300004],[99.86358012300008,18.279919396000025],[99.90633916500008,18.279887871000028],[99.92699109300008,18.313382104000027]]]}},{"type":"Feature","properties":{"code":"521104","name":"นายาง","parentCode":"5211"},"geometry":{"type":"Polygon","coordinates":[[[99.27434931000005,17.98262863900004],[99.19889548000003,17.955935527000065],[99.21056689800008,17.886211785000057],[99.27234526600006,17.814587191000044],[99.33171593600008,17.90708717700005],[99.28486135200006,17.97795560900005],[99.27434931000005,17.98262863900004]]]}},{"type":"Feature","properties":{"code":"521006","name":"น้ำโจ้","parentCode":"5210"},"geometry":{"type":"Polygon","coordinates":[[[99.50614364900008,18.18099348100003],[99.42766282400004,18.18984746700005],[99.42534223100006,18.17836670500003],[99.43088490400004,18.128791312000033],[99.43283316800006,18.095245410000075],[99.47765524900007,18.142156752000062],[99.50430626100007,18.16129757300007],[99.50614364900008,18.18099348100003]]]}},{"type":"Feature","properties":{"code":"520118","name":"นิคมพัฒนา","parentCode":"5201"},"geometry":{"type":"Polygon","coordinates":[[[99.57618768500004,18.50555113100006],[99.50750011700006,18.496596339000064],[99.50122121300006,18.46184912800004],[99.52257969700008,18.391488296000034],[99.58632562200006,18.395517237000035],[99.56575816800006,18.471655630000043],[99.57618768500004,18.50555113100006]]]}},{"type":"Feature","properties":{"code":"521202","name":"หนองหล่ม","parentCode":"5212"},"geometry":{"type":"Polygon","coordinates":[[[99.42196158400009,18.380803023000055],[99.38104824100009,18.40066027900002],[99.38459748500009,18.360508757000048],[99.33776111500003,18.382869131000064],[99.39393782000008,18.322844891000045],[99.40823392100003,18.314975418000074],[99.43471675100005,18.320965238000042],[99.42196158400009,18.380803023000055]]]}},{"type":"Feature","properties":{"code":"521003","name":"ป่าตัน","parentCode":"5210"},"geometry":{"type":"Polygon","coordinates":[[[99.47765524900007,18.142156752000062],[99.43283316800006,18.095245410000075],[99.43429119900009,18.088243101000046],[99.44994951700005,18.09319610400007],[99.52011928400003,18.106992216000037],[99.47765524900007,18.142156752000062]]]}},{"type":"Feature","properties":{"code":"520902","name":"ผาปัง","parentCode":"5209"},"geometry":{"type":"Polygon","coordinates":[[[99.13775870000006,17.570456772000057],[99.04967538000005,17.61252663700003],[99.04706932500005,17.61166908200005],[99.01566786200004,17.568376587000046],[99.07266322200007,17.511388846000045],[99.13775870000006,17.570456772000057]]]}},{"type":"Feature","properties":{"code":"520111","name":"พิชัย","parentCode":"5201"},"geometry":{"type":"Polygon","coordinates":[[[99.59248026000006,18.377375912000048],[99.53829800600005,18.346638978000044],[99.51589171000006,18.30588079000006],[99.51226987900009,18.29397605400004],[99.51616295400004,18.291133842000022],[99.57548923200005,18.266170758000044],[99.62670502400005,18.308623281000052],[99.62852940300007,18.310317355000052],[99.59248026000006,18.377375912000048]]]}},{"type":"Feature","properties":{"code":"520105","name":"พระบาท","parentCode":"5201"},"geometry":{"type":"Polygon","coordinates":[[[99.62670502400005,18.308623281000052],[99.57548923200005,18.266170758000044],[99.51616295400004,18.291133842000022],[99.49974319500006,18.28161233900005],[99.48640080800004,18.27807650400007],[99.47951966500005,18.273097380000024],[99.51361765400009,18.226239587000066],[99.57477335200008,18.21357697800005],[99.62895774900005,18.258570402000032],[99.62670502400005,18.308623281000052]]]}},{"type":"Feature","properties":{"code":"520904","name":"พระบาทวังตวง","parentCode":"5209"},"geometry":{"type":"Polygon","coordinates":[[[99.16017877100006,17.510634425000035],[99.15030205600004,17.488781498000037],[99.13806632400008,17.421999397000036],[99.10700361900007,17.398462825000024],[99.11206775900007,17.360977539000032],[99.13537653400005,17.361606874000074],[99.17383769700007,17.335854203000054],[99.21089990500008,17.376537908000046],[99.21382698200006,17.390242512000043],[99.16985789600005,17.448660250000046],[99.16017877100006,17.510634425000035]]]}},{"type":"Feature","properties":{"code":"520603","name":"ปงดอน","parentCode":"5206"},"geometry":{"type":"Polygon","coordinates":[[[99.80438926000005,18.845888242000058],[99.80053255200005,18.876560771000072],[99.72361490800006,18.84355193300007],[99.62497407600006,18.867613731000063],[99.58732186600008,18.766671385000052],[99.59150455000008,18.73699866800007],[99.67919089100008,18.705707575000076],[99.77692141400007,18.732591266000043],[99.79541305000004,18.75745313400006],[99.80438926000005,18.845888242000058]]]}},{"type":"Feature","properties":{"code":"520108","name":"ปงแสนทอง","parentCode":"5201"},"geometry":{"type":"Polygon","coordinates":[[[99.46394960400005,18.284267370000066],[99.42266649900006,18.307009839000045],[99.40542319800005,18.264618776000077],[99.41134930200008,18.231599561000053],[99.42134694700007,18.223948238000048],[99.46235622500006,18.280930080000076],[99.46394960400005,18.284267370000066]]]}},{"type":"Feature","properties":{"code":"520505","name":"ปงเตา","parentCode":"5205"},"geometry":{"type":"Polygon","coordinates":[[[100.04149928900006,18.890113849000045],[99.98357879200006,18.845206483000027],[99.92246588800003,18.861029802000076],[99.85883416300004,18.90874764700004],[99.78802612600003,18.899725185000023],[99.80053255200005,18.876560771000072],[99.83841414000005,18.871340146000023],[99.95304963000007,18.783812472000022],[99.98088106700004,18.804253521000078],[99.98512629100009,18.80326827500005],[100.06705900900005,18.866730362000055],[100.04149928900006,18.890113849000045]]]}},{"type":"Feature","properties":{"code":"521204","name":"ปงยางคก","parentCode":"5212"},"geometry":{"type":"Polygon","coordinates":[[[99.40823392100003,18.314975418000074],[99.39393782000008,18.322844891000045],[99.35866704500006,18.30367452200005],[99.34525075700009,18.285360291000075],[99.35477680900004,18.270080648000032],[99.40542319800005,18.264618776000077],[99.42266649900006,18.307009839000045],[99.40823392100003,18.314975418000074]]]}},{"type":"Feature","properties":{"code":"520704","name":"ร่องเคาะ","parentCode":"5207"},"geometry":{"type":"Polygon","coordinates":[[[99.61840464800008,19.056339317000038],[99.54946366100006,19.052746487000036],[99.52866051400008,19.026117105000026],[99.55974797300007,18.94853228000005],[99.57669949300004,18.900666562000026],[99.61354152500007,18.898860183000068],[99.64557622500007,18.954046332000075],[99.66781459800006,19.056704785000022],[99.61840464800008,19.056339317000038]]]}},{"type":"Feature","properties":{"code":"520305","name":"ศาลา","parentCode":"5203"},"geometry":{"type":"Polygon","coordinates":[[[99.43242440900008,18.21902381600006],[99.42134694700007,18.223948238000048],[99.39175257100004,18.163114776000043],[99.42534223100006,18.17836670500003],[99.42766282400004,18.18984746700005],[99.43242440900008,18.21902381600006]]]}},{"type":"Feature","properties":{"code":"521102","name":"สมัย","parentCode":"5211"},"geometry":{"type":"Polygon","coordinates":[[[99.41788105000006,17.951290967000034],[99.37733594700006,17.930674844000066],[99.36954140200004,17.872572228000024],[99.41628028600007,17.838065637000057],[99.45688457600005,17.88242484700004],[99.48303666200007,17.920189523000033],[99.41788105000006,17.951290967000034]]]}},{"type":"Feature","properties":{"code":"521011","name":"สันดอนแก้ว","parentCode":"5210"},"geometry":{"type":"Polygon","coordinates":[[[99.55221897300004,18.021439375000057],[99.44258953100007,18.032106718000023],[99.42184271400004,18.007084433000045],[99.41788105000006,17.951290967000034],[99.48303666200007,17.920189523000033],[99.52659832300009,17.958678570000075],[99.56744526200004,17.992434255000035],[99.55221897300004,18.021439375000057]]]}},{"type":"Feature","properties":{"code":"520402","name":"เสริมขวา","parentCode":"5204"},"geometry":{"type":"Polygon","coordinates":[[[99.21728568000003,18.189827887000035],[99.18073112500008,18.205736116000026],[99.11919304400004,18.297983015000057],[99.02921161500007,18.26504794600004],[99.02913563100009,18.216055347000065],[99.09259377400008,18.205650845000036],[99.13032903700008,18.169705001000068],[99.13850588600008,18.102448733000074],[99.18553175200003,18.078161496000064],[99.22834636700009,18.08560174400003],[99.24806685700008,18.15928554800007],[99.21728568000003,18.189827887000035]]]}},{"type":"Feature","properties":{"code":"520404","name":"เสริมกลาง","parentCode":"5204"},"geometry":{"type":"Polygon","coordinates":[[[99.18553175200003,18.078161496000064],[99.13850588600008,18.102448733000074],[99.13032903700008,18.169705001000068],[99.09259377400008,18.205650845000036],[99.02913563100009,18.216055347000065],[99.03732912500004,18.19987437700007],[99.05688221200006,18.172660047000022],[99.07548034100006,18.05419089800006],[99.14646782600005,18.053674261000026],[99.26014540100005,18.009278970000025],[99.18553175200003,18.078161496000064]]]}},{"type":"Feature","properties":{"code":"520403","name":"เสริมซ้าย","parentCode":"5204"},"geometry":{"type":"Polygon","coordinates":[[[99.26014540100005,18.009278970000025],[99.14646782600005,18.053674261000026],[99.07548034100006,18.05419089800006],[99.09227660800008,18.02432372800007],[99.10816085400006,17.913342202000024],[99.18331551700004,17.860529032000045],[99.21056689800008,17.886211785000057],[99.19889548000003,17.955935527000065],[99.27434931000005,17.98262863900004],[99.28676058000008,18.002191074000052],[99.26014540100005,18.009278970000025]]]}},{"type":"Feature","properties":{"code":"520205","name":"สบป้าด","parentCode":"5202"},"geometry":{"type":"Polygon","coordinates":[[[99.86358012300008,18.279919396000025],[99.84059378900008,18.30327339300004],[99.78203367800006,18.27095833000004],[99.70056480700003,18.254183230000024],[99.62895774900005,18.258570402000032],[99.62445817500009,18.234741201000077],[99.68529660200005,18.217878537000047],[99.71072678000007,18.234889520000024],[99.79240393600008,18.193500493000045],[99.82717909400009,18.23729697300007],[99.86358012300008,18.279919396000025]]]}},{"type":"Feature","properties":{"code":"521101","name":"สบปราบ","parentCode":"5211"},"geometry":{"type":"Polygon","coordinates":[[[99.41628028600007,17.838065637000057],[99.36954140200004,17.872572228000024],[99.37733594700006,17.930674844000066],[99.33171593600008,17.90708717700005],[99.27234526600006,17.814587191000044],[99.31011959000006,17.77708887400007],[99.36757282600007,17.773487857000077],[99.41512409700005,17.835690804000023],[99.41628028600007,17.838065637000057]]]}},{"type":"Feature","properties":{"code":"520104","name":"สบตุ๋ย","parentCode":"5201"},"geometry":{"type":"Polygon","coordinates":[[[99.49213790600004,18.29154010800005],[99.48212358900008,18.297434383000052],[99.46394960400005,18.284267370000066],[99.46235622500006,18.280930080000076],[99.47951966500005,18.273097380000024],[99.48640080800004,18.27807650400007],[99.49213790600004,18.29154010800005]]]}},{"type":"Feature","properties":{"code":"520103","name":"สวนดอก","parentCode":"5201"},"geometry":{"type":"Polygon","coordinates":[[[99.49974319500006,18.28161233900005],[99.49832354300008,18.29243377100005],[99.49213790600004,18.29154010800005],[99.48640080800004,18.27807650400007],[99.49974319500006,18.28161233900005]]]}},{"type":"Feature","properties":{"code":"520308","name":"ท่าผา","parentCode":"5203"},"geometry":{"type":"Polygon","coordinates":[[[99.42134694700007,18.223948238000048],[99.41134930200008,18.231599561000053],[99.38978530900005,18.211839670000074],[99.34524962500006,18.15387247700005],[99.38389500500006,18.157284004000076],[99.39175257100004,18.163114776000043],[99.42134694700007,18.223948238000048]]]}},{"type":"Feature","properties":{"code":"520808","name":"เถินบุรี","parentCode":"5208"},"geometry":{"type":"Polygon","coordinates":[[[99.27485669800006,17.563374602000067],[99.24657063600006,17.593803191000063],[99.19831151900007,17.57752305200006],[99.18480426500008,17.629235820000076],[99.15604020800004,17.622515126000053],[99.14114148200008,17.56962821600007],[99.17856471100004,17.536067224000078],[99.23734707000006,17.51689955200004],[99.27485669800006,17.563374602000067]]]}},{"type":"Feature","properties":{"code":"520112","name":"ทุ่งฝาย","parentCode":"5201"},"geometry":{"type":"Polygon","coordinates":[[[99.59248026000006,18.377375912000048],[99.58994886800008,18.392922990000045],[99.58632562200006,18.395517237000035],[99.52257969700008,18.391488296000034],[99.53829800600005,18.346638978000044],[99.59248026000006,18.377375912000048]]]}},{"type":"Feature","properties":{"code":"520701","name":"ทุ่งฮั้ว","parentCode":"5207"},"geometry":{"type":"Polygon","coordinates":[[[99.70477384100008,19.27362332000007],[99.58976961200005,19.257371211000077],[99.56445232800007,19.283748627000023],[99.56276794900003,19.278384908000078],[99.54141478300005,19.206285945000047],[99.64222650700003,19.198674057000062],[99.71999385900006,19.201995101000023],[99.70369957600008,19.258242148000022],[99.70477384100008,19.27362332000007]]]}},{"type":"Feature","properties":{"code":"521303","name":"ทุ่งกว๋าว","parentCode":"5213"},"geometry":{"type":"Polygon","coordinates":[[[99.51795622200007,18.615851018000058],[99.41759842800008,18.630136352000022],[99.42188489800009,18.65630154100006],[99.34829959200005,18.656521741000063],[99.32695603700006,18.628334261000077],[99.35345439600007,18.579382274000068],[99.41118964800006,18.56690310500005],[99.45959399900005,18.527790345000028],[99.50009376100007,18.52816909200004],[99.51795622200007,18.615851018000058]]]}},{"type":"Feature","properties":{"code":"520401","name":"ทุ่งงาม","parentCode":"5204"},"geometry":{"type":"Polygon","coordinates":[[[99.27462200400004,18.145405666000045],[99.24806685700008,18.15928554800007],[99.22834636700009,18.08560174400003],[99.18553175200003,18.078161496000064],[99.26014540100005,18.009278970000025],[99.28676058000008,18.002191074000052],[99.30243505900006,18.08269098200003],[99.27462200400004,18.145405666000045]]]}},{"type":"Feature","properties":{"code":"520606","name":"ทุ่งผึ้ง","parentCode":"5206"},"geometry":{"type":"Polygon","coordinates":[[[99.75675699700008,18.97610786100006],[99.70417794700006,18.986113789000058],[99.64557622500007,18.954046332000075],[99.61354152500007,18.898860183000068],[99.62497407600006,18.867613731000063],[99.72361490800006,18.84355193300007],[99.80053255200005,18.876560771000072],[99.78802612600003,18.899725185000023],[99.75675699700008,18.97610786100006]]]}},{"type":"Feature","properties":{"code":"520117","name":"ต้นธงชัย","parentCode":"5201"},"geometry":{"type":"Polygon","coordinates":[[[99.52257969700008,18.391488296000034],[99.50122121300006,18.46184912800004],[99.47376468400006,18.380680151000035],[99.48876788100006,18.324652465000042],[99.49824280700005,18.29975021200005],[99.51589171000006,18.30588079000006],[99.53829800600005,18.346638978000044],[99.52257969700008,18.391488296000034]]]}},{"type":"Feature","properties":{"code":"520707","name":"วังแก้ว","parentCode":"5207"},"geometry":{"type":"Polygon","coordinates":[[[99.69361542700005,19.382684187000052],[99.63929113500006,19.385364584000058],[99.56537606200004,19.417657702000042],[99.57096658500006,19.394077087000028],[99.57347621600007,19.344812913000055],[99.57769083100004,19.308200914000054],[99.56445232800007,19.283748627000023],[99.58976961200005,19.257371211000077],[99.70477384100008,19.27362332000007],[99.70428217100005,19.322295203000067],[99.70106365900006,19.347597681000025],[99.69361542700005,19.382684187000052]]]}},{"type":"Feature","properties":{"code":"521010","name":"วังเงิน","parentCode":"5210"},"geometry":{"type":"Polygon","coordinates":[[[99.69178258800008,18.05671200300003],[99.67262547000007,18.056707835000054],[99.59495387500004,18.151095204000057],[99.57431039600004,18.119277827000076],[99.55805139900008,18.084908558000052],[99.61003819400008,18.049824623000063],[99.66882569900008,18.041677436000043],[99.69178258800008,18.05671200300003]]]}},{"type":"Feature","properties":{"code":"520702","name":"วังเหนือ","parentCode":"5207"},"geometry":{"type":"Polygon","coordinates":[[[99.64222650700003,19.198674057000062],[99.54141478300005,19.206285945000047],[99.53662880100006,19.16391737400005],[99.55342510400004,19.122726037000064],[99.62433498700005,19.105765770000062],[99.62171656100008,19.182548696000026],[99.64222650700003,19.198674057000062]]]}},{"type":"Feature","properties":{"code":"520304","name":"วังพร้าว","parentCode":"5203"},"geometry":{"type":"Polygon","coordinates":[[[99.42534223100006,18.17836670500003],[99.39175257100004,18.163114776000043],[99.38389500500006,18.157284004000076],[99.37524718100008,18.144197306000024],[99.43088490400004,18.128791312000033],[99.42534223100006,18.17836670500003]]]}},{"type":"Feature","properties":{"code":"520706","name":"วังซ้าย","parentCode":"5207"},"geometry":{"type":"Polygon","coordinates":[[[99.72858338700007,19.18107876600004],[99.71999385900006,19.201995101000023],[99.64222650700003,19.198674057000062],[99.62171656100008,19.182548696000026],[99.62433498700005,19.105765770000062],[99.65657722100008,19.11018633300006],[99.67810469900007,19.165359860000024],[99.72613930800009,19.169888379000042],[99.72858338700007,19.18107876600004]]]}},{"type":"Feature","properties":{"code":"520708","name":"วังทรายคำ","parentCode":"5207"},"geometry":{"type":"Polygon","coordinates":[[[99.65657722100008,19.11018633300006],[99.62433498700005,19.105765770000062],[99.61840464800008,19.056339317000038],[99.66781459800006,19.056704785000022],[99.65657722100008,19.11018633300006]]]}},{"type":"Feature","properties":{"code":"520703","name":"วังใต้","parentCode":"5207"},"geometry":{"type":"Polygon","coordinates":[[[99.62433498700005,19.105765770000062],[99.55342510400004,19.122726037000064],[99.52560412800005,19.076851488000045],[99.54946366100006,19.052746487000036],[99.61840464800008,19.056339317000038],[99.62433498700005,19.105765770000062]]]}},{"type":"Feature","properties":{"code":"520705","name":"วังทอง","parentCode":"5207"},"geometry":{"type":"Polygon","coordinates":[[[99.72613930800009,19.169888379000042],[99.67810469900007,19.165359860000024],[99.65657722100008,19.11018633300006],[99.66781459800006,19.056704785000022],[99.64557622500007,18.954046332000075],[99.70417794700006,18.986113789000058],[99.75675699700008,18.97610786100006],[99.75267938800005,19.04407199900004],[99.77327042900004,19.06421116300004],[99.76224056600006,19.10448360600003],[99.75824803900008,19.124321768000073],[99.74137572400008,19.15028903700005],[99.72613930800009,19.169888379000042]]]}},{"type":"Feature","properties":{"code":"520805","name":"เวียงมอก","parentCode":"5208"},"geometry":{"type":"Polygon","coordinates":[[[99.43936212100004,17.527422650000062],[99.30128915400007,17.51489020300005],[99.27485669800006,17.563374602000067],[99.23734707000006,17.51689955200004],[99.26490427000005,17.469199341000035],[99.24998955500007,17.406687815000055],[99.31522857500005,17.269839529000024],[99.35845424800004,17.249154947000022],[99.37391863400006,17.210581027000046],[99.43991809300007,17.229067275000034],[99.45536991000006,17.25454157400003],[99.47723180100007,17.326100818000043],[99.46848663800006,17.369015111000067],[99.43083422000007,17.390628571000036],[99.44070385000003,17.433752076000076],[99.41888945600004,17.488583994000066],[99.43936212100004,17.527422650000062]]]}},{"type":"Feature","properties":{"code":"520101","name":"เวียงเหนือ","parentCode":"5201"},"geometry":{"type":"Polygon","coordinates":[[[99.51589171000006,18.30588079000006],[99.49824280700005,18.29975021200005],[99.48212358900008,18.297434383000052],[99.49213790600004,18.29154010800005],[99.49832354300008,18.29243377100005],[99.51226987900009,18.29397605400004],[99.51589171000006,18.30588079000006]]]}},{"type":"Feature","properties":{"code":"521205","name":"เวียงตาล","parentCode":"5212"},"geometry":{"type":"Polygon","coordinates":[[[99.30231199800005,18.49100291700006],[99.23950120600006,18.472715926000035],[99.20862486100003,18.426053083000056],[99.19540356100003,18.406474670000023],[99.23861611200005,18.33209656100007],[99.30848959500008,18.29380633100004],[99.34525075700009,18.285360291000075],[99.35866704500006,18.30367452200005],[99.31578109900005,18.39439490500007],[99.30231199800005,18.49100291700006]]]}},{"type":"Feature","properties":{"code":"520607","name":"วิเชตนคร","parentCode":"5206"},"geometry":{"type":"Polygon","coordinates":[[[99.58732186600008,18.766671385000052],[99.53969274300005,18.77411161200007],[99.53273131200007,18.73708500300006],[99.52219713900007,18.682757175000063],[99.56271583800009,18.681016749000037],[99.59150455000008,18.73699866800007],[99.58732186600008,18.766671385000052]]]}},{"type":"Feature","properties":{"code":"521207","name":"วอแก้ว","parentCode":"5212"},"geometry":{"type":"Polygon","coordinates":[[[99.38104824100009,18.40066027900002],[99.36349570800007,18.438185261000058],[99.30231199800005,18.49100291700006],[99.31578109900005,18.39439490500007],[99.33776111500003,18.382869131000064],[99.38459748500009,18.360508757000048],[99.38104824100009,18.40066027900002]]]}}]}