{"type":"FeatureCollection","features":[{"type":"Feature","properties":{"code":"530111","name":"บ้านด่าน","parentCode":"5301"},"geometry":{"type":"Polygon","coordinates":[[[100.31476982900006,17.625325703000044],[100.27635752900005,17.703918318000035],[100.25563538800009,17.703652910000073],[100.27680597200003,17.603861821000066],[100.31476982900006,17.625325703000044]]]}},{"type":"Feature","properties":{"code":"530110","name":"บ้านด่านนาขาม","parentCode":"5301"},"geometry":{"type":"Polygon","coordinates":[[[100.19229363100004,17.81499356200004],[100.14824287200008,17.826118534000045],[100.13412990400008,17.86011837500007],[100.05756748200008,17.833314124000026],[99.99527384200007,17.830758536000076],[100.06306783100007,17.799576469000044],[100.09471461800007,17.742685254000037],[100.13872069000007,17.700519018000023],[100.16490951400004,17.751466497000024],[100.18257838500006,17.73489649000004],[100.20798206400008,17.73951783800004],[100.19229363100004,17.81499356200004]]]}},{"type":"Feature","properties":{"code":"530702","name":"บ้านดารา","parentCode":"5307"},"geometry":{"type":"Polygon","coordinates":[[[100.16225736300004,17.37530818700003],[100.11219352500007,17.39341528400007],[100.04869623500008,17.381646428000067],[100.08928794000008,17.34895788600005],[100.13809805600005,17.354299153000056],[100.16225736300004,17.37530818700003]]]}},{"type":"Feature","properties":{"code":"530402","name":"บ้านฝาย","parentCode":"5304"},"geometry":{"type":"Polygon","coordinates":[[[100.84884995100003,17.789044082000032],[100.82793083700005,17.77279154200005],[100.73308012200005,17.787934913000072],[100.69231131600009,17.85217082500003],[100.66938999500007,17.820910122000043],[100.68690565900005,17.738836310000067],[100.75531398600003,17.685957907000045],[100.82874840500006,17.738995540000076],[100.84884995100003,17.789044082000032]]]}},{"type":"Feature","properties":{"code":"530202","name":"บ้านแก่ง","parentCode":"5302"},"geometry":{"type":"Polygon","coordinates":[[[100.18450289200007,17.40380037700004],[100.17983940100004,17.48695950700005],[100.13424884000005,17.454186425000046],[100.07315009900003,17.45292759800003],[100.18450289200007,17.40380037700004]]]}},{"type":"Feature","properties":{"code":"530602","name":"บ้านโคก","parentCode":"5306"},"geometry":{"type":"Polygon","coordinates":[[[101.15106437800006,18.03653528500007],[101.10664071400004,18.065514106000023],[101.03391923500004,18.08198599700006],[101.02022189100006,18.050467867000066],[101.04176110500003,18.02884773900007],[101.07205978900004,17.92007316200005],[101.11793585000004,17.951597195000033],[101.15106437800006,18.03653528500007]]]}},{"type":"Feature","properties":{"code":"530708","name":"บ้านโคน","parentCode":"5307"},"geometry":{"type":"Polygon","coordinates":[[[100.16003040200007,17.232027902000027],[100.09165938100006,17.23639225000005],[100.04828983500005,17.214655985000036],[100.06430456500004,17.181434065000076],[100.12974614700005,17.183878271000026],[100.16186660000005,17.168700406000028],[100.16757914500005,17.201119232000053],[100.16003040200007,17.232027902000027]]]}},{"type":"Feature","properties":{"code":"530103","name":"บ้านเกาะ","parentCode":"5301"},"geometry":{"type":"Polygon","coordinates":[[[100.13318767800007,17.579260247000036],[100.09991783900006,17.608378507000054],[100.08043899500007,17.608157453000047],[100.06394773500006,17.602541760000065],[100.07053992400006,17.59336175100003],[100.07364393600005,17.577287100000035],[100.12988625600008,17.57116138400005],[100.13318767800007,17.579260247000036]]]}},{"type":"Feature","properties":{"code":"530706","name":"บ้านหม้อ","parentCode":"5307"},"geometry":{"type":"Polygon","coordinates":[[[100.16003040200007,17.232027902000027],[100.14180388100004,17.282838088000062],[100.07927170200009,17.27139160200005],[100.02696569300008,17.260742382000046],[100.09165938100006,17.23639225000005],[100.16003040200007,17.232027902000027]]]}},{"type":"Feature","properties":{"code":"530503","name":"บ้านเสี้ยว","parentCode":"5305"},"geometry":{"type":"Polygon","coordinates":[[[100.93484470500005,17.92861980300006],[100.84150266700004,17.942674612000076],[100.77142930000008,18.00800073000005],[100.76166419800006,17.993844440000032],[100.83500256400004,17.880669171000022],[100.88109135900004,17.866271493000056],[100.91496159800005,17.881971790000023],[100.93484470500005,17.92861980300006]]]}},{"type":"Feature","properties":{"code":"530604","name":"บ่อเบี้ย","parentCode":"5306"},"geometry":{"type":"Polygon","coordinates":[[[101.16069772200007,18.23976403000006],[101.14901392500008,18.293353857000056],[101.18219257000004,18.340723125000068],[101.08541647400006,18.38101637500006],[101.05583762600008,18.35586790600007],[100.97918807600007,18.305392294000058],[100.91227841600005,18.227457107000077],[100.91352344000006,18.160105617000056],[100.93272402800005,18.172905230000026],[101.07153654700005,18.16873913200004],[101.10468218800008,18.152372916000047],[101.16069772200007,18.23976403000006]]]}},{"type":"Feature","properties":{"code":"530902","name":"บ่อทอง","parentCode":"5309"},"geometry":{"type":"Polygon","coordinates":[[[100.64508423600006,17.494401995000032],[100.60813011700009,17.52951245400004],[100.53860503600004,17.480242305000047],[100.52371304100006,17.510383037000054],[100.49920603500004,17.511186475000045],[100.43120532900008,17.469041037000068],[100.37137112500005,17.473435648000077],[100.33590685100006,17.52519717000007],[100.30703544000005,17.499893635000035],[100.25880450500006,17.40316752700005],[100.28891178000003,17.376113505000035],[100.37164844600005,17.39110456900005],[100.50150787300004,17.428837475000023],[100.58490059200005,17.418943085000024],[100.64413885000005,17.473796754000034],[100.64508423600006,17.494401995000032]]]}},{"type":"Feature","properties":{"code":"530805","name":"ชัยจุมพล","parentCode":"5308"},"geometry":{"type":"Polygon","coordinates":[[[100.03501006800008,17.653297516000066],[99.97690698700006,17.622210059000054],[99.96061891600004,17.610387041000024],[99.92733977000006,17.564067718000047],[99.95708981600006,17.57916349800007],[100.06115645200003,17.609146241000076],[100.06587495600007,17.645198853000068],[100.04509062900007,17.651367648000075],[100.03501006800008,17.653297516000066]]]}},{"type":"Feature","properties":{"code":"530304","name":"จริม","parentCode":"5303"},"geometry":{"type":"Polygon","coordinates":[[[100.36386255100007,17.892603707000035],[100.33460290100004,17.889010793000068],[100.33256519200006,17.890743244000078],[100.30585782100007,17.801839848000043],[100.36179938000004,17.785229239000046],[100.39895877400005,17.823264600000073],[100.36386255100007,17.892603707000035]]]}},{"type":"Feature","properties":{"code":"530808","name":"ด่านแม่คำมัน","parentCode":"5308"},"geometry":{"type":"Polygon","coordinates":[[[99.99875404800008,17.533614441000054],[99.95708981600006,17.57916349800007],[99.92733977000006,17.564067718000047],[99.94231236600007,17.53633609800005],[99.98281462600005,17.511360376000027],[99.99875404800008,17.533614441000054]]]}},{"type":"Feature","properties":{"code":"530403","name":"เด่นเหล็ก","parentCode":"5304"},"geometry":{"type":"Polygon","coordinates":[[[100.87466749300006,17.860568965000027],[100.85611580600005,17.872669490000078],[100.77026461200006,17.860419566000076],[100.71768412500006,17.908620873000075],[100.69231131600009,17.85217082500003],[100.73308012200005,17.787934913000072],[100.82793083700005,17.77279154200005],[100.84884995100003,17.789044082000032],[100.87474387700007,17.782692835000034],[100.87466749300006,17.860568965000027]]]}},{"type":"Feature","properties":{"code":"530804","name":"ฝายหลวง","parentCode":"5308"},"geometry":{"type":"Polygon","coordinates":[[[100.08759191900003,17.717614903000026],[100.04186156400004,17.731002087000036],[100.02569672000004,17.683507169000052],[99.97722823800007,17.65699820100002],[99.97690698700006,17.622210059000054],[100.03501006800008,17.653297516000066],[100.04482936400007,17.660133767000048],[100.04509062900007,17.651367648000075],[100.06587495600007,17.645198853000068],[100.08954448000009,17.682398216000024],[100.08759191900003,17.717614903000026]]]}},{"type":"Feature","properties":{"code":"530501","name":"ฟากท่า","parentCode":"5305"},"geometry":{"type":"Polygon","coordinates":[[[100.93272402800005,18.172905230000026],[100.91352344000006,18.160105617000056],[100.87456819300007,18.118988156000057],[100.85002196400006,18.08283773200003],[100.86474410500006,18.00875170100005],[100.94853220200008,17.954669826000043],[100.97443938000004,18.023428238000065],[101.02022189100006,18.050467867000066],[101.03391923500004,18.08198599700006],[101.01882504100007,18.113660399000025],[100.93272402800005,18.172905230000026]]]}},{"type":"Feature","properties":{"code":"530107","name":"หาดกรวด","parentCode":"5301"},"geometry":{"type":"Polygon","coordinates":[[[100.21204237500007,17.577716296000062],[100.13318767800007,17.579260247000036],[100.12988625600008,17.57116138400005],[100.11601914500005,17.523247996000066],[100.16895777200006,17.54921005600005],[100.19852875000004,17.539948717000073],[100.21839138400009,17.566412768000077],[100.22679725300009,17.58085896600005],[100.22542791700005,17.581936171000052],[100.21204237500007,17.577716296000062]]]}},{"type":"Feature","properties":{"code":"530302","name":"หาดล้า","parentCode":"5303"},"geometry":{"type":"Polygon","coordinates":[[[100.36179938000004,17.785229239000046],[100.30585782100007,17.801839848000043],[100.31856758500004,17.727345816000025],[100.35139279000003,17.73802050000006],[100.36179938000004,17.785229239000046]]]}},{"type":"Feature","properties":{"code":"530115","name":"หาดงิ้ว","parentCode":"5301"},"geometry":{"type":"Polygon","coordinates":[[[100.36024280300006,17.687896756000043],[100.31235342500008,17.697116636000032],[100.33101727800005,17.64702118300005],[100.37079669100007,17.681446840000035],[100.36024280300006,17.687896756000043]]]}},{"type":"Feature","properties":{"code":"530203","name":"หาดสองแคว","parentCode":"5302"},"geometry":{"type":"Polygon","coordinates":[[[100.07315009900003,17.45292759800003],[100.02107119700008,17.46630443300006],[100.02000562500007,17.458565985000064],[100.02101240200005,17.42421277400007],[100.06070331400008,17.44299555300006],[100.12031140000005,17.406458359000055],[100.21030894200004,17.391211218000024],[100.18450289200007,17.40380037700004],[100.07315009900003,17.45292759800003]]]}},{"type":"Feature","properties":{"code":"530406","name":"ห้วยมุ่น","parentCode":"5304"},"geometry":{"type":"Polygon","coordinates":[[[101.01931836400007,17.891246245000048],[100.96712104100004,17.894375731000025],[100.95370527700004,17.866572027000075],[100.91496159800005,17.881971790000023],[100.88109135900004,17.866271493000056],[100.87466749300006,17.860568965000027],[100.87474387700007,17.782692835000034],[100.84884995100003,17.789044082000032],[100.82874840500006,17.738995540000076],[100.87108999300006,17.70670139400005],[100.96569525200005,17.70182819100006],[100.98884959300005,17.743676454000024],[101.00200511900005,17.824212688000046],[101.02719243200005,17.828400550000026],[101.01931836400007,17.891246245000048]]]}},{"type":"Feature","properties":{"code":"530705","name":"คอรุม","parentCode":"5307"},"geometry":{"type":"Polygon","coordinates":[[[100.01578771800007,17.32988924800003],[99.99331919500008,17.312928605000025],[99.96526637100004,17.264649844000076],[100.02696569300008,17.260742382000046],[100.07927170200009,17.27139160200005],[100.06073508900005,17.314346614000044],[100.01578771800007,17.32988924800003]]]}},{"type":"Feature","properties":{"code":"530205","name":"ข่อยสูง","parentCode":"5302"},"geometry":{"type":"Polygon","coordinates":[[[99.98281462600005,17.511360376000027],[99.94231236600007,17.53633609800005],[99.92835011000005,17.521415250000075],[100.00275295800009,17.457990754000036],[100.02000562500007,17.458565985000064],[100.02107119700008,17.46630443300006],[100.01783453300004,17.481533614000057],[99.98281462600005,17.511360376000027]]]}},{"type":"Feature","properties":{"code":"530116","name":"ขุนฝาง","parentCode":"5301"},"geometry":{"type":"Polygon","coordinates":[[[100.24017490600005,17.805697460000033],[100.19229363100004,17.81499356200004],[100.20798206400008,17.73951783800004],[100.18257838500006,17.73489649000004],[100.20449700300009,17.70332299300003],[100.23724158900006,17.699286065000024],[100.24017490600005,17.805697460000033]]]}},{"type":"Feature","properties":{"code":"530105","name":"คุ้งตะเภา","parentCode":"5301"},"geometry":{"type":"Polygon","coordinates":[[[100.21010734900005,17.666415275000077],[100.14146286000005,17.661337263000064],[100.13261462200006,17.650533360000054],[100.11902718100004,17.62065676800006],[100.17586780000005,17.61078100000003],[100.21204237500007,17.577716296000062],[100.22542791700005,17.581936171000052],[100.20465187500008,17.61298515200002],[100.21010734900005,17.666415275000077]]]}},{"type":"Feature","properties":{"code":"530802","name":"แม่พูล","parentCode":"5308"},"geometry":{"type":"Polygon","coordinates":[[[100.04186156400004,17.731002087000036],[100.03820108200006,17.772787636000032],[99.99079273100006,17.811911271000042],[99.95962152600003,17.778376240000057],[99.89449126700003,17.807192434000058],[99.92637173700007,17.74303292600007],[99.96326640500007,17.711380365000025],[99.97722823800007,17.65699820100002],[100.02569672000004,17.683507169000052],[100.04186156400004,17.731002087000036]]]}},{"type":"Feature","properties":{"code":"530601","name":"ม่วงเจ็ดต้น","parentCode":"5306"},"geometry":{"type":"Polygon","coordinates":[[[101.15106437800006,18.03653528500007],[101.18448572100004,18.066173492000075],[101.16117242400009,18.123490450000077],[101.19282738000004,18.212726798000062],[101.16069772200007,18.23976403000006],[101.10468218800008,18.152372916000047],[101.07153654700005,18.16873913200004],[100.93272402800005,18.172905230000026],[101.01882504100007,18.113660399000025],[101.03391923500004,18.08198599700006],[101.10664071400004,18.065514106000023],[101.15106437800006,18.03653528500007]]]}},{"type":"Feature","properties":{"code":"530710","name":"นาอิน","parentCode":"5307"},"geometry":{"type":"Polygon","coordinates":[[[100.27369013300006,17.254106850000028],[100.14100701400008,17.291682911000066],[100.14180388100004,17.282838088000062],[100.16003040200007,17.232027902000027],[100.16757914500005,17.201119232000053],[100.28246066200006,17.220608859000038],[100.27369013300006,17.254106850000028]]]}},{"type":"Feature","properties":{"code":"530603","name":"นาขุม","parentCode":"5306"},"geometry":{"type":"Polygon","coordinates":[[[101.07205978900004,17.92007316200005],[101.04176110500003,18.02884773900007],[101.02022189100006,18.050467867000066],[100.97443938000004,18.023428238000065],[100.94853220200008,17.954669826000043],[100.93484470500005,17.92861980300006],[100.91496159800005,17.881971790000023],[100.95370527700004,17.866572027000075],[100.96712104100004,17.894375731000025],[101.01931836400007,17.891246245000048],[101.07205978900004,17.92007316200005]]]}},{"type":"Feature","properties":{"code":"530803","name":"นานกกก","parentCode":"5308"},"geometry":{"type":"Polygon","coordinates":[[[100.09471461800007,17.742685254000037],[100.06306783100007,17.799576469000044],[99.99527384200007,17.830758536000076],[99.98861023100005,17.835040109000033],[99.99079273100006,17.811911271000042],[100.03820108200006,17.772787636000032],[100.04186156400004,17.731002087000036],[100.08759191900003,17.717614903000026],[100.09471461800007,17.742685254000037]]]}},{"type":"Feature","properties":{"code":"530711","name":"นายาง","parentCode":"5307"},"geometry":{"type":"Polygon","coordinates":[[[100.25880450500006,17.40316752700005],[100.25391289800007,17.40266027900003],[100.23341213900005,17.39097417200003],[100.19021033500007,17.350680716000056],[100.16225736300004,17.37530818700003],[100.13809805600005,17.354299153000056],[100.13620895100007,17.326635236000072],[100.14100701400008,17.291682911000066],[100.27369013300006,17.254106850000028],[100.28891178000003,17.376113505000035],[100.25880450500006,17.40316752700005]]]}},{"type":"Feature","properties":{"code":"530701","name":"ในเมือง","parentCode":"5307"},"geometry":{"type":"Polygon","coordinates":[[[100.14100701400008,17.291682911000066],[100.13620895100007,17.326635236000072],[100.06073508900005,17.314346614000044],[100.07927170200009,17.27139160200005],[100.14180388100004,17.282838088000062],[100.14100701400008,17.291682911000066]]]}},{"type":"Feature","properties":{"code":"530204","name":"น้ำอ่าง","parentCode":"5302"},"geometry":{"type":"Polygon","coordinates":[[[100.25391289800007,17.40266027900003],[100.24581578800007,17.494373822000057],[100.20965431300004,17.53221693100005],[100.17983940100004,17.48695950700005],[100.18450289200007,17.40380037700004],[100.21030894200004,17.391211218000024],[100.23341213900005,17.39097417200003],[100.25391289800007,17.40266027900003]]]}},{"type":"Feature","properties":{"code":"530404","name":"น้ำไคร้","parentCode":"5304"},"geometry":{"type":"Polygon","coordinates":[[[100.66696913700008,17.63956805600003],[100.63457198100008,17.63706588200006],[100.58990471300007,17.696172845000035],[100.56184109400004,17.685868583000058],[100.48934043700007,17.65388616300004],[100.44066709000003,17.611121603000072],[100.44586740200003,17.567519808000043],[100.49920603500004,17.511186475000045],[100.52371304100006,17.510383037000054],[100.54342378000007,17.548317973000053],[100.59538937900004,17.567678769000054],[100.66696913700008,17.63956805600003]]]}},{"type":"Feature","properties":{"code":"530305","name":"น้ำหมัน","parentCode":"5303"},"geometry":{"type":"Polygon","coordinates":[[[100.27185651100007,17.955677785000034],[100.22583318700003,17.949076929000057],[100.18822022800003,17.903718406000053],[100.13412990400008,17.86011837500007],[100.14824287200008,17.826118534000045],[100.19229363100004,17.81499356200004],[100.24017490600005,17.805697460000033],[100.28274247600007,17.779169125000067],[100.30066602600004,17.72632696200003],[100.31856758500004,17.727345816000025],[100.30585782100007,17.801839848000043],[100.33256519200006,17.890743244000078],[100.27185651100007,17.955677785000034]]]}},{"type":"Feature","properties":{"code":"530405","name":"น้ำไผ่","parentCode":"5304"},"geometry":{"type":"Polygon","coordinates":[[[100.87108999300006,17.70670139400005],[100.82874840500006,17.738995540000076],[100.75531398600003,17.685957907000045],[100.66696913700008,17.63956805600003],[100.59538937900004,17.567678769000054],[100.54342378000007,17.548317973000053],[100.52371304100006,17.510383037000054],[100.53860503600004,17.480242305000047],[100.60813011700009,17.52951245400004],[100.64508423600006,17.494401995000032],[100.74041896000006,17.54284319800007],[100.87108999300006,17.70670139400005]]]}},{"type":"Feature","properties":{"code":"530108","name":"น้ำริด","parentCode":"5301"},"geometry":{"type":"Polygon","coordinates":[[[100.13872069000007,17.700519018000023],[100.09471461800007,17.742685254000037],[100.08759191900003,17.717614903000026],[100.08954448000009,17.682398216000024],[100.13846198100003,17.668941433000043],[100.13872069000007,17.700519018000023]]]}},{"type":"Feature","properties":{"code":"530904","name":"น้ำพี้","parentCode":"5309"},"geometry":{"type":"Polygon","coordinates":[[[100.37459862100008,17.59520150000003],[100.31476982900006,17.625325703000044],[100.27680597200003,17.603861821000066],[100.22679725300009,17.58085896600005],[100.21839138400009,17.566412768000077],[100.23057538500007,17.54812633000006],[100.33735618900005,17.527542668000024],[100.36966563500005,17.549899320000065],[100.37459862100008,17.59520150000003]]]}},{"type":"Feature","properties":{"code":"530307","name":"นางพญา","parentCode":"5303"},"geometry":{"type":"Polygon","coordinates":[[[100.55084927700005,18.035311790000037],[100.48229230000004,18.055572554000037],[100.41429748700006,18.021697394000057],[100.36825217400008,17.99382679000007],[100.35867197000005,17.92319610000004],[100.33460290100004,17.889010793000068],[100.36386255100007,17.892603707000035],[100.38316074600004,17.911060501000065],[100.45189235300006,17.882234106000055],[100.55084927700005,18.035311790000037]]]}},{"type":"Feature","properties":{"code":"530109","name":"งิ้วงาม","parentCode":"5301"},"geometry":{"type":"Polygon","coordinates":[[[100.20449700300009,17.70332299300003],[100.18257838500006,17.73489649000004],[100.16490951400004,17.751466497000024],[100.13872069000007,17.700519018000023],[100.13846198100003,17.668941433000043],[100.14146286000005,17.661337263000064],[100.21010734900005,17.666415275000077],[100.20449700300009,17.70332299300003]]]}},{"type":"Feature","properties":{"code":"530903","name":"ป่าคาย","parentCode":"5309"},"geometry":{"type":"Polygon","coordinates":[[[100.33735618900005,17.527542668000024],[100.23057538500007,17.54812633000006],[100.21839138400009,17.566412768000077],[100.19852875000004,17.539948717000073],[100.20965431300004,17.53221693100005],[100.24581578800007,17.494373822000057],[100.25391289800007,17.40266027900003],[100.25880450500006,17.40316752700005],[100.30703544000005,17.499893635000035],[100.33590685100006,17.52519717000007],[100.33735618900005,17.527542668000024]]]}},{"type":"Feature","properties":{"code":"530104","name":"ป่าเซ่า","parentCode":"5301"},"geometry":{"type":"Polygon","coordinates":[[[100.11902718100004,17.62065676800006],[100.09991783900006,17.608378507000054],[100.13318767800007,17.579260247000036],[100.21204237500007,17.577716296000062],[100.17586780000005,17.61078100000003],[100.11902718100004,17.62065676800006]]]}},{"type":"Feature","properties":{"code":"530112","name":"ผาจุก","parentCode":"5301"},"geometry":{"type":"Polygon","coordinates":[[[100.27680597200003,17.603861821000066],[100.25563538800009,17.703652910000073],[100.23724158900006,17.699286065000024],[100.20449700300009,17.70332299300003],[100.21010734900005,17.666415275000077],[100.20465187500008,17.61298515200002],[100.22542791700005,17.581936171000052],[100.22679725300009,17.58085896600005],[100.27680597200003,17.603861821000066]]]}},{"type":"Feature","properties":{"code":"530303","name":"ผาเลือด","parentCode":"5303"},"geometry":{"type":"Polygon","coordinates":[[[100.62245991900005,17.792484768000065],[100.57908958000007,17.79688478500003],[100.48480678200008,17.848048401000028],[100.37062555000006,17.730818946000056],[100.36024280300006,17.687896756000043],[100.37079669100007,17.681446840000035],[100.37588844600003,17.63845058800007],[100.41266829900007,17.621200642000076],[100.44066709000003,17.611121603000072],[100.48934043700007,17.65388616300004],[100.56184109400004,17.685868583000058],[100.62245991900005,17.792484768000065]]]}},{"type":"Feature","properties":{"code":"530806","name":"ไผ่ล้อม","parentCode":"5308"},"geometry":{"type":"Polygon","coordinates":[[[100.07364393600005,17.577287100000035],[100.07053992400006,17.59336175100003],[99.99875404800008,17.533614441000054],[99.98281462600005,17.511360376000027],[100.01783453300004,17.481533614000057],[100.08024985800006,17.511647835000076],[100.07364393600005,17.577287100000035]]]}},{"type":"Feature","properties":{"code":"530901","name":"ผักขวง","parentCode":"5309"},"geometry":{"type":"Polygon","coordinates":[[[100.44066709000003,17.611121603000072],[100.41266829900007,17.621200642000076],[100.37459862100008,17.59520150000003],[100.36966563500005,17.549899320000065],[100.33735618900005,17.527542668000024],[100.33590685100006,17.52519717000007],[100.37137112500005,17.473435648000077],[100.43120532900008,17.469041037000068],[100.49920603500004,17.511186475000045],[100.44586740200003,17.567519808000043],[100.44066709000003,17.611121603000072]]]}},{"type":"Feature","properties":{"code":"530709","name":"พญาแมน","parentCode":"5307"},"geometry":{"type":"Polygon","coordinates":[[[100.04828983500005,17.214655985000036],[99.97469913800006,17.208734595000067],[99.97287549400005,17.165173147000075],[100.01383479900005,17.13903737800007],[100.06430456500004,17.181434065000076],[100.04828983500005,17.214655985000036]]]}},{"type":"Feature","properties":{"code":"530703","name":"ไร่อ้อย","parentCode":"5307"},"geometry":{"type":"Polygon","coordinates":[[[100.04869623500008,17.381646428000067],[100.01713514200009,17.418423270000062],[99.99117285700004,17.400949465000053],[100.00468655600008,17.348454442000047],[100.01578771800007,17.32988924800003],[100.06073508900005,17.314346614000044],[100.13620895100007,17.326635236000072],[100.13809805600005,17.354299153000056],[100.08928794000008,17.34895788600005],[100.04869623500008,17.381646428000067]]]}},{"type":"Feature","properties":{"code":"530308","name":"ร่วมจิต","parentCode":"5303"},"geometry":{"type":"Polygon","coordinates":[[[100.35139279000003,17.73802050000006],[100.31856758500004,17.727345816000025],[100.30066602600004,17.72632696200003],[100.28729427700006,17.702669549000063],[100.31235342500008,17.697116636000032],[100.36024280300006,17.687896756000043],[100.37062555000006,17.730818946000056],[100.35139279000003,17.73802050000006]]]}},{"type":"Feature","properties":{"code":"530114","name":"แสนตอ","parentCode":"5301"},"geometry":{"type":"Polygon","coordinates":[[[100.28729427700006,17.702669549000063],[100.27635752900005,17.703918318000035],[100.31476982900006,17.625325703000044],[100.33101727800005,17.64702118300005],[100.31235342500008,17.697116636000032],[100.28729427700006,17.702669549000063]]]}},{"type":"Feature","properties":{"code":"530401","name":"แสนตอ","parentCode":"5304"},"geometry":{"type":"Polygon","coordinates":[[[100.66938999500007,17.820910122000043],[100.62245991900005,17.792484768000065],[100.56184109400004,17.685868583000058],[100.58990471300007,17.696172845000035],[100.63457198100008,17.63706588200006],[100.66696913700008,17.63956805600003],[100.75531398600003,17.685957907000045],[100.68690565900005,17.738836310000067],[100.66938999500007,17.820910122000043]]]}},{"type":"Feature","properties":{"code":"530801","name":"ศรีพนมมาศ","parentCode":"5308"},"geometry":{"type":"Polygon","coordinates":[[[100.03501006800008,17.653297516000066],[100.04509062900007,17.651367648000075],[100.04482936400007,17.660133767000048],[100.03501006800008,17.653297516000066]]]}},{"type":"Feature","properties":{"code":"530504","name":"สองห้อง","parentCode":"5305"},"geometry":{"type":"Polygon","coordinates":[[[100.88109135900004,17.866271493000056],[100.83500256400004,17.880669171000022],[100.76166419800006,17.993844440000032],[100.71768412500006,17.908620873000075],[100.77026461200006,17.860419566000076],[100.85611580600005,17.872669490000078],[100.87466749300006,17.860568965000027],[100.88109135900004,17.866271493000056]]]}},{"type":"Feature","properties":{"code":"530502","name":"สองคอน","parentCode":"5305"},"geometry":{"type":"Polygon","coordinates":[[[100.85002196400006,18.08283773200003],[100.81975867700004,18.08312134600004],[100.77439900700006,18.029251857000077],[100.77142930000008,18.00800073000005],[100.84150266700004,17.942674612000076],[100.93484470500005,17.92861980300006],[100.94853220200008,17.954669826000043],[100.86474410500006,18.00875170100005],[100.85002196400006,18.08283773200003]]]}},{"type":"Feature","properties":{"code":"530407","name":"ท่าแฝก","parentCode":"5304"},"geometry":{"type":"Polygon","coordinates":[[[100.77439900700006,18.029251857000077],[100.68869207000006,18.02675961500006],[100.60403340200008,18.046937056000047],[100.55084927700005,18.035311790000037],[100.45189235300006,17.882234106000055],[100.48480678200008,17.848048401000028],[100.57908958000007,17.79688478500003],[100.62245991900005,17.792484768000065],[100.66938999500007,17.820910122000043],[100.69231131600009,17.85217082500003],[100.71768412500006,17.908620873000075],[100.76166419800006,17.993844440000032],[100.77142930000008,18.00800073000005],[100.77439900700006,18.029251857000077]]]}},{"type":"Feature","properties":{"code":"530101","name":"ท่าอิฐ","parentCode":"5301"},"geometry":{"type":"Polygon","coordinates":[[[100.13261462200006,17.650533360000054],[100.09621662000006,17.64700109100005],[100.08043899500007,17.608157453000047],[100.09991783900006,17.608378507000054],[100.11902718100004,17.62065676800006],[100.13261462200006,17.650533360000054]]]}},{"type":"Feature","properties":{"code":"530707","name":"ท่ามะเฟือง","parentCode":"5307"},"geometry":{"type":"Polygon","coordinates":[[[100.02696569300008,17.260742382000046],[99.96526637100004,17.264649844000076],[99.96291372100006,17.252177592000066],[99.97469913800006,17.208734595000067],[100.04828983500005,17.214655985000036],[100.09165938100006,17.23639225000005],[100.02696569300008,17.260742382000046]]]}},{"type":"Feature","properties":{"code":"530301","name":"ท่าปลา","parentCode":"5303"},"geometry":{"type":"Polygon","coordinates":[[[100.45189235300006,17.882234106000055],[100.38316074600004,17.911060501000065],[100.36386255100007,17.892603707000035],[100.39895877400005,17.823264600000073],[100.36179938000004,17.785229239000046],[100.35139279000003,17.73802050000006],[100.37062555000006,17.730818946000056],[100.48480678200008,17.848048401000028],[100.45189235300006,17.882234106000055]]]}},{"type":"Feature","properties":{"code":"530704","name":"ท่าสัก","parentCode":"5307"},"geometry":{"type":"Polygon","coordinates":[[[100.21030894200004,17.391211218000024],[100.12031140000005,17.406458359000055],[100.06070331400008,17.44299555300006],[100.02101240200005,17.42421277400007],[100.01713514200009,17.418423270000062],[100.04869623500008,17.381646428000067],[100.11219352500007,17.39341528400007],[100.16225736300004,17.37530818700003],[100.19021033500007,17.350680716000056],[100.23341213900005,17.39097417200003],[100.21030894200004,17.391211218000024]]]}},{"type":"Feature","properties":{"code":"530102","name":"ท่าเสา","parentCode":"5301"},"geometry":{"type":"Polygon","coordinates":[[[100.13846198100003,17.668941433000043],[100.08954448000009,17.682398216000024],[100.06587495600007,17.645198853000068],[100.06115645200003,17.609146241000076],[100.06394773500006,17.602541760000065],[100.08043899500007,17.608157453000047],[100.09621662000006,17.64700109100005],[100.13261462200006,17.650533360000054],[100.14146286000005,17.661337263000064],[100.13846198100003,17.668941433000043]]]}},{"type":"Feature","properties":{"code":"530117","name":"ถ้ำฉลอง","parentCode":"5301"},"geometry":{"type":"Polygon","coordinates":[[[100.41266829900007,17.621200642000076],[100.37588844600003,17.63845058800007],[100.37079669100007,17.681446840000035],[100.33101727800005,17.64702118300005],[100.31476982900006,17.625325703000044],[100.37459862100008,17.59520150000003],[100.41266829900007,17.621200642000076]]]}},{"type":"Feature","properties":{"code":"530807","name":"ทุ่งยั้ง","parentCode":"5308"},"geometry":{"type":"Polygon","coordinates":[[[100.06115645200003,17.609146241000076],[99.95708981600006,17.57916349800007],[99.99875404800008,17.533614441000054],[100.07053992400006,17.59336175100003],[100.06394773500006,17.602541760000065],[100.06115645200003,17.609146241000076]]]}},{"type":"Feature","properties":{"code":"530201","name":"วังแดง","parentCode":"5302"},"geometry":{"type":"Polygon","coordinates":[[[100.19852875000004,17.539948717000073],[100.16895777200006,17.54921005600005],[100.11601914500005,17.523247996000066],[100.08024985800006,17.511647835000076],[100.01783453300004,17.481533614000057],[100.02107119700008,17.46630443300006],[100.07315009900003,17.45292759800003],[100.13424884000005,17.454186425000046],[100.17983940100004,17.48695950700005],[100.20965431300004,17.53221693100005],[100.19852875000004,17.539948717000073]]]}},{"type":"Feature","properties":{"code":"530113","name":"วังดิน","parentCode":"5301"},"geometry":{"type":"Polygon","coordinates":[[[100.30066602600004,17.72632696200003],[100.28274247600007,17.779169125000067],[100.24017490600005,17.805697460000033],[100.23724158900006,17.699286065000024],[100.25563538800009,17.703652910000073],[100.27635752900005,17.703918318000035],[100.28729427700006,17.702669549000063],[100.30066602600004,17.72632696200003]]]}},{"type":"Feature","properties":{"code":"530106","name":"วังกะพี้","parentCode":"5301"},"geometry":{"type":"Polygon","coordinates":[[[100.12988625600008,17.57116138400005],[100.07364393600005,17.577287100000035],[100.08024985800006,17.511647835000076],[100.11601914500005,17.523247996000066],[100.12988625600008,17.57116138400005]]]}}]}