{"type":"FeatureCollection","features":[{"type":"Feature","properties":{"code":"540408","name":"บ้านกาศ","parentCode":"5404"},"geometry":{"type":"Polygon","coordinates":[[[100.18350781400005,18.08791442000006],[100.16738143300006,18.103194743000074],[100.15163003800006,18.082212888000072],[100.17151676500004,18.079174081000076],[100.18241956100007,18.080564295000045],[100.18350781400005,18.08791442000006]]]}},{"type":"Feature","properties":{"code":"540602","name":"บ้านกลาง","parentCode":"5406"},"geometry":{"type":"Polygon","coordinates":[[[100.10804098800008,18.562627150000026],[100.05186085900004,18.542301930000065],[100.14492422900008,18.50990782200006],[100.16500370700004,18.466784373000053],[100.24715537100008,18.447657801000048],[100.28178899600005,18.454992196000035],[100.31336907300005,18.465148627000076],[100.16189290000005,18.508369177000077],[100.10804098800008,18.562627150000026]]]}},{"type":"Feature","properties":{"code":"540406","name":"บ้านกวาง","parentCode":"5404"},"geometry":{"type":"Polygon","coordinates":[[[100.21815253900007,18.018018749000078],[100.23954236900005,18.02774222000005],[100.18241956100007,18.080564295000045],[100.17151676500004,18.079174081000076],[100.21815253900007,18.018018749000078]]]}},{"type":"Feature","properties":{"code":"540405","name":"บ้านเหล่า","parentCode":"5404"},"geometry":{"type":"Polygon","coordinates":[[[100.17151676500004,18.079174081000076],[100.15163003800006,18.082212888000072],[100.13645550000007,18.050864519000072],[100.22967992400004,17.984366845000068],[100.21815253900007,18.018018749000078],[100.17151676500004,18.079174081000076]]]}},{"type":"Feature","properties":{"code":"540601","name":"บ้านหนุน","parentCode":"5406"},"geometry":{"type":"Polygon","coordinates":[[[100.28178899600005,18.454992196000035],[100.24715537100008,18.447657801000048],[100.16500370700004,18.466784373000053],[100.14492422900008,18.50990782200006],[100.05186085900004,18.542301930000065],[100.04929202100004,18.531813655000065],[100.04491489200007,18.49185628300006],[100.12050334400004,18.46580153700006],[100.15359190000004,18.472480098000062],[100.17423390400006,18.411629469000047],[100.24624629400006,18.422013185000026],[100.27109023300005,18.452699451000058],[100.28178899600005,18.454992196000035]]]}},{"type":"Feature","properties":{"code":"540302","name":"บ้านปิน","parentCode":"5403"},"geometry":{"type":"Polygon","coordinates":[[[99.90633916500008,18.279887871000028],[99.86358012300008,18.279919396000025],[99.82717909400009,18.23729697300007],[99.84519314300007,18.198430418000044],[99.83962770700003,18.11548991500007],[99.89340196900008,18.070428938000077],[99.89817722800007,18.02819987600003],[99.96178684100005,18.013349186000028],[99.97217582300004,18.043810327000074],[99.97355695600004,18.05223343600005],[99.91752434000006,18.104112776000022],[99.87307925200008,18.170672925000076],[99.90218495400006,18.269343089000074],[99.90633916500008,18.279887871000028]]]}},{"type":"Feature","properties":{"code":"540407","name":"บ้านปง","parentCode":"5404"},"geometry":{"type":"Polygon","coordinates":[[[100.07940574900005,18.07100364000007],[100.04085140100005,18.097438148000037],[99.98864534100005,18.09583044900006],[99.97355695600004,18.05223343600005],[99.97217582300004,18.043810327000074],[100.06907278900007,18.026342853000074],[100.07257533600006,18.048958603000074],[100.07903212000008,18.06543871100007],[100.07940574900005,18.07100364000007]]]}},{"type":"Feature","properties":{"code":"540111","name":"บ้านถิ่น","parentCode":"5401"},"geometry":{"type":"Polygon","coordinates":[[[100.31497009600008,18.145449017000033],[100.23124540100008,18.184311111000056],[100.18332012100007,18.13871246900004],[100.19866654600008,18.132789039000045],[100.31497009600008,18.145449017000033]]]}},{"type":"Feature","properties":{"code":"540206","name":"บ้านเวียง","parentCode":"5402"},"geometry":{"type":"Polygon","coordinates":[[[100.48511102100008,18.300536382000075],[100.42176772500005,18.275368530000037],[100.34491488600008,18.23264444800003],[100.27141202400009,18.239212803000044],[100.26796097100004,18.210988620000023],[100.34173141600007,18.168682267000065],[100.41437905900005,18.153567800000076],[100.45269916700005,18.180831058000024],[100.47647280900009,18.260218833000067],[100.48511102100008,18.300536382000075]]]}},{"type":"Feature","properties":{"code":"540308","name":"บ่อเหล็กลอง","parentCode":"5403"},"geometry":{"type":"Polygon","coordinates":[[[99.71918122600005,18.069717989000026],[99.69178258800008,18.05671200300003],[99.66882569900008,18.041677436000043],[99.68935897900008,18.008001877000027],[99.67560627100005,17.959354764000068],[99.73593840000007,17.974752934000037],[99.74808470200009,18.022349380000037],[99.77479006800007,18.017693489000067],[99.79180605700009,18.05453947600006],[99.71918122600005,18.069717989000026]]]}},{"type":"Feature","properties":{"code":"540118","name":"ช่อแฮ","parentCode":"5401"},"geometry":{"type":"Polygon","coordinates":[[[100.36825217400008,17.99382679000007],[100.26630929600003,18.034044493000067],[100.18772495700006,18.10159611000006],[100.18350781400005,18.08791442000006],[100.18241956100007,18.080564295000045],[100.23954236900005,18.02774222000005],[100.21815253900007,18.018018749000078],[100.22967992400004,17.984366845000068],[100.27185651100007,17.955677785000034],[100.33256519200006,17.890743244000078],[100.33460290100004,17.889010793000068],[100.35867197000005,17.92319610000004],[100.36825217400008,17.99382679000007]]]}},{"type":"Feature","properties":{"code":"540607","name":"แดนชุมพล","parentCode":"5406"},"geometry":{"type":"Polygon","coordinates":[[[100.15774671000008,18.39087827800006],[100.15604187400004,18.37136756600006],[100.21466034000008,18.341691832000038],[100.21248881500009,18.38025247300004],[100.15774671000008,18.39087827800006]]]}},{"type":"Feature","properties":{"code":"540501","name":"เด่นชัย","parentCode":"5405"},"geometry":{"type":"Polygon","coordinates":[[[100.06175265100006,17.998832536000066],[100.01832875600007,17.990241060000074],[100.03641411000007,17.942338952000057],[100.06607357600006,17.95671440800004],[100.06175265100006,17.998832536000066]]]}},{"type":"Feature","properties":{"code":"540404","name":"ดอนมูล","parentCode":"5404"},"geometry":{"type":"Polygon","coordinates":[[[100.15163003800006,18.082212888000072],[100.12380697400005,18.08006950400005],[100.12097051700005,18.072335027000065],[100.11606766900007,18.057726914000057],[100.12498395400007,18.05166411600004],[100.13645550000007,18.050864519000072],[100.15163003800006,18.082212888000072]]]}},{"type":"Feature","properties":{"code":"540403","name":"หัวฝาย","parentCode":"5404"},"geometry":{"type":"Polygon","coordinates":[[[100.13645550000007,18.050864519000072],[100.12498395400007,18.05166411600004],[100.11110959500007,18.038554607000037],[100.10377682700005,18.002690590000043],[100.14859297100008,17.980448313000068],[100.13303143000007,17.93526951900003],[100.18822022800003,17.903718406000053],[100.22583318700003,17.949076929000057],[100.27185651100007,17.955677785000034],[100.22967992400004,17.984366845000068],[100.13645550000007,18.050864519000072]]]}},{"type":"Feature","properties":{"code":"540605","name":"หัวเมือง","parentCode":"5406"},"geometry":{"type":"Polygon","coordinates":[[[100.21466034000008,18.341691832000038],[100.15604187400004,18.37136756600006],[100.15635260300007,18.345177722000074],[100.16077811500008,18.297401575000038],[100.18430542900006,18.299425893000034],[100.20545957100006,18.317537273000028],[100.21466034000008,18.341691832000038]]]}},{"type":"Feature","properties":{"code":"540306","name":"หัวทุ่ง","parentCode":"5403"},"geometry":{"type":"Polygon","coordinates":[[[99.81956919500004,18.070530689000066],[99.79391077600008,18.142740900000035],[99.76201626700004,18.12342329300003],[99.73781863900007,18.106119295000042],[99.71918122600005,18.069717989000026],[99.79180605700009,18.05453947600006],[99.81956919500004,18.070530689000066]]]}},{"type":"Feature","properties":{"code":"540109","name":"ห้วยม้า","parentCode":"5401"},"geometry":{"type":"Polygon","coordinates":[[[100.24869888600006,18.263745120000067],[100.22499368200005,18.23666493500002],[100.22585966300005,18.21305459100006],[100.25713402500008,18.17728046900004],[100.33280925400004,18.160217369000065],[100.34173141600007,18.168682267000065],[100.26796097100004,18.210988620000023],[100.27141202400009,18.239212803000044],[100.27503052700007,18.259370747000048],[100.24869888600006,18.263745120000067]]]}},{"type":"Feature","properties":{"code":"540603","name":"ห้วยหม้าย","parentCode":"5406"},"geometry":{"type":"Polygon","coordinates":[[[100.17423390400006,18.411629469000047],[100.15359190000004,18.472480098000062],[100.12050334400004,18.46580153700006],[100.04491489200007,18.49185628300006],[99.99920720100005,18.402593799000044],[100.07517575400004,18.348789302000057],[100.15635260300007,18.345177722000074],[100.15604187400004,18.37136756600006],[100.15774671000008,18.39087827800006],[100.17423390400006,18.411629469000047]]]}},{"type":"Feature","properties":{"code":"540301","name":"ห้วยอ้อ","parentCode":"5403"},"geometry":{"type":"Polygon","coordinates":[[[99.82717909400009,18.23729697300007],[99.79240393600008,18.193500493000045],[99.76201626700004,18.12342329300003],[99.79391077600008,18.142740900000035],[99.81956919500004,18.070530689000066],[99.84118462500004,18.03020729600007],[99.89817722800007,18.02819987600003],[99.89340196900008,18.070428938000077],[99.83962770700003,18.11548991500007],[99.84519314300007,18.198430418000044],[99.82717909400009,18.23729697300007]]]}},{"type":"Feature","properties":{"code":"540504","name":"ห้วยไร่","parentCode":"5405"},"geometry":{"type":"Polygon","coordinates":[[[100.13303143000007,17.93526951900003],[100.06607357600006,17.95671440800004],[100.03641411000007,17.942338952000057],[99.98945101800007,17.899854137000034],[99.98861023100005,17.835040109000033],[99.99527384200007,17.830758536000076],[100.05756748200008,17.833314124000026],[100.13412990400008,17.86011837500007],[100.18822022800003,17.903718406000053],[100.13303143000007,17.93526951900003]]]}},{"type":"Feature","properties":{"code":"540213","name":"ห้วยโรง","parentCode":"5402"},"geometry":{"type":"Polygon","coordinates":[[[100.47664133800004,18.49479917900004],[100.39931541800007,18.48575016800004],[100.42310194500004,18.459046732000047],[100.44943245800005,18.363838002000023],[100.48145602300008,18.349405500000046],[100.53639626300009,18.390819945000032],[100.55039903000005,18.419308399000045],[100.54186485200006,18.48922513900004],[100.49392928900005,18.474061152000047],[100.47664133800004,18.49479917900004]]]}},{"type":"Feature","properties":{"code":"540120","name":"กาญจนา","parentCode":"5401"},"geometry":{"type":"Polygon","coordinates":[[[100.18332012100007,18.13871246900004],[100.16658888600006,18.131454200000064],[100.18761045000008,18.10467688500006],[100.20638160700008,18.10776991800003],[100.19866654600008,18.132789039000045],[100.18332012100007,18.13871246900004]]]}},{"type":"Feature","properties":{"code":"540502","name":"แม่จั๊วะ","parentCode":"5405"},"geometry":{"type":"Polygon","coordinates":[[[100.07389128300008,18.020691273000068],[100.06175265100006,17.998832536000066],[100.06607357600006,17.95671440800004],[100.13303143000007,17.93526951900003],[100.14859297100008,17.980448313000068],[100.10377682700005,18.002690590000043],[100.07389128300008,18.020691273000068]]]}},{"type":"Feature","properties":{"code":"540114","name":"แม่คำมี","parentCode":"5401"},"geometry":{"type":"Polygon","coordinates":[[[100.24869888600006,18.263745120000067],[100.22795023500004,18.26819616100005],[100.19265837300009,18.245989869000027],[100.18862837800003,18.232785788000058],[100.18922819900007,18.230555198000047],[100.22499368200005,18.23666493500002],[100.24869888600006,18.263745120000067]]]}},{"type":"Feature","properties":{"code":"540801","name":"แม่คำมี","parentCode":"5408"},"geometry":{"type":"Polygon","coordinates":[[[100.24349263200008,18.289479150000034],[100.23962779600004,18.291888355000026],[100.19265837300009,18.245989869000027],[100.22795023500004,18.26819616100005],[100.24349263200008,18.289479150000034]]]}},{"type":"Feature","properties":{"code":"540707","name":"แม่เกิ๋ง","parentCode":"5407"},"geometry":{"type":"Polygon","coordinates":[[[99.65776662700006,17.946014868000077],[99.57861723100007,17.999171326000067],[99.56744526200004,17.992434255000035],[99.52659832300009,17.958678570000075],[99.57380819500008,17.915149864000057],[99.63217620500006,17.927264947000026],[99.65776662700006,17.946014868000077]]]}},{"type":"Feature","properties":{"code":"540108","name":"แม่หล่าย","parentCode":"5401"},"geometry":{"type":"Polygon","coordinates":[[[100.22585966300005,18.21305459100006],[100.22499368200005,18.23666493500002],[100.18922819900007,18.230555198000047],[100.17894386000006,18.217795075000026],[100.18613251900007,18.201669990000028],[100.20609359700006,18.19462696900007],[100.22585966300005,18.21305459100006]]]}},{"type":"Feature","properties":{"code":"540703","name":"แม่ป้าก","parentCode":"5407"},"geometry":{"type":"Polygon","coordinates":[[[99.66882569900008,18.041677436000043],[99.61003819400008,18.049824623000063],[99.57861723100007,17.999171326000067],[99.65776662700006,17.946014868000077],[99.67560627100005,17.959354764000068],[99.68935897900008,18.008001877000027],[99.66882569900008,18.041677436000043]]]}},{"type":"Feature","properties":{"code":"540309","name":"แม่ปาน","parentCode":"5403"},"geometry":{"type":"Polygon","coordinates":[[[99.89817722800007,18.02819987600003],[99.84118462500004,18.03020729600007],[99.82309498900008,18.011555542000053],[99.79331788800005,17.974838013000067],[99.80470704000004,17.927068569000028],[99.87680672400006,17.925381531000028],[99.96178684100005,18.013349186000028],[99.89817722800007,18.02819987600003]]]}},{"type":"Feature","properties":{"code":"540705","name":"แม่พุง","parentCode":"5407"},"geometry":{"type":"Polygon","coordinates":[[[99.57380819500008,17.915149864000057],[99.52659832300009,17.958678570000075],[99.48303666200007,17.920189523000033],[99.45688457600005,17.88242484700004],[99.51538816600004,17.842029273000037],[99.52955974000008,17.800570253000046],[99.62239020600003,17.813050788000055],[99.57380819500008,17.915149864000057]]]}},{"type":"Feature","properties":{"code":"540214","name":"แม่ทราย","parentCode":"5402"},"geometry":{"type":"Polygon","coordinates":[[[100.39268491700005,18.419296804000055],[100.31336907300005,18.465148627000076],[100.28178899600005,18.454992196000035],[100.27109023300005,18.452699451000058],[100.26821854100007,18.412894453000035],[100.30639951300009,18.35020058500004],[100.39268491700005,18.419296804000055]]]}},{"type":"Feature","properties":{"code":"540209","name":"แม่ยางฮ่อ","parentCode":"5402"},"geometry":{"type":"Polygon","coordinates":[[[100.26028128400009,18.378147773000023],[100.22867294000008,18.305345570000043],[100.23056810200006,18.303763109000045],[100.28626741700003,18.333006770000054],[100.26028128400009,18.378147773000023]]]}},{"type":"Feature","properties":{"code":"540215","name":"แม่ยางร้อง","parentCode":"5402"},"geometry":{"type":"Polygon","coordinates":[[[100.26028128400009,18.378147773000023],[100.24027601100005,18.412761567000075],[100.21248881500009,18.38025247300004],[100.21466034000008,18.341691832000038],[100.20545957100006,18.317537273000028],[100.22867294000008,18.305345570000043],[100.26028128400009,18.378147773000023]]]}},{"type":"Feature","properties":{"code":"540208","name":"แม่ยางตาล","parentCode":"5402"},"geometry":{"type":"Polygon","coordinates":[[[100.30263915400008,18.332014582000056],[100.28626741700003,18.333006770000054],[100.23056810200006,18.303763109000045],[100.23962779600004,18.291888355000026],[100.24349263200008,18.289479150000034],[100.26746619600004,18.284109600000022],[100.29546223200003,18.322331727000062],[100.30263915400008,18.332014582000056]]]}},{"type":"Feature","properties":{"code":"540117","name":"แม่ยม","parentCode":"5401"},"geometry":{"type":"Polygon","coordinates":[[[100.18613251900007,18.201669990000028],[100.17894386000006,18.217795075000026],[100.14296094600007,18.19659844000006],[100.14437160900007,18.173886130000028],[100.15311800700005,18.172963477000053],[100.18613251900007,18.201669990000028]]]}},{"type":"Feature","properties":{"code":"540106","name":"เหมืองหม้อ","parentCode":"5401"},"geometry":{"type":"Polygon","coordinates":[[[100.23124540100008,18.184311111000056],[100.20817114900007,18.17660687700004],[100.17488297800008,18.15519923000005],[100.15751492000004,18.14697351800004],[100.15391646000006,18.13462303800003],[100.16658888600006,18.131454200000064],[100.18332012100007,18.13871246900004],[100.23124540100008,18.184311111000056]]]}},{"type":"Feature","properties":{"code":"540102","name":"นาจักร","parentCode":"5401"},"geometry":{"type":"Polygon","coordinates":[[[100.16658888600006,18.131454200000064],[100.15391646000006,18.13462303800003],[100.14412915800006,18.129900032000023],[100.13873915500005,18.115507338000043],[100.14873110800005,18.110944010000026],[100.16738143300006,18.103194743000074],[100.18350781400005,18.08791442000006],[100.18772495700006,18.10159611000006],[100.18761045000008,18.10467688500006],[100.16658888600006,18.131454200000064]]]}},{"type":"Feature","properties":{"code":"540704","name":"นาพูน","parentCode":"5407"},"geometry":{"type":"Polygon","coordinates":[[[99.87680672400006,17.925381531000028],[99.80470704000004,17.927068569000028],[99.67464473900009,17.904588260000025],[99.66377989200004,17.88538266300003],[99.71925360600005,17.815634076000038],[99.68633512400004,17.777274602000034],[99.72629227100003,17.72151345800006],[99.80354330500006,17.800368411000022],[99.89449126700003,17.807192434000058],[99.93614492100005,17.854186190000064],[99.87677208500008,17.895599540000035],[99.87680672400006,17.925381531000028]]]}},{"type":"Feature","properties":{"code":"540101","name":"ในเวียง","parentCode":"5401"},"geometry":{"type":"Polygon","coordinates":[[[100.15751492000004,18.14697351800004],[100.13895728200004,18.14993193400005],[100.14412915800006,18.129900032000023],[100.15391646000006,18.13462303800003],[100.15751492000004,18.14697351800004]]]}},{"type":"Feature","properties":{"code":"540103","name":"น้ำชำ","parentCode":"5401"},"geometry":{"type":"Polygon","coordinates":[[[100.33280925400004,18.160217369000065],[100.25713402500008,18.17728046900004],[100.22585966300005,18.21305459100006],[100.20609359700006,18.19462696900007],[100.20007903500004,18.17737736400005],[100.20817114900007,18.17660687700004],[100.23124540100008,18.184311111000056],[100.31497009600008,18.145449017000033],[100.33280925400004,18.160217369000065]]]}},{"type":"Feature","properties":{"code":"540402","name":"น้ำชำ","parentCode":"5404"},"geometry":{"type":"Polygon","coordinates":[[[100.11110959500007,18.038554607000037],[100.07257533600006,18.048958603000074],[100.06907278900007,18.026342853000074],[100.07389128300008,18.020691273000068],[100.10377682700005,18.002690590000043],[100.11110959500007,18.038554607000037]]]}},{"type":"Feature","properties":{"code":"540205","name":"น้ำเลา","parentCode":"5402"},"geometry":{"type":"Polygon","coordinates":[[[100.39143577900006,18.29615582400004],[100.33127728900007,18.293679938000025],[100.27801945900006,18.259642194000037],[100.27503052700007,18.259370747000048],[100.27141202400009,18.239212803000044],[100.34491488600008,18.23264444800003],[100.42176772500005,18.275368530000037],[100.39143577900006,18.29615582400004]]]}},{"type":"Feature","properties":{"code":"540803","name":"น้ำรัด","parentCode":"5408"},"geometry":{"type":"Polygon","coordinates":[[[100.18612834200007,18.28432009000005],[100.09076360400007,18.284944119000045],[100.09004246900008,18.276669191000053],[100.17827240400004,18.245496338000066],[100.18612834200007,18.28432009000005]]]}},{"type":"Feature","properties":{"code":"540802","name":"หนองม่วงไข่","parentCode":"5408"},"geometry":{"type":"Polygon","coordinates":[[[100.22867294000008,18.305345570000043],[100.20545957100006,18.317537273000028],[100.18430542900006,18.299425893000034],[100.18612834200007,18.28432009000005],[100.17827240400004,18.245496338000066],[100.18862837800003,18.232785788000058],[100.19265837300009,18.245989869000027],[100.23962779600004,18.291888355000026],[100.23056810200006,18.303763109000045],[100.22867294000008,18.305345570000043]]]}},{"type":"Feature","properties":{"code":"540104","name":"ป่าแดง","parentCode":"5401"},"geometry":{"type":"Polygon","coordinates":[[[100.39755596500004,18.136084654000058],[100.35707685000006,18.144336577000047],[100.33810345400008,18.11392845100005],[100.20638160700008,18.10776991800003],[100.18761045000008,18.10467688500006],[100.18772495700006,18.10159611000006],[100.26630929600003,18.034044493000067],[100.36825217400008,17.99382679000007],[100.41429748700006,18.021697394000057],[100.39755596500004,18.136084654000058]]]}},{"type":"Feature","properties":{"code":"540110","name":"ป่าแมต","parentCode":"5401"},"geometry":{"type":"Polygon","coordinates":[[[100.14164510300009,18.165557083000067],[100.06265946500008,18.20654856300007],[100.06355978500005,18.18977990700006],[100.03660663600004,18.147542134000048],[100.08257883200008,18.11819414000007],[100.13873915500005,18.115507338000043],[100.14412915800006,18.129900032000023],[100.13895728200004,18.14993193400005],[100.14164510300009,18.165557083000067]]]}},{"type":"Feature","properties":{"code":"540706","name":"ป่าสัก","parentCode":"5407"},"geometry":{"type":"Polygon","coordinates":[[[99.52955974000008,17.800570253000046],[99.51538816600004,17.842029273000037],[99.45688457600005,17.88242484700004],[99.41628028600007,17.838065637000057],[99.41512409700005,17.835690804000023],[99.49743184100004,17.771989141000063],[99.52955974000008,17.800570253000046]]]}},{"type":"Feature","properties":{"code":"540305","name":"ปากกาง","parentCode":"5403"},"geometry":{"type":"Polygon","coordinates":[[[99.84118462500004,18.03020729600007],[99.81956919500004,18.070530689000066],[99.79180605700009,18.05453947600006],[99.77479006800007,18.017693489000067],[99.82309498900008,18.011555542000053],[99.84118462500004,18.03020729600007]]]}},{"type":"Feature","properties":{"code":"540210","name":"ไผ่โทน","parentCode":"5402"},"geometry":{"type":"Polygon","coordinates":[[[100.42310194500004,18.459046732000047],[100.39268491700005,18.419296804000055],[100.37558846500008,18.338575798000022],[100.40817766700007,18.33666105700007],[100.39143577900006,18.29615582400004],[100.42176772500005,18.275368530000037],[100.48511102100008,18.300536382000075],[100.49254546100008,18.33878593000003],[100.48145602300008,18.349405500000046],[100.44943245800005,18.363838002000023],[100.42310194500004,18.459046732000047]]]}},{"type":"Feature","properties":{"code":"540412","name":"พระหลวง","parentCode":"5404"},"geometry":{"type":"Polygon","coordinates":[[[100.12097051700005,18.072335027000065],[100.07940574900005,18.07100364000007],[100.07903212000008,18.06543871100007],[100.11606766900007,18.057726914000057],[100.12097051700005,18.072335027000065]]]}},{"type":"Feature","properties":{"code":"540505","name":"ปงป่าหวาย","parentCode":"5405"},"geometry":{"type":"Polygon","coordinates":[[[100.06907278900007,18.026342853000074],[99.97217582300004,18.043810327000074],[99.96178684100005,18.013349186000028],[100.01832875600007,17.990241060000074],[100.06175265100006,17.998832536000066],[100.07389128300008,18.020691273000068],[100.06907278900007,18.026342853000074]]]}},{"type":"Feature","properties":{"code":"540119","name":"ร่องฟอง","parentCode":"5401"},"geometry":{"type":"Polygon","coordinates":[[[100.20007903500004,18.17737736400005],[100.17628358900004,18.159794696000063],[100.17488297800008,18.15519923000005],[100.20817114900007,18.17660687700004],[100.20007903500004,18.17737736400005]]]}},{"type":"Feature","properties":{"code":"540409","name":"ร่องกาศ","parentCode":"5404"},"geometry":{"type":"Polygon","coordinates":[[[100.16738143300006,18.103194743000074],[100.14873110800005,18.110944010000026],[100.07447283700009,18.098248515000023],[100.12380697400005,18.08006950400005],[100.15163003800006,18.082212888000072],[100.16738143300006,18.103194743000074]]]}},{"type":"Feature","properties":{"code":"540204","name":"ร้องเข็ม","parentCode":"5402"},"geometry":{"type":"Polygon","coordinates":[[[100.39143577900006,18.29615582400004],[100.29546223200003,18.322331727000062],[100.26746619600004,18.284109600000022],[100.27801945900006,18.259642194000037],[100.33127728900007,18.293679938000025],[100.39143577900006,18.29615582400004]]]}},{"type":"Feature","properties":{"code":"540201","name":"ร้องกวาง","parentCode":"5402"},"geometry":{"type":"Polygon","coordinates":[[[100.39268491700005,18.419296804000055],[100.30639951300009,18.35020058500004],[100.26821854100007,18.412894453000035],[100.27109023300005,18.452699451000058],[100.24624629400006,18.422013185000026],[100.24027601100005,18.412761567000075],[100.26028128400009,18.378147773000023],[100.28626741700003,18.333006770000054],[100.30263915400008,18.332014582000056],[100.37558846500008,18.338575798000022],[100.39268491700005,18.419296804000055]]]}},{"type":"Feature","properties":{"code":"540606","name":"สะเอียบ","parentCode":"5406"},"geometry":{"type":"Polygon","coordinates":[[[100.26866545100006,18.819966100000045],[100.17649977300005,18.813472943000022],[100.15593258000007,18.835470908000048],[100.11402458500004,18.808551408000028],[100.10466742900007,18.690095178000036],[100.10595463100003,18.617836650000072],[100.26545393600009,18.57809455900002],[100.37770342900006,18.585951114000068],[100.39258899400005,18.638393515000075],[100.35157959900005,18.68055431700003],[100.39136919900005,18.739382987000056],[100.35828115200007,18.750559081000063],[100.34038381300007,18.80595545500006],[100.26866545100006,18.819966100000045]]]}},{"type":"Feature","properties":{"code":"540503","name":"ไทรย้อย","parentCode":"5405"},"geometry":{"type":"Polygon","coordinates":[[[100.01832875600007,17.990241060000074],[99.96178684100005,18.013349186000028],[99.87680672400006,17.925381531000028],[99.87677208500008,17.895599540000035],[99.93614492100005,17.854186190000064],[99.89449126700003,17.807192434000058],[99.95962152600003,17.778376240000057],[99.99079273100006,17.811911271000042],[99.98861023100005,17.835040109000033],[99.98945101800007,17.899854137000034],[100.03641411000007,17.942338952000057],[100.01832875600007,17.990241060000074]]]}},{"type":"Feature","properties":{"code":"540702","name":"สรอย","parentCode":"5407"},"geometry":{"type":"Polygon","coordinates":[[[99.49743184100004,17.771989141000063],[99.41512409700005,17.835690804000023],[99.36757282600007,17.773487857000077],[99.38720594500006,17.687556630000074],[99.47105082100006,17.73786806100003],[99.49743184100004,17.771989141000063]]]}},{"type":"Feature","properties":{"code":"540410","name":"สบสาย","parentCode":"5404"},"geometry":{"type":"Polygon","coordinates":[[[100.07447283700009,18.098248515000023],[100.01214020800006,18.11949388100004],[99.98864534100005,18.09583044900006],[100.04085140100005,18.097438148000037],[100.07940574900005,18.07100364000007],[100.12097051700005,18.072335027000065],[100.12380697400005,18.08006950400005],[100.07447283700009,18.098248515000023]]]}},{"type":"Feature","properties":{"code":"540112","name":"สวนเขื่อน","parentCode":"5401"},"geometry":{"type":"Polygon","coordinates":[[[100.41437905900005,18.153567800000076],[100.34173141600007,18.168682267000065],[100.33280925400004,18.160217369000065],[100.31497009600008,18.145449017000033],[100.19866654600008,18.132789039000045],[100.20638160700008,18.10776991800003],[100.33810345400008,18.11392845100005],[100.35707685000006,18.144336577000047],[100.39755596500004,18.136084654000058],[100.41437905900005,18.153567800000076]]]}},{"type":"Feature","properties":{"code":"540401","name":"สูงเม่น","parentCode":"5404"},"geometry":{"type":"Polygon","coordinates":[[[100.11606766900007,18.057726914000057],[100.07903212000008,18.06543871100007],[100.07257533600006,18.048958603000074],[100.11110959500007,18.038554607000037],[100.12498395400007,18.05166411600004],[100.11606766900007,18.057726914000057]]]}},{"type":"Feature","properties":{"code":"540303","name":"ต้าผามอก","parentCode":"5403"},"geometry":{"type":"Polygon","coordinates":[[[100.06355978500005,18.18977990700006],[100.01638480900004,18.193376228000034],[99.90757093500008,18.238740953000047],[99.90218495400006,18.269343089000074],[99.87307925200008,18.170672925000076],[99.91752434000006,18.104112776000022],[99.97355695600004,18.05223343600005],[99.98864534100005,18.09583044900006],[100.01214020800006,18.11949388100004],[100.03660663600004,18.147542134000048],[100.06355978500005,18.18977990700006]]]}},{"type":"Feature","properties":{"code":"540805","name":"ตำหนักธรรม","parentCode":"5408"},"geometry":{"type":"Polygon","coordinates":[[[100.26746619600004,18.284109600000022],[100.24349263200008,18.289479150000034],[100.22795023500004,18.26819616100005],[100.24869888600006,18.263745120000067],[100.27503052700007,18.259370747000048],[100.27801945900006,18.259642194000037],[100.26746619600004,18.284109600000022]]]}},{"type":"Feature","properties":{"code":"540604","name":"เตาปูน","parentCode":"5406"},"geometry":{"type":"Polygon","coordinates":[[[100.37770342900006,18.585951114000068],[100.26545393600009,18.57809455900002],[100.10595463100003,18.617836650000072],[100.10804098800008,18.562627150000026],[100.16189290000005,18.508369177000077],[100.31336907300005,18.465148627000076],[100.39268491700005,18.419296804000055],[100.42310194500004,18.459046732000047],[100.39931541800007,18.48575016800004],[100.37770342900006,18.585951114000068]]]}},{"type":"Feature","properties":{"code":"540116","name":"ท่าข้าม","parentCode":"5401"},"geometry":{"type":"Polygon","coordinates":[[[100.08506844400006,18.253099818000067],[100.07220446700006,18.24641185400003],[100.14296094600007,18.19659844000006],[100.17894386000006,18.217795075000026],[100.08506844400006,18.253099818000067]]]}},{"type":"Feature","properties":{"code":"540105","name":"ทุ่งโฮ้ง","parentCode":"5401"},"geometry":{"type":"Polygon","coordinates":[[[100.18613251900007,18.201669990000028],[100.15311800700005,18.172963477000053],[100.17628358900004,18.159794696000063],[100.20007903500004,18.17737736400005],[100.20609359700006,18.19462696900007],[100.18613251900007,18.201669990000028]]]}},{"type":"Feature","properties":{"code":"540806","name":"ทุ่งแค้ว","parentCode":"5408"},"geometry":{"type":"Polygon","coordinates":[[[100.15635260300007,18.345177722000074],[100.07517575400004,18.348789302000057],[100.08580316200005,18.296327854000026],[100.16077811500008,18.297401575000038],[100.15635260300007,18.345177722000074]]]}},{"type":"Feature","properties":{"code":"540115","name":"ทุ่งกวาว","parentCode":"5401"},"geometry":{"type":"Polygon","coordinates":[[[100.15311800700005,18.172963477000053],[100.14437160900007,18.173886130000028],[100.14164510300009,18.165557083000067],[100.13895728200004,18.14993193400005],[100.15751492000004,18.14697351800004],[100.17488297800008,18.15519923000005],[100.17628358900004,18.159794696000063],[100.15311800700005,18.172963477000053]]]}},{"type":"Feature","properties":{"code":"540307","name":"ทุ่งแล้ง","parentCode":"5403"},"geometry":{"type":"Polygon","coordinates":[[[99.77479006800007,18.017693489000067],[99.74808470200009,18.022349380000037],[99.73593840000007,17.974752934000037],[99.67560627100005,17.959354764000068],[99.65776662700006,17.946014868000077],[99.63217620500006,17.927264947000026],[99.67464473900009,17.904588260000025],[99.80470704000004,17.927068569000028],[99.79331788800005,17.974838013000067],[99.82309498900008,18.011555542000053],[99.77479006800007,18.017693489000067]]]}},{"type":"Feature","properties":{"code":"540608","name":"ทุ่งน้าว","parentCode":"5406"},"geometry":{"type":"Polygon","coordinates":[[[100.24624629400006,18.422013185000026],[100.17423390400006,18.411629469000047],[100.15774671000008,18.39087827800006],[100.21248881500009,18.38025247300004],[100.24027601100005,18.412761567000075],[100.24624629400006,18.422013185000026]]]}},{"type":"Feature","properties":{"code":"540207","name":"ทุ่งศรี","parentCode":"5402"},"geometry":{"type":"Polygon","coordinates":[[[100.39143577900006,18.29615582400004],[100.40817766700007,18.33666105700007],[100.37558846500008,18.338575798000022],[100.30263915400008,18.332014582000056],[100.29546223200003,18.322331727000062],[100.39143577900006,18.29615582400004]]]}},{"type":"Feature","properties":{"code":"540701","name":"วังชิ้น","parentCode":"5407"},"geometry":{"type":"Polygon","coordinates":[[[99.63217620500006,17.927264947000026],[99.57380819500008,17.915149864000057],[99.62239020600003,17.813050788000055],[99.68633512400004,17.777274602000034],[99.71925360600005,17.815634076000038],[99.66377989200004,17.88538266300003],[99.67464473900009,17.904588260000025],[99.63217620500006,17.927264947000026]]]}},{"type":"Feature","properties":{"code":"540113","name":"วังหงส์","parentCode":"5401"},"geometry":{"type":"Polygon","coordinates":[[[100.17827240400004,18.245496338000066],[100.09004246900008,18.276669191000053],[100.08506844400006,18.253099818000067],[100.17894386000006,18.217795075000026],[100.18922819900007,18.230555198000047],[100.18862837800003,18.232785788000058],[100.17827240400004,18.245496338000066]]]}},{"type":"Feature","properties":{"code":"540804","name":"วังหลวง","parentCode":"5408"},"geometry":{"type":"Polygon","coordinates":[[[100.16077811500008,18.297401575000038],[100.08580316200005,18.296327854000026],[100.09076360400007,18.284944119000045],[100.18612834200007,18.28432009000005],[100.18430542900006,18.299425893000034],[100.16077811500008,18.297401575000038]]]}},{"type":"Feature","properties":{"code":"540107","name":"วังธง","parentCode":"5401"},"geometry":{"type":"Polygon","coordinates":[[[100.14296094600007,18.19659844000006],[100.07220446700006,18.24641185400003],[100.06265946500008,18.20654856300007],[100.14164510300009,18.165557083000067],[100.14437160900007,18.173886130000028],[100.14296094600007,18.19659844000006]]]}},{"type":"Feature","properties":{"code":"540304","name":"เวียงต้า","parentCode":"5403"},"geometry":{"type":"Polygon","coordinates":[[[100.07517575400004,18.348789302000057],[99.99920720100005,18.402593799000044],[99.96041342600006,18.383792904000074],[99.92699109300008,18.313382104000027],[99.90633916500008,18.279887871000028],[99.90218495400006,18.269343089000074],[99.90757093500008,18.238740953000047],[100.01638480900004,18.193376228000034],[100.06355978500005,18.18977990700006],[100.06265946500008,18.20654856300007],[100.07220446700006,18.24641185400003],[100.08506844400006,18.253099818000067],[100.09004246900008,18.276669191000053],[100.09076360400007,18.284944119000045],[100.08580316200005,18.296327854000026],[100.07517575400004,18.348789302000057]]]}},{"type":"Feature","properties":{"code":"540411","name":"เวียงทอง","parentCode":"5404"},"geometry":{"type":"Polygon","coordinates":[[[100.13873915500005,18.115507338000043],[100.08257883200008,18.11819414000007],[100.03660663600004,18.147542134000048],[100.01214020800006,18.11949388100004],[100.07447283700009,18.098248515000023],[100.14873110800005,18.110944010000026],[100.13873915500005,18.115507338000043]]]}}]}