{"type":"FeatureCollection","features":[{"type":"Feature","properties":{"code":"550711","name":"อ่ายนาไลย","parentCode":"5507"},"geometry":{"type":"Polygon","coordinates":[[[100.70712431700008,18.56096195400005],[100.60701446500008,18.540926721000062],[100.59543014400003,18.581941409000024],[100.58970047900004,18.572109342000033],[100.56580488600008,18.53262495000007],[100.50454128900009,18.539078735000032],[100.47664133800004,18.49479917900004],[100.49392928900005,18.474061152000047],[100.54186485200006,18.48922513900004],[100.55039903000005,18.419308399000045],[100.58415769500004,18.444334776000062],[100.58585878200006,18.49738599400007],[100.66280862800005,18.535077431000047],[100.69555730400003,18.461902778000024],[100.73914332900006,18.54100717700004],[100.70712431700008,18.56096195400005]]]}},{"type":"Feature","properties":{"code":"550301","name":"บ้านฟ้า","parentCode":"5503"},"geometry":{"type":"Polygon","coordinates":[[[100.50698302900008,18.820202082000037],[100.45640187000004,18.828174365000052],[100.34506025700006,18.813917408000066],[100.34038381300007,18.80595545500006],[100.35828115200007,18.750559081000063],[100.39136919900005,18.739382987000056],[100.49316908800006,18.735605960000044],[100.50668173000008,18.787298237000073],[100.50698302900008,18.820202082000037]]]}},{"type":"Feature","properties":{"code":"550304","name":"บ้านพี้","parentCode":"5503"},"geometry":{"type":"Polygon","coordinates":[[[100.52948062700005,18.874067896000042],[100.53567827100005,18.954981893000024],[100.50092321300008,18.98614251500004],[100.45140574800007,18.93521329400005],[100.41034208500008,18.945188977000043],[100.38643905300006,18.89115832400006],[100.46291227800003,18.859484973000065],[100.52948062700005,18.874067896000042]]]}},{"type":"Feature","properties":{"code":"550102","name":"บ่อ","parentCode":"5501"},"geometry":{"type":"Polygon","coordinates":[[[100.65608975800006,19.058631096000056],[100.61454127300004,19.041908767000052],[100.60547738100007,19.02033462000003],[100.72655164400004,18.903035427000077],[100.78496677600003,18.89124098600007],[100.81160439600006,18.92693775300006],[100.83111047400007,18.993987391000076],[100.72743030900006,19.027143829000067],[100.65608975800006,19.058631096000056]]]}},{"type":"Feature","properties":{"code":"551002","name":"บ่อแก้ว","parentCode":"5510"},"geometry":{"type":"Polygon","coordinates":[[[100.79112829400003,18.166429683000047],[100.69148888000007,18.19355016800006],[100.65878958900004,18.242232098000045],[100.60154810900008,18.236644779000073],[100.55388693100008,18.235028080000063],[100.56301334300008,18.221548572000074],[100.60552339400004,18.18825176300004],[100.66916208200007,18.19020740800005],[100.68941735100003,18.154911124000023],[100.76586608400004,18.143515216000026],[100.79112829400003,18.166429683000047]]]}},{"type":"Feature","properties":{"code":"551201","name":"บ่อเกลือเหนือ","parentCode":"5512"},"geometry":{"type":"Polygon","coordinates":[[[101.20426124800008,19.354119437000065],[101.11313837600005,19.346462874000053],[101.12871137000008,19.27334046200008],[101.19722745000007,19.247170863000065],[101.24119092200004,19.273627383000075],[101.24189989200005,19.32566312700004],[101.20426124800008,19.354119437000065]]]}},{"type":"Feature","properties":{"code":"551202","name":"บ่อเกลือใต้","parentCode":"5512"},"geometry":{"type":"Polygon","coordinates":[[[101.25389536100005,19.160408784000026],[101.12929329700006,19.208817203000024],[101.07144648400003,19.12835306900007],[101.07595598600005,19.084154700000056],[101.06323091400009,18.989647314000024],[101.09127986700008,18.961326324000026],[101.11172642600008,18.960625641000036],[101.12785184600006,19.04506643700006],[101.16012850500005,19.06615405900004],[101.19845559100008,19.02253570700003],[101.24086789100005,19.042922544000078],[101.30614710400005,18.99036447700007],[101.35814707700007,19.050901318000058],[101.25674840300007,19.124650338000038],[101.25389536100005,19.160408784000026]]]}},{"type":"Feature","properties":{"code":"550116","name":"บ่อสวก","parentCode":"5501"},"geometry":{"type":"Polygon","coordinates":[[[100.70308837700009,18.761878293000052],[100.66491065900004,18.75290344000007],[100.60802635300007,18.777472327000055],[100.59684022400006,18.721837768000057],[100.65988733300009,18.701951491000045],[100.70916787100003,18.738894182000024],[100.71597855200008,18.745253409000043],[100.70308837700009,18.761878293000052]]]}},{"type":"Feature","properties":{"code":"550406","name":"บัวใหญ่","parentCode":"5504"},"geometry":{"type":"Polygon","coordinates":[[[100.53639626300009,18.390819945000032],[100.48145602300008,18.349405500000046],[100.49254546100008,18.33878593000003],[100.57264097100006,18.311168913000074],[100.64541048300003,18.31357345400005],[100.65112685400004,18.348296122000022],[100.60429022900007,18.38484330500006],[100.53639626300009,18.390819945000032]]]}},{"type":"Feature","properties":{"code":"550104","name":"ไชยสถาน","parentCode":"5501"},"geometry":{"type":"Polygon","coordinates":[[[100.76372338400006,18.776955720000046],[100.72711452000004,18.81281800200003],[100.69791248200005,18.778037335000022],[100.70308837700009,18.761878293000052],[100.71597855200008,18.745253409000043],[100.76247598900005,18.775157206000074],[100.76372338400006,18.776955720000046]]]}},{"type":"Feature","properties":{"code":"550509","name":"ไชยวัฒนา","parentCode":"5505"},"geometry":{"type":"Polygon","coordinates":[[[100.87258672800004,19.18609152600004],[100.87760812300007,19.181009680000045],[100.91837375800009,19.199100827000052],[100.91379658100004,19.256847164000078],[100.88802195100004,19.245600438000054],[100.87518026500004,19.235694844000022],[100.87258672800004,19.18609152600004]]]}},{"type":"Feature","properties":{"code":"550510","name":"เจดีย์ชัย","parentCode":"5505"},"geometry":{"type":"Polygon","coordinates":[[[100.87760812300007,19.181009680000045],[100.87258672800004,19.18609152600004],[100.80827778700007,19.159843615000057],[100.86259264600005,19.146507147000023],[100.87554499900006,19.145867526000075],[100.87760812300007,19.181009680000045]]]}},{"type":"Feature","properties":{"code":"550903","name":"เชียงคาน","parentCode":"5509"},"geometry":{"type":"Polygon","coordinates":[[[100.85471395500008,19.273879627000042],[100.81249818500004,19.22344606200005],[100.87518026500004,19.235694844000022],[100.88802195100004,19.245600438000054],[100.85471395500008,19.273879627000042]]]}},{"type":"Feature","properties":{"code":"550402","name":"เชียงของ","parentCode":"5504"},"geometry":{"type":"Polygon","coordinates":[[[101.05583762600008,18.35586790600007],[100.96821244400007,18.340830591000042],[100.88393515000007,18.307170563000057],[100.83016168000006,18.342929808000065],[100.82006805900005,18.31834828700005],[100.73062938300006,18.328455921000057],[100.71382326400004,18.290872927000066],[100.75307334400009,18.254124482000066],[100.78656003700007,18.26009496200004],[100.84257916400009,18.22658189300006],[100.91227841600005,18.227457107000077],[100.97918807600007,18.305392294000058],[101.05583762600008,18.35586790600007]]]}},{"type":"Feature","properties":{"code":"550901","name":"เชียงกลาง","parentCode":"5509"},"geometry":{"type":"Polygon","coordinates":[[[101.01017099800004,19.338149568000063],[100.97844045900007,19.355187944000022],[100.95511264800007,19.329521079000074],[100.87788738600005,19.310966531000076],[100.85698931700006,19.287194775000046],[100.85512174600007,19.278181662000065],[100.99866807900008,19.293880089000027],[101.01005509100008,19.31967346700003],[101.01017099800004,19.338149568000063]]]}},{"type":"Feature","properties":{"code":"550715","name":"จอมจันทร์","parentCode":"5507"},"geometry":{"type":"Polygon","coordinates":[[[100.92136211900004,18.66082739500007],[100.81206850300003,18.66731078400005],[100.80051056300005,18.608522951000054],[100.92703689100006,18.624331093000023],[100.92136211900004,18.66082739500007]]]}},{"type":"Feature","properties":{"code":"550607","name":"จอมพระ","parentCode":"5506"},"geometry":{"type":"Polygon","coordinates":[[[100.87554499900006,19.145867526000075],[100.86259264600005,19.146507147000023],[100.81992705100004,19.090459813000052],[100.82546574200006,19.064004802000056],[100.82496546500005,19.050768662000053],[100.87497106200004,19.058935715000075],[100.90896149900004,19.03897389800005],[100.89826684100007,19.114365362000058],[100.88112155500005,19.141047013000048],[100.87554499900006,19.145867526000075]]]}},{"type":"Feature","properties":{"code":"551302","name":"ชนแดน","parentCode":"5513"},"geometry":{"type":"Polygon","coordinates":[[[100.76806873400005,19.488682397000048],[100.75968372000006,19.509247626000047],[100.65140019400008,19.557156666000026],[100.61279466000008,19.550738816000035],[100.59862199300005,19.510074245000055],[100.60251594100004,19.47921375100003],[100.64058011900005,19.394280408000043],[100.78395994300007,19.377895684000066],[100.75130316100007,19.44430170100003],[100.76806873400005,19.488682397000048]]]}},{"type":"Feature","properties":{"code":"551205","name":"ดงพญา","parentCode":"5512"},"geometry":{"type":"Polygon","coordinates":[[[101.24119092200004,19.273627383000075],[101.19722745000007,19.247170863000065],[101.12871137000008,19.27334046200008],[101.12929329700006,19.208817203000024],[101.25389536100005,19.160408784000026],[101.25970665700004,19.229734647000043],[101.24119092200004,19.273627383000075]]]}},{"type":"Feature","properties":{"code":"551101","name":"ดู่พงษ์","parentCode":"5511"},"geometry":{"type":"Polygon","coordinates":[[[100.93863090500008,18.926261242000066],[100.85492654200004,18.913287285000024],[100.87913523200007,18.856563549000043],[100.92601251500008,18.85746842100008],[100.93863090500008,18.926261242000066]]]}},{"type":"Feature","properties":{"code":"550108","name":"ดู่ใต้","parentCode":"5501"},"geometry":{"type":"Polygon","coordinates":[[[100.76247598900005,18.775157206000074],[100.71597855200008,18.745253409000043],[100.70916787100003,18.738894182000024],[100.70600579700005,18.703206487000045],[100.76127942000005,18.71423816500004],[100.76552220000008,18.718419114000028],[100.76914969100005,18.748952650000035],[100.76582351200005,18.764900445000023],[100.76247598900005,18.775157206000074]]]}},{"type":"Feature","properties":{"code":"551407","name":"ฝายแก้ว","parentCode":"5514"},"geometry":{"type":"Polygon","coordinates":[[[100.98378727900007,18.847924473000035],[100.92601251500008,18.85746842100008],[100.87913523200007,18.856563549000043],[100.86160943200008,18.833235552000076],[100.78598303300004,18.830215199000065],[100.78611997200005,18.805665831000056],[100.77266035200006,18.767053521000037],[100.86426328800007,18.75655690600007],[100.95548724400004,18.748775383000066],[100.97431323200004,18.788864142000023],[100.98378727900007,18.847924473000035]]]}},{"type":"Feature","properties":{"code":"551501","name":"ห้วยโก๋น","parentCode":"5515"},"geometry":{"type":"Polygon","coordinates":[[[101.14384055800008,19.578135141000075],[101.09203865800004,19.58682918100004],[101.06213063800004,19.619550625000045],[100.97478536600005,19.61974796100003],[100.96284668400006,19.575086438000028],[101.00552532500006,19.55250621600004],[101.00351280100006,19.50180539100006],[101.07847473000004,19.469899739000027],[101.07845813000006,19.513398833000053],[101.14384055800008,19.578135141000075]]]}},{"type":"Feature","properties":{"code":"550702","name":"ขึ่ง","parentCode":"5507"},"geometry":{"type":"Polygon","coordinates":[[[100.88937653300007,18.562775170000066],[100.85135244900005,18.588731619000043],[100.82868316100007,18.557961015000046],[100.76586913400007,18.561605135000036],[100.76151206700007,18.55024278700006],[100.82111341600006,18.479438190000053],[100.85436990300008,18.53199608400007],[100.90402635500004,18.53912432100003],[100.88937653300007,18.562775170000066]]]}},{"type":"Feature","properties":{"code":"551502","name":"ขุนน่าน","parentCode":"5515"},"geometry":{"type":"Polygon","coordinates":[[[101.20426124800008,19.354119437000065],[101.19089206900009,19.377284990000078],[101.21539732600007,19.431688974000053],[101.21045645000004,19.47239374800006],[101.26448479400005,19.46955067400006],[101.28532930300008,19.52696760200007],[101.28114519300004,19.581887231000053],[101.20585390600007,19.605449054000076],[101.19696760600004,19.576958388000037],[101.14384055800008,19.578135141000075],[101.07845813000006,19.513398833000053],[101.07847473000004,19.469899739000027],[101.09332296300005,19.432625247000033],[101.08170938000006,19.381914625000036],[101.11313837600005,19.346462874000053],[101.20426124800008,19.354119437000065]]]}},{"type":"Feature","properties":{"code":"550701","name":"กลางเวียง","parentCode":"5507"},"geometry":{"type":"Polygon","coordinates":[[[100.76096029800004,18.602985636000028],[100.73065012400008,18.614357104000078],[100.72090395300006,18.575872498000024],[100.70712431700008,18.56096195400005],[100.73914332900006,18.54100717700004],[100.76151206700007,18.55024278700006],[100.76586913400007,18.561605135000036],[100.76096029800004,18.602985636000028]]]}},{"type":"Feature","properties":{"code":"550109","name":"กองควาย","parentCode":"5501"},"geometry":{"type":"Polygon","coordinates":[[[100.76127942000005,18.71423816500004],[100.70600579700005,18.703206487000045],[100.70598338900004,18.701698648000047],[100.72314102500007,18.678681408000045],[100.77199161900006,18.674423767000064],[100.79353924400004,18.675413657000036],[100.76127942000005,18.71423816500004]]]}},{"type":"Feature","properties":{"code":"550803","name":"และ","parentCode":"5508"},"geometry":{"type":"Polygon","coordinates":[[[101.01701456700005,19.403299120000042],[100.99069613300009,19.44287245000004],[100.87039530800007,19.450017295000066],[100.76806873400005,19.488682397000048],[100.75130316100007,19.44430170100003],[100.89358188300008,19.399252008000076],[100.96354939300005,19.419330425000055],[101.01701456700005,19.403299120000042]]]}},{"type":"Feature","properties":{"code":"550703","name":"ไหล่น่าน","parentCode":"5507"},"geometry":{"type":"Polygon","coordinates":[[[100.98515349900003,18.60164841200003],[100.92703689100006,18.624331093000023],[100.80051056300005,18.608522951000054],[100.76570638200008,18.611596268000028],[100.76096029800004,18.602985636000028],[100.76586913400007,18.561605135000036],[100.82868316100007,18.557961015000046],[100.85135244900005,18.588731619000043],[100.88937653300007,18.562775170000066],[100.92439071800004,18.559473939000043],[100.98630798000005,18.591737082000066],[100.98515349900003,18.60164841200003]]]}},{"type":"Feature","properties":{"code":"550206","name":"แม่จริม","parentCode":"5502"},"geometry":{"type":"Polygon","coordinates":[[[101.24898451100006,18.895971123000038],[101.17377956800004,18.900902925000025],[101.10820984700007,18.851080085000035],[101.06132380100007,18.871368800000027],[100.98378727900007,18.847924473000035],[100.97431323200004,18.788864142000023],[101.03313832700007,18.746681917000046],[101.09950426700004,18.79525684600003],[101.18411246300008,18.80626507100004],[101.24536851700009,18.834137154000075],[101.24898451100006,18.895971123000038]]]}},{"type":"Feature","properties":{"code":"550713","name":"แม่ขะนิง","parentCode":"5507"},"geometry":{"type":"Polygon","coordinates":[[[100.60802635300007,18.777472327000055],[100.55212785900005,18.76361590600004],[100.50134207100007,18.72728684300006],[100.52299190600007,18.630908100000056],[100.55786610700005,18.571594896000022],[100.57981867800004,18.584707871000035],[100.59730018000005,18.635258373000056],[100.58977613600007,18.702869941000074],[100.59684022400006,18.721837768000057],[100.60802635300007,18.777472327000055]]]}},{"type":"Feature","properties":{"code":"550716","name":"แม่สา","parentCode":"5507"},"geometry":{"type":"Polygon","coordinates":[[[100.72090395300006,18.575872498000024],[100.59543014400003,18.581941409000024],[100.60701446500008,18.540926721000062],[100.70712431700008,18.56096195400005],[100.72090395300006,18.575872498000024]]]}},{"type":"Feature","properties":{"code":"550714","name":"แม่สาคร","parentCode":"5507"},"geometry":{"type":"Polygon","coordinates":[[[100.69555730400003,18.461902778000024],[100.66280862800005,18.535077431000047],[100.58585878200006,18.49738599400007],[100.58415769500004,18.444334776000062],[100.63875356900007,18.419325471000036],[100.66700913300008,18.433113294000066],[100.68961421100005,18.437702196000032],[100.69555730400003,18.461902778000024]]]}},{"type":"Feature","properties":{"code":"550203","name":"หมอเมือง","parentCode":"5502"},"geometry":{"type":"Polygon","coordinates":[[[101.06597110900003,18.70108047800005],[100.95420166600007,18.716356790000077],[100.94371327300007,18.706104698000047],[100.99973386900007,18.635495436000042],[101.01440223900005,18.67850715800006],[101.04923951500007,18.665966340000068],[101.06597110900003,18.70108047800005]]]}},{"type":"Feature","properties":{"code":"551401","name":"ม่วงตึ๊ด","parentCode":"5514"},"geometry":{"type":"Polygon","coordinates":[[[100.86426328800007,18.75655690600007],[100.77266035200006,18.767053521000037],[100.76582351200005,18.764900445000023],[100.76914969100005,18.748952650000035],[100.80453333300005,18.744666822000056],[100.86426328800007,18.75655690600007]]]}},{"type":"Feature","properties":{"code":"551405","name":"เมืองจัง","parentCode":"5514"},"geometry":{"type":"Polygon","coordinates":[[[100.85492654200004,18.913287285000024],[100.81160439600006,18.92693775300006],[100.78496677600003,18.89124098600007],[100.78598303300004,18.830215199000065],[100.86160943200008,18.833235552000076],[100.87913523200007,18.856563549000043],[100.85492654200004,18.913287285000024]]]}},{"type":"Feature","properties":{"code":"551003","name":"เมืองลี","parentCode":"5510"},"geometry":{"type":"Polygon","coordinates":[[[100.55388693100008,18.235028080000063],[100.47647280900009,18.260218833000067],[100.45269916700005,18.180831058000024],[100.54151131200007,18.188512589000027],[100.56301334300008,18.221548572000074],[100.55388693100008,18.235028080000063]]]}},{"type":"Feature","properties":{"code":"550705","name":"นาเหลือง","parentCode":"5507"},"geometry":{"type":"Polygon","coordinates":[[[100.91863336500006,18.668264916000055],[100.81666772700004,18.68242848700004],[100.79353924400004,18.675413657000036],[100.77199161900006,18.674423767000064],[100.75994818500004,18.649340650000056],[100.81206850300003,18.66731078400005],[100.92136211900004,18.66082739500007],[100.91863336500006,18.668264916000055]]]}},{"type":"Feature","properties":{"code":"550401","name":"นาน้อย","parentCode":"5504"},"geometry":{"type":"Polygon","coordinates":[[[100.69247012700004,18.350076346000037],[100.65112685400004,18.348296122000022],[100.64541048300003,18.31357345400005],[100.64822454000006,18.28277339500005],[100.71382326400004,18.290872927000066],[100.73062938300006,18.328455921000057],[100.69247012700004,18.350076346000037]]]}},{"type":"Feature","properties":{"code":"551402","name":"นาปัง","parentCode":"5514"},"geometry":{"type":"Polygon","coordinates":[[[100.80679220500008,18.71675312700006],[100.76552220000008,18.718419114000028],[100.76127942000005,18.71423816500004],[100.79353924400004,18.675413657000036],[100.81666772700004,18.68242848700004],[100.80679220500008,18.71675312700006]]]}},{"type":"Feature","properties":{"code":"551301","name":"นาไร่หลวง","parentCode":"5513"},"geometry":{"type":"Polygon","coordinates":[[[100.78395994300007,19.377895684000066],[100.64058011900005,19.394280408000043],[100.64681160300006,19.362111541000047],[100.60921704300006,19.33412970100005],[100.61240346200003,19.312504578000073],[100.73125205700006,19.268639239000038],[100.77770708800006,19.27405022100004],[100.77814805600008,19.274311614000055],[100.79847167900004,19.322330202000046],[100.78395994300007,19.377895684000066]]]}},{"type":"Feature","properties":{"code":"550107","name":"นาซาว","parentCode":"5501"},"geometry":{"type":"Polygon","coordinates":[[[100.70916787100003,18.738894182000024],[100.65988733300009,18.701951491000045],[100.59684022400006,18.721837768000057],[100.58977613600007,18.702869941000074],[100.69267821000005,18.68731056000007],[100.70598338900004,18.701698648000047],[100.70600579700005,18.703206487000045],[100.70916787100003,18.738894182000024]]]}},{"type":"Feature","properties":{"code":"551001","name":"นาทะนุง","parentCode":"5510"},"geometry":{"type":"Polygon","coordinates":[[[100.79112829400003,18.166429683000047],[100.76586608400004,18.143515216000026],[100.68941735100003,18.154911124000023],[100.66916208200007,18.19020740800005],[100.60552339400004,18.18825176300004],[100.56301334300008,18.221548572000074],[100.57876737600009,18.12299215200005],[100.60403340200008,18.046937056000047],[100.68869207000006,18.02675961500006],[100.77439900700006,18.029251857000077],[100.81975867700004,18.08312134600004],[100.85002196400006,18.08283773200003],[100.87456819300007,18.118988156000057],[100.79112829400003,18.166429683000047]]]}},{"type":"Feature","properties":{"code":"550101","name":"ในเวียง","parentCode":"5501"},"geometry":{"type":"Polygon","coordinates":[[[100.77266035200006,18.767053521000037],[100.78611997200005,18.805665831000056],[100.76372338400006,18.776955720000046],[100.76247598900005,18.775157206000074],[100.76582351200005,18.764900445000023],[100.77266035200006,18.767053521000037]]]}},{"type":"Feature","properties":{"code":"551403","name":"น้ำแก่น","parentCode":"5514"},"geometry":{"type":"Polygon","coordinates":[[[100.94915470700005,18.72610133300003],[100.94671045900009,18.71321857600003],[100.82131533700004,18.727001391000044],[100.80679220500008,18.71675312700006],[100.81666772700004,18.68242848700004],[100.91863336500006,18.668264916000055],[100.94371327300007,18.706104698000047],[100.95420166600007,18.716356790000077],[100.94915470700005,18.72610133300003]]]}},{"type":"Feature","properties":{"code":"551404","name":"น้ำเกี๋ยน","parentCode":"5514"},"geometry":{"type":"Polygon","coordinates":[[[100.95548724400004,18.748775383000066],[100.86426328800007,18.75655690600007],[100.80453333300005,18.744666822000056],[100.82131533700004,18.727001391000044],[100.94671045900009,18.71321857600003],[100.94915470700005,18.72610133300003],[100.95548724400004,18.748775383000066]]]}},{"type":"Feature","properties":{"code":"550707","name":"น้ำมวบ","parentCode":"5507"},"geometry":{"type":"Polygon","coordinates":[[[100.90402635500004,18.53912432100003],[100.85436990300008,18.53199608400007],[100.82111341600006,18.479438190000053],[100.84582200100004,18.429808725000044],[100.84736811500005,18.394499819000032],[100.88899608100007,18.33659278300007],[100.96560694000004,18.377525641000034],[101.01748485600007,18.38004702300003],[101.05490838400004,18.423824412000045],[101.09136811900004,18.496768630000076],[100.94752057000005,18.48751218700005],[100.90402635500004,18.53912432100003]]]}},{"type":"Feature","properties":{"code":"550205","name":"น้ำปาย","parentCode":"5502"},"geometry":{"type":"Polygon","coordinates":[[[100.99973386900007,18.635495436000042],[100.94371327300007,18.706104698000047],[100.91863336500006,18.668264916000055],[100.92136211900004,18.66082739500007],[100.92703689100006,18.624331093000023],[100.98515349900003,18.60164841200003],[100.99973386900007,18.635495436000042]]]}},{"type":"Feature","properties":{"code":"550204","name":"น้ำพาง","parentCode":"5502"},"geometry":{"type":"Polygon","coordinates":[[[101.10398211500006,18.52140563300003],[101.18337708100006,18.560946487000024],[101.18206084100007,18.611525477000043],[101.22670696800009,18.624569407000024],[101.27097008400006,18.69342787900007],[101.23450697800007,18.712123899000062],[101.25842533500008,18.808503518000066],[101.24536851700009,18.834137154000075],[101.18411246300008,18.80626507100004],[101.18525845700003,18.741860768000038],[101.06597110900003,18.70108047800005],[101.04923951500007,18.665966340000068],[101.01440223900005,18.67850715800006],[100.99973386900007,18.635495436000042],[100.98515349900003,18.60164841200003],[100.98630798000005,18.591737082000066],[101.10398211500006,18.52140563300003]]]}},{"type":"Feature","properties":{"code":"550708","name":"น้ำปั้ว","parentCode":"5507"},"geometry":{"type":"Polygon","coordinates":[[[100.77199161900006,18.674423767000064],[100.72314102500007,18.678681408000045],[100.72416905900008,18.651100602000042],[100.66138480400008,18.620336430000066],[100.73065012400008,18.614357104000078],[100.76096029800004,18.602985636000028],[100.76570638200008,18.611596268000028],[100.75994818500004,18.649340650000056],[100.77199161900006,18.674423767000064]]]}},{"type":"Feature","properties":{"code":"550407","name":"น้ำตก","parentCode":"5504"},"geometry":{"type":"Polygon","coordinates":[[[100.58415769500004,18.444334776000062],[100.55039903000005,18.419308399000045],[100.53639626300009,18.390819945000032],[100.60429022900007,18.38484330500006],[100.65112685400004,18.348296122000022],[100.69247012700004,18.350076346000037],[100.71132442000004,18.384247506000065],[100.66700913300008,18.433113294000066],[100.63875356900007,18.419325471000036],[100.58415769500004,18.444334776000062]]]}},{"type":"Feature","properties":{"code":"550502","name":"แงง","parentCode":"5505"},"geometry":{"type":"Polygon","coordinates":[[[100.87518026500004,19.235694844000022],[100.81249818500004,19.22344606200005],[100.79193162600006,19.234242863000077],[100.80827778700007,19.159843615000057],[100.87258672800004,19.18609152600004],[100.87518026500004,19.235694844000022]]]}},{"type":"Feature","properties":{"code":"550802","name":"งอบ","parentCode":"5508"},"geometry":{"type":"Polygon","coordinates":[[[100.85326702500004,19.56991659600004],[100.76806873400005,19.488682397000048],[100.87039530800007,19.450017295000066],[100.99069613300009,19.44287245000004],[101.01701456700005,19.403299120000042],[101.09332296300005,19.432625247000033],[101.07847473000004,19.469899739000027],[101.00351280100006,19.50180539100006],[100.90901985300007,19.502078857000072],[100.85326702500004,19.56991659600004]]]}},{"type":"Feature","properties":{"code":"550202","name":"หนองแดง","parentCode":"5502"},"geometry":{"type":"Polygon","coordinates":[[[101.06597110900003,18.70108047800005],[101.18525845700003,18.741860768000038],[101.18411246300008,18.80626507100004],[101.09950426700004,18.79525684600003],[101.03313832700007,18.746681917000046],[100.97431323200004,18.788864142000023],[100.95548724400004,18.748775383000066],[100.94915470700005,18.72610133300003],[100.95420166600007,18.716356790000077],[101.06597110900003,18.70108047800005]]]}},{"type":"Feature","properties":{"code":"550602","name":"ป่าคา","parentCode":"5506"},"geometry":{"type":"Polygon","coordinates":[[[100.78702985900009,19.09426634500005],[100.67771405000008,19.144081550000067],[100.61802261300005,19.183891687000028],[100.62218264700005,19.110212180000076],[100.57348106900008,19.104543915000022],[100.56586416600004,19.072740434000025],[100.61454127300004,19.041908767000052],[100.65608975800006,19.058631096000056],[100.66851952700006,19.089804193000077],[100.72854224300005,19.107097913000075],[100.77928144100008,19.07103938000006],[100.82546574200006,19.064004802000056],[100.81992705100004,19.090459813000052],[100.79862836000007,19.091086404000066],[100.78702985900009,19.09426634500005]]]}},{"type":"Feature","properties":{"code":"550302","name":"ป่าคาหลวง","parentCode":"5503"},"geometry":{"type":"Polygon","coordinates":[[[100.46291227800003,18.859484973000065],[100.38643905300006,18.89115832400006],[100.34789025600008,18.82931172600007],[100.43799693100004,18.838585134000027],[100.46291227800003,18.859484973000065]]]}},{"type":"Feature","properties":{"code":"550513","name":"ป่ากลาง","parentCode":"5505"},"geometry":{"type":"Polygon","coordinates":[[[100.94840585800006,19.12096852600007],[100.91672865900006,19.150726040000052],[100.88112155500005,19.141047013000048],[100.89826684100007,19.114365362000058],[100.93325696800008,19.119343928000035],[100.94840585800006,19.12096852600007]]]}},{"type":"Feature","properties":{"code":"551102","name":"ป่าแลวหลวง","parentCode":"5511"},"geometry":{"type":"Polygon","coordinates":[[[100.90409875800003,18.976210082000023],[100.83111047400007,18.993987391000076],[100.81160439600006,18.92693775300006],[100.85492654200004,18.913287285000024],[100.93863090500008,18.926261242000066],[101.00367767900008,18.956792902000075],[100.99233902800006,18.97582035100004],[100.90409875800003,18.976210082000023]]]}},{"type":"Feature","properties":{"code":"550103","name":"ผาสิงห์","parentCode":"5501"},"geometry":{"type":"Polygon","coordinates":[[[100.78496677600003,18.89124098600007],[100.72655164400004,18.903035427000077],[100.70122119300004,18.855001591000075],[100.72276657700007,18.813978734000045],[100.72711452000004,18.81281800200003],[100.76372338400006,18.776955720000046],[100.78611997200005,18.805665831000056],[100.78598303300004,18.830215199000065],[100.78496677600003,18.89124098600007]]]}},{"type":"Feature","properties":{"code":"550610","name":"ผาทอง","parentCode":"5506"},"geometry":{"type":"Polygon","coordinates":[[[100.73125205700006,19.268639239000038],[100.61240346200003,19.312504578000073],[100.60124191900007,19.249502704000065],[100.61935106300007,19.19597427800005],[100.70745258000005,19.193659411000056],[100.77944564700005,19.15628036100003],[100.73125205700006,19.268639239000038]]]}},{"type":"Feature","properties":{"code":"550603","name":"ผาตอ","parentCode":"5506"},"geometry":{"type":"Polygon","coordinates":[[[100.77770708800006,19.27405022100004],[100.73125205700006,19.268639239000038],[100.77944564700005,19.15628036100003],[100.79599287800005,19.127068087000055],[100.80625337300006,19.15573673600005],[100.80827778700007,19.159843615000057],[100.79193162600006,19.234242863000077],[100.77770708800006,19.27405022100004]]]}},{"type":"Feature","properties":{"code":"550908","name":"พญาแก้ว","parentCode":"5509"},"geometry":{"type":"Polygon","coordinates":[[[101.03968282200003,19.29908391500004],[101.01005509100008,19.31967346700003],[100.99866807900008,19.293880089000027],[100.85512174600007,19.278181662000065],[100.85471395500008,19.273879627000042],[100.88802195100004,19.245600438000054],[100.91379658100004,19.256847164000078],[100.95835262400004,19.261547998000026],[101.03968282200003,19.29908391500004]]]}},{"type":"Feature","properties":{"code":"551103","name":"พงษ์","parentCode":"5511"},"geometry":{"type":"Polygon","coordinates":[[[101.09127986700008,18.961326324000026],[100.99233902800006,18.97582035100004],[101.00367767900008,18.956792902000075],[100.93863090500008,18.926261242000066],[100.92601251500008,18.85746842100008],[100.98378727900007,18.847924473000035],[101.06132380100007,18.871368800000027],[101.10820984700007,18.851080085000035],[101.17377956800004,18.900902925000025],[101.11864416600008,18.91436040800005],[101.11172642600008,18.960625641000036],[101.09127986700008,18.961326324000026]]]}},{"type":"Feature","properties":{"code":"550909","name":"พระพุทธบาท","parentCode":"5509"},"geometry":{"type":"Polygon","coordinates":[[[100.85698931700006,19.287194775000046],[100.79289379200009,19.300789790000067],[100.77814805600008,19.274311614000055],[100.77770708800006,19.27405022100004],[100.79193162600006,19.234242863000077],[100.81249818500004,19.22344606200005],[100.85471395500008,19.273879627000042],[100.85512174600007,19.278181662000065],[100.85698931700006,19.287194775000046]]]}},{"type":"Feature","properties":{"code":"550904","name":"พระธาตุ","parentCode":"5509"},"geometry":{"type":"Polygon","coordinates":[[[100.97844045900007,19.355187944000022],[100.91115682900005,19.359052225000028],[100.87788738600005,19.310966531000076],[100.95511264800007,19.329521079000074],[100.97844045900007,19.355187944000022]]]}},{"type":"Feature","properties":{"code":"551204","name":"ภูฟ้า","parentCode":"5512"},"geometry":{"type":"Polygon","coordinates":[[[101.30614710400005,18.99036447700007],[101.24086789100005,19.042922544000078],[101.19845559100008,19.02253570700003],[101.16012850500005,19.06615405900004],[101.12785184600006,19.04506643700006],[101.11172642600008,18.960625641000036],[101.11864416600008,18.91436040800005],[101.17377956800004,18.900902925000025],[101.24898451100006,18.895971123000038],[101.29445764600007,18.937987242000077],[101.30614710400005,18.99036447700007]]]}},{"type":"Feature","properties":{"code":"550511","name":"ภูคา","parentCode":"5505"},"geometry":{"type":"Polygon","coordinates":[[[101.08170938000006,19.381914625000036],[101.01017099800004,19.338149568000063],[101.01005509100008,19.31967346700003],[101.03968282200003,19.29908391500004],[101.05195422800006,19.26897051000003],[101.01436148800008,19.23306330500003],[100.96420479600005,19.22886143900007],[100.95484461200004,19.193088155000055],[100.96878186600009,19.168112748000055],[101.00131568000006,19.12875017400006],[101.07144648400003,19.12835306900007],[101.12929329700006,19.208817203000024],[101.12871137000008,19.27334046200008],[101.11313837600005,19.346462874000053],[101.08170938000006,19.381914625000036]]]}},{"type":"Feature","properties":{"code":"551004","name":"ปิงหลวง","parentCode":"5510"},"geometry":{"type":"Polygon","coordinates":[[[100.60403340200008,18.046937056000047],[100.57876737600009,18.12299215200005],[100.56301334300008,18.221548572000074],[100.54151131200007,18.188512589000027],[100.45269916700005,18.180831058000024],[100.41437905900005,18.153567800000076],[100.39755596500004,18.136084654000058],[100.41429748700006,18.021697394000057],[100.48229230000004,18.055572554000037],[100.55084927700005,18.035311790000037],[100.60403340200008,18.046937056000047]]]}},{"type":"Feature","properties":{"code":"550801","name":"ปอน","parentCode":"5508"},"geometry":{"type":"Polygon","coordinates":[[[100.97478536600005,19.61974796100003],[100.89791221800004,19.634937491000073],[100.85326702500004,19.56991659600004],[100.90901985300007,19.502078857000072],[101.00351280100006,19.50180539100006],[101.00552532500006,19.55250621600004],[100.96284668400006,19.575086438000028],[100.97478536600005,19.61974796100003]]]}},{"type":"Feature","properties":{"code":"550710","name":"ปงสนุก","parentCode":"5507"},"geometry":{"type":"Polygon","coordinates":[[[100.66138480400008,18.620336430000066],[100.59730018000005,18.635258373000056],[100.57981867800004,18.584707871000035],[100.58970047900004,18.572109342000033],[100.59543014400003,18.581941409000024],[100.72090395300006,18.575872498000024],[100.73065012400008,18.614357104000078],[100.66138480400008,18.620336430000066]]]}},{"type":"Feature","properties":{"code":"550501","name":"ปัว","parentCode":"5505"},"geometry":{"type":"Polygon","coordinates":[[[100.93310294300005,19.192027332000066],[100.91837375800009,19.199100827000052],[100.87760812300007,19.181009680000045],[100.87554499900006,19.145867526000075],[100.88112155500005,19.141047013000048],[100.91672865900006,19.150726040000052],[100.93310294300005,19.192027332000066]]]}},{"type":"Feature","properties":{"code":"550902","name":"เปือ","parentCode":"5509"},"geometry":{"type":"Polygon","coordinates":[[[100.91115682900005,19.359052225000028],[100.86502061800007,19.355823454000074],[100.78395994300007,19.377895684000066],[100.79847167900004,19.322330202000046],[100.77814805600008,19.274311614000055],[100.79289379200009,19.300789790000067],[100.85698931700006,19.287194775000046],[100.87788738600005,19.310966531000076],[100.91115682900005,19.359052225000028]]]}},{"type":"Feature","properties":{"code":"550601","name":"ริม","parentCode":"5506"},"geometry":{"type":"Polygon","coordinates":[[[100.80625337300006,19.15573673600005],[100.79599287800005,19.127068087000055],[100.78702985900009,19.09426634500005],[100.79862836000007,19.091086404000066],[100.80625337300006,19.15573673600005]]]}},{"type":"Feature","properties":{"code":"550106","name":"เรือง","parentCode":"5501"},"geometry":{"type":"Polygon","coordinates":[[[100.66974181300009,18.80283517600003],[100.50668173000008,18.787298237000073],[100.49316908800006,18.735605960000044],[100.50134207100007,18.72728684300006],[100.55212785900005,18.76361590600004],[100.60802635300007,18.777472327000055],[100.66491065900004,18.75290344000007],[100.70308837700009,18.761878293000052],[100.69791248200005,18.778037335000022],[100.66974181300009,18.80283517600003]]]}},{"type":"Feature","properties":{"code":"550608","name":"แสนทอง","parentCode":"5506"},"geometry":{"type":"Polygon","coordinates":[[[100.77944564700005,19.15628036100003],[100.70745258000005,19.193659411000056],[100.61935106300007,19.19597427800005],[100.61802261300005,19.183891687000028],[100.67771405000008,19.144081550000067],[100.78702985900009,19.09426634500005],[100.79599287800005,19.127068087000055],[100.77944564700005,19.15628036100003]]]}},{"type":"Feature","properties":{"code":"550512","name":"สกาด","parentCode":"5505"},"geometry":{"type":"Polygon","coordinates":[[[100.96420479600005,19.22886143900007],[101.01436148800008,19.23306330500003],[101.05195422800006,19.26897051000003],[101.03968282200003,19.29908391500004],[100.95835262400004,19.261547998000026],[100.96420479600005,19.22886143900007]]]}},{"type":"Feature","properties":{"code":"550706","name":"ส้าน","parentCode":"5507"},"geometry":{"type":"Polygon","coordinates":[[[100.76151206700007,18.55024278700006],[100.73914332900006,18.54100717700004],[100.69555730400003,18.461902778000024],[100.68961421100005,18.437702196000032],[100.71523545000008,18.42260759900006],[100.84582200100004,18.429808725000044],[100.82111341600006,18.479438190000053],[100.76151206700007,18.55024278700006]]]}},{"type":"Feature","properties":{"code":"550117","name":"สะเนียน","parentCode":"5501"},"geometry":{"type":"Polygon","coordinates":[[[100.60547738100007,19.02033462000003],[100.49369389700007,19.052361318000067],[100.45701758500007,19.00944816200007],[100.50092321300008,18.98614251500004],[100.53567827100005,18.954981893000024],[100.52948062700005,18.874067896000042],[100.50698302900008,18.820202082000037],[100.50668173000008,18.787298237000073],[100.66974181300009,18.80283517600003],[100.72276657700007,18.813978734000045],[100.70122119300004,18.855001591000075],[100.72655164400004,18.903035427000077],[100.60547738100007,19.02033462000003]]]}},{"type":"Feature","properties":{"code":"550712","name":"ส้านนาหนองใหม่","parentCode":"5507"},"geometry":{"type":"Polygon","coordinates":[[[101.10398211500006,18.52140563300003],[100.98630798000005,18.591737082000066],[100.92439071800004,18.559473939000043],[100.88937653300007,18.562775170000066],[100.90402635500004,18.53912432100003],[100.94752057000005,18.48751218700005],[101.09136811900004,18.496768630000076],[101.10398211500006,18.52140563300003]]]}},{"type":"Feature","properties":{"code":"550405","name":"สันทะ","parentCode":"5504"},"geometry":{"type":"Polygon","coordinates":[[[100.64541048300003,18.31357345400005],[100.57264097100006,18.311168913000074],[100.49254546100008,18.33878593000003],[100.48511102100008,18.300536382000075],[100.47647280900009,18.260218833000067],[100.55388693100008,18.235028080000063],[100.60154810900008,18.236644779000073],[100.64822454000006,18.28277339500005],[100.64541048300003,18.31357345400005]]]}},{"type":"Feature","properties":{"code":"550404","name":"สถาน","parentCode":"5504"},"geometry":{"type":"Polygon","coordinates":[[[100.71382326400004,18.290872927000066],[100.64822454000006,18.28277339500005],[100.60154810900008,18.236644779000073],[100.65878958900004,18.242232098000045],[100.69148888000007,18.19355016800006],[100.79112829400003,18.166429683000047],[100.87456819300007,18.118988156000057],[100.91352344000006,18.160105617000056],[100.91227841600005,18.227457107000077],[100.84257916400009,18.22658189300006],[100.78656003700007,18.26009496200004],[100.75307334400009,18.254124482000066],[100.71382326400004,18.290872927000066]]]}},{"type":"Feature","properties":{"code":"550503","name":"สถาน","parentCode":"5505"},"geometry":{"type":"Polygon","coordinates":[[[100.95835262400004,19.261547998000026],[100.91379658100004,19.256847164000078],[100.91837375800009,19.199100827000052],[100.93310294300005,19.192027332000066],[100.95484461200004,19.193088155000055],[100.96420479600005,19.22886143900007],[100.95835262400004,19.261547998000026]]]}},{"type":"Feature","properties":{"code":"550606","name":"ศรีภูมิ","parentCode":"5506"},"geometry":{"type":"Polygon","coordinates":[[[100.82546574200006,19.064004802000056],[100.77928144100008,19.07103938000006],[100.72854224300005,19.107097913000075],[100.66851952700006,19.089804193000077],[100.65608975800006,19.058631096000056],[100.72743030900006,19.027143829000067],[100.81404413100006,19.06231721300003],[100.82496546500005,19.050768662000053],[100.82546574200006,19.064004802000056]]]}},{"type":"Feature","properties":{"code":"550504","name":"ศิลาแลง","parentCode":"5505"},"geometry":{"type":"Polygon","coordinates":[[[100.96878186600009,19.168112748000055],[100.91672865900006,19.150726040000052],[100.94840585800006,19.12096852600007],[101.00131568000006,19.12875017400006],[100.96878186600009,19.168112748000055]]]}},{"type":"Feature","properties":{"code":"550505","name":"ศิลาเพชร","parentCode":"5505"},"geometry":{"type":"Polygon","coordinates":[[[101.00131568000006,19.12875017400006],[100.94840585800006,19.12096852600007],[100.93325696800008,19.119343928000035],[100.92533415800006,19.07755396700003],[100.98986109500004,19.072482730000047],[101.07595598600005,19.084154700000056],[101.07144648400003,19.12835306900007],[101.00131568000006,19.12875017400006]]]}},{"type":"Feature","properties":{"code":"550403","name":"ศรีษะเกษ","parentCode":"5504"},"geometry":{"type":"Polygon","coordinates":[[[100.68961421100005,18.437702196000032],[100.66700913300008,18.433113294000066],[100.71132442000004,18.384247506000065],[100.69247012700004,18.350076346000037],[100.73062938300006,18.328455921000057],[100.82006805900005,18.31834828700005],[100.83016168000006,18.342929808000065],[100.88393515000007,18.307170563000057],[100.96821244400007,18.340830591000042],[101.05583762600008,18.35586790600007],[101.08541647400006,18.38101637500006],[101.05490838400004,18.423824412000045],[101.01748485600007,18.38004702300003],[100.96560694000004,18.377525641000034],[100.88899608100007,18.33659278300007],[100.84736811500005,18.394499819000032],[100.84582200100004,18.429808725000044],[100.71523545000008,18.42260759900006],[100.68961421100005,18.437702196000032]]]}},{"type":"Feature","properties":{"code":"550303","name":"สวด","parentCode":"5503"},"geometry":{"type":"Polygon","coordinates":[[[100.52948062700005,18.874067896000042],[100.46291227800003,18.859484973000065],[100.43799693100004,18.838585134000027],[100.34789025600008,18.82931172600007],[100.34506025700006,18.813917408000066],[100.45640187000004,18.828174365000052],[100.50698302900008,18.820202082000037],[100.52948062700005,18.874067896000042]]]}},{"type":"Feature","properties":{"code":"550605","name":"ตาลชุม","parentCode":"5506"},"geometry":{"type":"Polygon","coordinates":[[[100.82496546500005,19.050768662000053],[100.81404413100006,19.06231721300003],[100.72743030900006,19.027143829000067],[100.83111047400007,18.993987391000076],[100.90409875800003,18.976210082000023],[100.92730659800009,19.014607143000035],[100.90896149900004,19.03897389800005],[100.87497106200004,19.058935715000075],[100.82496546500005,19.050768662000053]]]}},{"type":"Feature","properties":{"code":"550704","name":"ตาลชุม","parentCode":"5507"},"geometry":{"type":"Polygon","coordinates":[[[100.81206850300003,18.66731078400005],[100.75994818500004,18.649340650000056],[100.76570638200008,18.611596268000028],[100.80051056300005,18.608522951000054],[100.81206850300003,18.66731078400005]]]}},{"type":"Feature","properties":{"code":"551406","name":"ท่าน้าว","parentCode":"5514"},"geometry":{"type":"Polygon","coordinates":[[[100.80453333300005,18.744666822000056],[100.76914969100005,18.748952650000035],[100.76552220000008,18.718419114000028],[100.80679220500008,18.71675312700006],[100.82131533700004,18.727001391000044],[100.80453333300005,18.744666822000056]]]}},{"type":"Feature","properties":{"code":"550609","name":"ท่าวังผา","parentCode":"5506"},"geometry":{"type":"Polygon","coordinates":[[[100.86259264600005,19.146507147000023],[100.80827778700007,19.159843615000057],[100.80625337300006,19.15573673600005],[100.79862836000007,19.091086404000066],[100.81992705100004,19.090459813000052],[100.86259264600005,19.146507147000023]]]}},{"type":"Feature","properties":{"code":"550105","name":"ถืมตอง","parentCode":"5501"},"geometry":{"type":"Polygon","coordinates":[[[100.72711452000004,18.81281800200003],[100.72276657700007,18.813978734000045],[100.66974181300009,18.80283517600003],[100.69791248200005,18.778037335000022],[100.72711452000004,18.81281800200003]]]}},{"type":"Feature","properties":{"code":"550804","name":"ทุ่งช้าง","parentCode":"5508"},"geometry":{"type":"Polygon","coordinates":[[[101.01701456700005,19.403299120000042],[100.96354939300005,19.419330425000055],[100.89358188300008,19.399252008000076],[100.75130316100007,19.44430170100003],[100.78395994300007,19.377895684000066],[100.86502061800007,19.355823454000074],[100.91115682900005,19.359052225000028],[100.97844045900007,19.355187944000022],[101.01017099800004,19.338149568000063],[101.08170938000006,19.381914625000036],[101.09332296300005,19.432625247000033],[101.01701456700005,19.403299120000042]]]}},{"type":"Feature","properties":{"code":"550717","name":"ทุ่งศรีทอง","parentCode":"5507"},"geometry":{"type":"Polygon","coordinates":[[[100.70598338900004,18.701698648000047],[100.69267821000005,18.68731056000007],[100.58977613600007,18.702869941000074],[100.59730018000005,18.635258373000056],[100.66138480400008,18.620336430000066],[100.72416905900008,18.651100602000042],[100.72314102500007,18.678681408000045],[100.70598338900004,18.701698648000047]]]}},{"type":"Feature","properties":{"code":"550506","name":"อวน","parentCode":"5505"},"geometry":{"type":"Polygon","coordinates":[[[101.07595598600005,19.084154700000056],[100.98986109500004,19.072482730000047],[100.92730659800009,19.014607143000035],[100.90409875800003,18.976210082000023],[100.99233902800006,18.97582035100004],[101.09127986700008,18.961326324000026],[101.06323091400009,18.989647314000024],[101.07595598600005,19.084154700000056]]]}},{"type":"Feature","properties":{"code":"550514","name":"วรนคร","parentCode":"5505"},"geometry":{"type":"Polygon","coordinates":[[[100.95484461200004,19.193088155000055],[100.93310294300005,19.192027332000066],[100.91672865900006,19.150726040000052],[100.96878186600009,19.168112748000055],[100.95484461200004,19.193088155000055]]]}},{"type":"Feature","properties":{"code":"550709","name":"ยาบหัวนา","parentCode":"5507"},"geometry":{"type":"Polygon","coordinates":[[[100.49316908800006,18.735605960000044],[100.39136919900005,18.739382987000056],[100.35157959900005,18.68055431700003],[100.39258899400005,18.638393515000075],[100.37770342900006,18.585951114000068],[100.39931541800007,18.48575016800004],[100.47664133800004,18.49479917900004],[100.50454128900009,18.539078735000032],[100.56580488600008,18.53262495000007],[100.58970047900004,18.572109342000033],[100.57981867800004,18.584707871000035],[100.55786610700005,18.571594896000022],[100.52299190600007,18.630908100000056],[100.50134207100007,18.72728684300006],[100.49316908800006,18.735605960000044]]]}},{"type":"Feature","properties":{"code":"550604","name":"ยม","parentCode":"5506"},"geometry":{"type":"Polygon","coordinates":[[[100.93325696800008,19.119343928000035],[100.89826684100007,19.114365362000058],[100.90896149900004,19.03897389800005],[100.92730659800009,19.014607143000035],[100.98986109500004,19.072482730000047],[100.92533415800006,19.07755396700003],[100.93325696800008,19.119343928000035]]]}},{"type":"Feature","properties":{"code":"551303","name":"ยอด","parentCode":"5513"},"geometry":{"type":"Polygon","coordinates":[[[100.64058011900005,19.394280408000043],[100.60251594100004,19.47921375100003],[100.56528981000008,19.452730579000047],[100.52619359700009,19.408878524000045],[100.48809490400004,19.39955142100007],[100.51941132300004,19.380685741000036],[100.57092765300007,19.30460600600003],[100.60921704300006,19.33412970100005],[100.64681160300006,19.362111541000047],[100.64058011900005,19.394280408000043]]]}}]}