{"type":"FeatureCollection","features":[{"type":"Feature","properties":{"code":"560313","name":"อ่างทอง","parentCode":"5603"},"geometry":{"type":"Polygon","coordinates":[[[100.25254077900007,19.58951309200006],[100.25246496900007,19.634918067000058],[100.22922446700005,19.605836734000036],[100.18400767300005,19.61384670700005],[100.16422031500008,19.575735267000027],[100.15363235500007,19.545675752000022],[100.14898403800004,19.514068594000037],[100.22422206000005,19.526822553000045],[100.27419952400004,19.509714212000063],[100.25764570900009,19.556496199000037],[100.25254077900007,19.58951309200006]]]}},{"type":"Feature","properties":{"code":"560705","name":"บ้านเหล่า","parentCode":"5607"},"geometry":{"type":"Polygon","coordinates":[[[99.91444196100008,19.432455222000044],[99.83721109900006,19.445636904000025],[99.81089675600003,19.408004021000067],[99.81576663300007,19.391689885000062],[99.82492854800006,19.35082154500003],[99.86828479700006,19.35389835700005],[99.92000039500005,19.40641256400005],[99.91444196100008,19.432455222000044]]]}},{"type":"Feature","properties":{"code":"560111","name":"บ้านใหม่","parentCode":"5601"},"geometry":{"type":"Polygon","coordinates":[[[99.82408524100003,19.31073219600006],[99.76989603800007,19.291399929000022],[99.70428217100005,19.322295203000067],[99.70477384100008,19.27362332000007],[99.79195647600005,19.252889331000063],[99.84144396100004,19.25954215200005],[99.82408524100003,19.31073219600006]]]}},{"type":"Feature","properties":{"code":"560402","name":"บ้านมาง","parentCode":"5604"},"geometry":{"type":"Polygon","coordinates":[[[100.26866545100006,18.819966100000045],[100.29916143600008,18.91490894700007],[100.28431514700009,18.933352107000076],[100.15588262100005,18.913431110000033],[100.15593258000007,18.835470908000048],[100.17649977300005,18.813472943000022],[100.26866545100006,18.819966100000045]]]}},{"type":"Feature","properties":{"code":"560504","name":"บ้านปิน","parentCode":"5605"},"geometry":{"type":"Polygon","coordinates":[[[100.05779236300003,19.06247683400005],[100.03913416900008,19.066606986000068],[100.00680353300004,19.059931494000068],[100.01948625400007,19.03097318600004],[100.00205995900006,18.96412065900006],[100.02705928900008,18.89745862700005],[100.03336234100004,18.902418359000023],[100.05779236300003,19.06247683400005]]]}},{"type":"Feature","properties":{"code":"560115","name":"บ้านสาง","parentCode":"5601"},"geometry":{"type":"Polygon","coordinates":[[[99.85529238500004,19.178362330000027],[99.74137572400008,19.15028903700005],[99.75824803900008,19.124321768000073],[99.88507584600006,19.171128343000078],[99.88721075400008,19.17738356700005],[99.85529238500004,19.178362330000027]]]}},{"type":"Feature","properties":{"code":"560106","name":"บ้านต๊ำ","parentCode":"5601"},"geometry":{"type":"Polygon","coordinates":[[[99.91761364900003,19.269858206000038],[99.84845613400006,19.243474922000075],[99.79114650800005,19.229494456000054],[99.70369957600008,19.258242148000022],[99.71999385900006,19.201995101000023],[99.72858338700007,19.18107876600004],[99.76098203300006,19.182129984000028],[99.80132922800004,19.210089550000077],[99.86519211200005,19.211074997000026],[99.91502883700008,19.25719613800004],[99.91761364900003,19.269858206000038]]]}},{"type":"Feature","properties":{"code":"560503","name":"บ้านถ้ำ","parentCode":"5605"},"geometry":{"type":"Polygon","coordinates":[[[100.11247948500005,19.146745329000055],[100.06554505800005,19.15238283700006],[100.02472765000005,19.121151001000044],[100.03913416900008,19.066606986000068],[100.05779236300003,19.06247683400005],[100.12285267300007,19.060139013000025],[100.11247948500005,19.146745329000055]]]}},{"type":"Feature","properties":{"code":"560107","name":"บ้านต๋อม","parentCode":"5601"},"geometry":{"type":"Polygon","coordinates":[[[99.91315217600004,19.251177549000033],[99.91502883700008,19.25719613800004],[99.86519211200005,19.211074997000026],[99.80132922800004,19.210089550000077],[99.76098203300006,19.182129984000028],[99.83375028800003,19.196814759000063],[99.85529238500004,19.178362330000027],[99.88721075400008,19.17738356700005],[99.88874767800007,19.181601687000068],[99.91315217600004,19.251177549000033]]]}},{"type":"Feature","properties":{"code":"560105","name":"บ้านตุ่น","parentCode":"5601"},"geometry":{"type":"Polygon","coordinates":[[[99.88972293700004,19.16723852100006],[99.88507584600006,19.171128343000078],[99.75824803900008,19.124321768000073],[99.76224056600006,19.10448360600003],[99.85417927900005,19.13649874500004],[99.88972293700004,19.16723852100006]]]}},{"type":"Feature","properties":{"code":"560510","name":"บุญเกิด","parentCode":"5605"},"geometry":{"type":"Polygon","coordinates":[[[99.98966740600008,19.163877944000035],[99.98510869900008,19.11514801900006],[100.02290689700004,19.120709654000052],[99.98966740600008,19.163877944000035]]]}},{"type":"Feature","properties":{"code":"560112","name":"จำป่าหวาย","parentCode":"5601"},"geometry":{"type":"Polygon","coordinates":[[[99.92238196000005,19.159518023000032],[99.91923151600008,19.15927526400003],[99.91780482000007,19.12678994500004],[99.96837329200008,19.04041956700007],[100.00726112300003,18.904687590000037],[100.02705928900008,18.89745862700005],[100.00205995900006,18.96412065900006],[100.01948625400007,19.03097318600004],[100.00680353300004,19.059931494000068],[99.97777662300007,19.113958188000026],[99.92238196000005,19.159518023000032]]]}},{"type":"Feature","properties":{"code":"560706","name":"เจริญราษฎร์","parentCode":"5607"},"geometry":{"type":"Polygon","coordinates":[[[99.71256099700008,19.421251615000074],[99.68294610100008,19.422321993000025],[99.68717092500003,19.398949955000035],[99.77974985300006,19.37727756000004],[99.81576663300007,19.391689885000062],[99.81089675600003,19.408004021000067],[99.74855978100004,19.400484857000038],[99.71256099700008,19.421251615000074]]]}},{"type":"Feature","properties":{"code":"560309","name":"เจดีย์คำ","parentCode":"5603"},"geometry":{"type":"Polygon","coordinates":[[[100.35147166100006,19.569066888000066],[100.33937812500005,19.570398900000043],[100.31832159900006,19.54960281600006],[100.32811653400006,19.51101207100004],[100.34924637400007,19.484641149000026],[100.36046321800006,19.479008543000077],[100.35147166100006,19.569066888000066]]]}},{"type":"Feature","properties":{"code":"560311","name":"เชียงบาน","parentCode":"5603"},"geometry":{"type":"Polygon","coordinates":[[[100.28779573300005,19.55322211200007],[100.25764570900009,19.556496199000037],[100.27419952400004,19.509714212000063],[100.27346464800007,19.482719382000028],[100.30135123600007,19.505440626000052],[100.28779573300005,19.55322211200007]]]}},{"type":"Feature","properties":{"code":"560401","name":"เชียงม่วน","parentCode":"5604"},"geometry":{"type":"Polygon","coordinates":[[[100.41034208500008,18.945188977000043],[100.32664526900004,18.95257878700005],[100.28431514700009,18.933352107000076],[100.29916143600008,18.91490894700007],[100.26866545100006,18.819966100000045],[100.34038381300007,18.80595545500006],[100.34506025700006,18.813917408000066],[100.34789025600008,18.82931172600007],[100.38643905300006,18.89115832400006],[100.41034208500008,18.945188977000043]]]}},{"type":"Feature","properties":{"code":"560804","name":"เชียงแรง","parentCode":"5608"},"geometry":{"type":"Polygon","coordinates":[[[100.31118824900005,19.646192159000066],[100.25729771400006,19.645044470000073],[100.25246496900007,19.634918067000058],[100.25254077900007,19.58951309200006],[100.32143937000006,19.597064997000075],[100.32717473900004,19.62068079100004],[100.31118824900005,19.646192159000066]]]}},{"type":"Feature","properties":{"code":"560202","name":"จุน","parentCode":"5602"},"geometry":{"type":"Polygon","coordinates":[[[100.23553882400006,19.34558903800007],[100.22112498700005,19.37199737700007],[100.14315924500005,19.349191775000065],[100.09973958000006,19.299487405000036],[100.09655017900008,19.269406976000027],[100.11168098600007,19.213391784000066],[100.11484094900004,19.157081938000033],[100.14716185600008,19.204739338000024],[100.17860743400007,19.312277770000037],[100.22997081900007,19.330193419000068],[100.23553882400006,19.34558903800007]]]}},{"type":"Feature","properties":{"code":"560501","name":"ดอกคำใต้","parentCode":"5605"},"geometry":{"type":"Polygon","coordinates":[[[99.98641217600004,19.173086999000077],[99.94006487600006,19.177127296000037],[99.92238196000005,19.159518023000032],[99.97777662300007,19.113958188000026],[99.98510869900008,19.11514801900006],[99.98966740600008,19.163877944000035],[99.98641217600004,19.173086999000077]]]}},{"type":"Feature","properties":{"code":"560502","name":"ดอนศรีชุม","parentCode":"5605"},"geometry":{"type":"Polygon","coordinates":[[[100.06554505800005,19.15238283700006],[100.01313692700006,19.179874023000025],[99.98641217600004,19.173086999000077],[99.98966740600008,19.163877944000035],[100.02290689700004,19.120709654000052],[100.02472765000005,19.121151001000044],[100.06554505800005,19.15238283700006]]]}},{"type":"Feature","properties":{"code":"560902","name":"ดงเจน","parentCode":"5609"},"geometry":{"type":"Polygon","coordinates":[[[99.99963989600008,19.26221131400007],[99.91761364900003,19.269858206000038],[99.91502883700008,19.25719613800004],[99.91315217600004,19.251177549000033],[99.96380705500007,19.208846658000027],[99.99963989600008,19.26221131400007]]]}},{"type":"Feature","properties":{"code":"560509","name":"ดงสุวรรณ","parentCode":"5605"},"geometry":{"type":"Polygon","coordinates":[[[100.09655017900008,19.269406976000027],[100.01444730900005,19.272033646000068],[100.00055992300008,19.234824468000056],[100.00532421600008,19.227340690000062],[100.11168098600007,19.213391784000066],[100.09655017900008,19.269406976000027]]]}},{"type":"Feature","properties":{"code":"560308","name":"ฝายกวาง","parentCode":"5603"},"geometry":{"type":"Polygon","coordinates":[[[100.34924637400007,19.484641149000026],[100.31181025900008,19.487403552000046],[100.30068095500008,19.439905330000045],[100.22287664800007,19.43785041600006],[100.20722189000008,19.44448776400003],[100.20623290500004,19.402341427000067],[100.22112498700005,19.37199737700007],[100.23553882400006,19.34558903800007],[100.25027543100003,19.349882695000076],[100.27603672100008,19.33288204400003],[100.34742312400004,19.357841880000024],[100.35824125800008,19.392780180000045],[100.34263964200005,19.45787020000006],[100.36823928500007,19.468827212000065],[100.36046321800006,19.479008543000077],[100.34924637400007,19.484641149000026]]]}},{"type":"Feature","properties":{"code":"560204","name":"หงส์หิน","parentCode":"5602"},"geometry":{"type":"Polygon","coordinates":[[[100.10998637800009,19.552863381000066],[100.06566084600007,19.51025696800008],[100.06713237200006,19.49293117800005],[100.07200023000007,19.434157885000047],[100.13556576700006,19.479667758000062],[100.14219543100006,19.504607408000027],[100.14898403800004,19.514068594000037],[100.15363235500007,19.545675752000022],[100.10998637800009,19.552863381000066]]]}},{"type":"Feature","properties":{"code":"560901","name":"ห้วยแก้ว","parentCode":"5609"},"geometry":{"type":"Polygon","coordinates":[[[100.00499369700003,19.429147460000024],[99.99643955000005,19.43047668400004],[99.92000039500005,19.40641256400005],[99.92986586400008,19.371420649000072],[99.91761364900003,19.269858206000038],[99.99963989600008,19.26221131400007],[100.01552006500003,19.275569107000024],[100.02267053200006,19.296284166000078],[99.99764978400003,19.367706836000025],[100.00499369700003,19.429147460000024]]]}},{"type":"Feature","properties":{"code":"560201","name":"ห้วยข้าวก่ำ","parentCode":"5602"},"geometry":{"type":"Polygon","coordinates":[[[100.10520687500008,19.394804734000047],[100.05129855000007,19.394397319000063],[100.08052210500006,19.33586660800006],[100.06939619600007,19.29735641600007],[100.09973958000006,19.299487405000036],[100.14315924500005,19.349191775000065],[100.10520687500008,19.394804734000047]]]}},{"type":"Feature","properties":{"code":"560505","name":"ห้วยลาน","parentCode":"5605"},"geometry":{"type":"Polygon","coordinates":[[[100.05383423000006,19.431398467000065],[100.00499369700003,19.429147460000024],[99.99764978400003,19.367706836000025],[100.02267053200006,19.296284166000078],[100.06939619600007,19.29735641600007],[100.08052210500006,19.33586660800006],[100.05129855000007,19.394397319000063],[100.05383423000006,19.431398467000065]]]}},{"type":"Feature","properties":{"code":"560206","name":"ห้วยยางขาม","parentCode":"5602"},"geometry":{"type":"Polygon","coordinates":[[[100.20623290500004,19.402341427000067],[100.13746183300003,19.404829496000048],[100.10520687500008,19.394804734000047],[100.14315924500005,19.349191775000065],[100.22112498700005,19.37199737700007],[100.20623290500004,19.402341427000067]]]}},{"type":"Feature","properties":{"code":"560602","name":"ควร","parentCode":"5606"},"geometry":{"type":"Polygon","coordinates":[[[100.37631238500006,19.170152458000075],[100.31580486800004,19.172188275000053],[100.29673004000006,19.159770612000045],[100.29432843800004,19.099298462000036],[100.31500736300006,19.09288067700004],[100.36092527100004,19.118732804000047],[100.38058886900006,19.167346574000078],[100.37631238500006,19.170152458000075]]]}},{"type":"Feature","properties":{"code":"560512","name":"คือเวียง","parentCode":"5605"},"geometry":{"type":"Polygon","coordinates":[[[100.03913416900008,19.066606986000068],[100.02472765000005,19.121151001000044],[100.02290689700004,19.120709654000052],[99.98510869900008,19.11514801900006],[99.97777662300007,19.113958188000026],[100.00680353300004,19.059931494000068],[100.03913416900008,19.066606986000068]]]}},{"type":"Feature","properties":{"code":"560607","name":"ขุนควร","parentCode":"5606"},"geometry":{"type":"Polygon","coordinates":[[[100.57348106900008,19.104543915000022],[100.53852240700007,19.130959364000034],[100.55394015300004,19.15808921200005],[100.51170590700008,19.16811728600004],[100.47429789000006,19.207385143000067],[100.39200630300007,19.152869748000057],[100.38058886900006,19.167346574000078],[100.36092527100004,19.118732804000047],[100.31500736300006,19.09288067700004],[100.33122801400003,19.06517911800006],[100.34688198800006,19.042957305000073],[100.44809053300008,19.032205383000075],[100.45701758500007,19.00944816200007],[100.49369389700007,19.052361318000067],[100.60547738100007,19.02033462000003],[100.61454127300004,19.041908767000052],[100.56586416600004,19.072740434000025],[100.57348106900008,19.104543915000022]]]}},{"type":"Feature","properties":{"code":"560203","name":"ลอ","parentCode":"5602"},"geometry":{"type":"Polygon","coordinates":[[[100.13746183300003,19.404829496000048],[100.11842386400008,19.45745477400004],[100.13556576700006,19.479667758000062],[100.07200023000007,19.434157885000047],[100.05383423000006,19.431398467000065],[100.05129855000007,19.394397319000063],[100.10520687500008,19.394804734000047],[100.13746183300003,19.404829496000048]]]}},{"type":"Feature","properties":{"code":"560701","name":"แม่ใจ","parentCode":"5607"},"geometry":{"type":"Polygon","coordinates":[[[99.86828479700006,19.35389835700005],[99.82492854800006,19.35082154500003],[99.78180538500004,19.337971277000065],[99.82379364400003,19.32244243400004],[99.86828479700006,19.35389835700005]]]}},{"type":"Feature","properties":{"code":"560903","name":"แม่อิง","parentCode":"5609"},"geometry":{"type":"Polygon","coordinates":[[[100.01552006500003,19.275569107000024],[99.99963989600008,19.26221131400007],[99.96380705500007,19.208846658000027],[99.96478542300008,19.205007806000026],[100.00055992300008,19.234824468000056],[100.01444730900005,19.272033646000068],[100.01552006500003,19.275569107000024]]]}},{"type":"Feature","properties":{"code":"560110","name":"แม่กา","parentCode":"5601"},"geometry":{"type":"Polygon","coordinates":[[[99.91780482000007,19.12678994500004],[99.90454354300005,19.12720581900004],[99.88913404000004,19.085711074000073],[99.87323240500007,19.02508068900005],[99.83481311500003,19.027038756000024],[99.84486095900007,19.00410272700003],[99.92620639200004,18.978787302000057],[99.94674464800005,18.942461998000056],[100.00726112300003,18.904687590000037],[99.96837329200008,19.04041956700007],[99.91780482000007,19.12678994500004]]]}},{"type":"Feature","properties":{"code":"560312","name":"แม่ลาว","parentCode":"5603"},"geometry":{"type":"Polygon","coordinates":[[[100.56528981000008,19.452730579000047],[100.43567449000005,19.45647065000003],[100.36823928500007,19.468827212000065],[100.34263964200005,19.45787020000006],[100.35824125800008,19.392780180000045],[100.44223268400003,19.39434060800005],[100.48809490400004,19.39955142100007],[100.52619359700009,19.408878524000045],[100.56528981000008,19.452730579000047]]]}},{"type":"Feature","properties":{"code":"560104","name":"แม่นาเรือ","parentCode":"5601"},"geometry":{"type":"Polygon","coordinates":[[[99.88913404000004,19.085711074000073],[99.85417927900005,19.13649874500004],[99.76224056600006,19.10448360600003],[99.77327042900004,19.06421116300004],[99.82006800900007,19.06045447300005],[99.83481311500003,19.027038756000024],[99.87323240500007,19.02508068900005],[99.88913404000004,19.085711074000073]]]}},{"type":"Feature","properties":{"code":"560108","name":"แม่ปืม","parentCode":"5601"},"geometry":{"type":"Polygon","coordinates":[[[99.91761364900003,19.269858206000038],[99.92986586400008,19.371420649000072],[99.92000039500005,19.40641256400005],[99.86828479700006,19.35389835700005],[99.82379364400003,19.32244243400004],[99.82408524100003,19.31073219600006],[99.84144396100004,19.25954215200005],[99.84845613400006,19.243474922000075],[99.91761364900003,19.269858206000038]]]}},{"type":"Feature","properties":{"code":"560114","name":"แม่ใส","parentCode":"5601"},"geometry":{"type":"Polygon","coordinates":[[[99.91359438600006,19.15974510600006],[99.88972293700004,19.16723852100006],[99.85417927900005,19.13649874500004],[99.88913404000004,19.085711074000073],[99.90454354300005,19.12720581900004],[99.91359438600006,19.15974510600006]]]}},{"type":"Feature","properties":{"code":"560703","name":"แม่สุก","parentCode":"5607"},"geometry":{"type":"Polygon","coordinates":[[[99.78180538500004,19.337971277000065],[99.70106365900006,19.347597681000025],[99.70428217100005,19.322295203000067],[99.76989603800007,19.291399929000022],[99.82408524100003,19.31073219600006],[99.82379364400003,19.32244243400004],[99.78180538500004,19.337971277000065]]]}},{"type":"Feature","properties":{"code":"560102","name":"แม่ต๋ำ","parentCode":"5601"},"geometry":{"type":"Polygon","coordinates":[[[99.91923151600008,19.15927526400003],[99.91359438600006,19.15974510600006],[99.90454354300005,19.12720581900004],[99.91780482000007,19.12678994500004],[99.91923151600008,19.15927526400003]]]}},{"type":"Feature","properties":{"code":"560606","name":"นาปรัง","parentCode":"5606"},"geometry":{"type":"Polygon","coordinates":[[[100.26429657500006,19.262622914000076],[100.22627020600004,19.265663363000044],[100.21298302200006,19.227952452000068],[100.17151984800006,19.216518203000078],[100.16694399800008,19.198416198000075],[100.29673004000006,19.159770612000045],[100.31580486800004,19.172188275000053],[100.28600833300004,19.19626980700008],[100.26429657500006,19.262622914000076]]]}},{"type":"Feature","properties":{"code":"560306","name":"น้ำแวน","parentCode":"5603"},"geometry":{"type":"Polygon","coordinates":[[[100.27419952400004,19.509714212000063],[100.22422206000005,19.526822553000045],[100.14898403800004,19.514068594000037],[100.14219543100006,19.504607408000027],[100.20722189000008,19.44448776400003],[100.22287664800007,19.43785041600006],[100.27644060500006,19.44579481900007],[100.27346464800007,19.482719382000028],[100.27419952400004,19.509714212000063]]]}},{"type":"Feature","properties":{"code":"560604","name":"งิม","parentCode":"5606"},"geometry":{"type":"Polygon","coordinates":[[[100.44223268400003,19.39434060800005],[100.35824125800008,19.392780180000045],[100.34742312400004,19.357841880000024],[100.27603672100008,19.33288204400003],[100.25027543100003,19.349882695000076],[100.32340882300008,19.300931993000063],[100.32586063000008,19.241337887000043],[100.37592045700006,19.215781049000043],[100.37631238500006,19.170152458000075],[100.38058886900006,19.167346574000078],[100.39200630300007,19.152869748000057],[100.47429789000006,19.207385143000067],[100.46610203500006,19.248099471000046],[100.49186212100005,19.281354366000073],[100.40437567100008,19.365184731000056],[100.44223268400003,19.39434060800005]]]}},{"type":"Feature","properties":{"code":"560508","name":"หนองหล่ม","parentCode":"5605"},"geometry":{"type":"Polygon","coordinates":[[[100.12285267300007,19.060139013000025],[100.05779236300003,19.06247683400005],[100.03336234100004,18.902418359000023],[100.04149928900006,18.890113849000045],[100.06705900900005,18.866730362000055],[100.06594746400003,18.817548757000054],[100.11402458500004,18.808551408000028],[100.15593258000007,18.835470908000048],[100.15588262100005,18.913431110000033],[100.10721193800003,19.004918864000047],[100.11137828100004,19.02541177200004],[100.12285267300007,19.060139013000025]]]}},{"type":"Feature","properties":{"code":"560603","name":"ออย","parentCode":"5606"},"geometry":{"type":"Polygon","coordinates":[[[100.37631238500006,19.170152458000075],[100.37592045700006,19.215781049000043],[100.32586063000008,19.241337887000043],[100.32340882300008,19.300931993000063],[100.25027543100003,19.349882695000076],[100.23553882400006,19.34558903800007],[100.22997081900007,19.330193419000068],[100.26429657500006,19.262622914000076],[100.28600833300004,19.19626980700008],[100.31580486800004,19.172188275000053],[100.37631238500006,19.170152458000075]]]}},{"type":"Feature","properties":{"code":"560704","name":"ป่าแฝก","parentCode":"5607"},"geometry":{"type":"Polygon","coordinates":[[[99.83721109900006,19.445636904000025],[99.78007176700004,19.444930707000026],[99.71256099700008,19.421251615000074],[99.74855978100004,19.400484857000038],[99.81089675600003,19.408004021000067],[99.83721109900006,19.445636904000025]]]}},{"type":"Feature","properties":{"code":"560802","name":"ป่าสัก","parentCode":"5608"},"geometry":{"type":"Polygon","coordinates":[[[100.38371948200006,19.619132517000025],[100.32717473900004,19.62068079100004],[100.32143937000006,19.597064997000075],[100.33470845400007,19.596435288000066],[100.38371948200006,19.619132517000025]]]}},{"type":"Feature","properties":{"code":"560507","name":"ป่าซาง","parentCode":"5605"},"geometry":{"type":"Polygon","coordinates":[[[100.09973958000006,19.299487405000036],[100.06939619600007,19.29735641600007],[100.02267053200006,19.296284166000078],[100.01552006500003,19.275569107000024],[100.01444730900005,19.272033646000068],[100.09655017900008,19.269406976000027],[100.09973958000006,19.299487405000036]]]}},{"type":"Feature","properties":{"code":"560605","name":"ผาช้างน้อย","parentCode":"5606"},"geometry":{"type":"Polygon","coordinates":[[[100.48809490400004,19.39955142100007],[100.44223268400003,19.39434060800005],[100.40437567100008,19.365184731000056],[100.49186212100005,19.281354366000073],[100.46610203500006,19.248099471000046],[100.47429789000006,19.207385143000067],[100.51170590700008,19.16811728600004],[100.55394015300004,19.15808921200005],[100.53852240700007,19.130959364000034],[100.57348106900008,19.104543915000022],[100.62218264700005,19.110212180000076],[100.61802261300005,19.183891687000028],[100.61935106300007,19.19597427800005],[100.60124191900007,19.249502704000065],[100.61240346200003,19.312504578000073],[100.60921704300006,19.33412970100005],[100.57092765300007,19.30460600600003],[100.51941132300004,19.380685741000036],[100.48809490400004,19.39955142100007]]]}},{"type":"Feature","properties":{"code":"560207","name":"พระธาตุขิงแกง","parentCode":"5602"},"geometry":{"type":"Polygon","coordinates":[[[100.26429657500006,19.262622914000076],[100.22997081900007,19.330193419000068],[100.17860743400007,19.312277770000037],[100.14716185600008,19.204739338000024],[100.17151984800006,19.216518203000078],[100.21298302200006,19.227952452000068],[100.22627020600004,19.265663363000044],[100.26429657500006,19.262622914000076]]]}},{"type":"Feature","properties":{"code":"560801","name":"ภูซาง","parentCode":"5608"},"geometry":{"type":"Polygon","coordinates":[[[100.42773040200007,19.673056562000056],[100.44448578200007,19.70313374600005],[100.40657643800006,19.73606207800003],[100.33398739700004,19.703980992000027],[100.31118824900005,19.646192159000066],[100.32717473900004,19.62068079100004],[100.38371948200006,19.619132517000025],[100.42773040200007,19.673056562000056]]]}},{"type":"Feature","properties":{"code":"560601","name":"ปง","parentCode":"5606"},"geometry":{"type":"Polygon","coordinates":[[[100.29673004000006,19.159770612000045],[100.16694399800008,19.198416198000075],[100.17151984800006,19.216518203000078],[100.14716185600008,19.204739338000024],[100.11484094900004,19.157081938000033],[100.11247948500005,19.146745329000055],[100.12285267300007,19.060139013000025],[100.11137828100004,19.02541177200004],[100.14237343500008,19.00676723400005],[100.22257793900008,19.031072360000053],[100.27191656900004,19.022243114000048],[100.33122801400003,19.06517911800006],[100.31500736300006,19.09288067700004],[100.29432843800004,19.099298462000036],[100.29673004000006,19.159770612000045]]]}},{"type":"Feature","properties":{"code":"560310","name":"ร่มเย็น","parentCode":"5603"},"geometry":{"type":"Polygon","coordinates":[[[100.48990365300006,19.56992722800004],[100.43131338000006,19.57984619900003],[100.35147166100006,19.569066888000066],[100.36046321800006,19.479008543000077],[100.36823928500007,19.468827212000065],[100.43567449000005,19.45647065000003],[100.56528981000008,19.452730579000047],[100.60251594100004,19.47921375100003],[100.59862199300005,19.510074245000055],[100.58072530500004,19.499296599000047],[100.48751513800005,19.54293974600006],[100.48990365300006,19.56992722800004]]]}},{"type":"Feature","properties":{"code":"560403","name":"สระ","parentCode":"5604"},"geometry":{"type":"Polygon","coordinates":[[[100.33122801400003,19.06517911800006],[100.27191656900004,19.022243114000048],[100.22257793900008,19.031072360000053],[100.14237343500008,19.00676723400005],[100.11137828100004,19.02541177200004],[100.10721193800003,19.004918864000047],[100.15588262100005,18.913431110000033],[100.28431514700009,18.933352107000076],[100.32664526900004,18.95257878700005],[100.41034208500008,18.945188977000043],[100.45140574800007,18.93521329400005],[100.50092321300008,18.98614251500004],[100.45701758500007,19.00944816200007],[100.44809053300008,19.032205383000075],[100.34688198800006,19.042957305000073],[100.33122801400003,19.06517911800006]]]}},{"type":"Feature","properties":{"code":"560506","name":"สันโค้ง","parentCode":"5605"},"geometry":{"type":"Polygon","coordinates":[[[100.11168098600007,19.213391784000066],[100.00532421600008,19.227340690000062],[100.01313692700006,19.179874023000025],[100.06554505800005,19.15238283700006],[100.11247948500005,19.146745329000055],[100.11484094900004,19.157081938000033],[100.11168098600007,19.213391784000066]]]}},{"type":"Feature","properties":{"code":"560118","name":"สันป่าม่วง","parentCode":"5601"},"geometry":{"type":"Polygon","coordinates":[[[99.85529238500004,19.178362330000027],[99.83375028800003,19.196814759000063],[99.76098203300006,19.182129984000028],[99.72858338700007,19.18107876600004],[99.72613930800009,19.169888379000042],[99.74137572400008,19.15028903700005],[99.85529238500004,19.178362330000027]]]}},{"type":"Feature","properties":{"code":"560511","name":"สว่างอารมณ์","parentCode":"5605"},"geometry":{"type":"Polygon","coordinates":[[[100.00532421600008,19.227340690000062],[100.00055992300008,19.234824468000056],[99.96478542300008,19.205007806000026],[99.94006487600006,19.177127296000037],[99.98641217600004,19.173086999000077],[100.01313692700006,19.179874023000025],[100.00532421600008,19.227340690000062]]]}},{"type":"Feature","properties":{"code":"560702","name":"ศรีถ้อย","parentCode":"5607"},"geometry":{"type":"Polygon","coordinates":[[[99.81576663300007,19.391689885000062],[99.77974985300006,19.37727756000004],[99.68717092500003,19.398949955000035],[99.69361542700005,19.382684187000052],[99.70106365900006,19.347597681000025],[99.78180538500004,19.337971277000065],[99.82492854800006,19.35082154500003],[99.81576663300007,19.391689885000062]]]}},{"type":"Feature","properties":{"code":"560805","name":"สบบง","parentCode":"5608"},"geometry":{"type":"Polygon","coordinates":[[[100.33470845400007,19.596435288000066],[100.32143937000006,19.597064997000075],[100.25254077900007,19.58951309200006],[100.25764570900009,19.556496199000037],[100.28779573300005,19.55322211200007],[100.31832159900006,19.54960281600006],[100.33937812500005,19.570398900000043],[100.33470845400007,19.596435288000066]]]}},{"type":"Feature","properties":{"code":"560116","name":"ท่าจำปี","parentCode":"5601"},"geometry":{"type":"Polygon","coordinates":[[[99.84144396100004,19.25954215200005],[99.79195647600005,19.252889331000063],[99.70477384100008,19.27362332000007],[99.70369957600008,19.258242148000022],[99.79114650800005,19.229494456000054],[99.84845613400006,19.243474922000075],[99.84144396100004,19.25954215200005]]]}},{"type":"Feature","properties":{"code":"560113","name":"ท่าวังทอง","parentCode":"5601"},"geometry":{"type":"Polygon","coordinates":[[[99.96380705500007,19.208846658000027],[99.91315217600004,19.251177549000033],[99.88874767800007,19.181601687000068],[99.91923151600008,19.15927526400003],[99.92238196000005,19.159518023000032],[99.94006487600006,19.177127296000037],[99.96478542300008,19.205007806000026],[99.96380705500007,19.208846658000027]]]}},{"type":"Feature","properties":{"code":"560803","name":"ทุ่งกล้วย","parentCode":"5608"},"geometry":{"type":"Polygon","coordinates":[[[100.48990365300006,19.56992722800004],[100.48293487800004,19.610249408000072],[100.42773040200007,19.673056562000056],[100.38371948200006,19.619132517000025],[100.33470845400007,19.596435288000066],[100.33937812500005,19.570398900000043],[100.35147166100006,19.569066888000066],[100.43131338000006,19.57984619900003],[100.48990365300006,19.56992722800004]]]}},{"type":"Feature","properties":{"code":"560314","name":"ทุ่งผาสุข","parentCode":"5603"},"geometry":{"type":"Polygon","coordinates":[[[100.30176936100008,19.505409567000072],[100.30135123600007,19.505440626000052],[100.27346464800007,19.482719382000028],[100.27644060500006,19.44579481900007],[100.22287664800007,19.43785041600006],[100.30068095500008,19.439905330000045],[100.31181025900008,19.487403552000046],[100.30176936100008,19.505409567000072]]]}},{"type":"Feature","properties":{"code":"560205","name":"ทุ่งรวงทอง","parentCode":"5602"},"geometry":{"type":"Polygon","coordinates":[[[100.14219543100006,19.504607408000027],[100.13556576700006,19.479667758000062],[100.11842386400008,19.45745477400004],[100.13746183300003,19.404829496000048],[100.20623290500004,19.402341427000067],[100.20722189000008,19.44448776400003],[100.14219543100006,19.504607408000027]]]}},{"type":"Feature","properties":{"code":"560101","name":"เวียง","parentCode":"5601"},"geometry":{"type":"Polygon","coordinates":[[[99.91923151600008,19.15927526400003],[99.88874767800007,19.181601687000068],[99.88721075400008,19.17738356700005],[99.88507584600006,19.171128343000078],[99.88972293700004,19.16723852100006],[99.91359438600006,19.15974510600006],[99.91923151600008,19.15927526400003]]]}},{"type":"Feature","properties":{"code":"560307","name":"เวียง","parentCode":"5603"},"geometry":{"type":"Polygon","coordinates":[[[100.34924637400007,19.484641149000026],[100.32811653400006,19.51101207100004],[100.30176936100008,19.505409567000072],[100.31181025900008,19.487403552000046],[100.34924637400007,19.484641149000026]]]}},{"type":"Feature","properties":{"code":"560301","name":"หย่วน","parentCode":"5603"},"geometry":{"type":"Polygon","coordinates":[[[100.31832159900006,19.54960281600006],[100.28779573300005,19.55322211200007],[100.30135123600007,19.505440626000052],[100.30176936100008,19.505409567000072],[100.32811653400006,19.51101207100004],[100.31832159900006,19.54960281600006]]]}}]}