{"type":"FeatureCollection","features":[{"type":"Feature","properties":{"code":"570908","name":"บ้านด้าย","parentCode":"5709"},"geometry":{"type":"Polygon","coordinates":[[[99.96547820600006,20.35290315900005],[99.94222867300005,20.349392890000047],[99.92631768600006,20.340574582000045],[99.89175334300006,20.303769171000056],[99.91358114000008,20.28091141300007],[99.93470770400006,20.282572607000077],[99.94510507800004,20.288557549000075],[99.96547820600006,20.35290315900005]]]}},{"type":"Feature","properties":{"code":"570103","name":"บ้านดู่","parentCode":"5701"},"geometry":{"type":"Polygon","coordinates":[[[99.91265987100007,19.975235446000056],[99.88324967600005,19.97650113800006],[99.79491203500004,20.028296287000046],[99.80900531800006,19.93832566100002],[99.88576109600007,19.947232018000022],[99.91265987100007,19.975235446000056]]]}},{"type":"Feature","properties":{"code":"571103","name":"บ้านโป่ง","parentCode":"5711"},"geometry":{"type":"Polygon","coordinates":[[[99.57769083100004,19.308200914000054],[99.57347621600007,19.344812913000055],[99.51032233800004,19.327852618000065],[99.49906087800008,19.34494070200003],[99.44499479300003,19.299024195000072],[99.33818021100006,19.289104034000047],[99.34173110600005,19.268874367000024],[99.46946785200004,19.286877597000057],[99.48057472000005,19.302362192000032],[99.57769083100004,19.308200914000054]]]}},{"type":"Feature","properties":{"code":"570803","name":"บ้านแซว","parentCode":"5708"},"geometry":{"type":"Polygon","coordinates":[[[100.28348824500006,20.235655378000047],[100.21309762900006,20.24240491100005],[100.22784560400004,20.29221933200006],[100.19351678200007,20.311124195000048],[100.18021122000005,20.263681356000063],[100.14261925900007,20.247468036000043],[100.12458976300007,20.227655214000038],[100.18227621700004,20.189193098000032],[100.30540512000005,20.186880572000064],[100.28348824500006,20.235655378000047]]]}},{"type":"Feature","properties":{"code":"571603","name":"บัวสลี","parentCode":"5716"},"geometry":{"type":"Polygon","coordinates":[[[99.74223470500004,19.832512622000024],[99.70754130600005,19.817875998000034],[99.78785000600004,19.79449951500004],[99.74223470500004,19.832512622000024]]]}},{"type":"Feature","properties":{"code":"570304","name":"บุญเรือง","parentCode":"5703"},"geometry":{"type":"Polygon","coordinates":[[[100.35000536000007,20.019730407000054],[100.29460570000003,20.00412327500004],[100.31214598500009,19.973509211000078],[100.37218809500007,19.95353691400004],[100.40471165000008,19.994048151000072],[100.35000536000007,20.019730407000054]]]}},{"type":"Feature","properties":{"code":"570702","name":"จันจว้า","parentCode":"5707"},"geometry":{"type":"Polygon","coordinates":[[[99.98935030300004,20.29787474400007],[99.94510507800004,20.288557549000075],[99.93470770400006,20.282572607000077],[99.92800773300007,20.269504614000027],[99.97043149100006,20.180319531000066],[100.02438325800006,20.215417977000072],[100.01259264700008,20.243654180000078],[99.98179668200004,20.25978819900007],[99.98935030300004,20.29787474400007]]]}},{"type":"Feature","properties":{"code":"570712","name":"จันจว้าใต้","parentCode":"5707"},"geometry":{"type":"Polygon","coordinates":[[[99.97043149100006,20.180319531000066],[99.92800773300007,20.269504614000027],[99.90170857400005,20.235976851000032],[99.95775977000005,20.179059559000052],[99.97043149100006,20.180319531000066]]]}},{"type":"Feature","properties":{"code":"570507","name":"เจริญเมือง","parentCode":"5705"},"geometry":{"type":"Polygon","coordinates":[[[99.79827468100007,19.580626841000026],[99.80998805400009,19.640470572000027],[99.76892119800004,19.66980453800005],[99.72930782700007,19.611501099000066],[99.75150733500004,19.592938939000078],[99.79827468100007,19.580626841000026]]]}},{"type":"Feature","properties":{"code":"571007","name":"เจดีย์หลวง","parentCode":"5710"},"geometry":{"type":"Polygon","coordinates":[[[99.62655259100006,19.57421742400004],[99.49471938200008,19.621329115000037],[99.46206909800009,19.56519663100005],[99.55214167600008,19.53050562800007],[99.61797687300003,19.52664405300004],[99.62655259100006,19.57421742400004]]]}},{"type":"Feature","properties":{"code":"570405","name":"เชียงเคี่ยน","parentCode":"5704"},"geometry":{"type":"Polygon","coordinates":[[[100.02624959000008,19.61528216800008],[100.00206055600006,19.663957038000035],[99.92721316400008,19.622672169000055],[99.95212921300003,19.575597839000068],[100.00118779500008,19.59101204600006],[100.02624959000008,19.61528216800008]]]}},{"type":"Feature","properties":{"code":"571802","name":"โชคชัย","parentCode":"5718"},"geometry":{"type":"Polygon","coordinates":[[[100.30540512000005,20.186880572000064],[100.18227621700004,20.189193098000032],[100.15758945700009,20.135083227000052],[100.07898465900007,20.153865308000036],[100.12044400200006,20.08901192600007],[100.20713587700004,20.070714744000043],[100.24332296300008,20.13099298800006],[100.27367359700008,20.131909794000023],[100.30796776000005,20.173468527000068],[100.30540512000005,20.186880572000064]]]}},{"type":"Feature","properties":{"code":"571602","name":"จอมหมอกแก้ว","parentCode":"5716"},"geometry":{"type":"Polygon","coordinates":[[[99.68679232500006,19.775103320000028],[99.64267105800008,19.771399245000055],[99.62434990500009,19.760778518000052],[99.62843343300005,19.752949584000078],[99.70711917200003,19.762144831000057],[99.73490105000008,19.744693761000065],[99.77641714700007,19.72997801300005],[99.80639663100004,19.726806441000065],[99.80789901300005,19.744103735000067],[99.68679232500006,19.775103320000028]]]}},{"type":"Feature","properties":{"code":"570713","name":"จอมสวรรค์","parentCode":"5707"},"geometry":{"type":"Polygon","coordinates":[[[99.90170857400005,20.235976851000032],[99.88781800600003,20.23073782000006],[99.88748617100003,20.196090781000066],[99.95644207700008,20.161899364000078],[99.95775977000005,20.179059559000052],[99.90170857400005,20.235976851000032]]]}},{"type":"Feature","properties":{"code":"570120","name":"ดอยฮาง","parentCode":"5701"},"geometry":{"type":"Polygon","coordinates":[[[99.78100673700004,19.912918982000065],[99.71451727100003,19.958687576000045],[99.65312277400005,19.97631612300006],[99.64643926600007,19.911538922000034],[99.72192152700006,19.89941512100006],[99.73397634800006,19.875987033000058],[99.77093168000005,19.894084829000064],[99.78100673700004,19.912918982000065]]]}},{"type":"Feature","properties":{"code":"570115","name":"ดอยลาน","parentCode":"5701"},"geometry":{"type":"Polygon","coordinates":[[[100.00788972300006,19.74889709200005],[99.89495975200003,19.712975733000064],[99.87451432700004,19.68329350700003],[99.87188791500006,19.64327191900003],[99.92654598600006,19.623206699000036],[99.92721316400008,19.622672169000055],[100.00206055600006,19.663957038000035],[100.00868276900007,19.695049293000068],[100.02523349300009,19.731663309000055],[100.00788972300006,19.74889709200005]]]}},{"type":"Feature","properties":{"code":"570505","name":"ดอยงาม","parentCode":"5705"},"geometry":{"type":"Polygon","coordinates":[[[99.86850770600006,19.578624665000063],[99.82021618600004,19.57551258600006],[99.79337460900007,19.563219627000024],[99.83215590600008,19.52743061500007],[99.86850770600006,19.578624665000063]]]}},{"type":"Feature","properties":{"code":"570206","name":"ดอนศิลา","parentCode":"5702"},"geometry":{"type":"Polygon","coordinates":[[[100.07186549900007,19.822522496000033],[100.00130450600005,19.83600603600007],[99.97815213500007,19.87140487100004],[99.96618046600008,19.864528673000052],[99.93793599700007,19.82586689900006],[99.98170392600008,19.79887487700006],[100.00788972300006,19.74889709200005],[100.02523349300009,19.731663309000055],[100.04130986900009,19.74522320600005],[100.07075128300005,19.797793674000047],[100.07186549900007,19.822522496000033]]]}},{"type":"Feature","properties":{"code":"571601","name":"ดงมะดะ","parentCode":"5716"},"geometry":{"type":"Polygon","coordinates":[[[99.73490105000008,19.744693761000065],[99.70711917200003,19.762144831000057],[99.62843343300005,19.752949584000078],[99.64512786700004,19.696862285000066],[99.72819791900008,19.722825881000063],[99.73490105000008,19.744693761000065]]]}},{"type":"Feature","properties":{"code":"571702","name":"ดงมหาวัน","parentCode":"5717"},"geometry":{"type":"Polygon","coordinates":[[[100.04952279800005,20.051784482000073],[100.01039324900006,20.110836835000043],[99.97757391700009,20.080353586000058],[99.96017263800007,20.020593029000054],[99.97795142200005,20.002014076000023],[100.02640919300006,19.992213505000052],[100.04698506200003,20.02944040600005],[100.04952279800005,20.051784482000073]]]}},{"type":"Feature","properties":{"code":"570506","name":"หัวง้ม","parentCode":"5705"},"geometry":{"type":"Polygon","coordinates":[[[99.83215590600008,19.52743061500007],[99.79337460900007,19.563219627000024],[99.76606065600004,19.557014414000037],[99.75132313400007,19.52845529500007],[99.79734038800007,19.495527373000073],[99.83871008300008,19.50766995400005],[99.83215590600008,19.52743061500007]]]}},{"type":"Feature","properties":{"code":"570112","name":"ห้วยชมภู","parentCode":"5701"},"geometry":{"type":"Polygon","coordinates":[[[99.57425105800007,20.02151714400003],[99.50518798700006,20.053703366000036],[99.47630030500005,20.03938055800006],[99.45267458400008,19.981626249000044],[99.52924322900009,19.964552566000066],[99.57822775500006,19.896101186000067],[99.57065295300004,19.78809679400007],[99.62434990500009,19.760778518000052],[99.64267105800008,19.771399245000055],[99.61303941100005,19.80773370000003],[99.64804426300003,19.859321496000064],[99.64643926600007,19.911538922000034],[99.65312277400005,19.97631612300006],[99.57425105800007,20.02151714400003]]]}},{"type":"Feature","properties":{"code":"570902","name":"ห้วยไคร้","parentCode":"5709"},"geometry":{"type":"Polygon","coordinates":[[[99.89175334300006,20.303769171000056],[99.81519913600005,20.329613840000036],[99.84080035800008,20.268767336000053],[99.89294754600007,20.25767888100006],[99.91358114000008,20.28091141300007],[99.89175334300006,20.303769171000056]]]}},{"type":"Feature","properties":{"code":"570113","name":"ห้วยสัก","parentCode":"5701"},"geometry":{"type":"Polygon","coordinates":[[[99.93793599700007,19.82586689900006],[99.90414741300003,19.838684084000022],[99.84611447600008,19.791153044000055],[99.82717473000008,19.71821652700004],[99.87451432700004,19.68329350700003],[99.89495975200003,19.712975733000064],[100.00788972300006,19.74889709200005],[99.98170392600008,19.79887487700006],[99.93793599700007,19.82586689900006]]]}},{"type":"Feature","properties":{"code":"570305","name":"ห้วยซ้อ","parentCode":"5703"},"geometry":{"type":"Polygon","coordinates":[[[100.27367359700008,20.131909794000023],[100.24332296300008,20.13099298800006],[100.20713587700004,20.070714744000043],[100.19992841600003,20.051103839000064],[100.20031236500006,20.026995101000068],[100.25661406000006,19.98802461500003],[100.29460570000003,20.00412327500004],[100.35000536000007,20.019730407000054],[100.38441798700006,20.07859276100004],[100.32705984100005,20.125950404000037],[100.27367359700008,20.131909794000023]]]}},{"type":"Feature","properties":{"code":"570303","name":"ครึ่ง","parentCode":"5703"},"geometry":{"type":"Polygon","coordinates":[[[100.45541038700009,20.110150065000028],[100.41694765300008,20.136396861000037],[100.38441798700006,20.07859276100004],[100.35000536000007,20.019730407000054],[100.40471165000008,19.994048151000072],[100.41567114100008,20.023323644000072],[100.43421436200003,20.06511929900006],[100.45541038700009,20.110150065000028]]]}},{"type":"Feature","properties":{"code":"570903","name":"เกาะช้าง","parentCode":"5709"},"geometry":{"type":"Polygon","coordinates":[[[100.03580509000005,20.39816740300006],[99.99009298800007,20.418825489000028],[99.95571435700003,20.46472195700005],[99.93406955000006,20.45442504400006],[99.93759981700003,20.419794806000027],[100.00716613400004,20.379341595000028],[100.03580509000005,20.39816740300006]]]}},{"type":"Feature","properties":{"code":"571303","name":"หล่ายงาว","parentCode":"5713"},"geometry":{"type":"Polygon","coordinates":[[[100.52654809300009,20.143289656000036],[100.46291849100004,20.19874733200004],[100.45541038700009,20.110150065000028],[100.43421436200003,20.06511929900006],[100.50095687000004,20.072528590000047],[100.52654809300009,20.143289656000036]]]}},{"type":"Feature","properties":{"code":"570701","name":"แม่จัน","parentCode":"5707"},"geometry":{"type":"Polygon","coordinates":[[[99.86648893200004,20.166049411000074],[99.85540025100005,20.15349910300006],[99.84524777400009,20.111642348000032],[99.92840290500004,20.117041328000028],[99.94189361300005,20.131065763000038],[99.93704896300005,20.13596349200003],[99.86648893200004,20.166049411000074]]]}},{"type":"Feature","properties":{"code":"571106","name":"แม่เจดีย์","parentCode":"5711"},"geometry":{"type":"Polygon","coordinates":[[[99.54141478300005,19.206285945000047],[99.46840705300008,19.229769503000057],[99.41108119100005,19.193904202000056],[99.34664227700006,19.196826757000053],[99.30844948500004,19.17477387300005],[99.32107571400007,19.123614392000036],[99.34065982600004,19.095649593000076],[99.46792491000008,19.191947391000042],[99.52393190600009,19.189556139000047],[99.53662880100006,19.16391737400005],[99.54141478300005,19.206285945000047]]]}},{"type":"Feature","properties":{"code":"571107","name":"แม่เจดีย์ใหม่","parentCode":"5711"},"geometry":{"type":"Polygon","coordinates":[[[99.53662880100006,19.16391737400005],[99.52393190600009,19.189556139000047],[99.46792491000008,19.191947391000042],[99.34065982600004,19.095649593000076],[99.38159178000006,19.06519984700003],[99.40180343500003,19.00014822000003],[99.43715423500004,19.009720684000058],[99.48316887700008,19.071443060000036],[99.52560412800005,19.076851488000045],[99.55342510400004,19.122726037000064],[99.53662880100006,19.16391737400005]]]}},{"type":"Feature","properties":{"code":"571504","name":"แม่ฟ้าหลวง","parentCode":"5715"},"geometry":{"type":"Polygon","coordinates":[[[99.81065542300007,20.336361237000062],[99.73052649100003,20.35018556400007],[99.71998032200008,20.33087123200005],[99.74661239100004,20.286227238000038],[99.73305700700007,20.252995562000024],[99.78894487500008,20.232226957000023],[99.80545198100003,20.230635203000077],[99.83260019100004,20.250891125000066],[99.84080035800008,20.268767336000053],[99.81519913600005,20.329613840000036],[99.81065542300007,20.336361237000062]]]}},{"type":"Feature","properties":{"code":"570703","name":"แม่คำ","parentCode":"5707"},"geometry":{"type":"Polygon","coordinates":[[[99.93470770400006,20.282572607000077],[99.91358114000008,20.28091141300007],[99.89294754600007,20.25767888100006],[99.83260019100004,20.250891125000066],[99.80545198100003,20.230635203000077],[99.84419314700006,20.212646601000074],[99.88781800600003,20.23073782000006],[99.90170857400005,20.235976851000032],[99.92800773300007,20.269504614000027],[99.93470770400006,20.282572607000077]]]}},{"type":"Feature","properties":{"code":"570105","name":"แม่ข้าวต้ม","parentCode":"5701"},"geometry":{"type":"Polygon","coordinates":[[[100.01039324900006,20.110836835000043],[99.94189361300005,20.131065763000038],[99.92840290500004,20.117041328000028],[99.93477437300004,20.07940204500005],[99.89366012500005,20.03511357600007],[99.89680607800005,19.991573953000056],[99.93178140100008,19.975209680000034],[99.96017263800007,20.020593029000054],[99.97757391700009,20.080353586000058],[100.01039324900006,20.110836835000043]]]}},{"type":"Feature","properties":{"code":"570111","name":"แม่กรณ์","parentCode":"5701"},"geometry":{"type":"Polygon","coordinates":[[[99.73397634800006,19.875987033000058],[99.72192152700006,19.89941512100006],[99.64643926600007,19.911538922000034],[99.64804426300003,19.859321496000064],[99.69161814800003,19.809329946000048],[99.70754130600005,19.817875998000034],[99.74223470500004,19.832512622000024],[99.73397634800006,19.875987033000058]]]}},{"type":"Feature","properties":{"code":"570404","name":"แม่ลอย","parentCode":"5704"},"geometry":{"type":"Polygon","coordinates":[[[100.06777767900007,19.626266717000078],[100.02624959000008,19.61528216800008],[100.00118779500008,19.59101204600006],[100.01687011500007,19.56174590100005],[100.06566084600007,19.51025696800008],[100.10998637800009,19.552863381000066],[100.06777767900007,19.626266717000078]]]}},{"type":"Feature","properties":{"code":"570805","name":"แม่เงิน","parentCode":"5708"},"geometry":{"type":"Polygon","coordinates":[[[100.31998070400005,20.30838065200004],[100.30337789400005,20.34002600900004],[100.24662560700006,20.368698306000056],[100.19351678200007,20.311124195000048],[100.22784560400004,20.29221933200006],[100.21309762900006,20.24240491100005],[100.28348824500006,20.235655378000047],[100.28980264300009,20.243831433000025],[100.31998070400005,20.30838065200004]]]}},{"type":"Feature","properties":{"code":"570502","name":"แม่อ้อ","parentCode":"5705"},"geometry":{"type":"Polygon","coordinates":[[[99.80639663100004,19.726806441000065],[99.77641714700007,19.72997801300005],[99.76959103600007,19.686063295000054],[99.76892119800004,19.66980453800005],[99.80998805400009,19.640470572000027],[99.79827468100007,19.580626841000026],[99.80317691800008,19.579298136000034],[99.81921690500008,19.62467796900006],[99.87188791500006,19.64327191900003],[99.87451432700004,19.68329350700003],[99.82717473000008,19.71821652700004],[99.80639663100004,19.726806441000065]]]}},{"type":"Feature","properties":{"code":"571201","name":"แม่เปา","parentCode":"5712"},"geometry":{"type":"Polygon","coordinates":[[[100.16558286900005,19.930747993000068],[100.11893683400007,19.981793378000077],[100.09238000000005,19.949006605000022],[100.09876151900005,19.906877792000046],[100.07186549900007,19.822522496000033],[100.07075128300005,19.797793674000047],[100.12239876500007,19.819077665000066],[100.16558286900005,19.930747993000068]]]}},{"type":"Feature","properties":{"code":"571003","name":"แม่พริก","parentCode":"5710"},"geometry":{"type":"Polygon","coordinates":[[[99.61899460900008,19.621798131000048],[99.56087509000008,19.62266937800007],[99.51199235800004,19.645627146000038],[99.48417488500007,19.622069354000075],[99.49471938200008,19.621329115000037],[99.62655259100006,19.57421742400004],[99.64683124400005,19.604378955000072],[99.61899460900008,19.621798131000048]]]}},{"type":"Feature","properties":{"code":"570710","name":"แม่ไร่","parentCode":"5707"},"geometry":{"type":"Polygon","coordinates":[[[99.89294754600007,20.25767888100006],[99.84080035800008,20.268767336000053],[99.83260019100004,20.250891125000066],[99.89294754600007,20.25767888100006]]]}},{"type":"Feature","properties":{"code":"570901","name":"แม่สาย","parentCode":"5709"},"geometry":{"type":"Polygon","coordinates":[[[99.93406955000006,20.45442504400006],[99.88042588900004,20.444541909000066],[99.91417675600007,20.41027248000006],[99.93759981700003,20.419794806000027],[99.93406955000006,20.45442504400006]]]}},{"type":"Feature","properties":{"code":"571502","name":"แม่สลองใน","parentCode":"5715"},"geometry":{"type":"Polygon","coordinates":[[[99.73305700700007,20.252995562000024],[99.66686752000004,20.23192776700006],[99.64422088500004,20.259874552000042],[99.55035437700008,20.302958383000032],[99.45834737800004,20.392804797000053],[99.45567251500006,20.363012225000034],[99.50697045600003,20.325807676000068],[99.52284406300004,20.232906865000075],[99.56364631300005,20.205739102000052],[99.59782948200007,20.20420364200004],[99.68532956500007,20.155270210000026],[99.75296166700008,20.15723956900007],[99.75407253200007,20.183898142000032],[99.78894487500008,20.232226957000023],[99.73305700700007,20.252995562000024]]]}},{"type":"Feature","properties":{"code":"571503","name":"แม่สลองนอก","parentCode":"5715"},"geometry":{"type":"Polygon","coordinates":[[[99.75296166700008,20.15723956900007],[99.68532956500007,20.155270210000026],[99.59782948200007,20.20420364200004],[99.56364631300005,20.205739102000052],[99.54985285900005,20.17548895500005],[99.59302722500007,20.16438068900004],[99.64397115400004,20.106960986000047],[99.72068426700008,20.11639377800003],[99.75821200600006,20.148370193000062],[99.75296166700008,20.15723956900007]]]}},{"type":"Feature","properties":{"code":"571001","name":"แม่สรวย","parentCode":"5710"},"geometry":{"type":"Polygon","coordinates":[[[99.64512786700004,19.696862285000066],[99.62843343300005,19.752949584000078],[99.62434990500009,19.760778518000052],[99.50106021300007,19.697863420000033],[99.48182566300005,19.71968775600004],[99.51199235800004,19.645627146000038],[99.56087509000008,19.62266937800007],[99.61899460900008,19.621798131000048],[99.62191078200004,19.649509702000046],[99.63757081300008,19.678986356000053],[99.64512786700004,19.696862285000066]]]}},{"type":"Feature","properties":{"code":"571202","name":"แม่ต๋ำ","parentCode":"5712"},"geometry":{"type":"Polygon","coordinates":[[[100.25298394900005,19.896624385000052],[100.25148064400008,19.97491596800006],[100.17689871800007,19.954070132000027],[100.16558286900005,19.930747993000068],[100.25298394900005,19.896624385000052]]]}},{"type":"Feature","properties":{"code":"570106","name":"แม่ยาว","parentCode":"5701"},"geometry":{"type":"Polygon","coordinates":[[[99.78915346900004,20.060994080000057],[99.68406157000004,20.028293474000066],[99.67772385800004,20.07266683000006],[99.61899210100006,20.098810248000063],[99.57425105800007,20.02151714400003],[99.65312277400005,19.97631612300006],[99.71451727100003,19.958687576000045],[99.78100673700004,19.912918982000065],[99.79814858000003,19.919309550000037],[99.80900531800006,19.93832566100002],[99.79491203500004,20.028296287000046],[99.78915346900004,20.060994080000057]]]}},{"type":"Feature","properties":{"code":"570512","name":"แม่เย็น","parentCode":"5705"},"geometry":{"type":"Polygon","coordinates":[[[99.78007176700004,19.444930707000026],[99.74823097000007,19.496980004000022],[99.68462979100008,19.45867165800007],[99.68294610100008,19.422321993000025],[99.71256099700008,19.421251615000074],[99.78007176700004,19.444930707000026]]]}},{"type":"Feature","properties":{"code":"571203","name":"ไม้ยา","parentCode":"5712"},"geometry":{"type":"Polygon","coordinates":[[[100.12239876500007,19.819077665000066],[100.07075128300005,19.797793674000047],[100.04130986900009,19.74522320600005],[100.07480235200006,19.72160758700005],[100.15948998700009,19.710220786000036],[100.16843148400005,19.789469378000035],[100.12239876500007,19.819077665000066]]]}},{"type":"Feature","properties":{"code":"571204","name":"เม็งราย","parentCode":"5712"},"geometry":{"type":"Polygon","coordinates":[[[100.25298394900005,19.896624385000052],[100.16558286900005,19.930747993000068],[100.12239876500007,19.819077665000066],[100.16843148400005,19.789469378000035],[100.17358544400008,19.807332177000035],[100.21806585900003,19.849325184000065],[100.25023431300008,19.887737666000078],[100.25298394900005,19.896624385000052]]]}},{"type":"Feature","properties":{"code":"570509","name":"ม่วงคำ","parentCode":"5705"},"geometry":{"type":"Polygon","coordinates":[[[99.79734038800007,19.495527373000073],[99.75132313400007,19.52845529500007],[99.68795746700005,19.495970185000033],[99.68462979100008,19.45867165800007],[99.74823097000007,19.496980004000022],[99.79734038800007,19.495527373000073]]]}},{"type":"Feature","properties":{"code":"571301","name":"ม่วงยาย","parentCode":"5713"},"geometry":{"type":"Polygon","coordinates":[[[100.55538174100008,20.056894270000043],[100.57817302800004,20.168027981000023],[100.52654809300009,20.143289656000036],[100.50095687000004,20.072528590000047],[100.55538174100008,20.056894270000043]]]}},{"type":"Feature","properties":{"code":"570208","name":"เมืองชุม","parentCode":"5702"},"geometry":{"type":"Polygon","coordinates":[[[100.01262959500008,19.913873310000042],[99.97967339700006,19.953076948000046],[99.93328731200006,19.89978352600008],[99.96618046600008,19.864528673000052],[99.97815213500007,19.87140487100004],[100.01262959500008,19.913873310000042]]]}},{"type":"Feature","properties":{"code":"570513","name":"เมืองพาน","parentCode":"5705"},"geometry":{"type":"Polygon","coordinates":[[[99.74508274200008,19.58365599800004],[99.72275496600008,19.574446609000063],[99.68795746700005,19.495970185000033],[99.75132313400007,19.52845529500007],[99.76606065600004,19.557014414000037],[99.74508274200008,19.58365599800004]]]}},{"type":"Feature","properties":{"code":"570104","name":"นางแล","parentCode":"5701"},"geometry":{"type":"Polygon","coordinates":[[[99.89366012500005,20.03511357600007],[99.83428882400005,20.051888802000065],[99.81134259700008,20.08025720300003],[99.78915346900004,20.060994080000057],[99.79491203500004,20.028296287000046],[99.88324967600005,19.97650113800006],[99.91265987100007,19.975235446000056],[99.93178140100008,19.975209680000034],[99.89680607800005,19.991573953000056],[99.89366012500005,20.03511357600007]]]}},{"type":"Feature","properties":{"code":"570410","name":"หงาว","parentCode":"5704"},"geometry":{"type":"Polygon","coordinates":[[[100.33398739700004,19.703980992000027],[100.25477946100006,19.73311188100007],[100.22134165200004,19.66679785100007],[100.25729771400006,19.645044470000073],[100.31118824900005,19.646192159000066],[100.33398739700004,19.703980992000027]]]}},{"type":"Feature","properties":{"code":"570402","name":"งิ้ว","parentCode":"5704"},"geometry":{"type":"Polygon","coordinates":[[[100.15948998700009,19.710220786000036],[100.07480235200006,19.72160758700005],[100.04130986900009,19.74522320600005],[100.02523349300009,19.731663309000055],[100.00868276900007,19.695049293000068],[100.10245426700004,19.675063387000023],[100.12979981700005,19.65228311900006],[100.18009590000008,19.657039137000027],[100.15900072900007,19.70501114700005],[100.15948998700009,19.710220786000036]]]}},{"type":"Feature","properties":{"code":"571803","name":"หนองป่าก่อ","parentCode":"5718"},"geometry":{"type":"Polygon","coordinates":[[[100.12458976300007,20.227655214000038],[100.11492134900004,20.227910316000077],[100.07815726900009,20.20846356800007],[100.07092992200006,20.154228542000055],[100.07898465900007,20.153865308000036],[100.15758945700009,20.135083227000052],[100.18227621700004,20.189193098000032],[100.12458976300007,20.227655214000038]]]}},{"type":"Feature","properties":{"code":"570413","name":"หนองแรด","parentCode":"5704"},"geometry":{"type":"Polygon","coordinates":[[[100.18400767300005,19.61384670700005],[100.18009590000008,19.657039137000027],[100.12979981700005,19.65228311900006],[100.09915691900005,19.635794630000078],[100.11923852000007,19.59133472900004],[100.16422031500008,19.575735267000027],[100.18400767300005,19.61384670700005]]]}},{"type":"Feature","properties":{"code":"570601","name":"ป่าแดด","parentCode":"5706"},"geometry":{"type":"Polygon","coordinates":[[[100.06566084600007,19.51025696800008],[100.01687011500007,19.56174590100005],[99.97466625400006,19.524605587000053],[99.97957119100005,19.45920771400006],[100.06713237200006,19.49293117800005],[100.06566084600007,19.51025696800008]]]}},{"type":"Feature","properties":{"code":"571002","name":"ป่าแดด","parentCode":"5710"},"geometry":{"type":"Polygon","coordinates":[[[99.48182566300005,19.71968775600004],[99.47543639200006,19.760048219000055],[99.42067977200008,19.822170236000034],[99.36152524500005,19.77732618700003],[99.34682556800004,19.712252142000068],[99.36750274000008,19.677085955000052],[99.45424822200005,19.617794665000076],[99.48417488500007,19.622069354000075],[99.51199235800004,19.645627146000038],[99.48182566300005,19.71968775600004]]]}},{"type":"Feature","properties":{"code":"570508","name":"ป่าหุ่ง","parentCode":"5705"},"geometry":{"type":"Polygon","coordinates":[[[99.72275496600008,19.574446609000063],[99.64683124400005,19.604378955000072],[99.62655259100006,19.57421742400004],[99.61797687300003,19.52664405300004],[99.58254564100008,19.473729481000078],[99.56537606200004,19.417657702000042],[99.63929113500006,19.385364584000058],[99.69361542700005,19.382684187000052],[99.68717092500003,19.398949955000035],[99.68294610100008,19.422321993000025],[99.68462979100008,19.45867165800007],[99.68795746700005,19.495970185000033],[99.72275496600008,19.574446609000063]]]}},{"type":"Feature","properties":{"code":"571604","name":"ป่าก่อดำ","parentCode":"5716"},"geometry":{"type":"Polygon","coordinates":[[[99.70754130600005,19.817875998000034],[99.69161814800003,19.809329946000048],[99.68679232500006,19.775103320000028],[99.80789901300005,19.744103735000067],[99.78785000600004,19.79449951500004],[99.70754130600005,19.817875998000034]]]}},{"type":"Feature","properties":{"code":"570602","name":"ป่าแงะ","parentCode":"5706"},"geometry":{"type":"Polygon","coordinates":[[[100.00118779500008,19.59101204600006],[99.95212921300003,19.575597839000068],[99.92721316400008,19.622672169000055],[99.92654598600006,19.623206699000036],[99.90673356500008,19.568285381000067],[99.91297491500006,19.540386003000037],[99.97466625400006,19.524605587000053],[100.01687011500007,19.56174590100005],[100.00118779500008,19.59101204600006]]]}},{"type":"Feature","properties":{"code":"571104","name":"ป่างิ้ว","parentCode":"5711"},"geometry":{"type":"Polygon","coordinates":[[[99.57769083100004,19.308200914000054],[99.48057472000005,19.302362192000032],[99.46946785200004,19.286877597000057],[99.34173110600005,19.268874367000024],[99.31058336100006,19.222381639000048],[99.30844948500004,19.17477387300005],[99.34664227700006,19.196826757000053],[99.41108119100005,19.193904202000056],[99.46840705300008,19.229769503000057],[99.48462272500007,19.259621690000074],[99.56276794900003,19.278384908000078],[99.56445232800007,19.283748627000023],[99.57769083100004,19.308200914000054]]]}},{"type":"Feature","properties":{"code":"570116","name":"ป่าอ้อดอนชัย","parentCode":"5701"},"geometry":{"type":"Polygon","coordinates":[[[99.77093168000005,19.894084829000064],[99.73397634800006,19.875987033000058],[99.74223470500004,19.832512622000024],[99.78785000600004,19.79449951500004],[99.80789901300005,19.744103735000067],[99.80639663100004,19.726806441000065],[99.82717473000008,19.71821652700004],[99.84611447600008,19.791153044000055],[99.81045396500008,19.836925569000073],[99.78930614300003,19.874466339000037],[99.77093168000005,19.894084829000064]]]}},{"type":"Feature","properties":{"code":"570802","name":"ป่าสัก","parentCode":"5708"},"geometry":{"type":"Polygon","coordinates":[[[100.05096076600006,20.330715174000034],[99.98935030300004,20.29787474400007],[99.98179668200004,20.25978819900007],[100.01259264700008,20.243654180000078],[100.05024833900006,20.288001456000075],[100.05096076600006,20.330715174000034]]]}},{"type":"Feature","properties":{"code":"570704","name":"ป่าซาง","parentCode":"5707"},"geometry":{"type":"Polygon","coordinates":[[[99.88076514000005,20.197584796000058],[99.78865424800006,20.209396651000077],[99.75407253200007,20.183898142000032],[99.75296166700008,20.15723956900007],[99.75821200600006,20.148370193000062],[99.76997098100009,20.16253185000005],[99.85540025100005,20.15349910300006],[99.86648893200004,20.166049411000074],[99.88076514000005,20.197584796000058]]]}},{"type":"Feature","properties":{"code":"571703","name":"ป่าซาง","parentCode":"5717"},"geometry":{"type":"Polygon","coordinates":[[[100.20713587700004,20.070714744000043],[100.12044400200006,20.08901192600007],[100.04952279800005,20.051784482000073],[100.04698506200003,20.02944040600005],[100.11824556600004,19.993909656000028],[100.19992841600003,20.051103839000064],[100.20713587700004,20.070714744000043]]]}},{"type":"Feature","properties":{"code":"571402","name":"ป่าตาล","parentCode":"5714"},"geometry":{"type":"Polygon","coordinates":[[[100.32650023300005,19.844271211000034],[100.25023431300008,19.887737666000078],[100.21806585900003,19.849325184000065],[100.29157085700007,19.800866085000052],[100.32650023300005,19.844271211000034]]]}},{"type":"Feature","properties":{"code":"570708","name":"ป่าตึง","parentCode":"5707"},"geometry":{"type":"Polygon","coordinates":[[[99.75821200600006,20.148370193000062],[99.72068426700008,20.11639377800003],[99.64397115400004,20.106960986000047],[99.59302722500007,20.16438068900004],[99.54985285900005,20.17548895500005],[99.51307463500007,20.147433560000024],[99.57287003500005,20.11948959700004],[99.49116114300006,20.078987056000074],[99.50518798700006,20.053703366000036],[99.57425105800007,20.02151714400003],[99.61899210100006,20.098810248000063],[99.67772385800004,20.07266683000006],[99.68406157000004,20.028293474000066],[99.78915346900004,20.060994080000057],[99.81134259700008,20.08025720300003],[99.84524777400009,20.111642348000032],[99.85540025100005,20.15349910300006],[99.76997098100009,20.16253185000005],[99.75821200600006,20.148370193000062]]]}},{"type":"Feature","properties":{"code":"570203","name":"ผางาม","parentCode":"5702"},"geometry":{"type":"Polygon","coordinates":[[[100.09238000000005,19.949006605000022],[100.01262959500008,19.913873310000042],[99.97815213500007,19.87140487100004],[100.00130450600005,19.83600603600007],[100.07186549900007,19.822522496000033],[100.09876151900005,19.906877792000046],[100.09238000000005,19.949006605000022]]]}},{"type":"Feature","properties":{"code":"570403","name":"ปล้อง","parentCode":"5704"},"geometry":{"type":"Polygon","coordinates":[[[100.00868276900007,19.695049293000068],[100.00206055600006,19.663957038000035],[100.02624959000008,19.61528216800008],[100.06777767900007,19.626266717000078],[100.09915691900005,19.635794630000078],[100.12979981700005,19.65228311900006],[100.10245426700004,19.675063387000023],[100.00868276900007,19.695049293000068]]]}},{"type":"Feature","properties":{"code":"571302","name":"ปอ","parentCode":"5713"},"geometry":{"type":"Polygon","coordinates":[[[100.54197040200006,20.02246044000003],[100.41567114100008,20.023323644000072],[100.40471165000008,19.994048151000072],[100.37218809500007,19.95353691400004],[100.34248123800006,19.873537030000023],[100.44290144700005,19.835310626000023],[100.50008175500005,19.868333560000053],[100.54197040200006,20.02246044000003]]]}},{"type":"Feature","properties":{"code":"570909","name":"โป่งงาม","parentCode":"5709"},"geometry":{"type":"Polygon","coordinates":[[[99.85102894900007,20.370508503000053],[99.84105432300004,20.38412252100005],[99.81065542300007,20.336361237000062],[99.81519913600005,20.329613840000036],[99.89175334300006,20.303769171000056],[99.92631768600006,20.340574582000045],[99.85102894900007,20.370508503000053]]]}},{"type":"Feature","properties":{"code":"571801","name":"ปงน้อย","parentCode":"5718"},"geometry":{"type":"Polygon","coordinates":[[[100.07092992200006,20.154228542000055],[100.01039324900006,20.110836835000043],[100.04952279800005,20.051784482000073],[100.12044400200006,20.08901192600007],[100.07898465900007,20.153865308000036],[100.07092992200006,20.154228542000055]]]}},{"type":"Feature","properties":{"code":"570904","name":"โป่งผา","parentCode":"5709"},"geometry":{"type":"Polygon","coordinates":[[[99.91060270100007,20.384158230000025],[99.86714903000006,20.39700132200005],[99.85102894900007,20.370508503000053],[99.92631768600006,20.340574582000045],[99.94222867300005,20.349392890000047],[99.91060270100007,20.384158230000025]]]}},{"type":"Feature","properties":{"code":"571605","name":"โป่งแพร่","parentCode":"5716"},"geometry":{"type":"Polygon","coordinates":[[[99.64804426300003,19.859321496000064],[99.61303941100005,19.80773370000003],[99.64267105800008,19.771399245000055],[99.68679232500006,19.775103320000028],[99.69161814800003,19.809329946000048],[99.64804426300003,19.859321496000064]]]}},{"type":"Feature","properties":{"code":"570310","name":"ริมโขง","parentCode":"5703"},"geometry":{"type":"Polygon","coordinates":[[[100.37804543100003,20.33170380100006],[100.33009923300006,20.39871587700003],[100.27203923500008,20.400968886000044],[100.24662560700006,20.368698306000056],[100.30337789400005,20.34002600900004],[100.31998070400005,20.30838065200004],[100.37804543100003,20.33170380100006]]]}},{"type":"Feature","properties":{"code":"570114","name":"ริมกก","parentCode":"5701"},"geometry":{"type":"Polygon","coordinates":[[[99.96017263800007,20.020593029000054],[99.93178140100008,19.975209680000034],[99.91265987100007,19.975235446000056],[99.88576109600007,19.947232018000022],[99.80900531800006,19.93832566100002],[99.79814858000003,19.919309550000037],[99.82653201400007,19.920180568000035],[99.84097300200006,19.91548883300004],[99.89882744900007,19.927586763000022],[99.98312899200005,19.992731696000078],[99.97795142200005,20.002014076000023],[99.96017263800007,20.020593029000054]]]}},{"type":"Feature","properties":{"code":"570605","name":"โรงช้าง","parentCode":"5706"},"geometry":{"type":"Polygon","coordinates":[[[99.97466625400006,19.524605587000053],[99.91297491500006,19.540386003000037],[99.91469514300007,19.47501081200005],[99.91430844800004,19.453895817000046],[99.97606211100003,19.45382270600004],[99.97957119100005,19.45920771400006],[99.97466625400006,19.524605587000053]]]}},{"type":"Feature","properties":{"code":"570102","name":"รอบเวียง","parentCode":"5701"},"geometry":{"type":"Polygon","coordinates":[[[99.89882744900007,19.927586763000022],[99.84097300200006,19.91548883300004],[99.82535745600006,19.89577721300003],[99.82653201400007,19.920180568000035],[99.79814858000003,19.919309550000037],[99.78100673700004,19.912918982000065],[99.77093168000005,19.894084829000064],[99.78930614300003,19.874466339000037],[99.82978027400009,19.87880490400005],[99.85919724200005,19.875058118000027],[99.89052977900008,19.896876018000057],[99.89882744900007,19.927586763000022]]]}},{"type":"Feature","properties":{"code":"570510","name":"ทรายขาว","parentCode":"5705"},"geometry":{"type":"Polygon","coordinates":[[[99.76959103600007,19.686063295000054],[99.72034108800005,19.701770963000058],[99.63757081300008,19.678986356000053],[99.62191078200004,19.649509702000046],[99.72930782700007,19.611501099000066],[99.76892119800004,19.66980453800005],[99.76959103600007,19.686063295000054]]]}},{"type":"Feature","properties":{"code":"570511","name":"สันกลาง","parentCode":"5705"},"geometry":{"type":"Polygon","coordinates":[[[99.72930782700007,19.611501099000066],[99.62191078200004,19.649509702000046],[99.61899460900008,19.621798131000048],[99.64683124400005,19.604378955000072],[99.72275496600008,19.574446609000063],[99.74508274200008,19.58365599800004],[99.75150733500004,19.592938939000078],[99.72930782700007,19.611501099000066]]]}},{"type":"Feature","properties":{"code":"570603","name":"สันมะค่า","parentCode":"5706"},"geometry":{"type":"Polygon","coordinates":[[[100.07200023000007,19.434157885000047],[100.06713237200006,19.49293117800005],[99.97957119100005,19.45920771400006],[99.97606211100003,19.45382270600004],[99.99643955000005,19.43047668400004],[100.00499369700003,19.429147460000024],[100.05383423000006,19.431398467000065],[100.07200023000007,19.434157885000047]]]}},{"type":"Feature","properties":{"code":"570501","name":"สันมะเค็ด","parentCode":"5705"},"geometry":{"type":"Polygon","coordinates":[[[99.87188791500006,19.64327191900003],[99.81921690500008,19.62467796900006],[99.80317691800008,19.579298136000034],[99.82021618600004,19.57551258600006],[99.86850770600006,19.578624665000063],[99.90673356500008,19.568285381000067],[99.92654598600006,19.623206699000036],[99.87188791500006,19.64327191900003]]]}},{"type":"Feature","properties":{"code":"570107","name":"สันทราย","parentCode":"5701"},"geometry":{"type":"Polygon","coordinates":[[[99.82978027400009,19.87880490400005],[99.78930614300003,19.874466339000037],[99.81045396500008,19.836925569000073],[99.82978027400009,19.87880490400005]]]}},{"type":"Feature","properties":{"code":"570705","name":"สันทราย","parentCode":"5707"},"geometry":{"type":"Polygon","coordinates":[[[99.95644207700008,20.161899364000078],[99.88748617100003,20.196090781000066],[99.88076514000005,20.197584796000058],[99.86648893200004,20.166049411000074],[99.93704896300005,20.13596349200003],[99.95644207700008,20.161899364000078]]]}},{"type":"Feature","properties":{"code":"570411","name":"สันทรายงาม","parentCode":"5704"},"geometry":{"type":"Polygon","coordinates":[[[100.17358544400008,19.807332177000035],[100.16843148400005,19.789469378000035],[100.15948998700009,19.710220786000036],[100.15900072900007,19.70501114700005],[100.19316821700005,19.783668529000067],[100.17358544400008,19.807332177000035]]]}},{"type":"Feature","properties":{"code":"571101","name":"สันสลี","parentCode":"5711"},"geometry":{"type":"Polygon","coordinates":[[[99.58254564100008,19.473729481000078],[99.49030355300005,19.458367948000046],[99.46244442500006,19.486627197000075],[99.35670545500005,19.54012616500006],[99.32599403000006,19.539399118000063],[99.29453392400006,19.496108624000044],[99.30951401900006,19.43112726800007],[99.46544010800005,19.401332706000062],[99.48453691400005,19.367379194000023],[99.57096658500006,19.394077087000028],[99.56537606200004,19.417657702000042],[99.58254564100008,19.473729481000078]]]}},{"type":"Feature","properties":{"code":"570504","name":"สันติสุข","parentCode":"5705"},"geometry":{"type":"Polygon","coordinates":[[[99.79827468100007,19.580626841000026],[99.75150733500004,19.592938939000078],[99.74508274200008,19.58365599800004],[99.76606065600004,19.557014414000037],[99.79337460900007,19.563219627000024],[99.82021618600004,19.57551258600006],[99.80317691800008,19.579298136000034],[99.79827468100007,19.580626841000026]]]}},{"type":"Feature","properties":{"code":"570302","name":"สถาน","parentCode":"5703"},"geometry":{"type":"Polygon","coordinates":[[[100.44024321400008,20.19898205800007],[100.39661424900004,20.234101550000048],[100.28980264300009,20.243831433000025],[100.28348824500006,20.235655378000047],[100.30540512000005,20.186880572000064],[100.30796776000005,20.173468527000068],[100.36599506000005,20.160602549000032],[100.44017521900008,20.176751043000024],[100.44024321400008,20.19898205800007]]]}},{"type":"Feature","properties":{"code":"570412","name":"ศรีดอนไชย","parentCode":"5704"},"geometry":{"type":"Polygon","coordinates":[[[100.16422031500008,19.575735267000027],[100.11923852000007,19.59133472900004],[100.09915691900005,19.635794630000078],[100.06777767900007,19.626266717000078],[100.10998637800009,19.552863381000066],[100.15363235500007,19.545675752000022],[100.16422031500008,19.575735267000027]]]}},{"type":"Feature","properties":{"code":"570308","name":"ศรีดอนชัย","parentCode":"5703"},"geometry":{"type":"Polygon","coordinates":[[[100.45421987600008,20.205429195000022],[100.44024321400008,20.19898205800007],[100.44017521900008,20.176751043000024],[100.36599506000005,20.160602549000032],[100.30796776000005,20.173468527000068],[100.27367359700008,20.131909794000023],[100.32705984100005,20.125950404000037],[100.38441798700006,20.07859276100004],[100.41694765300008,20.136396861000037],[100.45541038700009,20.110150065000028],[100.46291849100004,20.19874733200004],[100.45421987600008,20.205429195000022]]]}},{"type":"Feature","properties":{"code":"570804","name":"ศรีดอนมูล","parentCode":"5708"},"geometry":{"type":"Polygon","coordinates":[[[100.05551928700004,20.388109309000072],[100.03580509000005,20.39816740300006],[100.00716613400004,20.379341595000028],[99.96547820600006,20.35290315900005],[99.94510507800004,20.288557549000075],[99.98935030300004,20.29787474400007],[100.05096076600006,20.330715174000034],[100.05551928700004,20.388109309000072]]]}},{"type":"Feature","properties":{"code":"570711","name":"ศรีค้ำ","parentCode":"5707"},"geometry":{"type":"Polygon","coordinates":[[[99.80545198100003,20.230635203000077],[99.78894487500008,20.232226957000023],[99.75407253200007,20.183898142000032],[99.78865424800006,20.209396651000077],[99.88076514000005,20.197584796000058],[99.88748617100003,20.196090781000066],[99.88781800600003,20.23073782000006],[99.84419314700006,20.212646601000074],[99.80545198100003,20.230635203000077]]]}},{"type":"Feature","properties":{"code":"570905","name":"ศรีเมืองชุม","parentCode":"5709"},"geometry":{"type":"Polygon","coordinates":[[[100.00716613400004,20.379341595000028],[99.93759981700003,20.419794806000027],[99.91417675600007,20.41027248000006],[99.91060270100007,20.384158230000025],[99.94222867300005,20.349392890000047],[99.96547820600006,20.35290315900005],[100.00716613400004,20.379341595000028]]]}},{"type":"Feature","properties":{"code":"570606","name":"ศรีโพธิ์เงิน","parentCode":"5706"},"geometry":{"type":"Polygon","coordinates":[[[99.97606211100003,19.45382270600004],[99.91430844800004,19.453895817000046],[99.91444196100008,19.432455222000044],[99.92000039500005,19.40641256400005],[99.99643955000005,19.43047668400004],[99.97606211100003,19.45382270600004]]]}},{"type":"Feature","properties":{"code":"571004","name":"ศรีถ้อย","parentCode":"5710"},"geometry":{"type":"Polygon","coordinates":[[[99.34408176700003,19.711672320000048],[99.29344965600006,19.68013313700004],[99.26011339000007,19.632974087000036],[99.33327851200005,19.645407856000077],[99.44165009700004,19.55430029400003],[99.46206909800009,19.56519663100005],[99.49471938200008,19.621329115000037],[99.48417488500007,19.622069354000075],[99.45424822200005,19.617794665000076],[99.36750274000008,19.677085955000052],[99.34682556800004,19.712252142000068],[99.34408176700003,19.711672320000048]]]}},{"type":"Feature","properties":{"code":"571401","name":"ต้า","parentCode":"5714"},"geometry":{"type":"Polygon","coordinates":[[[100.29157085700007,19.800866085000052],[100.21806585900003,19.849325184000065],[100.17358544400008,19.807332177000035],[100.19316821700005,19.783668529000067],[100.25532876600005,19.76264472400004],[100.29157085700007,19.800866085000052]]]}},{"type":"Feature","properties":{"code":"570409","name":"ตับเต่า","parentCode":"5704"},"geometry":{"type":"Polygon","coordinates":[[[100.44290144700005,19.835310626000023],[100.34248123800006,19.873537030000023],[100.32650023300005,19.844271211000034],[100.29157085700007,19.800866085000052],[100.25532876600005,19.76264472400004],[100.25477946100006,19.73311188100007],[100.33398739700004,19.703980992000027],[100.40657643800006,19.73606207800003],[100.44290144700005,19.835310626000023]]]}},{"type":"Feature","properties":{"code":"571205","name":"ตาดควัน","parentCode":"5712"},"geometry":{"type":"Polygon","coordinates":[[[100.25661406000006,19.98802461500003],[100.20031236500006,20.026995101000068],[100.19992841600003,20.051103839000064],[100.11824556600004,19.993909656000028],[100.11893683400007,19.981793378000077],[100.16558286900005,19.930747993000068],[100.17689871800007,19.954070132000027],[100.25148064400008,19.97491596800006],[100.25661406000006,19.98802461500003]]]}},{"type":"Feature","properties":{"code":"571304","name":"ท่าข้าม","parentCode":"5713"},"geometry":{"type":"Polygon","coordinates":[[[100.55538174100008,20.056894270000043],[100.50095687000004,20.072528590000047],[100.43421436200003,20.06511929900006],[100.41567114100008,20.023323644000072],[100.54197040200006,20.02246044000003],[100.55538174100008,20.056894270000043]]]}},{"type":"Feature","properties":{"code":"570706","name":"ท่าข้าวเปลือก","parentCode":"5707"},"geometry":{"type":"Polygon","coordinates":[[[100.07815726900009,20.20846356800007],[100.02438325800006,20.215417977000072],[99.97043149100006,20.180319531000066],[99.95775977000005,20.179059559000052],[99.95644207700008,20.161899364000078],[99.93704896300005,20.13596349200003],[99.94189361300005,20.131065763000038],[100.01039324900006,20.110836835000043],[100.07092992200006,20.154228542000055],[100.07815726900009,20.20846356800007]]]}},{"type":"Feature","properties":{"code":"571005","name":"ท่าก๊อ","parentCode":"5710"},"geometry":{"type":"Polygon","coordinates":[[[99.46206909800009,19.56519663100005],[99.44165009700004,19.55430029400003],[99.33327851200005,19.645407856000077],[99.26011339000007,19.632974087000036],[99.29515801400004,19.570782958000052],[99.32599403000006,19.539399118000063],[99.35670545500005,19.54012616500006],[99.46244442500006,19.486627197000075],[99.49030355300005,19.458367948000046],[99.58254564100008,19.473729481000078],[99.61797687300003,19.52664405300004],[99.55214167600008,19.53050562800007],[99.46206909800009,19.56519663100005]]]}},{"type":"Feature","properties":{"code":"570118","name":"ท่าสาย","parentCode":"5701"},"geometry":{"type":"Polygon","coordinates":[[[99.84611447600008,19.791153044000055],[99.90414741300003,19.838684084000022],[99.85919724200005,19.875058118000027],[99.82978027400009,19.87880490400005],[99.81045396500008,19.836925569000073],[99.84611447600008,19.791153044000055]]]}},{"type":"Feature","properties":{"code":"570121","name":"ท่าสุด","parentCode":"5701"},"geometry":{"type":"Polygon","coordinates":[[[99.92840290500004,20.117041328000028],[99.84524777400009,20.111642348000032],[99.81134259700008,20.08025720300003],[99.83428882400005,20.051888802000065],[99.89366012500005,20.03511357600007],[99.93477437300004,20.07940204500005],[99.92840290500004,20.117041328000028]]]}},{"type":"Feature","properties":{"code":"570514","name":"ทานตะวัน","parentCode":"5705"},"geometry":{"type":"Polygon","coordinates":[[[99.91469514300007,19.47501081200005],[99.83871008300008,19.50766995400005],[99.79734038800007,19.495527373000073],[99.74823097000007,19.496980004000022],[99.78007176700004,19.444930707000026],[99.83721109900006,19.445636904000025],[99.91444196100008,19.432455222000044],[99.91430844800004,19.453895817000046],[99.91469514300007,19.47501081200005]]]}},{"type":"Feature","properties":{"code":"570503","name":"ธารทอง","parentCode":"5705"},"geometry":{"type":"Polygon","coordinates":[[[99.77641714700007,19.72997801300005],[99.73490105000008,19.744693761000065],[99.72819791900008,19.722825881000063],[99.64512786700004,19.696862285000066],[99.63757081300008,19.678986356000053],[99.72034108800005,19.701770963000058],[99.76959103600007,19.686063295000054],[99.77641714700007,19.72997801300005]]]}},{"type":"Feature","properties":{"code":"571501","name":"เทอดไทย","parentCode":"5715"},"geometry":{"type":"Polygon","coordinates":[[[99.71998032200008,20.33087123200005],[99.67652072500005,20.317422548000025],[99.51556330200003,20.36317718400005],[99.45834737800004,20.392804797000053],[99.55035437700008,20.302958383000032],[99.64422088500004,20.259874552000042],[99.66686752000004,20.23192776700006],[99.73305700700007,20.252995562000024],[99.74661239100004,20.286227238000038],[99.71998032200008,20.33087123200005]]]}},{"type":"Feature","properties":{"code":"571701","name":"ทุ่งก่อ","parentCode":"5717"},"geometry":{"type":"Polygon","coordinates":[[[100.11824556600004,19.993909656000028],[100.04698506200003,20.02944040600005],[100.02640919300006,19.992213505000052],[99.97795142200005,20.002014076000023],[99.98312899200005,19.992731696000078],[99.97967339700006,19.953076948000046],[100.01262959500008,19.913873310000042],[100.09238000000005,19.949006605000022],[100.11893683400007,19.981793378000077],[100.11824556600004,19.993909656000028]]]}},{"type":"Feature","properties":{"code":"571006","name":"วาวี","parentCode":"5710"},"geometry":{"type":"Polygon","coordinates":[[[99.62434990500009,19.760778518000052],[99.57065295300004,19.78809679400007],[99.57822775500006,19.896101186000067],[99.52924322900009,19.964552566000066],[99.45267458400008,19.981626249000044],[99.39992822700003,19.912171430000058],[99.38126585000003,19.888308120000033],[99.42067977200008,19.822170236000034],[99.47543639200006,19.760048219000055],[99.48182566300005,19.71968775600004],[99.50106021300007,19.697863420000033],[99.62434990500009,19.760778518000052]]]}},{"type":"Feature","properties":{"code":"570101","name":"เวียง","parentCode":"5701"},"geometry":{"type":"Polygon","coordinates":[[[99.84097300200006,19.91548883300004],[99.82653201400007,19.920180568000035],[99.82535745600006,19.89577721300003],[99.84097300200006,19.91548883300004]]]}},{"type":"Feature","properties":{"code":"570301","name":"เวียง","parentCode":"5703"},"geometry":{"type":"Polygon","coordinates":[[[100.45421987600008,20.205429195000022],[100.37804543100003,20.33170380100006],[100.31998070400005,20.30838065200004],[100.28980264300009,20.243831433000025],[100.39661424900004,20.234101550000048],[100.44024321400008,20.19898205800007],[100.45421987600008,20.205429195000022]]]}},{"type":"Feature","properties":{"code":"570401","name":"เวียง","parentCode":"5704"},"geometry":{"type":"Polygon","coordinates":[[[100.25532876600005,19.76264472400004],[100.19316821700005,19.783668529000067],[100.15900072900007,19.70501114700005],[100.18009590000008,19.657039137000027],[100.18400767300005,19.61384670700005],[100.22922446700005,19.605836734000036],[100.25246496900007,19.634918067000058],[100.25729771400006,19.645044470000073],[100.22134165200004,19.66679785100007],[100.25477946100006,19.73311188100007],[100.25532876600005,19.76264472400004]]]}},{"type":"Feature","properties":{"code":"570801","name":"เวียง","parentCode":"5708"},"geometry":{"type":"Polygon","coordinates":[[[100.14261925900007,20.247468036000043],[100.09322244600008,20.26684196700006],[100.09929745100004,20.308338383000034],[100.05551928700004,20.388109309000072],[100.05096076600006,20.330715174000034],[100.05024833900006,20.288001456000075],[100.11492134900004,20.227910316000077],[100.12458976300007,20.227655214000038],[100.14261925900007,20.247468036000043]]]}},{"type":"Feature","properties":{"code":"571102","name":"เวียง","parentCode":"5711"},"geometry":{"type":"Polygon","coordinates":[[[99.57096658500006,19.394077087000028],[99.48453691400005,19.367379194000023],[99.46544010800005,19.401332706000062],[99.30951401900006,19.43112726800007],[99.30979477100004,19.42802473100005],[99.33272877900004,19.362286226000037],[99.33818021100006,19.289104034000047],[99.44499479300003,19.299024195000072],[99.49906087800008,19.34494070200003],[99.51032233800004,19.327852618000065],[99.57347621600007,19.344812913000055],[99.57096658500006,19.394077087000028]]]}},{"type":"Feature","properties":{"code":"570202","name":"เวียงชัย","parentCode":"5702"},"geometry":{"type":"Polygon","coordinates":[[[99.93328731200006,19.89978352600008],[99.89052977900008,19.896876018000057],[99.85919724200005,19.875058118000027],[99.90414741300003,19.838684084000022],[99.93793599700007,19.82586689900006],[99.96618046600008,19.864528673000052],[99.93328731200006,19.89978352600008]]]}},{"type":"Feature","properties":{"code":"570515","name":"เวียงห้าว","parentCode":"5705"},"geometry":{"type":"Polygon","coordinates":[[[99.90673356500008,19.568285381000067],[99.86850770600006,19.578624665000063],[99.83215590600008,19.52743061500007],[99.83871008300008,19.50766995400005],[99.91469514300007,19.47501081200005],[99.91297491500006,19.540386003000037],[99.90673356500008,19.568285381000067]]]}},{"type":"Feature","properties":{"code":"571105","name":"เวียงกาหลง","parentCode":"5711"},"geometry":{"type":"Polygon","coordinates":[[[99.54141478300005,19.206285945000047],[99.56276794900003,19.278384908000078],[99.48462272500007,19.259621690000074],[99.46840705300008,19.229769503000057],[99.54141478300005,19.206285945000047]]]}},{"type":"Feature","properties":{"code":"570204","name":"เวียงเหนือ","parentCode":"5702"},"geometry":{"type":"Polygon","coordinates":[[[99.97967339700006,19.953076948000046],[99.98312899200005,19.992731696000078],[99.89882744900007,19.927586763000022],[99.89052977900008,19.896876018000057],[99.93328731200006,19.89978352600008],[99.97967339700006,19.953076948000046]]]}},{"type":"Feature","properties":{"code":"570906","name":"เวียงพางคำ","parentCode":"5709"},"geometry":{"type":"Polygon","coordinates":[[[99.88042588900004,20.444541909000066],[99.84105432300004,20.38412252100005],[99.85102894900007,20.370508503000053],[99.86714903000006,20.39700132200005],[99.91060270100007,20.384158230000025],[99.91417675600007,20.41027248000006],[99.88042588900004,20.444541909000066]]]}},{"type":"Feature","properties":{"code":"571403","name":"ยางฮอม","parentCode":"5714"},"geometry":{"type":"Polygon","coordinates":[[[100.37218809500007,19.95353691400004],[100.31214598500009,19.973509211000078],[100.29460570000003,20.00412327500004],[100.25661406000006,19.98802461500003],[100.25148064400008,19.97491596800006],[100.25298394900005,19.896624385000052],[100.25023431300008,19.887737666000078],[100.32650023300005,19.844271211000034],[100.34248123800006,19.873537030000023],[100.37218809500007,19.95353691400004]]]}},{"type":"Feature","properties":{"code":"570806","name":"โยนก","parentCode":"5708"},"geometry":{"type":"Polygon","coordinates":[[[100.11492134900004,20.227910316000077],[100.05024833900006,20.288001456000075],[100.01259264700008,20.243654180000078],[100.02438325800006,20.215417977000072],[100.07815726900009,20.20846356800007],[100.11492134900004,20.227910316000077]]]}}]}