{"type":"FeatureCollection","features":[{"type":"Feature","properties":{"code":"580401","name":"บ้านกาศ","parentCode":"5804"},"geometry":{"type":"Polygon","coordinates":[[[97.97761965800004,18.253159372000027],[97.93625310500005,18.294591785000023],[97.91808912200008,18.281874105000043],[97.85435944500006,18.343006845000048],[97.79843081900003,18.37487424400007],[97.78840360900006,18.317295079000075],[97.81597710000005,18.26365680400005],[97.79971416300003,18.242866562000074],[97.85686276400008,18.212637580000035],[97.89843524700007,18.16200017500006],[97.92998944600004,18.16241793200004],[97.96853662800004,18.185258686000054],[97.97761965800004,18.253159372000027]]]}},{"type":"Feature","properties":{"code":"580101","name":"จองคำ","parentCode":"5801"},"geometry":{"type":"Polygon","coordinates":[[[97.96357797600007,19.312104043000033],[97.95829462900008,19.282798696000043],[97.98016203400005,19.298925135000047],[97.96357797600007,19.312104043000033]]]}},{"type":"Feature","properties":{"code":"580505","name":"ห้วยห้อม","parentCode":"5805"},"geometry":{"type":"Polygon","coordinates":[[[98.12858010100007,18.39043351600003],[98.08211914100008,18.41805451600004],[98.06526212200004,18.41403828600005],[98.03243921600006,18.359366356000066],[98.05397829500004,18.30195604200003],[98.09210711200006,18.346014971000045],[98.14989367800007,18.313162266000063],[98.17039806200006,18.34598751900006],[98.12858010100007,18.39043351600003]]]}},{"type":"Feature","properties":{"code":"580106","name":"ห้วยผา","parentCode":"5801"},"geometry":{"type":"Polygon","coordinates":[[[98.02675772400005,19.637761493000028],[97.97262520000004,19.63312277400007],[97.95997909200008,19.59348447600007],[97.97753395800004,19.504639148000024],[97.99392964900005,19.49541363700007],[97.97906471200008,19.41904804400008],[98.02438821300007,19.36000793000005],[98.11235262300005,19.389980604000073],[98.12580489800007,19.520504386000027],[98.11384969100004,19.535002604000056],[98.07961157700004,19.55232983600007],[98.05320925400008,19.626165800000024],[98.02675772400005,19.637761493000028]]]}},{"type":"Feature","properties":{"code":"580102","name":"ห้วยโป่ง","parentCode":"5801"},"geometry":{"type":"Polygon","coordinates":[[[98.01970555800006,19.10556568000004],[98.01165610000004,19.083433068000033],[97.96935251100007,19.136517234000053],[97.84303496300004,19.145944137000072],[97.82909559600006,19.09168020900006],[97.89505333000005,19.047393854000063],[97.90375290300005,19.02108458600003],[97.96853945100008,19.00447082200003],[97.95650671200008,18.965717133000055],[97.99055667900006,18.948073303000058],[98.05431725400007,18.97192965200003],[98.10297219400007,18.934564200000068],[98.15664094200008,18.936987738000028],[98.18440854500005,19.03175127700007],[98.14914792500008,19.052152100000058],[98.11165583900004,19.02514300400003],[98.04782607100003,19.03375516500006],[98.03656192800008,19.109822800000074],[98.01970555800006,19.10556568000004]]]}},{"type":"Feature","properties":{"code":"580109","name":"ห้วยปูลิง","parentCode":"5801"},"geometry":{"type":"Polygon","coordinates":[[[98.11235262300005,19.389980604000073],[98.02438821300007,19.36000793000005],[98.04232396400005,19.316124691000027],[98.03406097100009,19.25597583700005],[98.01970555800006,19.10556568000004],[98.03656192800008,19.109822800000074],[98.04782607100003,19.03375516500006],[98.11165583900004,19.02514300400003],[98.14914792500008,19.052152100000058],[98.18440854500005,19.03175127700007],[98.23043657000005,19.089503767000053],[98.24311915900006,19.153501365000068],[98.15925139400008,19.19881272200007],[98.16666749600006,19.25898949300006],[98.13167206500003,19.260769009000057],[98.12460740300008,19.32777489800003],[98.15549473000004,19.369483457000058],[98.11235262300005,19.389980604000073]]]}},{"type":"Feature","properties":{"code":"580508","name":"ขุนแม่ลาน้อย","parentCode":"5805"},"geometry":{"type":"Polygon","coordinates":[[[98.20956617200005,18.60744956700006],[98.10543449600004,18.648619265000036],[98.08846443500005,18.633660527000075],[98.13260035500008,18.56795995600004],[98.12143414200006,18.538280947000032],[98.17466924200005,18.54171431700007],[98.23720248600006,18.571549323000056],[98.20956617200005,18.60744956700006]]]}},{"type":"Feature","properties":{"code":"580201","name":"ขุนยวม","parentCode":"5802"},"geometry":{"type":"Polygon","coordinates":[[[97.82909559600006,19.09168020900006],[97.76867705300003,19.072755780000023],[97.73563011900006,19.040448266000055],[97.73874289100007,18.980073176000076],[97.77418671400005,18.913006850000045],[97.85566103300005,18.890397574000076],[97.92627858700007,18.781605998000032],[97.99496861000006,18.791539371000056],[98.00313137800003,18.810167424000042],[97.97775136500007,18.83348142600005],[97.99881873900006,18.879999605000023],[97.97327757100004,18.90147020300003],[97.99055667900006,18.948073303000058],[97.95650671200008,18.965717133000055],[97.96853945100008,19.00447082200003],[97.90375290300005,19.02108458600003],[97.89505333000005,19.047393854000063],[97.82909559600006,19.09168020900006]]]}},{"type":"Feature","properties":{"code":"580603","name":"กองก๋อย","parentCode":"5806"},"geometry":{"type":"Polygon","coordinates":[[[98.27260434800007,18.04845044500007],[98.28945313400004,18.078209725000022],[98.20170501300004,18.090727842000035],[98.19483541100004,18.10615389000003],[98.12965226100005,18.026773223000077],[98.08666038700005,18.049039536000066],[98.05756062800003,17.994198348000054],[98.06260957200004,17.951195916000074],[98.08999289100007,17.963342070000067],[98.15020290700005,17.94064202800007],[98.20804830500003,17.981993180000075],[98.24668485700005,17.992694221000022],[98.25906910400005,18.039117657000077],[98.27260434800007,18.04845044500007]]]}},{"type":"Feature","properties":{"code":"580304","name":"แม่ฮี้","parentCode":"5803"},"geometry":{"type":"Polygon","coordinates":[[[98.57521150400004,19.379353562000063],[98.48764850400005,19.383703876000027],[98.44362659500007,19.363271413000064],[98.44035943000006,19.343851796000024],[98.46771862300005,19.302209865000066],[98.45580739100006,19.24703223100005],[98.53176679800004,19.243026147000023],[98.56911342500007,19.212814527000035],[98.59848984200005,19.22850685800006],[98.60333733300007,19.278064631000063],[98.59518662600004,19.353982962000032],[98.57521150400004,19.379353562000063]]]}},{"type":"Feature","properties":{"code":"580404","name":"แม่เหาะ","parentCode":"5804"},"geometry":{"type":"Polygon","coordinates":[[[98.15041914600005,18.22446287100007],[98.12528589500005,18.21079572800005],[98.06279344100005,18.22982957000005],[98.01434635000004,18.17760194400006],[97.97033294500005,18.09726953300003],[97.97250746900005,18.068983813000045],[98.05756062800003,17.994198348000054],[98.08666038700005,18.049039536000066],[98.12400388200007,18.09175732800003],[98.08968264500004,18.154556025000034],[98.16205680400009,18.147055864000038],[98.16950111500006,18.221995106000065],[98.15041914600005,18.22446287100007]]]}},{"type":"Feature","properties":{"code":"580602","name":"แม่คะตวน","parentCode":"5806"},"geometry":{"type":"Polygon","coordinates":[[[97.97033294500005,18.09726953300003],[97.93353312100004,18.07919916700007],[97.91239852800004,18.009672883000064],[97.92629338400008,17.963413049000053],[97.98985260800004,17.95307051700007],[98.00803905300006,17.921877031000065],[98.06260957200004,17.951195916000074],[98.05756062800003,17.994198348000054],[97.97250746900005,18.068983813000045],[97.97033294500005,18.09726953300003]]]}},{"type":"Feature","properties":{"code":"580403","name":"แม่คง","parentCode":"5804"},"geometry":{"type":"Polygon","coordinates":[[[97.61925064700006,18.53936717600004],[97.54925575600004,18.53070241000006],[97.53679412000008,18.49274103500005],[97.49069704000004,18.510031793000053],[97.44411622300004,18.49526432300007],[97.40395979400006,18.566299644000026],[97.36224210100005,18.56180640100007],[97.42540041900008,18.40930378300004],[97.45214084600008,18.388483826000027],[97.44672769900006,18.331405991000054],[97.50303192100006,18.266505815000073],[97.53573502100005,18.28614579300006],[97.55136358500005,18.33458498600004],[97.62033573600007,18.31699786100006],[97.63908140600006,18.287019601000054],[97.61517556500007,18.222797007000054],[97.67735239300004,18.15428989800006],[97.68777847000007,18.096592267000062],[97.71775883000004,18.116843190000054],[97.79590008400004,18.098695431000067],[97.84089768800004,18.144077452000033],[97.90018629800005,18.139185186000077],[97.92630951200005,18.159813584000062],[97.92998944600004,18.16241793200004],[97.89843524700007,18.16200017500006],[97.85686276400008,18.212637580000035],[97.79971416300003,18.242866562000074],[97.81597710000005,18.26365680400005],[97.78840360900006,18.317295079000075],[97.70016724900006,18.269618566000076],[97.66069387200008,18.286001722000037],[97.64574861300008,18.416578552000033],[97.69351965900006,18.43383083300006],[97.68997712100008,18.467081137000037],[97.62370057900006,18.51402291200003],[97.61925064700006,18.53936717600004]]]}},{"type":"Feature","properties":{"code":"580205","name":"แม่กิ๊","parentCode":"5802"},"geometry":{"type":"Polygon","coordinates":[[[97.85691366300006,18.718800087000034],[97.76303654600008,18.757375423000042],[97.77147838000008,18.599235657000065],[97.90143092300008,18.617532271000073],[97.88287111300008,18.68918019700004],[97.85691366300006,18.718800087000034]]]}},{"type":"Feature","properties":{"code":"580502","name":"แม่ลาหลวง","parentCode":"5805"},"geometry":{"type":"Polygon","coordinates":[[[97.96604402700007,18.617286052000054],[97.90143092300008,18.617532271000073],[97.77147838000008,18.599235657000065],[97.76851914100007,18.578125252000063],[97.78268457400009,18.50073487900005],[97.84302926200007,18.51581793400004],[97.88098448000005,18.464223331000028],[97.93772378000006,18.451770817000067],[97.92167351900008,18.558609971000067],[97.96635021500003,18.60479865700006],[97.96604402700007,18.617286052000054]]]}},{"type":"Feature","properties":{"code":"580501","name":"แม่ลาน้อย","parentCode":"5805"},"geometry":{"type":"Polygon","coordinates":[[[97.93772378000006,18.451770817000067],[97.88098448000005,18.464223331000028],[97.84302926200007,18.51581793400004],[97.78268457400009,18.50073487900005],[97.80464136600006,18.443952576000072],[97.79843081900003,18.37487424400007],[97.87727144400009,18.363024512000038],[97.90162209900006,18.32837335000005],[97.95156660000004,18.351447173000054],[98.03243921600006,18.359366356000066],[98.06526212200004,18.41403828600005],[98.06500682700005,18.47576450200006],[98.04407350200006,18.487090661000025],[98.01098545700006,18.429365622000034],[97.93772378000006,18.451770817000067]]]}},{"type":"Feature","properties":{"code":"580506","name":"แม่นาจาง","parentCode":"5805"},"geometry":{"type":"Polygon","coordinates":[[[98.17466924200005,18.54171431700007],[98.12143414200006,18.538280947000032],[98.13260035500008,18.56795995600004],[98.08846443500005,18.633660527000075],[98.03712000300004,18.54629030800004],[98.06500682700005,18.47576450200006],[98.06526212200004,18.41403828600005],[98.08211914100008,18.41805451600004],[98.12244949100005,18.50256626500004],[98.17466924200005,18.54171431700007]]]}},{"type":"Feature","properties":{"code":"580303","name":"แม่นาเติง","parentCode":"5803"},"geometry":{"type":"Polygon","coordinates":[[[98.42594862700008,19.693135666000046],[98.30861968600004,19.688032575000022],[98.37142031700006,19.647637263000036],[98.38116917500008,19.593412166000064],[98.33769006800009,19.52692425400005],[98.31902145600009,19.445844756000042],[98.33931180500008,19.39830287500007],[98.27691964400003,19.391580630000078],[98.35252367100009,19.347426399000028],[98.37883603300008,19.363687454000058],[98.43697804300007,19.37818242800006],[98.44621394900008,19.435043690000043],[98.40023975100007,19.47746329000006],[98.44568661400007,19.505221343000073],[98.43471942700006,19.616261070000064],[98.40685860400004,19.642981750000047],[98.42594862700008,19.693135666000046]]]}},{"type":"Feature","properties":{"code":"580202","name":"แม่เงา","parentCode":"5802"},"geometry":{"type":"Polygon","coordinates":[[[97.92627858700007,18.781605998000032],[97.85566103300005,18.890397574000076],[97.77418671400005,18.913006850000045],[97.73874289100007,18.980073176000076],[97.66609186100004,18.937274820000027],[97.73715099600008,18.886638146000053],[97.76303654600008,18.757375423000042],[97.85691366300006,18.718800087000034],[97.88134386700006,18.78704729900005],[97.92627858700007,18.781605998000032]]]}},{"type":"Feature","properties":{"code":"580606","name":"แม่สามแลบ","parentCode":"5806"},"geometry":{"type":"Polygon","coordinates":[[[97.82587783100007,18.001556726000047],[97.73639429400004,18.02604162800003],[97.72060836600008,18.01539099400003],[97.73565873900009,17.958833843000036],[97.68711234300008,17.92506314800005],[97.67199302300008,17.88289486800005],[97.70303210300006,17.815630861000045],[97.74237573800008,17.78576542600007],[97.81308845300003,17.785125954000023],[97.79246357100004,17.825063656000054],[97.84488174500007,17.93706441300003],[97.82587783100007,18.001556726000047]]]}},{"type":"Feature","properties":{"code":"580402","name":"แม่สะเรียง","parentCode":"5804"},"geometry":{"type":"Polygon","coordinates":[[[98.01434635000004,18.17760194400006],[97.96853662800004,18.185258686000054],[97.92998944600004,18.16241793200004],[97.92630951200005,18.159813584000062],[97.93353312100004,18.07919916700007],[97.97033294500005,18.09726953300003],[98.01434635000004,18.17760194400006]]]}},{"type":"Feature","properties":{"code":"580604","name":"แม่สวด","parentCode":"5806"},"geometry":{"type":"Polygon","coordinates":[[[98.00803905300006,17.921877031000065],[97.98985260800004,17.95307051700007],[97.92629338400008,17.963413049000053],[97.96297019800005,17.866031505000024],[98.02190303400005,17.738293314000032],[98.04015729400004,17.676144322000027],[98.08921456500008,17.63717831100007],[98.14492524900004,17.682376113000032],[98.14721293300005,17.776606683000068],[98.08622297700003,17.81056809300003],[98.06995881600005,17.852775982000026],[98.01036106000004,17.89583139900003],[98.00803905300006,17.921877031000065]]]}},{"type":"Feature","properties":{"code":"580504","name":"แม่โถ","parentCode":"5805"},"geometry":{"type":"Polygon","coordinates":[[[98.10543449600004,18.648619265000036],[98.10480502500008,18.67702553600003],[98.06874293300007,18.673768851000034],[98.00304181900003,18.652212462000023],[97.96604402700007,18.617286052000054],[97.96635021500003,18.60479865700006],[97.99673209600007,18.533006038000053],[98.03712000300004,18.54629030800004],[98.08846443500005,18.633660527000075],[98.10543449600004,18.648619265000036]]]}},{"type":"Feature","properties":{"code":"580206","name":"แม่อูคอ","parentCode":"5802"},"geometry":{"type":"Polygon","coordinates":[[[98.15664094200008,18.936987738000028],[98.10297219400007,18.934564200000068],[98.05431725400007,18.97192965200003],[97.99055667900006,18.948073303000058],[97.97327757100004,18.90147020300003],[97.99881873900006,18.879999605000023],[97.97775136500007,18.83348142600005],[98.00313137800003,18.810167424000042],[98.09021570900006,18.789557323000054],[98.07959711400008,18.817492625000057],[98.10626124800007,18.885460613000078],[98.15664094200008,18.936987738000028]]]}},{"type":"Feature","properties":{"code":"580405","name":"แม่ยวม","parentCode":"5804"},"geometry":{"type":"Polygon","coordinates":[[[97.92630951200005,18.159813584000062],[97.90018629800005,18.139185186000077],[97.84089768800004,18.144077452000033],[97.79590008400004,18.098695431000067],[97.71775883000004,18.116843190000054],[97.68777847000007,18.096592267000062],[97.72060836600008,18.01539099400003],[97.73639429400004,18.02604162800003],[97.82587783100007,18.001556726000047],[97.91239852800004,18.009672883000064],[97.93353312100004,18.07919916700007],[97.92630951200005,18.159813584000062]]]}},{"type":"Feature","properties":{"code":"580204","name":"แม่ยวมน้อย","parentCode":"5802"},"geometry":{"type":"Polygon","coordinates":[[[98.09021570900006,18.789557323000054],[98.00313137800003,18.810167424000042],[97.99496861000006,18.791539371000056],[97.98457653900005,18.757415879000064],[98.02055064200005,18.694681667000054],[98.06874293300007,18.673768851000034],[98.10480502500008,18.67702553600003],[98.09370354800006,18.73830503000005],[98.12101871200008,18.77727130900007],[98.09021570900006,18.789557323000054]]]}},{"type":"Feature","properties":{"code":"580105","name":"หมอกจำแป่","parentCode":"5801"},"geometry":{"type":"Polygon","coordinates":[[[97.95997909200008,19.59348447600007],[97.86319687600007,19.57703953500004],[97.85581850200003,19.530760892000046],[97.88688088300006,19.499522585000022],[97.91031593700006,19.460234667000066],[97.88638622300004,19.412119652000058],[97.94691090800006,19.39994412300007],[97.97906471200008,19.41904804400008],[97.99392964900005,19.49541363700007],[97.97753395800004,19.504639148000024],[97.95997909200008,19.59348447600007]]]}},{"type":"Feature","properties":{"code":"580306","name":"เมืองแปง","parentCode":"5803"},"geometry":{"type":"Polygon","coordinates":[[[98.37026924900005,19.085586377000027],[98.46548073900004,19.126122208000027],[98.52450425800004,19.167897684000025],[98.45580739100006,19.24703223100005],[98.38917874600008,19.256602145000045],[98.35591174500007,19.28734472800005],[98.27453475300007,19.300995353000076],[98.22068243700005,19.279651236000063],[98.19455814200006,19.340957158000037],[98.15549473000004,19.369483457000058],[98.12460740300008,19.32777489800003],[98.13167206500003,19.260769009000057],[98.16666749600006,19.25898949300006],[98.15925139400008,19.19881272200007],[98.24311915900006,19.153501365000068],[98.32529505200006,19.15579918700007],[98.37026924900005,19.085586377000027]]]}},{"type":"Feature","properties":{"code":"580203","name":"เมืองปอน","parentCode":"5802"},"geometry":{"type":"Polygon","coordinates":[[[98.06874293300007,18.673768851000034],[98.02055064200005,18.694681667000054],[97.98457653900005,18.757415879000064],[97.99496861000006,18.791539371000056],[97.92627858700007,18.781605998000032],[97.88134386700006,18.78704729900005],[97.85691366300006,18.718800087000034],[97.88287111300008,18.68918019700004],[97.90143092300008,18.617532271000073],[97.96604402700007,18.617286052000054],[98.00304181900003,18.652212462000023],[98.06874293300007,18.673768851000034]]]}},{"type":"Feature","properties":{"code":"580704","name":"นาปู่ป้อม","parentCode":"5807"},"geometry":{"type":"Polygon","coordinates":[[[98.20282911200007,19.73214041700004],[98.13543977300009,19.788269075000073],[98.10087038500006,19.77208678900007],[98.08277519000006,19.81040617800005],[98.03400271800007,19.803439081000022],[98.02499583400004,19.72201570900006],[98.04433017300005,19.653431569000077],[98.02675772400005,19.637761493000028],[98.05320925400008,19.626165800000024],[98.07961157700004,19.55232983600007],[98.11384969100004,19.535002604000056],[98.15196318800008,19.580774650000023],[98.18006439800007,19.708898065000028],[98.20282911200007,19.73214041700004]]]}},{"type":"Feature","properties":{"code":"580408","name":"ป่าแป๋","parentCode":"5804"},"geometry":{"type":"Polygon","coordinates":[[[98.17039806200006,18.34598751900006],[98.14989367800007,18.313162266000063],[98.09210711200006,18.346014971000045],[98.05397829500004,18.30195604200003],[97.97761965800004,18.253159372000027],[97.96853662800004,18.185258686000054],[98.01434635000004,18.17760194400006],[98.06279344100005,18.22982957000005],[98.12528589500005,18.21079572800005],[98.15041914600005,18.22446287100007],[98.13838687100008,18.281156019000036],[98.20698385300005,18.302795569000068],[98.17039806200006,18.34598751900006]]]}},{"type":"Feature","properties":{"code":"580605","name":"ป่าโปง","parentCode":"5806"},"geometry":{"type":"Polygon","coordinates":[[[98.16205680400009,18.147055864000038],[98.08968264500004,18.154556025000034],[98.12400388200007,18.09175732800003],[98.08666038700005,18.049039536000066],[98.12965226100005,18.026773223000077],[98.19483541100004,18.10615389000003],[98.16205680400009,18.147055864000038]]]}},{"type":"Feature","properties":{"code":"580702","name":"ปางมะผ้า","parentCode":"5807"},"geometry":{"type":"Polygon","coordinates":[[[98.27865903600008,19.681836058000044],[98.24827022600005,19.676676334000035],[98.20282911200007,19.73214041700004],[98.18006439800007,19.708898065000028],[98.15196318800008,19.580774650000023],[98.11384969100004,19.535002604000056],[98.20171463300005,19.528213338000057],[98.25001068500006,19.568799411000043],[98.27865903600008,19.681836058000044]]]}},{"type":"Feature","properties":{"code":"580104","name":"ปางหมู","parentCode":"5801"},"geometry":{"type":"Polygon","coordinates":[[[97.88688088300006,19.499522585000022],[97.80360717000008,19.404973555000026],[97.79843452400007,19.352789743000073],[97.84005705700008,19.300443721000022],[97.92263902000008,19.274111179000045],[97.95372351600008,19.285480192000023],[97.95862881700003,19.27155515100003],[97.97903850100005,19.288444484000024],[98.03406097100009,19.25597583700005],[98.04232396400005,19.316124691000027],[98.02438821300007,19.36000793000005],[97.97906471200008,19.41904804400008],[97.94691090800006,19.39994412300007],[97.88638622300004,19.412119652000058],[97.91031593700006,19.460234667000066],[97.88688088300006,19.499522585000022]],[[97.96357797600007,19.312104043000033],[97.98016203400005,19.298925135000047],[97.95829462900008,19.282798696000043],[97.96357797600007,19.312104043000033]]]}},{"type":"Feature","properties":{"code":"580103","name":"ผาบ่อง","parentCode":"5801"},"geometry":{"type":"Polygon","coordinates":[[[98.03406097100009,19.25597583700005],[97.97903850100005,19.288444484000024],[97.95862881700003,19.27155515100003],[97.95372351600008,19.285480192000023],[97.92263902000008,19.274111179000045],[97.84005705700008,19.300443721000022],[97.78354171300003,19.26399617100003],[97.84208629800008,19.223930539000037],[97.84303496300004,19.145944137000072],[97.96935251100007,19.136517234000053],[98.01165610000004,19.083433068000033],[98.01970555800006,19.10556568000004],[98.03406097100009,19.25597583700005]]]}},{"type":"Feature","properties":{"code":"580307","name":"โป่งสา","parentCode":"5803"},"geometry":{"type":"Polygon","coordinates":[[[98.41187110100003,19.03161849600008],[98.42098377800005,19.027148382000064],[98.43921050900008,19.04844296500005],[98.54191550500008,19.026204420000056],[98.64074559200009,19.068578924000064],[98.63829808200006,19.15465165300003],[98.56911342500007,19.212814527000035],[98.53176679800004,19.243026147000023],[98.45580739100006,19.24703223100005],[98.52450425800004,19.167897684000025],[98.46548073900004,19.126122208000027],[98.37026924900005,19.085586377000027],[98.41187110100003,19.03161849600008]]]}},{"type":"Feature","properties":{"code":"580507","name":"สันติคีรี","parentCode":"5805"},"geometry":{"type":"Polygon","coordinates":[[[97.96635021500003,18.60479865700006],[97.92167351900008,18.558609971000067],[97.93772378000006,18.451770817000067],[98.01098545700006,18.429365622000034],[98.04407350200006,18.487090661000025],[98.06500682700005,18.47576450200006],[98.03712000300004,18.54629030800004],[97.99673209600007,18.533006038000053],[97.96635021500003,18.60479865700006]]]}},{"type":"Feature","properties":{"code":"580406","name":"เสาหิน","parentCode":"5804"},"geometry":{"type":"Polygon","coordinates":[[[97.76851914100007,18.578125252000063],[97.65061460400005,18.576938616000064],[97.61925064700006,18.53936717600004],[97.62370057900006,18.51402291200003],[97.68997712100008,18.467081137000037],[97.69351965900006,18.43383083300006],[97.64574861300008,18.416578552000033],[97.66069387200008,18.286001722000037],[97.70016724900006,18.269618566000076],[97.78840360900006,18.317295079000075],[97.79843081900003,18.37487424400007],[97.80464136600006,18.443952576000072],[97.78268457400009,18.50073487900005],[97.76851914100007,18.578125252000063]]]}},{"type":"Feature","properties":{"code":"580601","name":"สบเมย","parentCode":"5806"},"geometry":{"type":"Polygon","coordinates":[[[97.91239852800004,18.009672883000064],[97.82587783100007,18.001556726000047],[97.84488174500007,17.93706441300003],[97.79246357100004,17.825063656000054],[97.81308845300003,17.785125954000023],[97.86727920400006,17.78899166700006],[97.90203997500004,17.809314561000065],[97.91139559900006,17.853672913000025],[97.96297019800005,17.866031505000024],[97.92629338400008,17.963413049000053],[97.91239852800004,18.009672883000064]]]}},{"type":"Feature","properties":{"code":"580701","name":"สบป่อง","parentCode":"5807"},"geometry":{"type":"Polygon","coordinates":[[[98.31902145600009,19.445844756000042],[98.24585540100009,19.53826620500007],[98.25001068500006,19.568799411000043],[98.20171463300005,19.528213338000057],[98.11384969100004,19.535002604000056],[98.12580489800007,19.520504386000027],[98.11235262300005,19.389980604000073],[98.15549473000004,19.369483457000058],[98.27691964400003,19.391580630000078],[98.33931180500008,19.39830287500007],[98.31902145600009,19.445844756000042]]]}},{"type":"Feature","properties":{"code":"580503","name":"ท่าผาปุ้ม","parentCode":"5805"},"geometry":{"type":"Polygon","coordinates":[[[98.03243921600006,18.359366356000066],[97.95156660000004,18.351447173000054],[97.90162209900006,18.32837335000005],[97.87727144400009,18.363024512000038],[97.79843081900003,18.37487424400007],[97.85435944500006,18.343006845000048],[97.91808912200008,18.281874105000043],[97.93625310500005,18.294591785000023],[97.97761965800004,18.253159372000027],[98.05397829500004,18.30195604200003],[98.03243921600006,18.359366356000066]]]}},{"type":"Feature","properties":{"code":"580703","name":"ถ้ำลอด","parentCode":"5807"},"geometry":{"type":"Polygon","coordinates":[[[98.30861968600004,19.688032575000022],[98.27865903600008,19.681836058000044],[98.25001068500006,19.568799411000043],[98.24585540100009,19.53826620500007],[98.31902145600009,19.445844756000042],[98.33769006800009,19.52692425400005],[98.38116917500008,19.593412166000064],[98.37142031700006,19.647637263000036],[98.30861968600004,19.688032575000022]]]}},{"type":"Feature","properties":{"code":"580305","name":"ทุ่งยาว","parentCode":"5803"},"geometry":{"type":"Polygon","coordinates":[[[98.27691964400003,19.391580630000078],[98.15549473000004,19.369483457000058],[98.19455814200006,19.340957158000037],[98.22068243700005,19.279651236000063],[98.27453475300007,19.300995353000076],[98.35591174500007,19.28734472800005],[98.38917874600008,19.256602145000045],[98.45580739100006,19.24703223100005],[98.46771862300005,19.302209865000066],[98.44035943000006,19.343851796000024],[98.37883603300008,19.363687454000058],[98.35252367100009,19.347426399000028],[98.27691964400003,19.391580630000078]]]}},{"type":"Feature","properties":{"code":"580302","name":"เวียงเหนือ","parentCode":"5803"},"geometry":{"type":"Polygon","coordinates":[[[98.46652037100006,19.692231639000056],[98.42594862700008,19.693135666000046],[98.40685860400004,19.642981750000047],[98.43471942700006,19.616261070000064],[98.44568661400007,19.505221343000073],[98.40023975100007,19.47746329000006],[98.44621394900008,19.435043690000043],[98.43697804300007,19.37818242800006],[98.44362659500007,19.363271413000064],[98.48764850400005,19.383703876000027],[98.57521150400004,19.379353562000063],[98.58517280300003,19.422967048000032],[98.60002075800008,19.471051395000075],[98.54479210400007,19.556069663000073],[98.54018482900005,19.611056311000027],[98.47208126300006,19.656276495000043],[98.46652037100006,19.692231639000056]]]}},{"type":"Feature","properties":{"code":"580301","name":"เวียงใต้","parentCode":"5803"},"geometry":{"type":"Polygon","coordinates":[[[98.43697804300007,19.37818242800006],[98.37883603300008,19.363687454000058],[98.44035943000006,19.343851796000024],[98.44362659500007,19.363271413000064],[98.43697804300007,19.37818242800006]]]}}]}