{"type":"FeatureCollection","features":[{"type":"Feature","properties":{"code":"600504","name":"อ่างทอง","parentCode":"6005"},"geometry":{"type":"Polygon","coordinates":[[[99.97126177300004,15.900306639000064],[99.90889237600004,15.875518740000075],[99.93025122800003,15.83826620800005],[99.97676987700004,15.848874022000075],[99.97126177300004,15.900306639000064]]]}},{"type":"Feature","properties":{"code":"600505","name":"บ้านแดน","parentCode":"6005"},"geometry":{"type":"Polygon","coordinates":[[[99.92418756700005,15.957500280000033],[99.90211490800004,15.97417718500003],[99.86881259100005,15.973654018000047],[99.81156223600004,15.918347363000066],[99.88832783600009,15.909544019000066],[99.96109180700006,15.93831902200003],[99.92418756700005,15.957500280000033]]]}},{"type":"Feature","properties":{"code":"600111","name":"บ้านแก่ง","parentCode":"6001"},"geometry":{"type":"Polygon","coordinates":[[[100.07890530900005,15.81556633300005],[100.02117474300007,15.818310804000077],[100.02907824300007,15.776635770000041],[100.04515147000006,15.763860062000049],[100.08413164000007,15.757685595000055],[100.08972355900005,15.772836484000038],[100.08094938700003,15.807904971000028],[100.07890530900005,15.81556633300005]]]}},{"type":"Feature","properties":{"code":"600110","name":"บ้านมะเกลือ","parentCode":"6001"},"geometry":{"type":"Polygon","coordinates":[[[100.16981724900006,15.810185509000064],[100.12146665300008,15.816540638000049],[100.08094938700003,15.807904971000028],[100.08972355900005,15.772836484000038],[100.12630405600004,15.786459109000077],[100.13570869300008,15.787287024000022],[100.15613534000005,15.774378666000075],[100.16028103900004,15.784547106000048],[100.16981724900006,15.810185509000064]]]}},{"type":"Feature","properties":{"code":"601109","name":"บ้านไร่","parentCode":"6011"},"geometry":{"type":"Polygon","coordinates":[[[99.80498229300008,15.920601438000062],[99.73890832300003,15.857542042000034],[99.68290842400006,15.863174117000028],[99.68996892900009,15.819735107000042],[99.70435600900004,15.809873309000068],[99.74012248700006,15.835389810000038],[99.76440938100006,15.786107100000038],[99.85550502700005,15.876746701000059],[99.89716434000007,15.895938624000053],[99.88832783600009,15.909544019000066],[99.81156223600004,15.918347363000066],[99.80498229300008,15.920601438000062]]]}},{"type":"Feature","properties":{"code":"600506","name":"บางแก้ว","parentCode":"6005"},"geometry":{"type":"Polygon","coordinates":[[[99.90211490800004,15.97417718500003],[99.86666756500006,16.002874792000057],[99.87554250100004,16.03414322800006],[99.84543478300009,16.004236133000063],[99.80719627400003,15.944103906000066],[99.80498229300008,15.920601438000062],[99.81156223600004,15.918347363000066],[99.86881259100005,15.973654018000047],[99.90211490800004,15.97417718500003]]]}},{"type":"Feature","properties":{"code":"600306","name":"บางเคียน","parentCode":"6003"},"geometry":{"type":"Polygon","coordinates":[[[100.21670961900008,15.927905562000035],[100.17512349500004,15.933324189000075],[100.16981724900006,15.810185509000064],[100.16028103900004,15.784547106000048],[100.21555734100008,15.792114914000024],[100.22600867700004,15.865733342000055],[100.24349557000005,15.86953102800004],[100.21670961900008,15.927905562000035]]]}},{"type":"Feature","properties":{"code":"600203","name":"บางมะฝ่อ","parentCode":"6002"},"geometry":{"type":"Polygon","coordinates":[[[100.09231556600008,15.608472077000044],[100.06019901300004,15.618642111000042],[100.05698824400008,15.595375366000042],[100.06708017200003,15.591781866000076],[100.09077756000005,15.574883186000022],[100.09231556600008,15.608472077000044]]]}},{"type":"Feature","properties":{"code":"600109","name":"บางม่วง","parentCode":"6001"},"geometry":{"type":"Polygon","coordinates":[[[100.12630405600004,15.786459109000077],[100.08972355900005,15.772836484000038],[100.08413164000007,15.757685595000055],[100.11313815200003,15.729570436000074],[100.13518852500005,15.727801304000025],[100.12630405600004,15.786459109000077]]]}},{"type":"Feature","properties":{"code":"600108","name":"บางพระหลวง","parentCode":"6001"},"geometry":{"type":"Polygon","coordinates":[[[100.21738610500006,15.786017379000043],[100.21555734100008,15.792114914000024],[100.16028103900004,15.784547106000048],[100.15613534000005,15.774378666000075],[100.21300887200005,15.749721924000028],[100.21738610500006,15.786017379000043]]]}},{"type":"Feature","properties":{"code":"600204","name":"บางประมุง","parentCode":"6002"},"geometry":{"type":"Polygon","coordinates":[[[100.04609640200005,15.678048219000061],[99.93247705700009,15.67232133500005],[99.93447520100005,15.647927799000058],[100.00907997600007,15.647197513000037],[100.03219410400004,15.600484300000062],[100.05698824400008,15.595375366000042],[100.06019901300004,15.618642111000042],[100.05988888100006,15.649861138000063],[100.04609640200005,15.678048219000061]]]}},{"type":"Feature","properties":{"code":"600502","name":"บางตาหงาย","parentCode":"6005"},"geometry":{"type":"Polygon","coordinates":[[[100.08386235000006,15.948670700000037],[100.03573849800006,16.00324530100005],[100.03449534100008,15.966357874000039],[99.98488553700008,15.937598157000025],[100.00723779500004,15.909665043000075],[100.03372503700007,15.895023976000061],[100.08386235000006,15.948670700000037]]]}},{"type":"Feature","properties":{"code":"600512","name":"บึงปลาทู","parentCode":"6005"},"geometry":{"type":"Polygon","coordinates":[[[100.09787756500003,16.069937932000073],[100.03734539800007,16.10692477400005],[100.04412977600003,16.042286999000055],[100.09564691700007,16.040764357000057],[100.09787756500003,16.069937932000073]]]}},{"type":"Feature","properties":{"code":"600117","name":"บึงเสนาท","parentCode":"6001"},"geometry":{"type":"Polygon","coordinates":[[[100.13570869300008,15.787287024000022],[100.12630405600004,15.786459109000077],[100.13518852500005,15.727801304000025],[100.14922373400003,15.713779377000037],[100.15331631800007,15.728668780000078],[100.13570869300008,15.787287024000022]]]}},{"type":"Feature","properties":{"code":"600703","name":"จันเสน","parentCode":"6007"},"geometry":{"type":"Polygon","coordinates":[[[100.51447682200006,15.145104735000075],[100.48425743500007,15.182710561000022],[100.45505911600009,15.180324047000056],[100.44738907700008,15.145000163000077],[100.42273595200004,15.128412465000054],[100.43215988800006,15.071491958000024],[100.47496705400005,15.10675714000007],[100.49347060300005,15.121199926000031],[100.51447682200006,15.145104735000075]]]}},{"type":"Feature","properties":{"code":"600513","name":"เจริญผล","parentCode":"6005"},"geometry":{"type":"Polygon","coordinates":[[[100.03130976300008,16.02820573300005],[100.00519106400009,16.02046511100002],[99.97561731100006,15.93443080700007],[99.98488553700008,15.937598157000025],[100.03449534100008,15.966357874000039],[100.03573849800006,16.00324530100005],[100.03130976300008,16.02820573300005]]]}},{"type":"Feature","properties":{"code":"600702","name":"ช่องแค","parentCode":"6007"},"geometry":{"type":"Polygon","coordinates":[[[100.44726136600008,15.238576460000047],[100.42119193000008,15.246472176000054],[100.38644403300003,15.23100048300006],[100.38992095700007,15.196469001000025],[100.42718185800004,15.140991279000048],[100.44738907700008,15.145000163000077],[100.45505911600009,15.180324047000056],[100.44726136600008,15.238576460000047]]]}},{"type":"Feature","properties":{"code":"600301","name":"ชุมแสง","parentCode":"6003"},"geometry":{"type":"Polygon","coordinates":[[[100.30959098500006,15.88576859400007],[100.31924059400006,15.896244743000068],[100.30365450400006,15.907268671000054],[100.30353927800007,15.891870849000043],[100.30959098500006,15.88576859400007]]]}},{"type":"Feature","properties":{"code":"601501","name":"ชุมตาบง","parentCode":"6015"},"geometry":{"type":"Polygon","coordinates":[[[99.66708457400006,15.66777029900004],[99.62342964000004,15.664331829000048],[99.50944836300005,15.639486292000072],[99.49694156400005,15.569297817000063],[99.52442154900007,15.568092919000037],[99.57059107900005,15.601535246000026],[99.66708457400006,15.66777029900004]]]}},{"type":"Feature","properties":{"code":"600509","name":"ด่านช้าง","parentCode":"6005"},"geometry":{"type":"Polygon","coordinates":[[[100.03734539800007,16.10692477400005],[99.99770628200008,16.133363402000043],[99.98432186700006,16.118128797000054],[99.95308032900004,16.080914130000053],[99.96394554800008,16.05973159900003],[100.00519106400009,16.02046511100002],[100.03130976300008,16.02820573300005],[100.04412977600003,16.042286999000055],[100.03734539800007,16.10692477400005]]]}},{"type":"Feature","properties":{"code":"600806","name":"ดอนคา","parentCode":"6008"},"geometry":{"type":"Polygon","coordinates":[[[100.59693074600006,15.74310650600006],[100.58913880700004,15.749986801000034],[100.51602165300005,15.724056723000047],[100.46979621400004,15.675691077000067],[100.50360511200006,15.621359766000069],[100.54907398600005,15.613350265000065],[100.56127096300008,15.65938959400006],[100.61792490000005,15.740602291000073],[100.59693074600006,15.74310650600006]]]}},{"type":"Feature","properties":{"code":"600209","name":"หาดสูง","parentCode":"6002"},"geometry":{"type":"Polygon","coordinates":[[[99.98675997300006,15.521519630000057],[99.95891290000009,15.507023330000038],[100.00045668700005,15.483726861000036],[100.02613374800006,15.507296073000077],[99.98675997300006,15.521519630000057]]]}},{"type":"Feature","properties":{"code":"600503","name":"หูกวาง","parentCode":"6005"},"geometry":{"type":"Polygon","coordinates":[[[100.00723779500004,15.909665043000075],[99.97126177300004,15.900306639000064],[99.97676987700004,15.848874022000075],[99.99320822700008,15.846367327000053],[100.05272928800008,15.879051544000049],[100.03372503700007,15.895023976000061],[100.00723779500004,15.909665043000075]]]}},{"type":"Feature","properties":{"code":"600605","name":"หัวดง","parentCode":"6006"},"geometry":{"type":"Polygon","coordinates":[[[100.11806878100003,15.93158225700006],[100.08386235000006,15.948670700000037],[100.03372503700007,15.895023976000061],[100.05272928800008,15.879051544000049],[100.05617474300004,15.845769799000038],[100.10698703300005,15.867030645000057],[100.11806878100003,15.93158225700006]]]}},{"type":"Feature","properties":{"code":"600803","name":"หัวถนน","parentCode":"6008"},"geometry":{"type":"Polygon","coordinates":[[[100.43000552000007,15.635334149000073],[100.40540154800004,15.608209187000057],[100.34304565400004,15.593147593000026],[100.38365707500009,15.593822886000055],[100.41000777100004,15.538301304000072],[100.45360792300005,15.530290799000056],[100.50386086500004,15.590270157000077],[100.49725879700009,15.608862471000066],[100.45224754800006,15.603512411000054],[100.43000552000007,15.635334149000073]]]}},{"type":"Feature","properties":{"code":"600705","name":"หัวหวาย","parentCode":"6007"},"geometry":{"type":"Polygon","coordinates":[[[100.41546187700004,15.421537515000068],[100.34962692200008,15.433824237000067],[100.30570252300004,15.399524309000071],[100.26196558000004,15.334644967000031],[100.26408518600005,15.325615287000062],[100.31734388600006,15.312286864000043],[100.38282278700007,15.349250510000047],[100.40630490000007,15.342824364000023],[100.42076360700008,15.382727070000044],[100.41546187700004,15.421537515000068]]]}},{"type":"Feature","properties":{"code":"600704","name":"ห้วยหอม","parentCode":"6007"},"geometry":{"type":"Polygon","coordinates":[[[100.52446517000004,15.26861875000003],[100.52031332100006,15.27097344300006],[100.47985226500003,15.259194087000026],[100.44726136600008,15.238576460000047],[100.45505911600009,15.180324047000056],[100.48425743500007,15.182710561000022],[100.52178685900009,15.22057856500004],[100.52446517000004,15.26861875000003]]]}},{"type":"Feature","properties":{"code":"601102","name":"ห้วยน้ำหอม","parentCode":"6011"},"geometry":{"type":"Polygon","coordinates":[[[99.75688434400007,15.728229756000076],[99.70134241100004,15.772160344000042],[99.64176501000009,15.736964218000026],[99.61915874200008,15.715116784000031],[99.65568199900008,15.706440343000054],[99.62342964000004,15.664331829000048],[99.66708457400006,15.66777029900004],[99.74224577600006,15.679322558000024],[99.72695373500005,15.724040982000076],[99.75796734400006,15.72258166100005],[99.75688434400007,15.728229756000076]]]}},{"type":"Feature","properties":{"code":"600404","name":"ห้วยร่วม","parentCode":"6004"},"geometry":{"type":"Polygon","coordinates":[[[100.54735169100007,15.92684255200004],[100.51923335200007,15.940200138000023],[100.47538489600004,15.935072714000057],[100.46074139700005,15.938385346000075],[100.43558936700003,15.894373365000035],[100.44688310200007,15.881805135000036],[100.52153017600006,15.87990704400005],[100.55004649600005,15.897711566000055],[100.54735169100007,15.92684255200004]]]}},{"type":"Feature","properties":{"code":"600406","name":"ห้วยถั่วเหนือ","parentCode":"6004"},"geometry":{"type":"Polygon","coordinates":[[[100.52153017600006,15.87990704400005],[100.44688310200007,15.881805135000036],[100.44837812500003,15.86101665600006],[100.49095757600008,15.832453240000063],[100.49971936300005,15.826066938000054],[100.52153017600006,15.87990704400005]]]}},{"type":"Feature","properties":{"code":"600405","name":"ห้วยถั่วใต้","parentCode":"6004"},"geometry":{"type":"Polygon","coordinates":[[[100.49095757600008,15.832453240000063],[100.44837812500003,15.86101665600006],[100.40705956500005,15.823075131000053],[100.44039462500007,15.831317180000042],[100.47875621800006,15.815636544000029],[100.49095757600008,15.832453240000063]]]}},{"type":"Feature","properties":{"code":"600407","name":"ห้วยใหญ่","parentCode":"6004"},"geometry":{"type":"Polygon","coordinates":[[[100.44688310200007,15.881805135000036],[100.43558936700003,15.894373365000035],[100.40330364800008,15.84521535500005],[100.40705956500005,15.823075131000053],[100.44837812500003,15.86101665600006],[100.44688310200007,15.881805135000036]]]}},{"type":"Feature","properties":{"code":"600602","name":"เก้าเลี้ยว","parentCode":"6006"},"geometry":{"type":"Polygon","coordinates":[[[100.10698703300005,15.867030645000057],[100.05617474300004,15.845769799000038],[100.07282723700007,15.834565136000037],[100.11338734000009,15.84222193000005],[100.10698703300005,15.867030645000057]]]}},{"type":"Feature","properties":{"code":"600311","name":"ฆะมัง","parentCode":"6003"},"geometry":{"type":"Polygon","coordinates":[[[100.33118930000006,15.940653068000074],[100.34636881500006,15.973784519000048],[100.30649835800006,15.973463683000034],[100.27604032100004,15.943445551000025],[100.28736469700004,15.921039914000062],[100.33118930000006,15.940653068000074]]]}},{"type":"Feature","properties":{"code":"601207","name":"เขาชายธง","parentCode":"6012"},"geometry":{"type":"Polygon","coordinates":[[[100.45442818900005,15.32146775900003],[100.42813263500005,15.29402845800007],[100.42119193000008,15.246472176000054],[100.44726136600008,15.238576460000047],[100.47985226500003,15.259194087000026],[100.45442818900005,15.32146775900003]]]}},{"type":"Feature","properties":{"code":"601305","name":"เขาชนกัน","parentCode":"6013"},"geometry":{"type":"Polygon","coordinates":[[[99.58120234300009,15.903330659000062],[99.53864170600008,15.924777447000054],[99.45094607600004,15.904996839000034],[99.47464980800004,15.833647444000064],[99.59518788600008,15.85497356600007],[99.58120234300009,15.903330659000062]]]}},{"type":"Feature","properties":{"code":"600604","name":"เขาดิน","parentCode":"6006"},"geometry":{"type":"Polygon","coordinates":[[[100.05617474300004,15.845769799000038],[100.05272928800008,15.879051544000049],[99.99320822700008,15.846367327000053],[100.02117474300007,15.818310804000077],[100.07890530900005,15.81556633300005],[100.07282723700007,15.834565136000037],[100.05617474300004,15.845769799000038]]]}},{"type":"Feature","properties":{"code":"601010","name":"เขากะลา","parentCode":"6010"},"geometry":{"type":"Polygon","coordinates":[[[100.33849224200009,15.598387366000054],[100.29679062500009,15.56045135100004],[100.26765712300005,15.627137122000022],[100.24054573000006,15.636894723000069],[100.22183732800005,15.570317516000046],[100.23414831000008,15.537171865000062],[100.25845796100003,15.49176938100004],[100.31822244900007,15.519677100000024],[100.39557449800009,15.516607915000066],[100.41000777100004,15.538301304000072],[100.38365707500009,15.593822886000055],[100.34304565400004,15.593147593000026],[100.33849224200009,15.598387366000054]]]}},{"type":"Feature","properties":{"code":"601007","name":"เขาทอง","parentCode":"6010"},"geometry":{"type":"Polygon","coordinates":[[[100.24054573000006,15.636894723000069],[100.20244614800004,15.619128937000028],[100.18922746000004,15.591326320000064],[100.14128823700008,15.609540329000026],[100.13722848800006,15.569930577000036],[100.14351207900006,15.546638733000066],[100.21715096200006,15.527413392000028],[100.23414831000008,15.537171865000062],[100.22183732800005,15.570317516000046],[100.24054573000006,15.636894723000069]]]}},{"type":"Feature","properties":{"code":"600901","name":"โคกเดื่อ","parentCode":"6009"},"geometry":{"type":"Polygon","coordinates":[[[100.64417481900006,15.663710432000073],[100.56127096300008,15.65938959400006],[100.54907398600005,15.613350265000065],[100.57862204300005,15.592994925000028],[100.63744338100008,15.566824053000062],[100.64417481900006,15.663710432000073]]]}},{"type":"Feature","properties":{"code":"600309","name":"โคกหม้อ","parentCode":"6003"},"geometry":{"type":"Polygon","coordinates":[[[100.24349557000005,15.86953102800004],[100.22600867700004,15.865733342000055],[100.21555734100008,15.792114914000024],[100.21738610500006,15.786017379000043],[100.25468184900006,15.80297887100005],[100.24829543300007,15.861386431000028],[100.24349557000005,15.86953102800004]]]}},{"type":"Feature","properties":{"code":"600104","name":"แควใหญ่","parentCode":"6001"},"geometry":{"type":"Polygon","coordinates":[[[100.19094163400007,15.699566265000044],[100.15331631800007,15.728668780000078],[100.14922373400003,15.713779377000037],[100.15319762800004,15.700322337000046],[100.17460589400008,15.699411749000035],[100.19094163400007,15.699566265000044]]]}},{"type":"Feature","properties":{"code":"600102","name":"กลางแดด","parentCode":"6001"},"geometry":{"type":"Polygon","coordinates":[[[100.13570372500004,15.643266496000024],[100.10330060800004,15.646026194000058],[100.09136482700006,15.612956564000058],[100.14128823700008,15.609540329000026],[100.13570372500004,15.643266496000024]]]}},{"type":"Feature","properties":{"code":"600304","name":"เกยไชย","parentCode":"6003"},"geometry":{"type":"Polygon","coordinates":[[[100.30353927800007,15.891870849000043],[100.28654743200008,15.899367389000076],[100.24349557000005,15.86953102800004],[100.24829543300007,15.861386431000028],[100.31611611900007,15.839332425000066],[100.33339079200005,15.865094494000061],[100.30959098500006,15.88576859400007],[100.30353927800007,15.891870849000043]]]}},{"type":"Feature","properties":{"code":"600103","name":"เกรียงไกร","parentCode":"6001"},"geometry":{"type":"Polygon","coordinates":[[[100.15613534000005,15.774378666000075],[100.13570869300008,15.787287024000022],[100.15331631800007,15.728668780000078],[100.19094163400007,15.699566265000044],[100.24741855900004,15.69822785100007],[100.22274707400004,15.729238887000065],[100.21300887200005,15.749721924000028],[100.15613534000005,15.774378666000075]]]}},{"type":"Feature","properties":{"code":"600201","name":"โกรกพระ","parentCode":"6002"},"geometry":{"type":"Polygon","coordinates":[[[100.09077756000005,15.574883186000022],[100.06708017200003,15.591781866000076],[100.03611539400003,15.574603179000064],[100.04536658900008,15.526368774000048],[100.11097193300009,15.55401771000004],[100.09077756000005,15.574883186000022]]]}},{"type":"Feature","properties":{"code":"601202","name":"ลำพยนต์","parentCode":"6012"},"geometry":{"type":"Polygon","coordinates":[[[100.62988225800007,15.34039412900006],[100.59049825600005,15.382192747000033],[100.52005428000007,15.314224895000052],[100.52031332100006,15.27097344300006],[100.52446517000004,15.26861875000003],[100.59011021800006,15.26885898300003],[100.62988225800007,15.34039412900006]]]}},{"type":"Feature","properties":{"code":"600709","name":"ลาดทิพรส","parentCode":"6007"},"geometry":{"type":"Polygon","coordinates":[[[100.59011021800006,15.26885898300003],[100.52446517000004,15.26861875000003],[100.52178685900009,15.22057856500004],[100.48425743500007,15.182710561000022],[100.51447682200006,15.145104735000075],[100.55229409000003,15.191947666000033],[100.62022061000005,15.242709923000064],[100.59011021800006,15.26885898300003]]]}},{"type":"Feature","properties":{"code":"601101","name":"ลาดยาว","parentCode":"6011"},"geometry":{"type":"Polygon","coordinates":[[[99.76440938100006,15.786107100000038],[99.74012248700006,15.835389810000038],[99.70435600900004,15.809873309000068],[99.70134241100004,15.772160344000042],[99.75688434400007,15.728229756000076],[99.82129849200004,15.736675129000048],[99.77233757100004,15.766538113000024],[99.78072629900004,15.799325955000029],[99.76440938100006,15.786107100000038]]]}},{"type":"Feature","properties":{"code":"601303","name":"แม่เล่ย์","parentCode":"6013"},"geometry":{"type":"Polygon","coordinates":[[[99.34880060700004,15.922756179000032],[99.29221785900006,15.893306619000043],[99.22066950700008,15.944399066000074],[99.08612096900004,15.884496026000022],[99.10328346100005,15.821194302000038],[99.13369905300004,15.798261423000042],[99.19078496400004,15.779433892000043],[99.21349216100003,15.779769414000043],[99.22835468400007,15.797205250000047],[99.28860839100008,15.762661513000069],[99.34645396500008,15.772717029000034],[99.39633177900004,15.730376189000026],[99.42786488900003,15.754086327000039],[99.46389167400008,15.730785523000065],[99.48181390500008,15.76637564400005],[99.50137346600008,15.786595571000078],[99.47464980800004,15.833647444000064],[99.45094607600004,15.904996839000034],[99.34880060700004,15.922756179000032]]]}},{"type":"Feature","properties":{"code":"601401","name":"แม่เปิน","parentCode":"6014"},"geometry":{"type":"Polygon","coordinates":[[[99.46389167400008,15.730785523000065],[99.42786488900003,15.754086327000039],[99.39633177900004,15.730376189000026],[99.34645396500008,15.772717029000034],[99.28860839100008,15.762661513000069],[99.22835468400007,15.797205250000047],[99.21349216100003,15.779769414000043],[99.24598418400006,15.72206157200003],[99.35975848500004,15.677216436000037],[99.37932216300004,15.62549819000003],[99.43982816900007,15.598346197000069],[99.49694156400005,15.569297817000063],[99.50944836300005,15.639486292000072],[99.46389167400008,15.730785523000065]]]}},{"type":"Feature","properties":{"code":"601301","name":"แม่วงก์","parentCode":"6013"},"geometry":{"type":"Polygon","coordinates":[[[99.63435730700007,15.784557337000024],[99.60368213600003,15.819456970000033],[99.54910879600004,15.834621969000068],[99.50137346600008,15.786595571000078],[99.48181390500008,15.76637564400005],[99.51332949700009,15.73456537800007],[99.56187089300005,15.741056162000064],[99.61915874200008,15.715116784000031],[99.64176501000009,15.736964218000026],[99.63435730700007,15.784557337000024]]]}},{"type":"Feature","properties":{"code":"600601","name":"มหาโพธิ","parentCode":"6006"},"geometry":{"type":"Polygon","coordinates":[[[100.11338734000009,15.84222193000005],[100.07282723700007,15.834565136000037],[100.07890530900005,15.81556633300005],[100.08094938700003,15.807904971000028],[100.12146665300008,15.816540638000049],[100.11338734000009,15.84222193000005]]]}},{"type":"Feature","properties":{"code":"601106","name":"มาบแก","parentCode":"6011"},"geometry":{"type":"Polygon","coordinates":[[[99.75796734400006,15.72258166100005],[99.72695373500005,15.724040982000076],[99.74224577600006,15.679322558000024],[99.79218084100006,15.648611953000056],[99.78760418900004,15.697514200000057],[99.75796734400006,15.72258166100005]]]}},{"type":"Feature","properties":{"code":"601004","name":"ม่วงหัก","parentCode":"6010"},"geometry":{"type":"Polygon","coordinates":[[[100.22093448300006,15.404102047000038],[100.12960189500006,15.40534214400003],[100.19296180600008,15.374716350000028],[100.21784782000003,15.363384734000022],[100.22242273000006,15.397608125000033],[100.22093448300006,15.404102047000038]]]}},{"type":"Feature","properties":{"code":"600907","name":"นาขอม","parentCode":"6009"},"geometry":{"type":"Polygon","coordinates":[[[100.81262041900004,15.780968527000027],[100.75089638500003,15.76641455500004],[100.73714466500007,15.698313464000023],[100.76052959700007,15.669151515000067],[100.82726875400004,15.664041517000044],[100.81852095600004,15.713012298000024],[100.81499178600006,15.775328925000053],[100.81262041900004,15.780968527000027]]]}},{"type":"Feature","properties":{"code":"600205","name":"นากลาง","parentCode":"6002"},"geometry":{"type":"Polygon","coordinates":[[[100.03219410400004,15.600484300000062],[100.00907997600007,15.647197513000037],[99.93447520100005,15.647927799000058],[99.94080750200004,15.60451030400003],[100.03219410400004,15.600484300000062]]]}},{"type":"Feature","properties":{"code":"600107","name":"นครสวรรค์ออก","parentCode":"6001"},"geometry":{"type":"Polygon","coordinates":[[[100.17460589400008,15.699411749000035],[100.15319762800004,15.700322337000046],[100.10570663300007,15.667970355000023],[100.10330060800004,15.646026194000058],[100.13570372500004,15.643266496000024],[100.17460589400008,15.699411749000035]]]}},{"type":"Feature","properties":{"code":"600106","name":"นครสวรรค์ตก","parentCode":"6001"},"geometry":{"type":"Polygon","coordinates":[[[100.06572534300005,15.713902443000052],[100.04609640200005,15.678048219000061],[100.05988888100006,15.649861138000063],[100.10330060800004,15.646026194000058],[100.10570663300007,15.667970355000023],[100.08569089900004,15.707326182000031],[100.06572534300005,15.713902443000052]]]}},{"type":"Feature","properties":{"code":"601009","name":"น้ำทรง","parentCode":"6010"},"geometry":{"type":"Polygon","coordinates":[[[100.10843021600004,15.456481533000044],[100.10718749300008,15.510216141000058],[100.02408017300007,15.482343104000051],[100.05439491100003,15.423818797000024],[100.06882666500007,15.426522753000029],[100.10186987000009,15.417357425000034],[100.12481534800008,15.412408173000074],[100.13436449000005,15.42868812100005],[100.10843021600004,15.456481533000044]]]}},{"type":"Feature","properties":{"code":"601003","name":"นิคมเขาบ่อแก้ว","parentCode":"6010"},"geometry":{"type":"Polygon","coordinates":[[[100.39557449800009,15.516607915000066],[100.31822244900007,15.519677100000024],[100.25845796100003,15.49176938100004],[100.23414831000008,15.537171865000062],[100.21715096200006,15.527413392000028],[100.20847410000005,15.487035992000074],[100.24592336300003,15.429840744000046],[100.32741264200007,15.454198639000026],[100.39557449800009,15.516607915000066]]]}},{"type":"Feature","properties":{"code":"601110","name":"เนินขี้เหล็ก","parentCode":"6011"},"geometry":{"type":"Polygon","coordinates":[[[99.90889237600004,15.875518740000075],[99.89716434000007,15.895938624000053],[99.85550502700005,15.876746701000059],[99.76440938100006,15.786107100000038],[99.78072629900004,15.799325955000029],[99.83449652900003,15.807020224000041],[99.89145511100008,15.81301940800006],[99.93025122800003,15.83826620800005],[99.90889237600004,15.875518740000075]]]}},{"type":"Feature","properties":{"code":"600207","name":"เนินกว้าว","parentCode":"6002"},"geometry":{"type":"Polygon","coordinates":[[[100.03611539400003,15.574603179000064],[99.97592353200008,15.553763156000059],[99.98675997300006,15.521519630000057],[100.02613374800006,15.507296073000077],[100.03458255600003,15.51039813500006],[100.04536658900008,15.526368774000048],[100.03611539400003,15.574603179000064]]]}},{"type":"Feature","properties":{"code":"601002","name":"เนินมะกอก","parentCode":"6010"},"geometry":{"type":"Polygon","coordinates":[[[100.24592336300003,15.429840744000046],[100.20847410000005,15.487035992000074],[100.15706023200005,15.480712778000054],[100.18109662900008,15.429683780000062],[100.22093448300006,15.404102047000038],[100.22242273000006,15.397608125000033],[100.24592336300003,15.429840744000046]]]}},{"type":"Feature","properties":{"code":"600208","name":"เนินศาลา","parentCode":"6002"},"geometry":{"type":"Polygon","coordinates":[[[99.97592353200008,15.553763156000059],[99.94246918600004,15.572361966000074],[99.94817728000004,15.501116496000066],[99.95891290000009,15.507023330000038],[99.98675997300006,15.521519630000057],[99.97592353200008,15.553763156000059]]]}},{"type":"Feature","properties":{"code":"600401","name":"หนองบัว","parentCode":"6004"},"geometry":{"type":"Polygon","coordinates":[[[100.65876619600004,15.88531213300007],[100.58026774200005,15.86406439600006],[100.55004649600005,15.897711566000055],[100.52153017600006,15.87990704400005],[100.49971936300005,15.826066938000054],[100.61162578000005,15.809446618000038],[100.70152043900003,15.838145953000037],[100.79891042400004,15.828960334000044],[100.80822834500003,15.835060267000074],[100.80517113300004,15.86803367400006],[100.72025085800004,15.890001738000024],[100.65876619600004,15.88531213300007]]]}},{"type":"Feature","properties":{"code":"600402","name":"หนองกลับ","parentCode":"6004"},"geometry":{"type":"Polygon","coordinates":[[[100.65876619600004,15.88531213300007],[100.65368897700006,15.954323464000026],[100.67832231400007,15.95606749700005],[100.65414808200006,16.026881236000065],[100.57928123500005,15.945980216000066],[100.54735169100007,15.92684255200004],[100.55004649600005,15.897711566000055],[100.58026774200005,15.86406439600006],[100.65876619600004,15.88531213300007]]]}},{"type":"Feature","properties":{"code":"600307","name":"หนองกระเจา","parentCode":"6003"},"geometry":{"type":"Polygon","coordinates":[[[100.38769368300007,15.938730710000073],[100.35661486000004,15.938853950000066],[100.33339079200005,15.865094494000061],[100.40330364800008,15.84521535500005],[100.43558936700003,15.894373365000035],[100.46074139700005,15.938385346000075],[100.38769368300007,15.938730710000073]]]}},{"type":"Feature","properties":{"code":"600115","name":"หนองกระโดน","parentCode":"6001"},"geometry":{"type":"Polygon","coordinates":[[[99.99320822700008,15.846367327000053],[99.97676987700004,15.848874022000075],[99.93025122800003,15.83826620800005],[99.89145511100008,15.81301940800006],[99.93303786400008,15.777476457000034],[99.93784738000005,15.766717756000048],[100.02907824300007,15.776635770000041],[100.02117474300007,15.818310804000077],[99.99320822700008,15.846367327000053]]]}},{"type":"Feature","properties":{"code":"600114","name":"หนองกรด","parentCode":"6001"},"geometry":{"type":"Polygon","coordinates":[[[100.04515147000006,15.763860062000049],[100.02907824300007,15.776635770000041],[99.93784738000005,15.766717756000048],[99.93326388400004,15.747732705000033],[99.93247705700009,15.67232133500005],[100.04609640200005,15.678048219000061],[100.06572534300005,15.713902443000052],[100.04515147000006,15.763860062000049]]]}},{"type":"Feature","properties":{"code":"600510","name":"หนองกรด","parentCode":"6005"},"geometry":{"type":"Polygon","coordinates":[[[100.11164932600008,16.069539642000052],[100.09787756500003,16.069937932000073],[100.09564691700007,16.040764357000057],[100.04412977600003,16.042286999000055],[100.03130976300008,16.02820573300005],[100.03573849800006,16.00324530100005],[100.08386235000006,15.948670700000037],[100.11806878100003,15.93158225700006],[100.16067488900006,15.959192871000027],[100.15967772100004,15.967868021000072],[100.13801283600009,16.010428733000026],[100.11164932600008,16.069539642000052]]]}},{"type":"Feature","properties":{"code":"600810","name":"หนองหลวง","parentCode":"6008"},"geometry":{"type":"Polygon","coordinates":[[[100.54605343100008,15.518740770000022],[100.54009146000004,15.570057610000049],[100.50386086500004,15.590270157000077],[100.45360792300005,15.530290799000056],[100.49580235800005,15.505628905000037],[100.48791590700006,15.458157327000038],[100.51061699900004,15.406775376000041],[100.51301534700008,15.406678201000034],[100.55393277300004,15.474673887000051],[100.54605343100008,15.518740770000022]]]}},{"type":"Feature","properties":{"code":"600707","name":"หนองหม้อ","parentCode":"6007"},"geometry":{"type":"Polygon","coordinates":[[[100.37543308500005,15.177207659000032],[100.33754485800006,15.225110100000052],[100.27597933500005,15.241911255000048],[100.29361736800007,15.207693696000035],[100.29744018300005,15.182307439000056],[100.33982985100005,15.150622756000075],[100.37543308500005,15.177207659000032]]]}},{"type":"Feature","properties":{"code":"601108","name":"หนองนมวัว","parentCode":"6011"},"geometry":{"type":"Polygon","coordinates":[[[99.89145511100008,15.81301940800006],[99.83449652900003,15.807020224000041],[99.83718091200006,15.741192192000028],[99.93303786400008,15.777476457000034],[99.89145511100008,15.81301940800006]]]}},{"type":"Feature","properties":{"code":"601204","name":"หนองพิกุล","parentCode":"6012"},"geometry":{"type":"Polygon","coordinates":[[[100.45908955900006,15.358570526000051],[100.42076360700008,15.382727070000044],[100.40630490000007,15.342824364000023],[100.42813263500005,15.29402845800007],[100.45442818900005,15.32146775900003],[100.45908955900006,15.358570526000051]]]}},{"type":"Feature","properties":{"code":"600706","name":"หนองโพ","parentCode":"6007"},"geometry":{"type":"Polygon","coordinates":[[[100.32741264200007,15.454198639000026],[100.24592336300003,15.429840744000046],[100.22242273000006,15.397608125000033],[100.21784782000003,15.363384734000022],[100.26196558000004,15.334644967000031],[100.30570252300004,15.399524309000071],[100.34962692200008,15.433824237000067],[100.32741264200007,15.454198639000026]]]}},{"type":"Feature","properties":{"code":"600116","name":"หนองปลิง","parentCode":"6001"},"geometry":{"type":"Polygon","coordinates":[[[100.20244614800004,15.619128937000028],[100.17460589400008,15.699411749000035],[100.13570372500004,15.643266496000024],[100.14128823700008,15.609540329000026],[100.18922746000004,15.591326320000064],[100.20244614800004,15.619128937000028]]]}},{"type":"Feature","properties":{"code":"600511","name":"หนองตางู","parentCode":"6005"},"geometry":{"type":"Polygon","coordinates":[[[100.03828873900005,16.17736532600003],[100.02485074300006,16.19118436800005],[100.01589751300008,16.152821109000058],[99.99770628200008,16.133363402000043],[100.03734539800007,16.10692477400005],[100.09787756500003,16.069937932000073],[100.11164932600008,16.069539642000052],[100.11345103400004,16.07955045500006],[100.07740099200004,16.157214682000074],[100.03828873900005,16.17736532600003]]]}},{"type":"Feature","properties":{"code":"600603","name":"หนองเต่า","parentCode":"6006"},"geometry":{"type":"Polygon","coordinates":[[[100.17512349500004,15.933324189000075],[100.16067488900006,15.959192871000027],[100.11806878100003,15.93158225700006],[100.10698703300005,15.867030645000057],[100.11338734000009,15.84222193000005],[100.12146665300008,15.816540638000049],[100.16981724900006,15.810185509000064],[100.17512349500004,15.933324189000075]]]}},{"type":"Feature","properties":{"code":"601107","name":"หนองยาว","parentCode":"6011"},"geometry":{"type":"Polygon","coordinates":[[[99.93784738000005,15.766717756000048],[99.93303786400008,15.777476457000034],[99.83718091200006,15.741192192000028],[99.83578924800008,15.71345057600007],[99.89214348400009,15.718591398000058],[99.93326388400004,15.747732705000033],[99.93784738000005,15.766717756000048]]]}},{"type":"Feature","properties":{"code":"600101","name":"ปากน้ำโพ","parentCode":"6001"},"geometry":{"type":"Polygon","coordinates":[[[100.13518852500005,15.727801304000025],[100.11313815200003,15.729570436000074],[100.08569089900004,15.707326182000031],[100.10570663300007,15.667970355000023],[100.15319762800004,15.700322337000046],[100.14922373400003,15.713779377000037],[100.13518852500005,15.727801304000025]]]}},{"type":"Feature","properties":{"code":"601502","name":"ปางสวรรค์","parentCode":"6015"},"geometry":{"type":"Polygon","coordinates":[[[99.61915874200008,15.715116784000031],[99.56187089300005,15.741056162000064],[99.51332949700009,15.73456537800007],[99.48181390500008,15.76637564400005],[99.46389167400008,15.730785523000065],[99.50944836300005,15.639486292000072],[99.62342964000004,15.664331829000048],[99.65568199900008,15.706440343000054],[99.61915874200008,15.715116784000031]]]}},{"type":"Feature","properties":{"code":"600310","name":"ไผ่สิงห์","parentCode":"6003"},"geometry":{"type":"Polygon","coordinates":[[[100.40330364800008,15.84521535500005],[100.33339079200005,15.865094494000061],[100.31611611900007,15.839332425000066],[100.31355592900007,15.822585694000054],[100.34286111700004,15.780719545000068],[100.36168000200007,15.79763803800006],[100.40705956500005,15.823075131000053],[100.40330364800008,15.84521535500005]]]}},{"type":"Feature","properties":{"code":"600908","name":"ไพศาลี","parentCode":"6009"},"geometry":{"type":"Polygon","coordinates":[[[100.76052959700007,15.669151515000067],[100.73714466500007,15.698313464000023],[100.68212945800008,15.64562227600004],[100.64417481900006,15.663710432000073],[100.63744338100008,15.566824053000062],[100.69304306200007,15.566639790000067],[100.69949678900008,15.608048849000056],[100.73299886000007,15.616515410000034],[100.76052959700007,15.669151515000067]]]}},{"type":"Feature","properties":{"code":"600308","name":"พันลาน","parentCode":"6003"},"geometry":{"type":"Polygon","coordinates":[[[100.31611611900007,15.839332425000066],[100.24829543300007,15.861386431000028],[100.25468184900006,15.80297887100005],[100.31355592900007,15.822585694000054],[100.31611611900007,15.839332425000066]]]}},{"type":"Feature","properties":{"code":"600802","name":"พนมรอก","parentCode":"6008"},"geometry":{"type":"Polygon","coordinates":[[[100.51602165300005,15.724056723000047],[100.49059361300004,15.743670933000033],[100.42738920900007,15.743040103000055],[100.36329131300005,15.743859452000038],[100.37344502100007,15.68558379600006],[100.40795078300005,15.675314832000026],[100.46979621400004,15.675691077000067],[100.51602165300005,15.724056723000047]]]}},{"type":"Feature","properties":{"code":"600809","name":"พนมเศษ","parentCode":"6008"},"geometry":{"type":"Polygon","coordinates":[[[100.36329131300005,15.743859452000038],[100.36168000200007,15.79763803800006],[100.34286111700004,15.780719545000068],[100.30056770900006,15.693536601000062],[100.37344502100007,15.68558379600006],[100.36329131300005,15.743859452000038]]]}},{"type":"Feature","properties":{"code":"601001","name":"พยุหะ","parentCode":"6010"},"geometry":{"type":"Polygon","coordinates":[[[100.15706023200005,15.480712778000054],[100.14009044600004,15.480861772000026],[100.10843021600004,15.456481533000044],[100.13436449000005,15.42868812100005],[100.18109662900008,15.429683780000062],[100.15706023200005,15.480712778000054]]]}},{"type":"Feature","properties":{"code":"600303","name":"พิกุล","parentCode":"6003"},"geometry":{"type":"Polygon","coordinates":[[[100.33118930000006,15.940653068000074],[100.28736469700004,15.921039914000062],[100.28654743200008,15.899367389000076],[100.30353927800007,15.891870849000043],[100.30365450400006,15.907268671000054],[100.31924059400006,15.896244743000068],[100.30959098500006,15.88576859400007],[100.33339079200005,15.865094494000061],[100.35661486000004,15.938853950000066],[100.33118930000006,15.940653068000074]]]}},{"type":"Feature","properties":{"code":"600905","name":"โพธิ์ประสาท","parentCode":"6009"},"geometry":{"type":"Polygon","coordinates":[[[100.65337863400003,15.479552758000068],[100.60554145400005,15.453142674000048],[100.60272409000004,15.48104032200007],[100.55393277300004,15.474673887000051],[100.51301534700008,15.406678201000034],[100.60410134900008,15.403102352000076],[100.59049825600005,15.382192747000033],[100.62988225800007,15.34039412900006],[100.63348505600004,15.34054074100004],[100.65888786900007,15.43537520600006],[100.65337863400003,15.479552758000068]]]}},{"type":"Feature","properties":{"code":"600112","name":"พระนอน","parentCode":"6001"},"geometry":{"type":"Polygon","coordinates":[[[100.19094163400007,15.699566265000044],[100.17460589400008,15.699411749000035],[100.20244614800004,15.619128937000028],[100.24054573000006,15.636894723000069],[100.26765712300005,15.627137122000022],[100.29679062500009,15.56045135100004],[100.33849224200009,15.598387366000054],[100.29635213500006,15.634176607000029],[100.28896078500009,15.694293793000043],[100.24741855900004,15.69822785100007],[100.19094163400007,15.699566265000044]]]}},{"type":"Feature","properties":{"code":"600710","name":"พรหมนิมิต","parentCode":"6007"},"geometry":{"type":"Polygon","coordinates":[[[100.44738907700008,15.145000163000077],[100.42718185800004,15.140991279000048],[100.38992095700007,15.196469001000025],[100.37543308500005,15.177207659000032],[100.42273595200004,15.128412465000054],[100.44738907700008,15.145000163000077]]]}},{"type":"Feature","properties":{"code":"601205","name":"พุนกยูง","parentCode":"6012"},"geometry":{"type":"Polygon","coordinates":[[[100.48791590700006,15.458157327000038],[100.41546187700004,15.421537515000068],[100.42076360700008,15.382727070000044],[100.45908955900006,15.358570526000051],[100.50165497000006,15.361257484000078],[100.51061699900004,15.406775376000041],[100.48791590700006,15.458157327000038]]]}},{"type":"Feature","properties":{"code":"601117","name":"สระแก้ว","parentCode":"6011"},"geometry":{"type":"Polygon","coordinates":[[[99.83449652900003,15.807020224000041],[99.78072629900004,15.799325955000029],[99.77233757100004,15.766538113000024],[99.82129849200004,15.736675129000048],[99.83718091200006,15.741192192000028],[99.83449652900003,15.807020224000041]]]}},{"type":"Feature","properties":{"code":"601011","name":"สระทะเล","parentCode":"6010"},"geometry":{"type":"Polygon","coordinates":[[[100.21715096200006,15.527413392000028],[100.14351207900006,15.546638733000066],[100.14009044600004,15.480861772000026],[100.15706023200005,15.480712778000054],[100.20847410000005,15.487035992000074],[100.21715096200006,15.527413392000028]]]}},{"type":"Feature","properties":{"code":"600804","name":"สายลำโพง","parentCode":"6008"},"geometry":{"type":"Polygon","coordinates":[[[100.47875621800006,15.815636544000029],[100.44039462500007,15.831317180000042],[100.42738920900007,15.743040103000055],[100.49059361300004,15.743670933000033],[100.51602165300005,15.724056723000047],[100.58913880700004,15.749986801000034],[100.52346573400007,15.75620993900003],[100.47875621800006,15.815636544000029]]]}},{"type":"Feature","properties":{"code":"600206","name":"ศาลาแดง","parentCode":"6002"},"geometry":{"type":"Polygon","coordinates":[[[100.05698824400008,15.595375366000042],[100.03219410400004,15.600484300000062],[99.94080750200004,15.60451030400003],[99.93732854000007,15.597596907000025],[99.94246918600004,15.572361966000074],[99.97592353200008,15.553763156000059],[100.03611539400003,15.574603179000064],[100.06708017200003,15.591781866000076],[100.05698824400008,15.595375366000042]]]}},{"type":"Feature","properties":{"code":"600902","name":"สำโรงชัย","parentCode":"6009"},"geometry":{"type":"Polygon","coordinates":[[[100.63744338100008,15.566824053000062],[100.57862204300005,15.592994925000028],[100.57719374100009,15.543972548000056],[100.54605343100008,15.518740770000022],[100.55393277300004,15.474673887000051],[100.60272409000004,15.48104032200007],[100.60554145400005,15.453142674000048],[100.65337863400003,15.479552758000068],[100.67455321200003,15.512471411000035],[100.74598784700004,15.513287969000032],[100.69304306200007,15.566639790000067],[100.63744338100008,15.566824053000062]]]}},{"type":"Feature","properties":{"code":"601116","name":"ศาลเจ้าไก่ต่อ","parentCode":"6011"},"geometry":{"type":"Polygon","coordinates":[[[99.70435600900004,15.809873309000068],[99.68996892900009,15.819735107000042],[99.63435730700007,15.784557337000024],[99.64176501000009,15.736964218000026],[99.70134241100004,15.772160344000042],[99.70435600900004,15.809873309000068]]]}},{"type":"Feature","properties":{"code":"601105","name":"สร้อยละคร","parentCode":"6011"},"geometry":{"type":"Polygon","coordinates":[[[99.83718091200006,15.741192192000028],[99.82129849200004,15.736675129000048],[99.75688434400007,15.728229756000076],[99.75796734400006,15.72258166100005],[99.78760418900004,15.697514200000057],[99.79626522300003,15.690929271000073],[99.83578924800008,15.71345057600007],[99.83718091200006,15.741192192000028]]]}},{"type":"Feature","properties":{"code":"600708","name":"สร้อยทอง","parentCode":"6007"},"geometry":{"type":"Polygon","coordinates":[[[100.42273595200004,15.128412465000054],[100.37543308500005,15.177207659000032],[100.33982985100005,15.150622756000075],[100.35152437900007,15.118409770000028],[100.36479272100007,15.091384173000051],[100.42443028700006,15.051634568000054],[100.42748741400004,15.061086905000025],[100.43215988800006,15.071491958000024],[100.42273595200004,15.128412465000054]]]}},{"type":"Feature","properties":{"code":"601203","name":"สุขสำราญ","parentCode":"6012"},"geometry":{"type":"Polygon","coordinates":[[[100.51301534700008,15.406678201000034],[100.51061699900004,15.406775376000041],[100.50165497000006,15.361257484000078],[100.52005428000007,15.314224895000052],[100.59049825600005,15.382192747000033],[100.60410134900008,15.403102352000076],[100.51301534700008,15.406678201000034]]]}},{"type":"Feature","properties":{"code":"600507","name":"ตาขีด","parentCode":"6005"},"geometry":{"type":"Polygon","coordinates":[[[99.96394554800008,16.05973159900003],[99.95308032900004,16.080914130000053],[99.87367264900007,16.036944223000035],[99.87554250100004,16.03414322800006],[99.86666756500006,16.002874792000057],[99.90211490800004,15.97417718500003],[99.92418756700005,15.957500280000033],[99.96394554800008,16.05973159900003]]]}},{"type":"Feature","properties":{"code":"600508","name":"ตาสัง","parentCode":"6005"},"geometry":{"type":"Polygon","coordinates":[[[100.00519106400009,16.02046511100002],[99.96394554800008,16.05973159900003],[99.92418756700005,15.957500280000033],[99.96109180700006,15.93831902200003],[99.97561731100006,15.93443080700007],[100.00519106400009,16.02046511100002]]]}},{"type":"Feature","properties":{"code":"601201","name":"ตากฟ้า","parentCode":"6012"},"geometry":{"type":"Polygon","coordinates":[[[100.52005428000007,15.314224895000052],[100.50165497000006,15.361257484000078],[100.45908955900006,15.358570526000051],[100.45442818900005,15.32146775900003],[100.47985226500003,15.259194087000026],[100.52031332100006,15.27097344300006],[100.52005428000007,15.314224895000052]]]}},{"type":"Feature","properties":{"code":"600105","name":"ตะเคียนเลื่อน","parentCode":"6001"},"geometry":{"type":"Polygon","coordinates":[[[100.05988888100006,15.649861138000063],[100.06019901300004,15.618642111000042],[100.09231556600008,15.608472077000044],[100.09136482700006,15.612956564000058],[100.10330060800004,15.646026194000058],[100.05988888100006,15.649861138000063]]]}},{"type":"Feature","properties":{"code":"600701","name":"ตาคลี","parentCode":"6007"},"geometry":{"type":"Polygon","coordinates":[[[100.40630490000007,15.342824364000023],[100.38282278700007,15.349250510000047],[100.31734388600006,15.312286864000043],[100.26408518600005,15.325615287000062],[100.25389511900005,15.291054693000035],[100.26503365900004,15.268409418000033],[100.27597933500005,15.241911255000048],[100.33754485800006,15.225110100000052],[100.37543308500005,15.177207659000032],[100.38992095700007,15.196469001000025],[100.38644403300003,15.23100048300006],[100.42119193000008,15.246472176000054],[100.42813263500005,15.29402845800007],[100.40630490000007,15.342824364000023]]]}},{"type":"Feature","properties":{"code":"600904","name":"ตะคร้อ","parentCode":"6009"},"geometry":{"type":"Polygon","coordinates":[[[100.76831628200006,15.462582311000062],[100.74598784700004,15.513287969000032],[100.67455321200003,15.512471411000035],[100.65337863400003,15.479552758000068],[100.65888786900007,15.43537520600006],[100.69048133000007,15.446337925000023],[100.76831628200006,15.462582311000062]]]}},{"type":"Feature","properties":{"code":"600305","name":"ท่าไม้","parentCode":"6003"},"geometry":{"type":"Polygon","coordinates":[[[100.27604032100004,15.943445551000025],[100.24746351100003,15.938380619000043],[100.21670961900008,15.927905562000035],[100.24349557000005,15.86953102800004],[100.28654743200008,15.899367389000076],[100.28736469700004,15.921039914000062],[100.27604032100004,15.943445551000025]]]}},{"type":"Feature","properties":{"code":"601008","name":"ท่าน้ำอ้อย","parentCode":"6010"},"geometry":{"type":"Polygon","coordinates":[[[100.18109662900008,15.429683780000062],[100.13436449000005,15.42868812100005],[100.12481534800008,15.412408173000074],[100.12960189500006,15.40534214400003],[100.22093448300006,15.404102047000038],[100.18109662900008,15.429683780000062]]]}},{"type":"Feature","properties":{"code":"600501","name":"ท่างิ้ว","parentCode":"6005"},"geometry":{"type":"Polygon","coordinates":[[[99.98488553700008,15.937598157000025],[99.97561731100006,15.93443080700007],[99.96109180700006,15.93831902200003],[99.88832783600009,15.909544019000066],[99.89716434000007,15.895938624000053],[99.90889237600004,15.875518740000075],[99.97126177300004,15.900306639000064],[100.00723779500004,15.909665043000075],[99.98488553700008,15.937598157000025]]]}},{"type":"Feature","properties":{"code":"600801","name":"ท่าตะโก","parentCode":"6008"},"geometry":{"type":"Polygon","coordinates":[[[100.50360511200006,15.621359766000069],[100.46979621400004,15.675691077000067],[100.40795078300005,15.675314832000026],[100.43000552000007,15.635334149000073],[100.45224754800006,15.603512411000054],[100.49725879700009,15.608862471000066],[100.50360511200006,15.621359766000069]]]}},{"type":"Feature","properties":{"code":"600807","name":"ทำนบ","parentCode":"6008"},"geometry":{"type":"Polygon","coordinates":[[[100.54907398600005,15.613350265000065],[100.50360511200006,15.621359766000069],[100.49725879700009,15.608862471000066],[100.50386086500004,15.590270157000077],[100.54009146000004,15.570057610000049],[100.54605343100008,15.518740770000022],[100.57719374100009,15.543972548000056],[100.57862204300005,15.592994925000028],[100.54907398600005,15.613350265000065]]]}},{"type":"Feature","properties":{"code":"600403","name":"ธารทหาร","parentCode":"6004"},"geometry":{"type":"Polygon","coordinates":[[[100.49095757600008,15.832453240000063],[100.47875621800006,15.815636544000029],[100.52346573400007,15.75620993900003],[100.58913880700004,15.749986801000034],[100.59693074600006,15.74310650600006],[100.61162578000005,15.809446618000038],[100.49971936300005,15.826066938000054],[100.49095757600008,15.832453240000063]]]}},{"type":"Feature","properties":{"code":"600302","name":"ทับกฤช","parentCode":"6003"},"geometry":{"type":"Polygon","coordinates":[[[100.34286111700004,15.780719545000068],[100.31355592900007,15.822585694000054],[100.25468184900006,15.80297887100005],[100.25524345300005,15.754690417000063],[100.22274707400004,15.729238887000065],[100.24741855900004,15.69822785100007],[100.28896078500009,15.694293793000043],[100.30056770900006,15.693536601000062],[100.34286111700004,15.780719545000068]]]}},{"type":"Feature","properties":{"code":"600312","name":"ทับกฤชใต้","parentCode":"6003"},"geometry":{"type":"Polygon","coordinates":[[[100.25468184900006,15.80297887100005],[100.21738610500006,15.786017379000043],[100.21300887200005,15.749721924000028],[100.22274707400004,15.729238887000065],[100.25524345300005,15.754690417000063],[100.25468184900006,15.80297887100005]]]}},{"type":"Feature","properties":{"code":"600408","name":"ทุ่งทอง","parentCode":"6004"},"geometry":{"type":"Polygon","coordinates":[[[100.68257469000008,15.99984426900005],[100.65414808200006,16.026881236000065],[100.67832231400007,15.95606749700005],[100.65368897700006,15.954323464000026],[100.65876619600004,15.88531213300007],[100.72025085800004,15.890001738000024],[100.80517113300004,15.86803367400006],[100.79609866200008,15.892696844000056],[100.76606668700003,15.931128310000076],[100.73802045400004,15.989824832000068],[100.68257469000008,15.99984426900005]]]}},{"type":"Feature","properties":{"code":"601206","name":"อุดมธัญญา","parentCode":"6012"},"geometry":{"type":"Polygon","coordinates":[[[100.41000777100004,15.538301304000072],[100.39557449800009,15.516607915000066],[100.32741264200007,15.454198639000026],[100.34962692200008,15.433824237000067],[100.41546187700004,15.421537515000068],[100.48791590700006,15.458157327000038],[100.49580235800005,15.505628905000037],[100.45360792300005,15.530290799000056],[100.41000777100004,15.538301304000072]]]}},{"type":"Feature","properties":{"code":"600409","name":"วังบ่อ","parentCode":"6004"},"geometry":{"type":"Polygon","coordinates":[[[100.79891042400004,15.828960334000044],[100.70152043900003,15.838145953000037],[100.61162578000005,15.809446618000038],[100.59693074600006,15.74310650600006],[100.61792490000005,15.740602291000073],[100.64336222100007,15.772359366000046],[100.75089638500003,15.76641455500004],[100.81262041900004,15.780968527000027],[100.79891042400004,15.828960334000044]]]}},{"type":"Feature","properties":{"code":"600906","name":"วังข่อย","parentCode":"6009"},"geometry":{"type":"Polygon","coordinates":[[[100.82726875400004,15.664041517000044],[100.76052959700007,15.669151515000067],[100.73299886000007,15.616515410000034],[100.69949678900008,15.608048849000056],[100.69304306200007,15.566639790000067],[100.74598784700004,15.513287969000032],[100.83096617000007,15.56263414800003],[100.82562486800003,15.615055859000051],[100.82726875400004,15.664041517000044]]]}},{"type":"Feature","properties":{"code":"601103","name":"วังม้า","parentCode":"6011"},"geometry":{"type":"Polygon","coordinates":[[[99.93247705700009,15.67232133500005],[99.93326388400004,15.747732705000033],[99.89214348400009,15.718591398000058],[99.83578924800008,15.71345057600007],[99.79626522300003,15.690929271000073],[99.86351375900006,15.644097120000026],[99.93247705700009,15.67232133500005]]]}},{"type":"Feature","properties":{"code":"600805","name":"วังมหากร","parentCode":"6008"},"geometry":{"type":"Polygon","coordinates":[[[100.30056770900006,15.693536601000062],[100.28896078500009,15.694293793000043],[100.29635213500006,15.634176607000029],[100.33849224200009,15.598387366000054],[100.34304565400004,15.593147593000026],[100.40540154800004,15.608209187000057],[100.43000552000007,15.635334149000073],[100.40795078300005,15.675314832000026],[100.37344502100007,15.68558379600006],[100.30056770900006,15.693536601000062]]]}},{"type":"Feature","properties":{"code":"601104","name":"วังเมือง","parentCode":"6011"},"geometry":{"type":"Polygon","coordinates":[[[99.79626522300003,15.690929271000073],[99.78760418900004,15.697514200000057],[99.79218084100006,15.648611953000056],[99.82548035000008,15.630075770000076],[99.84873672400005,15.620197673000064],[99.86272270700005,15.617514796000023],[99.86351375900006,15.644097120000026],[99.79626522300003,15.690929271000073]]]}},{"type":"Feature","properties":{"code":"600903","name":"วังน้ำลัด","parentCode":"6009"},"geometry":{"type":"Polygon","coordinates":[[[100.75089638500003,15.76641455500004],[100.64336222100007,15.772359366000046],[100.61792490000005,15.740602291000073],[100.56127096300008,15.65938959400006],[100.64417481900006,15.663710432000073],[100.68212945800008,15.64562227600004],[100.73714466500007,15.698313464000023],[100.75089638500003,15.76641455500004]]]}},{"type":"Feature","properties":{"code":"601304","name":"วังซ่าน","parentCode":"6013"},"geometry":{"type":"Polygon","coordinates":[[[99.59129869000009,15.906356155000026],[99.58120234300009,15.903330659000062],[99.59518788600008,15.85497356600007],[99.47464980800004,15.833647444000064],[99.50137346600008,15.786595571000078],[99.54910879600004,15.834621969000068],[99.60368213600003,15.819456970000033],[99.63435730700007,15.784557337000024],[99.68996892900009,15.819735107000042],[99.68290842400006,15.863174117000028],[99.59129869000009,15.906356155000026]]]}},{"type":"Feature","properties":{"code":"600808","name":"วังใหญ่","parentCode":"6008"},"geometry":{"type":"Polygon","coordinates":[[[100.42738920900007,15.743040103000055],[100.44039462500007,15.831317180000042],[100.40705956500005,15.823075131000053],[100.36168000200007,15.79763803800006],[100.36329131300005,15.743859452000038],[100.42738920900007,15.743040103000055]]]}},{"type":"Feature","properties":{"code":"600113","name":"วัดไทรย์","parentCode":"6001"},"geometry":{"type":"Polygon","coordinates":[[[100.08413164000007,15.757685595000055],[100.04515147000006,15.763860062000049],[100.06572534300005,15.713902443000052],[100.08569089900004,15.707326182000031],[100.11313815200003,15.729570436000074],[100.08413164000007,15.757685595000055]]]}},{"type":"Feature","properties":{"code":"601006","name":"ย่านมัทรี","parentCode":"6010"},"geometry":{"type":"Polygon","coordinates":[[[100.13722848800006,15.569930577000036],[100.11097193300009,15.55401771000004],[100.10718749300008,15.510216141000058],[100.10843021600004,15.456481533000044],[100.14009044600004,15.480861772000026],[100.14351207900006,15.546638733000066],[100.13722848800006,15.569930577000036]]]}},{"type":"Feature","properties":{"code":"601005","name":"ยางขาว","parentCode":"6010"},"geometry":{"type":"Polygon","coordinates":[[[100.10718749300008,15.510216141000058],[100.11097193300009,15.55401771000004],[100.04536658900008,15.526368774000048],[100.03458255600003,15.51039813500006],[100.02408017300007,15.482343104000051],[100.10718749300008,15.510216141000058]]]}},{"type":"Feature","properties":{"code":"600202","name":"ยางตาล","parentCode":"6002"},"geometry":{"type":"Polygon","coordinates":[[[100.14128823700008,15.609540329000026],[100.09136482700006,15.612956564000058],[100.09231556600008,15.608472077000044],[100.09077756000005,15.574883186000022],[100.11097193300009,15.55401771000004],[100.13722848800006,15.569930577000036],[100.14128823700008,15.609540329000026]]]}}]}