{"type":"FeatureCollection","features":[{"type":"Feature","properties":{"code":"610611","name":"บ้านบึง","parentCode":"6106"},"geometry":{"type":"Polygon","coordinates":[[[99.54386027000004,15.090904213000044],[99.53420687700009,15.093959620000078],[99.52776089800005,15.014401010000029],[99.55652146400007,14.963265095000054],[99.56471036700003,14.961995081000055],[99.59597147000005,15.011170479000043],[99.54386027000004,15.090904213000044]]]}},{"type":"Feature","properties":{"code":"610405","name":"บ้านเก่า","parentCode":"6104"},"geometry":{"type":"Polygon","coordinates":[[[99.89498660100008,15.424907848000032],[99.87598993300008,15.446021382000026],[99.84754080400006,15.445709958000066],[99.86225446500003,15.416497113000048],[99.88869547300004,15.399262618000023],[99.89195543800008,15.403817373000038],[99.89498660100008,15.424907848000032]]]}},{"type":"Feature","properties":{"code":"610612","name":"บ้านใหม่คลองเคียน","parentCode":"6106"},"geometry":{"type":"Polygon","coordinates":[[[99.72727105900003,15.249636508000037],[99.65088079300006,15.235506212000075],[99.62018264600005,15.22222944400005],[99.60464217700007,15.205911583000045],[99.60673424000004,15.196317931000067],[99.67113952600005,15.201805036000053],[99.71940345200005,15.229574010000022],[99.73232004900007,15.208689132000075],[99.73354226200007,15.241265659000078],[99.72727105900003,15.249636508000037]]]}},{"type":"Feature","properties":{"code":"610601","name":"บ้านไร่","parentCode":"6106"},"geometry":{"type":"Polygon","coordinates":[[[99.49635633100007,15.10984024000004],[99.42809583900004,15.080067242000041],[99.38542361600008,15.047827592000033],[99.41586087000007,15.047345532000065],[99.45029454400009,14.989136293000058],[99.55652146400007,14.963265095000054],[99.52776089800005,15.014401010000029],[99.53420687700009,15.093959620000078],[99.49635633100007,15.10984024000004]]]}},{"type":"Feature","properties":{"code":"610305","name":"บ่อยาง","parentCode":"6103"},"geometry":{"type":"Polygon","coordinates":[[[99.84873672400005,15.620197673000064],[99.82548035000008,15.630075770000076],[99.81568450700007,15.590793779000023],[99.75931621900008,15.581330971000057],[99.68136883900007,15.624011349000057],[99.58576965000003,15.58773360500004],[99.65418623900007,15.555497708000075],[99.66589091000009,15.588398927000071],[99.73022714000007,15.587373566000053],[99.82124645000005,15.566348952000055],[99.84873672400005,15.620197673000064]]]}},{"type":"Feature","properties":{"code":"610614","name":"เจ้าวัด","parentCode":"6106"},"geometry":{"type":"Polygon","coordinates":[[[99.53034450600006,15.200153932000035],[99.42665620900004,15.159005587000024],[99.34432402600004,15.204330540000058],[99.32683241600006,15.173460112000043],[99.41548835800006,15.107732154000075],[99.42809583900004,15.080067242000041],[99.49635633100007,15.10984024000004],[99.53034450600006,15.200153932000035]]]}},{"type":"Feature","properties":{"code":"610104","name":"ดอนขวาง","parentCode":"6101"},"geometry":{"type":"Polygon","coordinates":[[[100.00828036700005,15.429061425000043],[99.98998787900007,15.411091472000066],[100.00348055900008,15.381949124000073],[100.01367309600005,15.380029893000028],[100.01730561500005,15.407932797000058],[100.03437018900007,15.428564452000046],[100.00828036700005,15.429061425000043]]]}},{"type":"Feature","properties":{"code":"610503","name":"ดอนกลอย","parentCode":"6105"},"geometry":{"type":"Polygon","coordinates":[[[99.94346097700009,15.408800037000049],[99.89195543800008,15.403817373000038],[99.88869547300004,15.399262618000023],[99.89010600600005,15.378446159000077],[99.89172113700005,15.377555998000048],[99.92916287300005,15.377436996000029],[99.93457546800005,15.376463443000034],[99.94790693600004,15.379297615000041],[99.94346097700009,15.408800037000049]]]}},{"type":"Feature","properties":{"code":"610509","name":"ดงขวาง","parentCode":"6105"},"geometry":{"type":"Polygon","coordinates":[[[99.94087730600006,15.318861386000037],[99.89473260500006,15.325292017000038],[99.87181485800005,15.304944541000054],[99.87873757800008,15.289627106000069],[99.88346901000006,15.287064611000062],[99.92248217400004,15.29811096700007],[99.95859957800008,15.306093347000058],[99.96164098500009,15.321898958000077],[99.94087730600006,15.318861386000037]]]}},{"type":"Feature","properties":{"code":"610105","name":"หาดทนง","parentCode":"6101"},"geometry":{"type":"Polygon","coordinates":[[[100.10186987000009,15.417357425000034],[100.06882666500007,15.426522753000029],[100.07134638300005,15.391013366000038],[100.08596093500006,15.378894280000054],[100.09976102600007,15.373459464000064],[100.10186987000009,15.417357425000034]]]}},{"type":"Feature","properties":{"code":"610610","name":"หูช้าง","parentCode":"6106"},"geometry":{"type":"Polygon","coordinates":[[[99.74141506600006,15.132916573000045],[99.67265677700004,15.169431073000055],[99.61066068500008,15.171558273000073],[99.64312824000007,15.087595115000056],[99.64230301900005,15.115406421000046],[99.71850960600005,15.11640555300005],[99.74141506600006,15.132916573000045]]]}},{"type":"Feature","properties":{"code":"610603","name":"ห้วยแห้ง","parentCode":"6106"},"geometry":{"type":"Polygon","coordinates":[[[99.60464217700007,15.205911583000045],[99.55106191100003,15.236837756000057],[99.53034450600006,15.200153932000035],[99.49635633100007,15.10984024000004],[99.53420687700009,15.093959620000078],[99.54386027000004,15.090904213000044],[99.61066068500008,15.171558273000073],[99.60673424000004,15.196317931000067],[99.60464217700007,15.205911583000045]]]}},{"type":"Feature","properties":{"code":"610803","name":"ห้วยคต","parentCode":"6108"},"geometry":{"type":"Polygon","coordinates":[[[99.61433690600006,15.328202694000026],[99.55603032800008,15.315073183000038],[99.55106191100003,15.236837756000057],[99.60464217700007,15.205911583000045],[99.62018264600005,15.22222944400005],[99.59698296800008,15.258772255000054],[99.62485530100008,15.32534271000003],[99.61433690600006,15.328202694000026]]]}},{"type":"Feature","properties":{"code":"610504","name":"ห้วยรอบ","parentCode":"6105"},"geometry":{"type":"Polygon","coordinates":[[[99.92916287300005,15.377436996000029],[99.89172113700005,15.377555998000048],[99.89598454200006,15.362654216000067],[99.92916287300005,15.377436996000029]]]}},{"type":"Feature","properties":{"code":"610607","name":"แก่นมะกรูด","parentCode":"6106"},"geometry":{"type":"Polygon","coordinates":[[[99.19078496400004,15.779433892000043],[99.13369905300004,15.798261423000042],[99.13827860400005,15.73053615300006],[99.09426256300009,15.583163125000056],[99.05111687300007,15.563055348000034],[99.07857476500004,15.498684080000032],[99.05902104400008,15.438408695000078],[99.06716374000007,15.392484565000075],[99.03142716000008,15.337531694000063],[99.03813539500004,15.288099755000076],[98.98400297400008,15.179953423000029],[99.00752795400007,15.144516729000031],[98.99966125200007,15.071000168000069],[99.04271438700005,15.045700707000037],[99.11825759700008,15.05464723800003],[99.16974551800007,15.014146896000057],[99.18992941100004,15.027670139000065],[99.25627443500008,14.987564860000077],[99.28280207500006,14.997616249000032],[99.31982244300008,15.080905266000059],[99.38542361600008,15.047827592000033],[99.42809583900004,15.080067242000041],[99.41548835800006,15.107732154000075],[99.32683241600006,15.173460112000043],[99.30662564000005,15.19416063500006],[99.31023872800006,15.251758194000047],[99.27434556000009,15.295583990000068],[99.27598515700004,15.401627220000023],[99.23768314700004,15.406824018000066],[99.25610157100004,15.446178497000062],[99.20398087300003,15.540506398000048],[99.19745754600007,15.648106685000073],[99.17635279800004,15.693907480000064],[99.19078496400004,15.779433892000043]]]}},{"type":"Feature","properties":{"code":"610409","name":"เขาบางแกรก","parentCode":"6104"},"geometry":{"type":"Polygon","coordinates":[[[99.67759750300007,15.343561058000034],[99.64630031700005,15.341875333000075],[99.61158344400008,15.33348470900006],[99.61433690600006,15.328202694000026],[99.62485530100008,15.32534271000003],[99.68922038400007,15.295417153000074],[99.74850085100007,15.317202455000029],[99.74573879000008,15.319026302000054],[99.67759750300007,15.343561058000034]]]}},{"type":"Feature","properties":{"code":"610203","name":"เขาขี้ฝอย","parentCode":"6102"},"geometry":{"type":"Polygon","coordinates":[[[99.95461975900008,15.470123723000029],[99.94938787400008,15.500169153000058],[99.94203774000005,15.497494329000062],[99.91946812900005,15.473518456000022],[99.95134530100006,15.439635598000052],[99.95461975900008,15.470123723000029]]]}},{"type":"Feature","properties":{"code":"610410","name":"เขากวางทอง","parentCode":"6104"},"geometry":{"type":"Polygon","coordinates":[[[99.74406605700005,15.412661602000071],[99.70361878400007,15.435102865000033],[99.65742742000003,15.426131229000077],[99.64630031700005,15.341875333000075],[99.67759750300007,15.343561058000034],[99.72735847100006,15.36748085000005],[99.71417312600005,15.406938755000056],[99.74406605700005,15.412661602000071]]]}},{"type":"Feature","properties":{"code":"610604","name":"คอกควาย","parentCode":"6106"},"geometry":{"type":"Polygon","coordinates":[[[99.34829486900009,15.365572543000042],[99.27598515700004,15.401627220000023],[99.27434556000009,15.295583990000068],[99.31023872800006,15.251758194000047],[99.30662564000005,15.19416063500006],[99.32683241600006,15.173460112000043],[99.34432402600004,15.204330540000058],[99.42665620900004,15.159005587000024],[99.53034450600006,15.200153932000035],[99.55106191100003,15.236837756000057],[99.48784325700007,15.260547535000057],[99.48574031000004,15.29785546100004],[99.42895666200008,15.313220061000038],[99.38640831600009,15.269085270000062],[99.34829486900009,15.365572543000042]]]}},{"type":"Feature","properties":{"code":"610205","name":"โคกหม้อ","parentCode":"6102"},"geometry":{"type":"Polygon","coordinates":[[[99.94246918600004,15.572361966000074],[99.93732854000007,15.597596907000025],[99.89018395500005,15.543909750000068],[99.91077744300009,15.513670062000074],[99.94203774000005,15.497494329000062],[99.94938787400008,15.500169153000058],[99.94817728000004,15.501116496000066],[99.94246918600004,15.572361966000074]]]}},{"type":"Feature","properties":{"code":"610106","name":"เกาะเทโพ","parentCode":"6101"},"geometry":{"type":"Polygon","coordinates":[[[100.08596093500006,15.378894280000054],[100.07134638300005,15.391013366000038],[100.08607291900006,15.343559428000049],[100.10141569500007,15.341737303000059],[100.08596093500006,15.378894280000054]]]}},{"type":"Feature","properties":{"code":"610701","name":"ลานสัก","parentCode":"6107"},"geometry":{"type":"Polygon","coordinates":[[[99.49694156400005,15.569297817000063],[99.43982816900007,15.598346197000069],[99.45515139600008,15.534813302000032],[99.54024127800005,15.459073403000048],[99.58707502000004,15.447213960000056],[99.58906879900007,15.480721931000062],[99.57344216200005,15.522307785000066],[99.52442154900007,15.568092919000037],[99.49694156400005,15.569297817000063]]]}},{"type":"Feature","properties":{"code":"610508","name":"หลุมเข้า","parentCode":"6105"},"geometry":{"type":"Polygon","coordinates":[[[100.01399852900005,15.33792821000003],[99.96761451500004,15.328928113000075],[99.96164098500009,15.321898958000077],[99.95859957800008,15.306093347000058],[99.97105942100006,15.298831391000022],[100.03722899900004,15.292283610000027],[100.03865057000007,15.33432659500005],[100.01399852900005,15.33792821000003]]]}},{"type":"Feature","properties":{"code":"610507","name":"หมกแถว","parentCode":"6105"},"geometry":{"type":"Polygon","coordinates":[[[100.00155708500006,15.355514547000041],[99.98655475300006,15.35198476200003],[99.96761451500004,15.328928113000075],[100.01399852900005,15.33792821000003],[100.00155708500006,15.355514547000041]]]}},{"type":"Feature","properties":{"code":"610606","name":"เมืองการุ้ง","parentCode":"6106"},"geometry":{"type":"Polygon","coordinates":[[[99.73232004900007,15.208689132000075],[99.71940345200005,15.229574010000022],[99.67113952600005,15.201805036000053],[99.60673424000004,15.196317931000067],[99.61066068500008,15.171558273000073],[99.67265677700004,15.169431073000055],[99.74141506600006,15.132916573000045],[99.76291492300004,15.149064649000024],[99.74798953400006,15.188673736000055],[99.73232004900007,15.208689132000075]]]}},{"type":"Feature","properties":{"code":"610705","name":"น้ำรอบ","parentCode":"6107"},"geometry":{"type":"Polygon","coordinates":[[[99.58576965000003,15.58773360500004],[99.57059107900005,15.601535246000026],[99.52442154900007,15.568092919000037],[99.57344216200005,15.522307785000066],[99.58906879900007,15.480721931000062],[99.62230021400006,15.463727885000026],[99.66869293600007,15.48958435700007],[99.67339190000007,15.532472981000069],[99.65418623900007,15.555497708000075],[99.58576965000003,15.58773360500004]]]}},{"type":"Feature","properties":{"code":"610102","name":"น้ำซึม","parentCode":"6101"},"geometry":{"type":"Polygon","coordinates":[[[100.01367309600005,15.380029893000028],[100.00348055900008,15.381949124000073],[99.99978174100005,15.375469285000065],[100.00155708500006,15.355514547000041],[100.01399852900005,15.33792821000003],[100.03865057000007,15.33432659500005],[100.07824169700007,15.337946970000075],[100.05343236700008,15.366083830000036],[100.01367309600005,15.380029893000028]]]}},{"type":"Feature","properties":{"code":"610114","name":"เนินแจง","parentCode":"6101"},"geometry":{"type":"Polygon","coordinates":[[[100.02408017300007,15.482343104000051],[100.03458255600003,15.51039813500006],[100.02613374800006,15.507296073000077],[100.00045668700005,15.483726861000036],[100.00253119800004,15.473394226000039],[100.02761306200006,15.457668574000024],[100.04460014200004,15.442559790000075],[100.05439491100003,15.423818797000024],[100.02408017300007,15.482343104000051]]]}},{"type":"Feature","properties":{"code":"610109","name":"โนนเหล็ก","parentCode":"6101"},"geometry":{"type":"Polygon","coordinates":[[[100.00253119800004,15.473394226000039],[99.98220994000008,15.468317151000065],[99.99345381900008,15.443403360000048],[100.00409187600007,15.441693591000046],[100.02761306200006,15.457668574000024],[100.00253119800004,15.473394226000039]]]}},{"type":"Feature","properties":{"code":"610613","name":"หนองบ่มกล้วย","parentCode":"6106"},"geometry":{"type":"Polygon","coordinates":[[[99.77166536700008,15.140612779000037],[99.76291492300004,15.149064649000024],[99.74141506600006,15.132916573000045],[99.71850960600005,15.11640555300005],[99.73862715300004,15.054200284000046],[99.71911514900006,15.040234999000063],[99.72051022800008,14.976898125000048],[99.76902172600006,15.022537237000051],[99.79078508700007,15.10028369400004],[99.77166536700008,15.140612779000037]]]}},{"type":"Feature","properties":{"code":"610401","name":"หนองฉาง","parentCode":"6104"},"geometry":{"type":"Polygon","coordinates":[[[99.86225446500003,15.416497113000048],[99.84428244400004,15.409764775000042],[99.84137183500007,15.397452933000068],[99.84011099200006,15.382739121000043],[99.86216555800007,15.376112744000068],[99.89010600600005,15.378446159000077],[99.88869547300004,15.399262618000023],[99.86225446500003,15.416497113000048]]]}},{"type":"Feature","properties":{"code":"610609","name":"หนองจอก","parentCode":"6106"},"geometry":{"type":"Polygon","coordinates":[[[99.71850960600005,15.11640555300005],[99.64230301900005,15.115406421000046],[99.64312824000007,15.087595115000056],[99.63038067400004,14.988265037000076],[99.72377013800008,14.962032211000064],[99.72343709200004,14.973880035000036],[99.72051022800008,14.976898125000048],[99.71911514900006,15.040234999000063],[99.73862715300004,15.054200284000046],[99.71850960600005,15.11640555300005]]]}},{"type":"Feature","properties":{"code":"610108","name":"หนองแก","parentCode":"6101"},"geometry":{"type":"Polygon","coordinates":[[[99.99345381900008,15.443403360000048],[99.95134530100006,15.439635598000052],[99.95097445800008,15.435641836000059],[99.94775351300007,15.414733076000061],[99.98998787900007,15.411091472000066],[100.00828036700005,15.429061425000043],[100.00409187600007,15.441693591000046],[99.99345381900008,15.443403360000048]]]}},{"type":"Feature","properties":{"code":"610501","name":"หนองขาหย่าง","parentCode":"6105"},"geometry":{"type":"Polygon","coordinates":[[[99.95936474900009,15.378614979000076],[99.94790693600004,15.379297615000041],[99.93457546800005,15.376463443000034],[99.94087730600006,15.318861386000037],[99.96164098500009,15.321898958000077],[99.96761451500004,15.328928113000075],[99.98655475300006,15.35198476200003],[99.95936474900009,15.378614979000076]]]}},{"type":"Feature","properties":{"code":"610207","name":"หนองกลางดง","parentCode":"6102"},"geometry":{"type":"Polygon","coordinates":[[[99.87598993300008,15.446021382000026],[99.86132222100008,15.490368175000071],[99.84499973000004,15.486244161000059],[99.80003031400008,15.472582602000045],[99.83101737000004,15.439350775000037],[99.84754080400006,15.445709958000066],[99.87598993300008,15.446021382000026]]]}},{"type":"Feature","properties":{"code":"610208","name":"หนองกระทุ่ม","parentCode":"6102"},"geometry":{"type":"Polygon","coordinates":[[[99.67379891600007,15.532376396000075],[99.68103645800005,15.514810810000029],[99.78661441600008,15.461058998000055],[99.80003031400008,15.472582602000045],[99.84499973000004,15.486244161000059],[99.82972901300008,15.520844744000044],[99.81354368800004,15.530699654000045],[99.67379891600007,15.532376396000075]]]}},{"type":"Feature","properties":{"code":"610302","name":"หนองหลวง","parentCode":"6103"},"geometry":{"type":"Polygon","coordinates":[[[99.93247705700009,15.67232133500005],[99.86351375900006,15.644097120000026],[99.86272270700005,15.617514796000023],[99.87773174100005,15.55478725200004],[99.89018395500005,15.543909750000068],[99.93732854000007,15.597596907000025],[99.94080750200004,15.60451030400003],[99.93447520100005,15.647927799000058],[99.93247705700009,15.67232133500005]]]}},{"type":"Feature","properties":{"code":"610403","name":"หนองนางนวล","parentCode":"6104"},"geometry":{"type":"Polygon","coordinates":[[[99.89010600600005,15.378446159000077],[99.86216555800007,15.376112744000068],[99.82766342600007,15.312010581000038],[99.87181485800005,15.304944541000054],[99.89473260500006,15.325292017000038],[99.89598454200006,15.362654216000067],[99.89172113700005,15.377555998000048],[99.89010600600005,15.378446159000077]]]}},{"type":"Feature","properties":{"code":"610502","name":"หนองไผ่","parentCode":"6105"},"geometry":{"type":"Polygon","coordinates":[[[99.93457546800005,15.376463443000034],[99.92916287300005,15.377436996000029],[99.89598454200006,15.362654216000067],[99.89473260500006,15.325292017000038],[99.94087730600006,15.318861386000037],[99.93457546800005,15.376463443000034]]]}},{"type":"Feature","properties":{"code":"610111","name":"หนองไผ่แบน","parentCode":"6101"},"geometry":{"type":"Polygon","coordinates":[[[100.04460014200004,15.442559790000075],[100.02761306200006,15.457668574000024],[100.00409187600007,15.441693591000046],[100.00828036700005,15.429061425000043],[100.03437018900007,15.428564452000046],[100.04460014200004,15.442559790000075]]]}},{"type":"Feature","properties":{"code":"610112","name":"หนองพังค่า","parentCode":"6101"},"geometry":{"type":"Polygon","coordinates":[[[99.98998787900007,15.411091472000066],[99.94775351300007,15.414733076000061],[99.94346097700009,15.408800037000049],[99.94790693600004,15.379297615000041],[99.95936474900009,15.378614979000076],[99.99978174100005,15.375469285000065],[100.00348055900008,15.381949124000073],[99.98998787900007,15.411091472000066]]]}},{"type":"Feature","properties":{"code":"610209","name":"หนองสระ","parentCode":"6102"},"geometry":{"type":"Polygon","coordinates":[[[99.80003031400008,15.472582602000045],[99.78661441600008,15.461058998000055],[99.78064025400005,15.421177122000074],[99.79114268100005,15.42292031900007],[99.83101737000004,15.439350775000037],[99.80003031400008,15.472582602000045]]]}},{"type":"Feature","properties":{"code":"610404","name":"หนองสรวง","parentCode":"6104"},"geometry":{"type":"Polygon","coordinates":[[[99.84137183500007,15.397452933000068],[99.81374192000004,15.390760168000043],[99.80708211600006,15.359432888000072],[99.84011099200006,15.382739121000043],[99.84137183500007,15.397452933000068]]]}},{"type":"Feature","properties":{"code":"610110","name":"หนองเต่า","parentCode":"6101"},"geometry":{"type":"Polygon","coordinates":[[[99.98220994000008,15.468317151000065],[99.95461975900008,15.470123723000029],[99.95134530100006,15.439635598000052],[99.99345381900008,15.443403360000048],[99.98220994000008,15.468317151000065]]]}},{"type":"Feature","properties":{"code":"610204","name":"หนองหญ้าปล้อง","parentCode":"6102"},"geometry":{"type":"Polygon","coordinates":[[[99.94203774000005,15.497494329000062],[99.91077744300009,15.513670062000074],[99.87593198000008,15.494494334000024],[99.91113567900004,15.475257161000059],[99.91946812900005,15.473518456000022],[99.94203774000005,15.497494329000062]]]}},{"type":"Feature","properties":{"code":"610206","name":"หนองยายดา","parentCode":"6102"},"geometry":{"type":"Polygon","coordinates":[[[99.87773174100005,15.55478725200004],[99.82972901300008,15.520844744000044],[99.84499973000004,15.486244161000059],[99.86132222100008,15.490368175000071],[99.87593198000008,15.494494334000024],[99.91077744300009,15.513670062000074],[99.89018395500005,15.543909750000068],[99.87773174100005,15.55478725200004]]]}},{"type":"Feature","properties":{"code":"610402","name":"หนองยาง","parentCode":"6104"},"geometry":{"type":"Polygon","coordinates":[[[99.86216555800007,15.376112744000068],[99.84011099200006,15.382739121000043],[99.80708211600006,15.359432888000072],[99.74573879000008,15.319026302000054],[99.74850085100007,15.317202455000029],[99.78416137300007,15.317721014000028],[99.82766342600007,15.312010581000038],[99.86216555800007,15.376112744000068]]]}},{"type":"Feature","properties":{"code":"610703","name":"ป่าอ้อ","parentCode":"6107"},"geometry":{"type":"Polygon","coordinates":[[[99.58707502000004,15.447213960000056],[99.54024127800005,15.459073403000048],[99.50399661000006,15.437025431000052],[99.44943511500009,15.362202568000043],[99.49446500000005,15.344253266000067],[99.53899751600005,15.382236051000064],[99.60311038200007,15.43524743200004],[99.58707502000004,15.447213960000056]]]}},{"type":"Feature","properties":{"code":"610304","name":"ไผ่เขียว","parentCode":"6103"},"geometry":{"type":"Polygon","coordinates":[[[99.74224577600006,15.679322558000024],[99.66708457400006,15.66777029900004],[99.57059107900005,15.601535246000026],[99.58576965000003,15.58773360500004],[99.68136883900007,15.624011349000057],[99.75931621900008,15.581330971000057],[99.81568450700007,15.590793779000023],[99.82548035000008,15.630075770000076],[99.79218084100006,15.648611953000056],[99.74224577600006,15.679322558000024]]]}},{"type":"Feature","properties":{"code":"610303","name":"พลวงสองนาง","parentCode":"6103"},"geometry":{"type":"Polygon","coordinates":[[[99.82124645000005,15.566348952000055],[99.73022714000007,15.587373566000053],[99.66589091000009,15.588398927000071],[99.65418623900007,15.555497708000075],[99.67339190000007,15.532472981000069],[99.67379891600007,15.532376396000075],[99.81354368800004,15.530699654000045],[99.82124645000005,15.566348952000055]]]}},{"type":"Feature","properties":{"code":"610702","name":"ประดู่ยืน","parentCode":"6107"},"geometry":{"type":"Polygon","coordinates":[[[99.70361878400007,15.435102865000033],[99.66869293600007,15.48958435700007],[99.62230021400006,15.463727885000026],[99.58906879900007,15.480721931000062],[99.58707502000004,15.447213960000056],[99.60311038200007,15.43524743200004],[99.65742742000003,15.426131229000077],[99.70361878400007,15.435102865000033]]]}},{"type":"Feature","properties":{"code":"610704","name":"ระบำ","parentCode":"6107"},"geometry":{"type":"Polygon","coordinates":[[[99.21349216100003,15.779769414000043],[99.19078496400004,15.779433892000043],[99.17635279800004,15.693907480000064],[99.19745754600007,15.648106685000073],[99.20398087300003,15.540506398000048],[99.25610157100004,15.446178497000062],[99.23768314700004,15.406824018000066],[99.27598515700004,15.401627220000023],[99.34829486900009,15.365572543000042],[99.44943511500009,15.362202568000043],[99.50399661000006,15.437025431000052],[99.54024127800005,15.459073403000048],[99.45515139600008,15.534813302000032],[99.43982816900007,15.598346197000069],[99.37932216300004,15.62549819000003],[99.35975848500004,15.677216436000037],[99.24598418400006,15.72206157200003],[99.21349216100003,15.779769414000043]]]}},{"type":"Feature","properties":{"code":"610103","name":"สะแกกรัง","parentCode":"6101"},"geometry":{"type":"Polygon","coordinates":[[[100.05439491100003,15.423818797000024],[100.04460014200004,15.442559790000075],[100.03437018900007,15.428564452000046],[100.01730561500005,15.407932797000058],[100.05343236700008,15.366083830000036],[100.07824169700007,15.337946970000075],[100.08607291900006,15.343559428000049],[100.07134638300005,15.391013366000038],[100.06882666500007,15.426522753000029],[100.05439491100003,15.423818797000024]]]}},{"type":"Feature","properties":{"code":"610301","name":"สว่างอารมณ์","parentCode":"6103"},"geometry":{"type":"Polygon","coordinates":[[[99.86272270700005,15.617514796000023],[99.84873672400005,15.620197673000064],[99.82124645000005,15.566348952000055],[99.81354368800004,15.530699654000045],[99.82972901300008,15.520844744000044],[99.87773174100005,15.55478725200004],[99.86272270700005,15.617514796000023]]]}},{"type":"Feature","properties":{"code":"610801","name":"สุขฤทัย","parentCode":"6108"},"geometry":{"type":"Polygon","coordinates":[[[99.68922038400007,15.295417153000074],[99.62485530100008,15.32534271000003],[99.59698296800008,15.258772255000054],[99.62018264600005,15.22222944400005],[99.65088079300006,15.235506212000075],[99.68922038400007,15.295417153000074]]]}},{"type":"Feature","properties":{"code":"610210","name":"ตลุกดู่","parentCode":"6102"},"geometry":{"type":"Polygon","coordinates":[[[99.78661441600008,15.461058998000055],[99.68103645800005,15.514810810000029],[99.67379891600007,15.532376396000075],[99.67339190000007,15.532472981000069],[99.66869293600007,15.48958435700007],[99.70361878400007,15.435102865000033],[99.74406605700005,15.412661602000071],[99.75902116300006,15.418695610000043],[99.78064025400005,15.421177122000074],[99.78661441600008,15.461058998000055]]]}},{"type":"Feature","properties":{"code":"610506","name":"ท่าโพ","parentCode":"6105"},"geometry":{"type":"Polygon","coordinates":[[[99.99978174100005,15.375469285000065],[99.95936474900009,15.378614979000076],[99.98655475300006,15.35198476200003],[100.00155708500006,15.355514547000041],[99.99978174100005,15.375469285000065]]]}},{"type":"Feature","properties":{"code":"610107","name":"ท่าซุง","parentCode":"6101"},"geometry":{"type":"Polygon","coordinates":[[[100.07824169700007,15.337946970000075],[100.03865057000007,15.33432659500005],[100.03722899900004,15.292283610000027],[100.04598765200006,15.268929387000071],[100.04766332100007,15.264885097000047],[100.05816397900008,15.26366521600005],[100.05606914800006,15.268930625000053],[100.08192264600007,15.320782941000061],[100.10141569500007,15.341737303000059],[100.08607291900006,15.343559428000049],[100.07824169700007,15.337946970000075]]]}},{"type":"Feature","properties":{"code":"610602","name":"ทัพหลวง","parentCode":"6106"},"geometry":{"type":"Polygon","coordinates":[[[99.64312824000007,15.087595115000056],[99.61066068500008,15.171558273000073],[99.54386027000004,15.090904213000044],[99.59597147000005,15.011170479000043],[99.56471036700003,14.961995081000055],[99.63131805200004,14.943277374000047],[99.63038067400004,14.988265037000076],[99.64312824000007,15.087595115000056]]]}},{"type":"Feature","properties":{"code":"610201","name":"ทัพทัน","parentCode":"6102"},"geometry":{"type":"Polygon","coordinates":[[[99.91113567900004,15.475257161000059],[99.87593198000008,15.494494334000024],[99.86132222100008,15.490368175000071],[99.87598993300008,15.446021382000026],[99.89498660100008,15.424907848000032],[99.91364201100004,15.441358028000025],[99.91113567900004,15.475257161000059]]]}},{"type":"Feature","properties":{"code":"610802","name":"ทองหลาง","parentCode":"6108"},"geometry":{"type":"Polygon","coordinates":[[[99.61158344400008,15.33348470900006],[99.53899751600005,15.382236051000064],[99.49446500000005,15.344253266000067],[99.44943511500009,15.362202568000043],[99.34829486900009,15.365572543000042],[99.38640831600009,15.269085270000062],[99.42895666200008,15.313220061000038],[99.48574031000004,15.29785546100004],[99.48784325700007,15.260547535000057],[99.55106191100003,15.236837756000057],[99.55603032800008,15.315073183000038],[99.61433690600006,15.328202694000026],[99.61158344400008,15.33348470900006]]]}},{"type":"Feature","properties":{"code":"610706","name":"ทุ่งนางาม","parentCode":"6107"},"geometry":{"type":"Polygon","coordinates":[[[99.65742742000003,15.426131229000077],[99.60311038200007,15.43524743200004],[99.53899751600005,15.382236051000064],[99.61158344400008,15.33348470900006],[99.64630031700005,15.341875333000075],[99.65742742000003,15.426131229000077]]]}},{"type":"Feature","properties":{"code":"610202","name":"ทุ่งนาไทย","parentCode":"6102"},"geometry":{"type":"Polygon","coordinates":[[[99.91946812900005,15.473518456000022],[99.91113567900004,15.475257161000059],[99.91364201100004,15.441358028000025],[99.95097445800008,15.435641836000059],[99.95134530100006,15.439635598000052],[99.91946812900005,15.473518456000022]]]}},{"type":"Feature","properties":{"code":"610407","name":"ทุ่งโพ","parentCode":"6104"},"geometry":{"type":"Polygon","coordinates":[[[99.75902116300006,15.418695610000043],[99.74406605700005,15.412661602000071],[99.71417312600005,15.406938755000056],[99.72735847100006,15.36748085000005],[99.67759750300007,15.343561058000034],[99.74573879000008,15.319026302000054],[99.80708211600006,15.359432888000072],[99.81374192000004,15.390760168000043],[99.75902116300006,15.418695610000043]]]}},{"type":"Feature","properties":{"code":"610408","name":"ทุ่งพง","parentCode":"6104"},"geometry":{"type":"Polygon","coordinates":[[[99.84754080400006,15.445709958000066],[99.83101737000004,15.439350775000037],[99.79114268100005,15.42292031900007],[99.84428244400004,15.409764775000042],[99.86225446500003,15.416497113000048],[99.84754080400006,15.445709958000066]]]}},{"type":"Feature","properties":{"code":"610505","name":"ทุ่งพึ่ง","parentCode":"6105"},"geometry":{"type":"Polygon","coordinates":[[[99.95097445800008,15.435641836000059],[99.91364201100004,15.441358028000025],[99.89498660100008,15.424907848000032],[99.89195543800008,15.403817373000038],[99.94346097700009,15.408800037000049],[99.94775351300007,15.414733076000061],[99.95097445800008,15.435641836000059]]]}},{"type":"Feature","properties":{"code":"610113","name":"ทุ่งใหญ่","parentCode":"6101"},"geometry":{"type":"Polygon","coordinates":[[[100.00045668700005,15.483726861000036],[99.95891290000009,15.507023330000038],[99.94817728000004,15.501116496000066],[99.94938787400008,15.500169153000058],[99.95461975900008,15.470123723000029],[99.98220994000008,15.468317151000065],[100.00253119800004,15.473394226000039],[100.00045668700005,15.483726861000036]]]}},{"type":"Feature","properties":{"code":"610406","name":"อุทัยเก่า","parentCode":"6104"},"geometry":{"type":"Polygon","coordinates":[[[99.84428244400004,15.409764775000042],[99.79114268100005,15.42292031900007],[99.78064025400005,15.421177122000074],[99.75902116300006,15.418695610000043],[99.81374192000004,15.390760168000043],[99.84137183500007,15.397452933000068],[99.84428244400004,15.409764775000042]]]}},{"type":"Feature","properties":{"code":"610101","name":"อุทัยใหม่","parentCode":"6101"},"geometry":{"type":"Polygon","coordinates":[[[100.05343236700008,15.366083830000036],[100.01730561500005,15.407932797000058],[100.01367309600005,15.380029893000028],[100.05343236700008,15.366083830000036]]]}},{"type":"Feature","properties":{"code":"610605","name":"วังหิน","parentCode":"6106"},"geometry":{"type":"Polygon","coordinates":[[[99.65088079300006,15.235506212000075],[99.72727105900003,15.249636508000037],[99.75732189900003,15.311856927000065],[99.78416137300007,15.317721014000028],[99.74850085100007,15.317202455000029],[99.68922038400007,15.295417153000074],[99.65088079300006,15.235506212000075]]]}}]}