{"type":"FeatureCollection","features":[{"type":"Feature","properties":{"code":"620103","name":"อ่างทอง","parentCode":"6201"},"geometry":{"type":"Polygon","coordinates":[[[99.53008841400003,16.41973940300005],[99.52112399800006,16.413017022000076],[99.45508364600005,16.36493974900003],[99.43961507200004,16.284395464000056],[99.36781638700006,16.24745331400004],[99.42203888300008,16.229445187000067],[99.42564804600005,16.168052701000022],[99.42240484700005,16.146357229000046],[99.49097104000003,16.159450568000068],[99.47637718800007,16.185603595000032],[99.49590555900005,16.25317840200006],[99.50980169100006,16.32971021000003],[99.55574824800004,16.385314220000055],[99.53008841400003,16.41973940300005]]]}},{"type":"Feature","properties":{"code":"620407","name":"บ่อถ้ำ","parentCode":"6204"},"geometry":{"type":"Polygon","coordinates":[[[99.76285422500007,15.974410591000037],[99.67598261700005,15.963206436000064],[99.61667189200006,15.980104057000062],[99.58680224100004,15.95641437100005],[99.52329386400004,15.959899807000056],[99.59129869000009,15.906356155000026],[99.68290842400006,15.863174117000028],[99.73890832300003,15.857542042000034],[99.80498229300008,15.920601438000062],[99.80719627400003,15.944103906000066],[99.76285422500007,15.974410591000037]]]}},{"type":"Feature","properties":{"code":"621001","name":"บึงสามัคคี","parentCode":"6210"},"geometry":{"type":"Polygon","coordinates":[[[100.02128504300003,16.312874919000024],[100.00184870500004,16.34278520600003],[99.98559141700008,16.34077770300007],[99.93762651700007,16.28847624900004],[99.97181287100005,16.242862237000054],[100.02742788900008,16.240625391000037],[100.02894512400007,16.270558701000027],[100.02128504300003,16.312874919000024]]]}},{"type":"Feature","properties":{"code":"620706","name":"บึงทับแรต","parentCode":"6207"},"geometry":{"type":"Polygon","coordinates":[[[99.88864028600005,16.71504438000005],[99.85341018000008,16.735271930000067],[99.81556080800004,16.72091779400006],[99.80644456500005,16.707437665000043],[99.83181951700004,16.70191473600005],[99.83040068000008,16.652466009000022],[99.89458477400007,16.664284699000063],[99.88864028600005,16.71504438000005]]]}},{"type":"Feature","properties":{"code":"620707","name":"จันทิมา","parentCode":"6207"},"geometry":{"type":"Polygon","coordinates":[[[99.80565869900005,16.614321657000062],[99.75232088400008,16.572675918000073],[99.74684813300007,16.53078557300006],[99.81492952800005,16.536181843000065],[99.83284501800006,16.592128802000047],[99.80565869900005,16.614321657000062]]]}},{"type":"Feature","properties":{"code":"620702","name":"ช่องลม","parentCode":"6207"},"geometry":{"type":"Polygon","coordinates":[[[99.91620533100007,16.600722001000065],[99.87867214700003,16.59432716200007],[99.90569211900004,16.53495390200004],[99.90734467000004,16.533270953000056],[99.91200739800007,16.534655876000045],[99.98626533500004,16.57606478200006],[99.92514809600004,16.579092245000027],[99.91620533100007,16.600722001000065]]]}},{"type":"Feature","properties":{"code":"620408","name":"ดอนแตง","parentCode":"6204"},"geometry":{"type":"Polygon","coordinates":[[[99.79913338200004,16.07097468300003],[99.74798172900006,16.10245963400007],[99.70331292000009,16.057785225000032],[99.75744203300007,16.012454715000047],[99.78915246100007,16.03620772900007],[99.79913338200004,16.07097468300003]]]}},{"type":"Feature","properties":{"code":"620902","name":"หินดาต","parentCode":"6209"},"geometry":{"type":"Polygon","coordinates":[[[99.49097104000003,16.159450568000068],[99.42240484700005,16.146357229000046],[99.45723227700006,16.107064888000025],[99.39612332500008,16.064642633000062],[99.41365762900006,16.016249611000035],[99.48428820100008,16.04309343400007],[99.48505251900008,16.10756293700007],[99.51595104600005,16.15073576800006],[99.49097104000003,16.159450568000068]]]}},{"type":"Feature","properties":{"code":"620508","name":"หัวถนน","parentCode":"6205"},"geometry":{"type":"Polygon","coordinates":[[[99.67395678100007,16.230496194000068],[99.65318362300007,16.308814220000045],[99.60340447800007,16.29589225500007],[99.62036510200005,16.230660814000032],[99.67395678100007,16.230496194000068]]]}},{"type":"Feature","properties":{"code":"620610","name":"ห้วยยั้ง","parentCode":"6206"},"geometry":{"type":"Polygon","coordinates":[[[99.60484578100005,16.784980054000073],[99.57075066300007,16.859535605000076],[99.54906140500003,16.863694165000027],[99.53093557500006,16.825274327000045],[99.52697484100008,16.80115534600003],[99.57238701600005,16.790975316000072],[99.61638266200003,16.753080406000038],[99.62873749300007,16.708690793000073],[99.65951228800009,16.74030579600003],[99.60484578100005,16.784980054000073]]]}},{"type":"Feature","properties":{"code":"620606","name":"เขาคีริส","parentCode":"6206"},"geometry":{"type":"Polygon","coordinates":[[[99.72922316500006,16.62944256000003],[99.68611526000007,16.61995040900007],[99.63747367100007,16.628664032000074],[99.57700374000007,16.57944501000003],[99.59599868100008,16.56472876400005],[99.63961428400006,16.540583603000073],[99.67550531600006,16.55588665700003],[99.68442668100005,16.52539729600005],[99.74684813300007,16.53078557300006],[99.75232088400008,16.572675918000073],[99.72297456600006,16.587796944000047],[99.72922316500006,16.62944256000003]]]}},{"type":"Feature","properties":{"code":"620501","name":"คลองขลุง","parentCode":"6205"},"geometry":{"type":"Polygon","coordinates":[[[99.72993713800008,16.23181399300006],[99.70539188300006,16.242318449000038],[99.67395678100007,16.230496194000068],[99.63068329800006,16.162758809000024],[99.65106557900003,16.129086847000053],[99.73501900900004,16.131184567000048],[99.73682019700004,16.208301805000076],[99.72993713800008,16.23181399300006]]]}},{"type":"Feature","properties":{"code":"620303","name":"คลองลานพัฒนา","parentCode":"6203"},"geometry":{"type":"Polygon","coordinates":[[[99.42564804600005,16.168052701000022],[99.35245284200005,16.178030764000027],[99.33270506400004,16.15880198800005],[99.24674985200005,16.16124959900003],[99.18432487700005,16.094764459000032],[99.24597862300004,16.03245295800002],[99.31970221400007,16.069391245000077],[99.39612332500008,16.064642633000062],[99.45723227700006,16.107064888000025],[99.42240484700005,16.146357229000046],[99.42564804600005,16.168052701000022]]]}},{"type":"Feature","properties":{"code":"620117","name":"คลองแม่ลาย","parentCode":"6201"},"geometry":{"type":"Polygon","coordinates":[[[99.47911850500009,16.433597933000044],[99.41279890300007,16.421214237000072],[99.38703474600004,16.40260773800003],[99.38727294400007,16.35445333000007],[99.41961191300004,16.34934640800003],[99.45572206600008,16.408262470000068],[99.45508364600005,16.36493974900003],[99.52112399800006,16.413017022000076],[99.47911850500009,16.433597933000044]]]}},{"type":"Feature","properties":{"code":"620301","name":"คลองน้ำไหล","parentCode":"6203"},"geometry":{"type":"Polygon","coordinates":[[[99.34809384100004,16.267607696000027],[99.30174154800005,16.28223306700005],[99.26606028700007,16.230813081000065],[99.21864237200003,16.236526661000028],[99.16803776100005,16.20950814300005],[99.14796621900007,16.22607434500003],[99.08004148400005,16.215618302000053],[99.05045950400006,16.137091328000054],[99.10840386700005,16.085286430000053],[99.18432487700005,16.094764459000032],[99.24674985200005,16.16124959900003],[99.33270506400004,16.15880198800005],[99.35245284200005,16.178030764000027],[99.42564804600005,16.168052701000022],[99.42203888300008,16.229445187000067],[99.36781638700006,16.24745331400004],[99.34809384100004,16.267607696000027]]]}},{"type":"Feature","properties":{"code":"620608","name":"คลองพิไกร","parentCode":"6206"},"geometry":{"type":"Polygon","coordinates":[[[99.72922316500006,16.62944256000003],[99.75825421600007,16.68455951100003],[99.70345718200008,16.683743372000038],[99.68611526000007,16.61995040900007],[99.72922316500006,16.62944256000003]]]}},{"type":"Feature","properties":{"code":"620516","name":"คลองสมบูรณ์","parentCode":"6205"},"geometry":{"type":"Polygon","coordinates":[[[99.59759493000007,16.297897875000046],[99.53893391000008,16.284422857000038],[99.49590555900005,16.25317840200006],[99.47637718800007,16.185603595000032],[99.53565826000005,16.21340596500005],[99.62036510200005,16.230660814000032],[99.60340447800007,16.29589225500007],[99.59759493000007,16.297897875000046]]]}},{"type":"Feature","properties":{"code":"620410","name":"โค้งไผ่","parentCode":"6204"},"geometry":{"type":"Polygon","coordinates":[[[99.73501900900004,16.131184567000048],[99.65106557900003,16.129086847000053],[99.55978671100007,16.102566230000036],[99.63952654500008,16.10310452300007],[99.69302306800006,16.061421110000026],[99.70331292000009,16.057785225000032],[99.74798172900006,16.10245963400007],[99.75353986700009,16.129698758000075],[99.73501900900004,16.131184567000048]]]}},{"type":"Feature","properties":{"code":"620111","name":"คณฑี","parentCode":"6201"},"geometry":{"type":"Polygon","coordinates":[[[99.75868857700004,16.368754942000066],[99.70477453200004,16.42642857100003],[99.64602950700004,16.40316245500003],[99.63956466700006,16.36261010900006],[99.67079552100006,16.314970603000063],[99.72484766800005,16.348211909000042],[99.77170079100006,16.346894982000038],[99.75868857700004,16.368754942000066]]]}},{"type":"Feature","properties":{"code":"620607","name":"คุยบ้านโอง","parentCode":"6206"},"geometry":{"type":"Polygon","coordinates":[[[99.70345718200008,16.683743372000038],[99.62972939700006,16.69519532100003],[99.63747367100007,16.628664032000074],[99.68611526000007,16.61995040900007],[99.70345718200008,16.683743372000038]]]}},{"type":"Feature","properties":{"code":"620413","name":"เกาะตาล","parentCode":"6204"},"geometry":{"type":"Polygon","coordinates":[[[99.78688012200007,16.134865984000044],[99.75353986700009,16.129698758000075],[99.74798172900006,16.10245963400007],[99.79913338200004,16.07097468300003],[99.83247316800004,16.103482964000023],[99.78843273700005,16.12865330900007],[99.78688012200007,16.134865984000044]]]}},{"type":"Feature","properties":{"code":"621101","name":"โกสัมพี","parentCode":"6211"},"geometry":{"type":"Polygon","coordinates":[[[99.38210142500009,16.69110298000004],[99.36946171000005,16.73571082500007],[99.30551175900007,16.768682890000036],[99.27139435400005,16.684695316000045],[99.24659302500004,16.662176282000075],[99.25639395900004,16.568903028000022],[99.24053394900005,16.534145688000024],[99.18052218600008,16.532450109000024],[99.12163339500006,16.474029141000074],[99.07486878800006,16.467228625000075],[99.03384129200003,16.430375182000034],[99.03076961300007,16.421684413000037],[99.10310482300008,16.389985540000055],[99.11382182300008,16.443168971000034],[99.16352199400006,16.443943841000078],[99.23670088100005,16.48398385300004],[99.32736251900008,16.533336332000033],[99.29675933700008,16.564667761000067],[99.32716435300006,16.576478719000022],[99.36825822800006,16.633318356000075],[99.38210142500009,16.69110298000004]]]}},{"type":"Feature","properties":{"code":"620107","name":"ลานดอกไม้","parentCode":"6201"},"geometry":{"type":"Polygon","coordinates":[[[99.39955296200009,16.687000690000048],[99.38210142500009,16.69110298000004],[99.36825822800006,16.633318356000075],[99.41373195400007,16.638444449000076],[99.47558694200006,16.564561282000057],[99.50479075000004,16.640545788000054],[99.47684596400006,16.64949756900006],[99.42328497000005,16.65448923200006],[99.39955296200009,16.687000690000048]]]}},{"type":"Feature","properties":{"code":"621103","name":"ลานดอกไม้ตก","parentCode":"6211"},"geometry":{"type":"Polygon","coordinates":[[[99.47558694200006,16.564561282000057],[99.41373195400007,16.638444449000076],[99.39360994300006,16.58842622900005],[99.41658035100005,16.54420691300004],[99.47558694200006,16.564561282000057]]]}},{"type":"Feature","properties":{"code":"620701","name":"ลานกระบือ","parentCode":"6207"},"geometry":{"type":"Polygon","coordinates":[[[99.89458477400007,16.664284699000063],[99.83040068000008,16.652466009000022],[99.80565869900005,16.614321657000062],[99.83284501800006,16.592128802000047],[99.87867214700003,16.59432716200007],[99.91620533100007,16.600722001000065],[99.89458477400007,16.664284699000063]]]}},{"type":"Feature","properties":{"code":"620505","name":"แม่ลาด","parentCode":"6205"},"geometry":{"type":"Polygon","coordinates":[[[99.77791236400009,16.177807759000075],[99.73682019700004,16.208301805000076],[99.73501900900004,16.131184567000048],[99.75353986700009,16.129698758000075],[99.78688012200007,16.134865984000044],[99.77791236400009,16.177807759000075]]]}},{"type":"Feature","properties":{"code":"620205","name":"มหาชัย","parentCode":"6202"},"geometry":{"type":"Polygon","coordinates":[[[99.81492952800005,16.536181843000065],[99.74684813300007,16.53078557300006],[99.73842781700006,16.482925876000024],[99.75841697800007,16.483728477000057],[99.86540692800008,16.49091562500007],[99.85537344900007,16.53316959500006],[99.81492952800005,16.536181843000065]]]}},{"type":"Feature","properties":{"code":"620104","name":"นาบ่อคำ","parentCode":"6201"},"geometry":{"type":"Polygon","coordinates":[[[99.37633528200007,16.483355317000076],[99.32736251900008,16.533336332000033],[99.23670088100005,16.48398385300004],[99.33873308500006,16.38422558700006],[99.38727294400007,16.35445333000007],[99.38703474600004,16.40260773800003],[99.41279890300007,16.421214237000072],[99.40733670800006,16.46498910300005],[99.37633528200007,16.483355317000076]]]}},{"type":"Feature","properties":{"code":"620101","name":"ในเมือง","parentCode":"6201"},"geometry":{"type":"Polygon","coordinates":[[[99.51567522600004,16.49605474400005],[99.49537985100005,16.501421986000025],[99.49381222300008,16.49792154000005],[99.53595289400005,16.44089697900006],[99.55714532100006,16.475047587000063],[99.51567522600004,16.49605474400005]]]}},{"type":"Feature","properties":{"code":"620105","name":"นครชุม","parentCode":"6201"},"geometry":{"type":"Polygon","coordinates":[[[99.49381222300008,16.49792154000005],[99.41510467600006,16.506204439000044],[99.37633528200007,16.483355317000076],[99.40733670800006,16.46498910300005],[99.48914694200005,16.47597489800006],[99.47911850500009,16.433597933000044],[99.52112399800006,16.413017022000076],[99.53008841400003,16.41973940300005],[99.53595289400005,16.44089697900006],[99.49381222300008,16.49792154000005]]]}},{"type":"Feature","properties":{"code":"620112","name":"นิคมทุ่งโพธิ์ทะเล","parentCode":"6201"},"geometry":{"type":"Polygon","coordinates":[[[99.74684813300007,16.53078557300006],[99.68442668100005,16.52539729600005],[99.67550531600006,16.55588665700003],[99.66546105700007,16.49649433700006],[99.65861306500005,16.456525525000075],[99.70375302400004,16.450156136000032],[99.73842781700006,16.482925876000024],[99.74684813300007,16.53078557300006]]]}},{"type":"Feature","properties":{"code":"620704","name":"โนนพลวง","parentCode":"6207"},"geometry":{"type":"Polygon","coordinates":[[[99.87867214700003,16.59432716200007],[99.83284501800006,16.592128802000047],[99.81492952800005,16.536181843000065],[99.85537344900007,16.53316959500006],[99.90569211900004,16.53495390200004],[99.87867214700003,16.59432716200007]]]}},{"type":"Feature","properties":{"code":"620602","name":"หนองหัววัว","parentCode":"6206"},"geometry":{"type":"Polygon","coordinates":[[[99.62873749300007,16.708690793000073],[99.61638266200003,16.753080406000038],[99.57238701600005,16.790975316000072],[99.52697484100008,16.80115534600003],[99.52516000100007,16.79115365900003],[99.59189188000005,16.700027503000058],[99.62972939700006,16.69519532100003],[99.62873749300007,16.708690793000073]]]}},{"type":"Feature","properties":{"code":"620202","name":"หนองคล้า","parentCode":"6202"},"geometry":{"type":"Polygon","coordinates":[[[99.89550090400007,16.432936194000035],[99.85463478200006,16.456447293000053],[99.86540692800008,16.49091562500007],[99.75841697800007,16.483728477000057],[99.77074214600003,16.445085169000038],[99.82212999400008,16.41708741700006],[99.87824038800005,16.40032455900007],[99.89550090400007,16.432936194000035]]]}},{"type":"Feature","properties":{"code":"620703","name":"หนองหลวง","parentCode":"6207"},"geometry":{"type":"Polygon","coordinates":[[[99.83040068000008,16.652466009000022],[99.83181951700004,16.70191473600005],[99.80644456500005,16.707437665000043],[99.75960339100004,16.68491122300003],[99.75825421600007,16.68455951100003],[99.72922316500006,16.62944256000003],[99.72297456600006,16.587796944000047],[99.75232088400008,16.572675918000073],[99.80565869900005,16.614321657000062],[99.83040068000008,16.652466009000022]]]}},{"type":"Feature","properties":{"code":"620207","name":"หนองแม่แตง","parentCode":"6202"},"geometry":{"type":"Polygon","coordinates":[[[99.99485493600008,16.416494099000033],[99.94554093100004,16.43338808200002],[99.89550090400007,16.432936194000035],[99.87824038800005,16.40032455900007],[99.93176070700008,16.360276716000044],[99.99540943900007,16.35626459200006],[99.99485493600008,16.416494099000033]]]}},{"type":"Feature","properties":{"code":"620204","name":"หนองไม้กอง","parentCode":"6202"},"geometry":{"type":"Polygon","coordinates":[[[99.91200739800007,16.534655876000045],[99.90734467000004,16.533270953000056],[99.90267945100004,16.509793348000073],[99.94554093100004,16.43338808200002],[99.99485493600008,16.416494099000033],[99.99383106800008,16.43500653500007],[100.03466242900004,16.502250434000075],[99.97003171700004,16.49792560700007],[99.91200739800007,16.534655876000045]]]}},{"type":"Feature","properties":{"code":"620110","name":"หนองปลิง","parentCode":"6201"},"geometry":{"type":"Polygon","coordinates":[[[99.55735970600006,16.59100134700003],[99.50479075000004,16.640545788000054],[99.47558694200006,16.564561282000057],[99.49537985100005,16.501421986000025],[99.51567522600004,16.49605474400005],[99.55933289300003,16.561759074000065],[99.59599868100008,16.56472876400005],[99.57700374000007,16.57944501000003],[99.55735970600006,16.59100134700003]]]}},{"type":"Feature","properties":{"code":"620203","name":"หนองทอง","parentCode":"6202"},"geometry":{"type":"Polygon","coordinates":[[[99.82212999400008,16.41708741700006],[99.77074214600003,16.445085169000038],[99.75841697800007,16.483728477000057],[99.73842781700006,16.482925876000024],[99.70375302400004,16.450156136000032],[99.70477453200004,16.42642857100003],[99.75868857700004,16.368754942000066],[99.82212999400008,16.41708741700006]]]}},{"type":"Feature","properties":{"code":"620404","name":"ป่าพุทรา","parentCode":"6204"},"geometry":{"type":"Polygon","coordinates":[[[99.91543854100007,16.13419243900006],[99.89491875300007,16.127596797000024],[99.85093420500004,16.07695557200003],[99.87367264900007,16.036944223000035],[99.95308032900004,16.080914130000053],[99.98432186700006,16.118128797000054],[99.91543854100007,16.13419243900006]]]}},{"type":"Feature","properties":{"code":"620411","name":"ปางมะค่า","parentCode":"6204"},"geometry":{"type":"Polygon","coordinates":[[[99.51228629100007,16.053737426000055],[99.48428820100008,16.04309343400007],[99.41365762900006,16.016249611000035],[99.43136924000004,15.978128023000068],[99.35590912700007,15.969917590000023],[99.34880060700004,15.922756179000032],[99.45094607600004,15.904996839000034],[99.53864170600008,15.924777447000054],[99.58120234300009,15.903330659000062],[99.59129869000009,15.906356155000026],[99.52329386400004,15.959899807000056],[99.51688445300005,16.00034426600007],[99.55430349500006,16.029774821000046],[99.51228629100007,16.053737426000055]]]}},{"type":"Feature","properties":{"code":"620903","name":"ปางตาไว","parentCode":"6209"},"geometry":{"type":"Polygon","coordinates":[[[99.18432487700005,16.094764459000032],[99.10840386700005,16.085286430000053],[99.11460467600006,16.061232639000025],[99.08829915900009,16.043731992000062],[99.09661545200004,15.931610183000032],[99.08612096900004,15.884496026000022],[99.22066950700008,15.944399066000074],[99.29221785900006,15.893306619000043],[99.34880060700004,15.922756179000032],[99.35590912700007,15.969917590000023],[99.43136924000004,15.978128023000068],[99.41365762900006,16.016249611000035],[99.39612332500008,16.064642633000062],[99.31970221400007,16.069391245000077],[99.24597862300004,16.03245295800002],[99.18432487700005,16.094764459000032]]]}},{"type":"Feature","properties":{"code":"620206","name":"พานทอง","parentCode":"6202"},"geometry":{"type":"Polygon","coordinates":[[[99.87824038800005,16.40032455900007],[99.82212999400008,16.41708741700006],[99.75868857700004,16.368754942000066],[99.77170079100006,16.346894982000038],[99.82702288000007,16.352814253000076],[99.93176070700008,16.360276716000044],[99.87824038800005,16.40032455900007]]]}},{"type":"Feature","properties":{"code":"621102","name":"เพชรชมภู","parentCode":"6211"},"geometry":{"type":"Polygon","coordinates":[[[99.41373195400007,16.638444449000076],[99.36825822800006,16.633318356000075],[99.32716435300006,16.576478719000022],[99.29675933700008,16.564667761000067],[99.32736251900008,16.533336332000033],[99.38408076400003,16.52266471400003],[99.41658035100005,16.54420691300004],[99.39360994300006,16.58842622900005],[99.41373195400007,16.638444449000076]]]}},{"type":"Feature","properties":{"code":"620901","name":"โพธิ์ทอง","parentCode":"6209"},"geometry":{"type":"Polygon","coordinates":[[[99.65106557900003,16.129086847000053],[99.63068329800006,16.162758809000024],[99.51595104600005,16.15073576800006],[99.48505251900008,16.10756293700007],[99.48428820100008,16.04309343400007],[99.51228629100007,16.053737426000055],[99.55978671100007,16.102566230000036],[99.65106557900003,16.129086847000053]]]}},{"type":"Feature","properties":{"code":"620601","name":"พรานกระต่าย","parentCode":"6206"},"geometry":{"type":"Polygon","coordinates":[[[99.50726561600004,16.71531230100004],[99.47684596400006,16.64949756900006],[99.50479075000004,16.640545788000054],[99.55735970600006,16.59100134700003],[99.58573633000003,16.683446986000035],[99.50726561600004,16.71531230100004]]]}},{"type":"Feature","properties":{"code":"620302","name":"โป่งน้ำร้อน","parentCode":"6203"},"geometry":{"type":"Polygon","coordinates":[[[99.33873308500006,16.38422558700006],[99.23670088100005,16.48398385300004],[99.16352199400006,16.443943841000078],[99.11382182300008,16.443168971000034],[99.10310482300008,16.389985540000055],[99.03076961300007,16.421684413000037],[99.02672961200005,16.382944835000046],[99.05338341200007,16.309377246000054],[99.04815798600004,16.261539042000038],[99.08004148400005,16.215618302000053],[99.14796621900007,16.22607434500003],[99.15968199600007,16.275754547000076],[99.14101586300006,16.31311452600005],[99.21741199600007,16.33897247400006],[99.29730160300005,16.31658430400006],[99.33873308500006,16.38422558700006]]]}},{"type":"Feature","properties":{"code":"620705","name":"ประชาสุขสันต์","parentCode":"6207"},"geometry":{"type":"Polygon","coordinates":[[[100.01378001800003,16.574208663000036],[99.98626533500004,16.57606478200006],[99.91200739800007,16.534655876000045],[99.97003171700004,16.49792560700007],[100.03466242900004,16.502250434000075],[100.01218903500006,16.539617906000046],[100.01378001800003,16.574208663000036]]]}},{"type":"Feature","properties":{"code":"621003","name":"ระหาน","parentCode":"6210"},"geometry":{"type":"Polygon","coordinates":[[[100.01589751300008,16.152821109000058],[99.96173049100008,16.190914466000038],[99.91543854100007,16.13419243900006],[99.98432186700006,16.118128797000054],[99.99770628200008,16.133363402000043],[100.01589751300008,16.152821109000058]]]}},{"type":"Feature","properties":{"code":"620119","name":"สระแก้ว","parentCode":"6201"},"geometry":{"type":"Polygon","coordinates":[[[99.59599868100008,16.56472876400005],[99.55933289300003,16.561759074000065],[99.51567522600004,16.49605474400005],[99.55714532100006,16.475047587000063],[99.66546105700007,16.49649433700006],[99.67550531600006,16.55588665700003],[99.63961428400006,16.540583603000073],[99.59599868100008,16.56472876400005]]]}},{"type":"Feature","properties":{"code":"620405","name":"แสนตอ","parentCode":"6204"},"geometry":{"type":"Polygon","coordinates":[[[99.85093420500004,16.07695557200003],[99.83247316800004,16.103482964000023],[99.79913338200004,16.07097468300003],[99.78915246100007,16.03620772900007],[99.84543478300009,16.004236133000063],[99.87554250100004,16.03414322800006],[99.87367264900007,16.036944223000035],[99.85093420500004,16.07695557200003]]]}},{"type":"Feature","properties":{"code":"620201","name":"ไทรงาม","parentCode":"6202"},"geometry":{"type":"Polygon","coordinates":[[[99.90569211900004,16.53495390200004],[99.85537344900007,16.53316959500006],[99.86540692800008,16.49091562500007],[99.85463478200006,16.456447293000053],[99.89550090400007,16.432936194000035],[99.94554093100004,16.43338808200002],[99.90267945100004,16.509793348000073],[99.90734467000004,16.533270953000056],[99.90569211900004,16.53495390200004]]]}},{"type":"Feature","properties":{"code":"620304","name":"สักงาม","parentCode":"6203"},"geometry":{"type":"Polygon","coordinates":[[[99.38727294400007,16.35445333000007],[99.33873308500006,16.38422558700006],[99.29730160300005,16.31658430400006],[99.21741199600007,16.33897247400006],[99.14101586300006,16.31311452600005],[99.15968199600007,16.275754547000076],[99.14796621900007,16.22607434500003],[99.16803776100005,16.20950814300005],[99.21864237200003,16.236526661000028],[99.26606028700007,16.230813081000065],[99.30174154800005,16.28223306700005],[99.34809384100004,16.267607696000027],[99.38659726700007,16.290948568000033],[99.41961191300004,16.34934640800003],[99.38727294400007,16.35445333000007]]]}},{"type":"Feature","properties":{"code":"620406","name":"สลกบาตร","parentCode":"6204"},"geometry":{"type":"Polygon","coordinates":[[[99.84543478300009,16.004236133000063],[99.78915246100007,16.03620772900007],[99.75744203300007,16.012454715000047],[99.76285422500007,15.974410591000037],[99.80719627400003,15.944103906000066],[99.84543478300009,16.004236133000063]]]}},{"type":"Feature","properties":{"code":"620106","name":"ทรงธรรม","parentCode":"6201"},"geometry":{"type":"Polygon","coordinates":[[[99.49537985100005,16.501421986000025],[99.47558694200006,16.564561282000057],[99.41658035100005,16.54420691300004],[99.38408076400003,16.52266471400003],[99.32736251900008,16.533336332000033],[99.37633528200007,16.483355317000076],[99.41510467600006,16.506204439000044],[99.49381222300008,16.49792154000005],[99.49537985100005,16.501421986000025]]]}},{"type":"Feature","properties":{"code":"620115","name":"ท่าขุนราม","parentCode":"6201"},"geometry":{"type":"Polygon","coordinates":[[[99.47911850500009,16.433597933000044],[99.48914694200005,16.47597489800006],[99.40733670800006,16.46498910300005],[99.41279890300007,16.421214237000072],[99.47911850500009,16.433597933000044]]]}},{"type":"Feature","properties":{"code":"620603","name":"ท่าไม้","parentCode":"6206"},"geometry":{"type":"Polygon","coordinates":[[[99.53093557500006,16.825274327000045],[99.48874719000008,16.910435084000028],[99.45619805500007,16.87818573800007],[99.46451456300008,16.81529685000004],[99.44564362100004,16.721670303000053],[99.39955296200009,16.687000690000048],[99.42328497000005,16.65448923200006],[99.47684596400006,16.64949756900006],[99.50726561600004,16.71531230100004],[99.52516000100007,16.79115365900003],[99.52697484100008,16.80115534600003],[99.53093557500006,16.825274327000045]]]}},{"type":"Feature","properties":{"code":"620502","name":"ท่ามะเขือ","parentCode":"6205"},"geometry":{"type":"Polygon","coordinates":[[[99.75825745000009,16.288261973000033],[99.70333869100006,16.259515819000057],[99.70539188300006,16.242318449000038],[99.72993713800008,16.23181399300006],[99.77857941600007,16.226565366000045],[99.79023486000006,16.274692823000066],[99.75825745000009,16.288261973000033]]]}},{"type":"Feature","properties":{"code":"620504","name":"ท่าพุทรา","parentCode":"6205"},"geometry":{"type":"Polygon","coordinates":[[[99.70333869100006,16.259515819000057],[99.67079552100006,16.314970603000063],[99.65318362300007,16.308814220000045],[99.67395678100007,16.230496194000068],[99.70539188300006,16.242318449000038],[99.70333869100006,16.259515819000057]]]}},{"type":"Feature","properties":{"code":"620609","name":"ถ้ำกระต่ายทอง","parentCode":"6206"},"geometry":{"type":"Polygon","coordinates":[[[99.62972939700006,16.69519532100003],[99.59189188000005,16.700027503000058],[99.52516000100007,16.79115365900003],[99.50726561600004,16.71531230100004],[99.58573633000003,16.683446986000035],[99.55735970600006,16.59100134700003],[99.57700374000007,16.57944501000003],[99.63747367100007,16.628664032000074],[99.62972939700006,16.69519532100003]]]}},{"type":"Feature","properties":{"code":"620118","name":"ธำมรงค์","parentCode":"6201"},"geometry":{"type":"Polygon","coordinates":[[[99.67079552100006,16.314970603000063],[99.63956466700006,16.36261010900006],[99.59834306600004,16.361592979000022],[99.59759493000007,16.297897875000046],[99.60340447800007,16.29589225500007],[99.65318362300007,16.308814220000045],[99.67079552100006,16.314970603000063]]]}},{"type":"Feature","properties":{"code":"620803","name":"ถาวรวัฒนา","parentCode":"6208"},"geometry":{"type":"Polygon","coordinates":[[[99.93762651700007,16.28847624900004],[99.98559141700008,16.34077770300007],[99.89144825800008,16.323310607000053],[99.85704107300006,16.265992136000023],[99.89594970400003,16.23648296400006],[99.93762651700007,16.28847624900004]]]}},{"type":"Feature","properties":{"code":"620113","name":"เทพนคร","parentCode":"6201"},"geometry":{"type":"Polygon","coordinates":[[[99.66546105700007,16.49649433700006],[99.55714532100006,16.475047587000063],[99.53595289400005,16.44089697900006],[99.53008841400003,16.41973940300005],[99.55574824800004,16.385314220000055],[99.59834306600004,16.361592979000022],[99.63956466700006,16.36261010900006],[99.64602950700004,16.40316245500003],[99.70477453200004,16.42642857100003],[99.70375302400004,16.450156136000032],[99.65861306500005,16.456525525000075],[99.66546105700007,16.49649433700006]]]}},{"type":"Feature","properties":{"code":"621004","name":"เทพนิมิต","parentCode":"6210"},"geometry":{"type":"Polygon","coordinates":[[[99.96173049100008,16.190914466000038],[99.88550115900006,16.22438577400004],[99.87712631200009,16.168605761000038],[99.89491875300007,16.127596797000024],[99.91543854100007,16.13419243900006],[99.96173049100008,16.190914466000038]]]}},{"type":"Feature","properties":{"code":"620801","name":"ทุ่งทราย","parentCode":"6208"},"geometry":{"type":"Polygon","coordinates":[[[99.82702288000007,16.352814253000076],[99.77170079100006,16.346894982000038],[99.75825745000009,16.288261973000033],[99.79023486000006,16.274692823000066],[99.82489817500004,16.270343527000023],[99.85704107300006,16.265992136000023],[99.89144825800008,16.323310607000053],[99.82702288000007,16.352814253000076]]]}},{"type":"Feature","properties":{"code":"620802","name":"ทุ่งทอง","parentCode":"6208"},"geometry":{"type":"Polygon","coordinates":[[[99.99540943900007,16.35626459200006],[99.93176070700008,16.360276716000044],[99.82702288000007,16.352814253000076],[99.89144825800008,16.323310607000053],[99.98559141700008,16.34077770300007],[100.00184870500004,16.34278520600003],[99.99540943900007,16.35626459200006]]]}},{"type":"Feature","properties":{"code":"620102","name":"ไตรตรึงษ์","parentCode":"6201"},"geometry":{"type":"Polygon","coordinates":[[[99.59759493000007,16.297897875000046],[99.59834306600004,16.361592979000022],[99.55574824800004,16.385314220000055],[99.50980169100006,16.32971021000003],[99.49590555900005,16.25317840200006],[99.53893391000008,16.284422857000038],[99.59759493000007,16.297897875000046]]]}},{"type":"Feature","properties":{"code":"620513","name":"วังบัว","parentCode":"6205"},"geometry":{"type":"Polygon","coordinates":[[[99.77170079100006,16.346894982000038],[99.72484766800005,16.348211909000042],[99.67079552100006,16.314970603000063],[99.70333869100006,16.259515819000057],[99.75825745000009,16.288261973000033],[99.77170079100006,16.346894982000038]]]}},{"type":"Feature","properties":{"code":"621002","name":"วังชะโอน","parentCode":"6210"},"geometry":{"type":"Polygon","coordinates":[[[100.02742788900008,16.240625391000037],[99.97181287100005,16.242862237000054],[99.93762651700007,16.28847624900004],[99.89594970400003,16.23648296400006],[99.88550115900006,16.22438577400004],[99.96173049100008,16.190914466000038],[100.01589751300008,16.152821109000058],[100.02485074300006,16.19118436800005],[100.02742788900008,16.240625391000037]]]}},{"type":"Feature","properties":{"code":"620409","name":"วังชะพลู","parentCode":"6204"},"geometry":{"type":"Polygon","coordinates":[[[99.69302306800006,16.061421110000026],[99.58891532100006,16.020647696000026],[99.55430349500006,16.029774821000046],[99.51688445300005,16.00034426600007],[99.52329386400004,15.959899807000056],[99.58680224100004,15.95641437100005],[99.61667189200006,15.980104057000062],[99.67598261700005,15.963206436000064],[99.76285422500007,15.974410591000037],[99.75744203300007,16.012454715000047],[99.70331292000009,16.057785225000032],[99.69302306800006,16.061421110000026]]]}},{"type":"Feature","properties":{"code":"620412","name":"วังหามแห","parentCode":"6204"},"geometry":{"type":"Polygon","coordinates":[[[99.69302306800006,16.061421110000026],[99.63952654500008,16.10310452300007],[99.55978671100007,16.102566230000036],[99.51228629100007,16.053737426000055],[99.55430349500006,16.029774821000046],[99.58891532100006,16.020647696000026],[99.69302306800006,16.061421110000026]]]}},{"type":"Feature","properties":{"code":"620507","name":"วังแขม","parentCode":"6205"},"geometry":{"type":"Polygon","coordinates":[[[99.85704107300006,16.265992136000023],[99.82489817500004,16.270343527000023],[99.80540575100008,16.191475097000023],[99.77791236400009,16.177807759000075],[99.78688012200007,16.134865984000044],[99.78843273700005,16.12865330900007],[99.87712631200009,16.168605761000038],[99.88550115900006,16.22438577400004],[99.89594970400003,16.23648296400006],[99.85704107300006,16.265992136000023]]]}},{"type":"Feature","properties":{"code":"620604","name":"วังควง","parentCode":"6206"},"geometry":{"type":"Polygon","coordinates":[[[99.45619805500007,16.87818573800007],[99.43262009200004,16.87586147600007],[99.37872505800004,16.858908455000062],[99.38538510600006,16.807845691000068],[99.31023138100005,16.794177398000045],[99.30551175900007,16.768682890000036],[99.36946171000005,16.73571082500007],[99.38210142500009,16.69110298000004],[99.39955296200009,16.687000690000048],[99.44564362100004,16.721670303000053],[99.46451456300008,16.81529685000004],[99.45619805500007,16.87818573800007]]]}},{"type":"Feature","properties":{"code":"620509","name":"วังไทร","parentCode":"6205"},"geometry":{"type":"Polygon","coordinates":[[[99.67395678100007,16.230496194000068],[99.62036510200005,16.230660814000032],[99.53565826000005,16.21340596500005],[99.47637718800007,16.185603595000032],[99.49097104000003,16.159450568000068],[99.51595104600005,16.15073576800006],[99.63068329800006,16.162758809000024],[99.67395678100007,16.230496194000068]]]}},{"type":"Feature","properties":{"code":"620605","name":"วังตะแบก","parentCode":"6206"},"geometry":{"type":"Polygon","coordinates":[[[99.75960339100004,16.68491122300003],[99.74491369400005,16.74409805600004],[99.67485132300004,16.727990159000058],[99.65951228800009,16.74030579600003],[99.62873749300007,16.708690793000073],[99.62972939700006,16.69519532100003],[99.70345718200008,16.683743372000038],[99.75825421600007,16.68455951100003],[99.75960339100004,16.68491122300003]]]}},{"type":"Feature","properties":{"code":"620114","name":"วังทอง","parentCode":"6201"},"geometry":{"type":"Polygon","coordinates":[[[99.45508364600005,16.36493974900003],[99.45572206600008,16.408262470000068],[99.41961191300004,16.34934640800003],[99.38659726700007,16.290948568000033],[99.34809384100004,16.267607696000027],[99.36781638700006,16.24745331400004],[99.43961507200004,16.284395464000056],[99.45508364600005,16.36493974900003]]]}},{"type":"Feature","properties":{"code":"620506","name":"วังยาง","parentCode":"6205"},"geometry":{"type":"Polygon","coordinates":[[[99.82489817500004,16.270343527000023],[99.79023486000006,16.274692823000066],[99.77857941600007,16.226565366000045],[99.72993713800008,16.23181399300006],[99.73682019700004,16.208301805000076],[99.77791236400009,16.177807759000075],[99.80540575100008,16.191475097000023],[99.82489817500004,16.270343527000023]]]}},{"type":"Feature","properties":{"code":"620403","name":"ยางสูง","parentCode":"6204"},"geometry":{"type":"Polygon","coordinates":[[[99.89491875300007,16.127596797000024],[99.87712631200009,16.168605761000038],[99.78843273700005,16.12865330900007],[99.83247316800004,16.103482964000023],[99.85093420500004,16.07695557200003],[99.89491875300007,16.127596797000024]]]}}]}