{"type":"FeatureCollection","features":[{"type":"Feature","properties":{"code":"630305","name":"บ้านนา","parentCode":"6303"},"geometry":{"type":"Polygon","coordinates":[[[98.68537518300008,17.790962026000045],[98.66911404200005,17.83454137900003],[98.63045930200008,17.780978808000043],[98.52243189400008,17.82425593100004],[98.49329682800004,17.813907706000066],[98.50986952200009,17.78803117800004],[98.53270760500004,17.61905174000003],[98.57800388000004,17.573944149000056],[98.52732706100005,17.53637080900006],[98.51857059100007,17.477616300000022],[98.55765000100007,17.426606440000057],[98.53749428200007,17.361876814000027],[98.57885419400009,17.29440177600003],[98.64379181000004,17.245378205000065],[98.68284073700005,17.18213091900003],[98.72737771500005,17.158965110000054],[98.80570203600007,17.189884020000022],[98.84403285700006,17.15082842700002],[98.87211295600008,17.168080657000075],[98.95453473100008,17.147304684000062],[98.97008642900005,17.165871216000028],[98.97274554600006,17.240595108000036],[98.97312962400008,17.27205483000006],[98.96311032500006,17.318291246000058],[98.98371092200006,17.357037470000023],[98.93703984300004,17.38680058400007],[98.91490962600005,17.454155444000037],[98.93131895600004,17.473867158000076],[98.91015032500007,17.536710051000057],[98.87963366800005,17.49095266000006],[98.85339686400005,17.51375082800007],[98.72398412700005,17.46365291500007],[98.69095582400007,17.425889056000074],[98.70243107800007,17.55452546300006],[98.68258703700008,17.596825110000054],[98.68394189700007,17.66364687300006],[98.74543544600004,17.697934926000073],[98.68537518300008,17.790962026000045]]]}},{"type":"Feature","properties":{"code":"630103","name":"เชียงเงิน","parentCode":"6301"},"geometry":{"type":"Polygon","coordinates":[[[99.14092773900006,16.86001881800007],[99.13870102000004,16.863553892000027],[99.12409574000009,16.856332891000022],[99.12914497800006,16.84318496800006],[99.14092773900006,16.86001881800007]]]}},{"type":"Feature","properties":{"code":"630901","name":"เชียงทอง","parentCode":"6309"},"geometry":{"type":"Polygon","coordinates":[[[99.27139435400005,16.684695316000045],[99.24110533600003,16.72437781700006],[99.20438913900006,16.681173690000037],[99.10118244000006,16.663036959000067],[99.03220115100004,16.621502504000034],[99.03337920100006,16.586959689000025],[98.96854447400005,16.56264955000006],[99.03729540300009,16.486059647000047],[99.03384129200003,16.430375182000034],[99.07486878800006,16.467228625000075],[99.12163339500006,16.474029141000074],[99.18052218600008,16.532450109000024],[99.24053394900005,16.534145688000024],[99.25639395900004,16.568903028000022],[99.24659302500004,16.662176282000075],[99.27139435400005,16.684695316000045]]]}},{"type":"Feature","properties":{"code":"630702","name":"ช่องแคบ","parentCode":"6307"},"geometry":{"type":"Polygon","coordinates":[[[98.79973196900005,16.47893849600007],[98.78571226700006,16.527149612000073],[98.80169655400005,16.59656360300005],[98.77701954400004,16.608281606000048],[98.73636249400005,16.55803697500005],[98.68810809200005,16.53344160200004],[98.59575500400007,16.54075715500005],[98.65598427200007,16.450828159000025],[98.72548646100006,16.44472504400005],[98.79973196900005,16.47893849600007]]]}},{"type":"Feature","properties":{"code":"630609","name":"ด่านแม่ละเมา","parentCode":"6306"},"geometry":{"type":"Polygon","coordinates":[[[98.92841216200009,16.646501886000067],[98.96533055100008,16.67175935800003],[98.95347739900006,16.723269904000063],[98.84463945300007,16.844213570000022],[98.76192624200007,16.79853730800005],[98.77614019400005,16.730155378000063],[98.92841216200009,16.646501886000067]]]}},{"type":"Feature","properties":{"code":"630104","name":"หัวเดียด","parentCode":"6301"},"geometry":{"type":"Polygon","coordinates":[[[99.11423181400005,16.895569071000068],[99.09677260800004,16.902792426000076],[99.10643221800007,16.893795450000027],[99.10987757200007,16.890406023000025],[99.11423181400005,16.895569071000068]]]}},{"type":"Feature","properties":{"code":"630403","name":"ขะเนจื้อ","parentCode":"6304"},"geometry":{"type":"Polygon","coordinates":[[[98.47326983200008,16.99373236300005],[98.51990486100004,17.009289256000045],[98.53712650100005,16.986934890000043],[98.57639452900008,17.014991235000025],[98.61519690300008,17.082409420000033],[98.54577167300005,17.115471678000063],[98.46999554700005,17.17000018500005],[98.42010127500004,17.12617354200006],[98.32184696400009,17.066507175000027],[98.40453805200008,17.05607327200005],[98.47326983200008,16.99373236300005]]]}},{"type":"Feature","properties":{"code":"630703","name":"คีรีราษฎร์","parentCode":"6307"},"geometry":{"type":"Polygon","coordinates":[[[98.96854447400005,16.56264955000006],[98.93319686300003,16.640834402000053],[98.91090123300006,16.618120822000037],[98.77948214800006,16.61045799900006],[98.77701954400004,16.608281606000048],[98.80169655400005,16.59656360300005],[98.78571226700006,16.527149612000073],[98.79973196900005,16.47893849600007],[98.85685845200004,16.454775578000067],[98.84712490400005,16.419252963000076],[98.87776836300009,16.425233666000054],[98.91869017300007,16.384181902000023],[99.02672961200005,16.382944835000046],[99.03076961300007,16.421684413000037],[99.03384129200003,16.430375182000034],[99.03729540300009,16.486059647000047],[98.96854447400005,16.56264955000006]]]}},{"type":"Feature","properties":{"code":"630205","name":"เกาะตะเภา","parentCode":"6302"},"geometry":{"type":"Polygon","coordinates":[[[99.08092859300007,17.13107212400007],[98.97008642900005,17.165871216000028],[98.95453473100008,17.147304684000062],[98.97145881800009,17.092894365000063],[99.02977962000006,17.055528621000065],[99.03890207800004,17.034416656000076],[99.06159659000008,17.052197441000033],[99.03852433800006,17.09177730700003],[99.05865756100008,17.123935388000064],[99.08092859300007,17.13107212400007]]]}},{"type":"Feature","properties":{"code":"630804","name":"แม่จัน","parentCode":"6308"},"geometry":{"type":"Polygon","coordinates":[[[98.77086897700008,15.898555294000062],[98.65935495900004,16.079527163000023],[98.60798400900006,16.04296551300007],[98.60109188500007,16.072627303000047],[98.56108293200003,16.032300290000023],[98.60875983000005,15.972882096000035],[98.58398662800005,15.918049048000057],[98.61056764300008,15.876277849000076],[98.57687899200005,15.799993855000025],[98.54669972200008,15.682121431000041],[98.55777965600004,15.652479867000068],[98.64861585800008,15.632502720000048],[98.72370291100003,15.516458116000024],[98.70540538800003,15.498223112000062],[98.76075698800008,15.470500644000026],[98.75455476000008,15.441755886000067],[98.82943309500007,15.355831229000046],[98.87086460100005,15.324801179000076],[98.88626122400007,15.275066768000045],[98.87643659900004,15.336729073000072],[98.89400464800008,15.383237492000035],[98.82709269700007,15.45183092700006],[98.80987156100008,15.494055605000028],[98.82624443300006,15.545395306000046],[98.89028969300006,15.58367038700004],[98.88300523100008,15.611603638000076],[98.81746524000005,15.691369566000049],[98.79953429500006,15.75936041400007],[98.82417880800006,15.829105209000033],[98.77086897700008,15.898555294000062]]]}},{"type":"Feature","properties":{"code":"630402","name":"แม่จะเรา","parentCode":"6304"},"geometry":{"type":"Polygon","coordinates":[[[98.63456518400005,16.948995979000074],[98.57681824700006,16.990401512000062],[98.52140282400006,16.917610332000038],[98.53998564300008,16.86148117700003],[98.50797804700005,16.879290705000074],[98.49199837600008,16.843374151000035],[98.53563782500004,16.829678563000073],[98.57774188000008,16.866973312000027],[98.57964751700007,16.900505547000023],[98.63456518400005,16.948995979000074]]]}},{"type":"Feature","properties":{"code":"630605","name":"แม่กาษา","parentCode":"6306"},"geometry":{"type":"Polygon","coordinates":[[[98.77300434600005,16.967362625000078],[98.76849187800008,16.977837288000046],[98.75116287400004,16.95916687500005],[98.69744108700007,16.975029437000046],[98.67496528100008,16.939359938000052],[98.63456518400005,16.948995979000074],[98.57964751700007,16.900505547000023],[98.57774188000008,16.866973312000027],[98.53563782500004,16.829678563000073],[98.53640967700005,16.81076547400005],[98.57153353600006,16.768782518000023],[98.64490055600004,16.775010902000076],[98.64630177200007,16.842717966000066],[98.71651996000008,16.891067213000042],[98.77300434600005,16.967362625000078]]]}},{"type":"Feature","properties":{"code":"630806","name":"แม่กลอง","parentCode":"6308"},"geometry":{"type":"Polygon","coordinates":[[[98.89200666200009,16.078811121000058],[98.85594955300007,16.081611130000056],[98.82880243400007,16.12217699100006],[98.80594065300005,16.10459681100002],[98.81635568100006,16.003540288000067],[98.89200666200009,16.078811121000058]]]}},{"type":"Feature","properties":{"code":"630602","name":"แม่กุ","parentCode":"6306"},"geometry":{"type":"Polygon","coordinates":[[[98.57704126900006,16.605265520000046],[98.72914804700008,16.588468111000054],[98.75895459300006,16.618363318000036],[98.74983740900007,16.63988067500003],[98.68485974600009,16.63790244300003],[98.59761360400006,16.65873920200005],[98.54322012500006,16.63844619100007],[98.57704126900006,16.605265520000046]]]}},{"type":"Feature","properties":{"code":"630504","name":"แม่หละ","parentCode":"6305"},"geometry":{"type":"Polygon","coordinates":[[[98.39178977600005,17.242274746000078],[98.36122589000007,17.271138620000045],[98.26961713200006,17.175964690000058],[98.27961537400006,17.117014959000073],[98.32122425400007,17.11184684400007],[98.32184696400009,17.066507175000027],[98.42010127500004,17.12617354200006],[98.46999554700005,17.17000018500005],[98.39178977600005,17.242274746000078]]]}},{"type":"Feature","properties":{"code":"630805","name":"แม่ละมุ้ง","parentCode":"6308"},"geometry":{"type":"Polygon","coordinates":[[[99.08612096900004,15.884496026000022],[99.09661545200004,15.931610183000032],[99.08829915900009,16.043731992000062],[99.11460467600006,16.061232639000025],[99.05241287800004,16.027930321000042],[99.03770917800006,15.968803968000032],[98.92937955900004,15.927544485000055],[98.87489629200007,15.947697267000024],[98.84370477800007,15.904008266000062],[98.81553590700008,15.913526464000029],[98.77086897700008,15.898555294000062],[98.82417880800006,15.829105209000033],[98.79953429500006,15.75936041400007],[98.81746524000005,15.691369566000049],[98.88300523100008,15.611603638000076],[98.89028969300006,15.58367038700004],[98.82624443300006,15.545395306000046],[98.80987156100008,15.494055605000028],[98.82709269700007,15.45183092700006],[98.89400464800008,15.383237492000035],[98.87643659900004,15.336729073000072],[98.88626122400007,15.275066768000045],[98.95555765300008,15.246997434000036],[98.98400297400008,15.179953423000029],[99.03813539500004,15.288099755000076],[99.03142716000008,15.337531694000063],[99.06716374000007,15.392484565000075],[99.05902104400008,15.438408695000078],[99.07857476500004,15.498684080000032],[99.05111687300007,15.563055348000034],[99.09426256300009,15.583163125000056],[99.13827860400005,15.73053615300006],[99.13369905300004,15.798261423000042],[99.10328346100005,15.821194302000038],[99.08612096900004,15.884496026000022]]]}},{"type":"Feature","properties":{"code":"630607","name":"แม่ปะ","parentCode":"6306"},"geometry":{"type":"Polygon","coordinates":[[[98.64490055600004,16.775010902000076],[98.57153353600006,16.768782518000023],[98.53640967700005,16.81076547400005],[98.51482462800004,16.79121314300005],[98.51798951100005,16.73352452000006],[98.54743021200005,16.71413891800006],[98.58558449600008,16.738771489000044],[98.59838371800004,16.70925248900005],[98.65585298200006,16.71249784400004],[98.68093636500004,16.763675308000074],[98.64490055600004,16.775010902000076]]]}},{"type":"Feature","properties":{"code":"630401","name":"แม่ระมาด","parentCode":"6304"},"geometry":{"type":"Polygon","coordinates":[[[98.52140282400006,16.917610332000038],[98.57681824700006,16.990401512000062],[98.57639452900008,17.014991235000025],[98.53712650100005,16.986934890000043],[98.51990486100004,17.009289256000045],[98.47326983200008,16.99373236300005],[98.49005676700006,16.922320134000074],[98.52140282400006,16.917610332000038]]]}},{"type":"Feature","properties":{"code":"630203","name":"แม่สลิด","parentCode":"6302"},"geometry":{"type":"Polygon","coordinates":[[[99.31522857500005,17.269839529000024],[99.24998955500007,17.406687815000055],[99.21382698200006,17.390242512000043],[99.21089990500008,17.376537908000046],[99.22491507100005,17.24408384000003],[99.18795875200004,17.205556353000077],[99.09598436200008,17.16514427900006],[99.08092859300007,17.13107212400007],[99.05865756100008,17.123935388000064],[99.08883295000004,17.103837122000073],[99.18013349900008,17.10376861700007],[99.23361895300008,17.18084914600007],[99.25907387900008,17.151330187000042],[99.27487194700007,17.192402247000075],[99.31857129600007,17.213955713000075],[99.31522857500005,17.269839529000024]]]}},{"type":"Feature","properties":{"code":"630503","name":"แม่สอง","parentCode":"6305"},"geometry":{"type":"Polygon","coordinates":[[[98.10920715000003,17.590203812000027],[98.03971989500008,17.561548473000073],[97.98619268200008,17.510412229000053],[98.09343785400006,17.39095207400004],[98.11187779400007,17.42247775100003],[98.15515030100005,17.396803988000045],[98.21001172400008,17.408472778000032],[98.24321911200008,17.467927296000028],[98.32960759800005,17.469299986000067],[98.30975253900004,17.52997293800007],[98.29790907700004,17.575534336000032],[98.25438111300008,17.572153339000067],[98.23908080900009,17.550394526000048],[98.13597998800003,17.541729334000024],[98.10920715000003,17.590203812000027]]]}},{"type":"Feature","properties":{"code":"630601","name":"แม่สอด","parentCode":"6306"},"geometry":{"type":"Polygon","coordinates":[[[98.59838371800004,16.70925248900005],[98.58558449600008,16.738771489000044],[98.54743021200005,16.71413891800006],[98.55571787300005,16.693398930000058],[98.58114694000005,16.69478057400005],[98.59838371800004,16.70925248900005]]]}},{"type":"Feature","properties":{"code":"630502","name":"แม่ต้าน","parentCode":"6305"},"geometry":{"type":"Polygon","coordinates":[[[98.31724650400008,17.32165591300003],[98.29832905000006,17.337134132000074],[98.18087005300004,17.297271230000035],[98.19025965800006,17.255210143000056],[98.24361507400005,17.22173582000005],[98.26961713200006,17.175964690000058],[98.36122589000007,17.271138620000045],[98.31724650400008,17.32165591300003]]]}},{"type":"Feature","properties":{"code":"630604","name":"แม่ตาว","parentCode":"6306"},"geometry":{"type":"Polygon","coordinates":[[[98.58114694000005,16.69478057400005],[98.55571787300005,16.693398930000058],[98.51491984300009,16.660161612000024],[98.54322012500006,16.63844619100007],[98.59761360400006,16.65873920200005],[98.58114694000005,16.69478057400005]]]}},{"type":"Feature","properties":{"code":"630111","name":"แม่ท้อ","parentCode":"6301"},"geometry":{"type":"Polygon","coordinates":[[[98.98694941900004,16.914875282000025],[98.93463239700009,16.935676174000037],[98.91227994200005,16.975349221000045],[98.87684937900008,16.940459669000063],[98.89697191200008,16.911101302000077],[98.83826497600006,16.91189508800005],[98.84463945300007,16.844213570000022],[98.95347739900006,16.723269904000063],[98.96533055100008,16.67175935800003],[98.92841216200009,16.646501886000067],[98.93319686300003,16.640834402000053],[98.96854447400005,16.56264955000006],[99.03337920100006,16.586959689000025],[99.03220115100004,16.621502504000034],[98.99866268700004,16.69833282700006],[99.05056730100006,16.727004704000024],[99.05520595400009,16.80764028300007],[99.12409574000009,16.856332891000022],[99.12244488300007,16.866097178000075],[99.09025212400007,16.837275393000027],[99.01925463500004,16.878766214000052],[98.98694941900004,16.914875282000025]]]}},{"type":"Feature","properties":{"code":"630404","name":"แม่ตื่น","parentCode":"6304"},"geometry":{"type":"Polygon","coordinates":[[[98.72737771500005,17.158965110000054],[98.68284073700005,17.18213091900003],[98.64379181000004,17.245378205000065],[98.57885419400009,17.29440177600003],[98.49613038000007,17.27307985400006],[98.44170183200004,17.270992069000044],[98.39178977600005,17.242274746000078],[98.46999554700005,17.17000018500005],[98.54577167300005,17.115471678000063],[98.61519690300008,17.082409420000033],[98.62577543100008,17.079610039000045],[98.72737771500005,17.158965110000054]]]}},{"type":"Feature","properties":{"code":"630506","name":"แม่อุสุ","parentCode":"6305"},"geometry":{"type":"Polygon","coordinates":[[[98.32960759800005,17.469299986000067],[98.24321911200008,17.467927296000028],[98.21001172400008,17.408472778000032],[98.15515030100005,17.396803988000045],[98.11187779400007,17.42247775100003],[98.09343785400006,17.39095207400004],[98.12004601500007,17.322929258000045],[98.19025965800006,17.255210143000056],[98.18087005300004,17.297271230000035],[98.29832905000006,17.337134132000074],[98.31724650400008,17.32165591300003],[98.33412042400005,17.347604895000075],[98.29176497900005,17.407327330000044],[98.32249516400003,17.41704665700007],[98.32960759800005,17.469299986000067]]]}},{"type":"Feature","properties":{"code":"630505","name":"แม่วะหลวง","parentCode":"6305"},"geometry":{"type":"Polygon","coordinates":[[[98.08921456500008,17.63717831100007],[98.04015729400004,17.676144322000027],[98.02190303400005,17.738293314000032],[97.96297019800005,17.866031505000024],[97.91139559900006,17.853672913000025],[97.90203997500004,17.809314561000065],[97.86727920400006,17.78899166700006],[97.89321076500005,17.707576420000066],[97.86207403400005,17.69257051900007],[97.93043800000004,17.672415655000066],[97.94884577200008,17.597883456000034],[97.99323534200005,17.617371369000068],[98.03971989500008,17.561548473000073],[98.10920715000003,17.590203812000027],[98.08921456500008,17.63717831100007]]]}},{"type":"Feature","properties":{"code":"630608","name":"มหาวัน","parentCode":"6306"},"geometry":{"type":"Polygon","coordinates":[[[98.77948214800006,16.61045799900006],[98.75895459300006,16.618363318000036],[98.72914804700008,16.588468111000054],[98.57704126900006,16.605265520000046],[98.59575500400007,16.54075715500005],[98.68810809200005,16.53344160200004],[98.73636249400005,16.55803697500005],[98.77701954400004,16.608281606000048],[98.77948214800006,16.61045799900006]]]}},{"type":"Feature","properties":{"code":"630106","name":"ไม้งาม","parentCode":"6301"},"geometry":{"type":"Polygon","coordinates":[[[99.22163353000008,16.97959101300006],[99.21031935400003,17.033691271000066],[99.17029289300007,16.98519230100004],[99.11720812600004,16.97136985800006],[99.08006889300003,16.940200452000056],[99.09677260800004,16.902792426000076],[99.11423181400005,16.895569071000068],[99.12759676500008,16.88541531000004],[99.17813961700006,16.949824652000075],[99.19909166500008,16.92556337900004],[99.22163353000008,16.97959101300006]]]}},{"type":"Feature","properties":{"code":"630803","name":"โมโกร","parentCode":"6308"},"geometry":{"type":"Polygon","coordinates":[[[99.02672961200005,16.382944835000046],[98.91869017300007,16.384181902000023],[98.93163627100006,16.329378950000034],[98.89902486600005,16.25022215200005],[98.85206493700008,16.219506657000068],[98.86139585300003,16.169629926000027],[98.82880243400007,16.12217699100006],[98.85594955300007,16.081611130000056],[98.89200666200009,16.078811121000058],[99.01195129800004,16.098448157000064],[99.05045950400006,16.137091328000054],[99.08004148400005,16.215618302000053],[99.04815798600004,16.261539042000038],[99.05338341200007,16.309377246000054],[99.02672961200005,16.382944835000046]]]}},{"type":"Feature","properties":{"code":"630902","name":"นาโบสถ์","parentCode":"6309"},"geometry":{"type":"Polygon","coordinates":[[[99.12784249000003,16.75451722100007],[99.11001504200004,16.765337815000066],[99.05056730100006,16.727004704000024],[98.99866268700004,16.69833282700006],[99.03220115100004,16.621502504000034],[99.10118244000006,16.663036959000067],[99.20438913900006,16.681173690000037],[99.20719505800008,16.71656583300006],[99.12784249000003,16.75451722100007]]]}},{"type":"Feature","properties":{"code":"630108","name":"น้ำรึม","parentCode":"6301"},"geometry":{"type":"Polygon","coordinates":[[[99.28705832800006,16.931595420000065],[99.22006671300005,16.949866840000027],[99.22163353000008,16.97959101300006],[99.19909166500008,16.92556337900004],[99.17813961700006,16.949824652000075],[99.12759676500008,16.88541531000004],[99.13084312100005,16.876086977000057],[99.13870102000004,16.863553892000027],[99.14092773900006,16.86001881800007],[99.18093919600005,16.85182493700006],[99.17333450100006,16.880003988000055],[99.27774347300004,16.91425815100007],[99.28705832800006,16.931595420000065]]]}},{"type":"Feature","properties":{"code":"630105","name":"หนองบัวเหนือ","parentCode":"6301"},"geometry":{"type":"Polygon","coordinates":[[[99.11720812600004,16.97136985800006],[99.05979900400007,16.96659829500004],[98.98694941900004,16.914875282000025],[99.01925463500004,16.878766214000052],[99.10643221800007,16.893795450000027],[99.09677260800004,16.902792426000076],[99.08006889300003,16.940200452000056],[99.11720812600004,16.97136985800006]]]}},{"type":"Feature","properties":{"code":"630113","name":"หนองบัวใต้","parentCode":"6301"},"geometry":{"type":"Polygon","coordinates":[[[99.12914497800006,16.84318496800006],[99.12409574000009,16.856332891000022],[99.05520595400009,16.80764028300007],[99.05056730100006,16.727004704000024],[99.11001504200004,16.765337815000066],[99.12784249000003,16.75451722100007],[99.16073047800006,16.80149355800006],[99.12914497800006,16.84318496800006]]]}},{"type":"Feature","properties":{"code":"630102","name":"หนองหลวง","parentCode":"6301"},"geometry":{"type":"Polygon","coordinates":[[[99.12759676500008,16.88541531000004],[99.11423181400005,16.895569071000068],[99.10987757200007,16.890406023000025],[99.12066890400007,16.872042314000055],[99.13084312100005,16.876086977000057],[99.12759676500008,16.88541531000004]]]}},{"type":"Feature","properties":{"code":"630802","name":"หนองหลวง","parentCode":"6308"},"geometry":{"type":"Polygon","coordinates":[[[98.80594065300005,16.10459681100002],[98.77823085600005,16.128789631000075],[98.67786724100006,16.127274417000024],[98.65935495900004,16.079527163000023],[98.77086897700008,15.898555294000062],[98.81553590700008,15.913526464000029],[98.81635568100006,16.003540288000067],[98.80594065300005,16.10459681100002]]]}},{"type":"Feature","properties":{"code":"630112","name":"ป่ามะม่วง","parentCode":"6301"},"geometry":{"type":"Polygon","coordinates":[[[99.10987757200007,16.890406023000025],[99.10643221800007,16.893795450000027],[99.01925463500004,16.878766214000052],[99.09025212400007,16.837275393000027],[99.12244488300007,16.866097178000075],[99.12066890400007,16.872042314000055],[99.10987757200007,16.890406023000025]]]}},{"type":"Feature","properties":{"code":"630603","name":"พะวอ","parentCode":"6306"},"geometry":{"type":"Polygon","coordinates":[[[98.83826497600006,16.91189508800005],[98.77300434600005,16.967362625000078],[98.71651996000008,16.891067213000042],[98.64630177200007,16.842717966000066],[98.64490055600004,16.775010902000076],[98.68093636500004,16.763675308000074],[98.65585298200006,16.71249784400004],[98.69268720800005,16.70022923600004],[98.68485974600009,16.63790244300003],[98.74983740900007,16.63988067500003],[98.75895459300006,16.618363318000036],[98.77948214800006,16.61045799900006],[98.91090123300006,16.618120822000037],[98.93319686300003,16.640834402000053],[98.92841216200009,16.646501886000067],[98.77614019400005,16.730155378000063],[98.76192624200007,16.79853730800005],[98.84463945300007,16.844213570000022],[98.83826497600006,16.91189508800005]]]}},{"type":"Feature","properties":{"code":"630701","name":"พบพระ","parentCode":"6307"},"geometry":{"type":"Polygon","coordinates":[[[98.72548646100006,16.44472504400005],[98.65598427200007,16.450828159000025],[98.63644071800007,16.41012491400005],[98.66429388500006,16.36534219600003],[98.74412987100004,16.359586551000064],[98.77205685300004,16.392543765000028],[98.73099227200004,16.40655187300007],[98.72548646100006,16.44472504400005]]]}},{"type":"Feature","properties":{"code":"630406","name":"พระธาตุ","parentCode":"6304"},"geometry":{"type":"Polygon","coordinates":[[[98.62577543100008,17.079610039000045],[98.61519690300008,17.082409420000033],[98.57639452900008,17.014991235000025],[98.57681824700006,16.990401512000062],[98.63456518400005,16.948995979000074],[98.67496528100008,16.939359938000052],[98.69744108700007,16.975029437000046],[98.75116287400004,16.95916687500005],[98.76849187800008,16.977837288000046],[98.70617641600006,17.052865677000057],[98.62577543100008,17.079610039000045]]]}},{"type":"Feature","properties":{"code":"630610","name":"พระธาตุผาแดง","parentCode":"6306"},"geometry":{"type":"Polygon","coordinates":[[[98.65585298200006,16.71249784400004],[98.59838371800004,16.70925248900005],[98.58114694000005,16.69478057400005],[98.59761360400006,16.65873920200005],[98.68485974600009,16.63790244300003],[98.69268720800005,16.70022923600004],[98.65585298200006,16.71249784400004]]]}},{"type":"Feature","properties":{"code":"630107","name":"โป่งแดง","parentCode":"6301"},"geometry":{"type":"Polygon","coordinates":[[[99.39327675000004,17.082776958000068],[99.33905258300007,17.093169199000045],[99.31434062200003,17.14568502900005],[99.31857129600007,17.213955713000075],[99.27487194700007,17.192402247000075],[99.25907387900008,17.151330187000042],[99.23361895300008,17.18084914600007],[99.18013349900008,17.10376861700007],[99.21604849200008,17.067353466000043],[99.21031935400003,17.033691271000066],[99.22163353000008,16.97959101300006],[99.22006671300005,16.949866840000027],[99.28705832800006,16.931595420000065],[99.33973183800003,16.98416515300005],[99.43548772200006,16.977848683000047],[99.41827734700007,17.016577211000026],[99.39486553500006,17.021714361000022],[99.39327675000004,17.082776958000068]]]}},{"type":"Feature","properties":{"code":"630903","name":"ประดาง","parentCode":"6309"},"geometry":{"type":"Polygon","coordinates":[[[99.24110533600003,16.72437781700006],[99.16073047800006,16.80149355800006],[99.12784249000003,16.75451722100007],[99.20719505800008,16.71656583300006],[99.20438913900006,16.681173690000037],[99.24110533600003,16.72437781700006]]]}},{"type":"Feature","properties":{"code":"630101","name":"ระแหง","parentCode":"6301"},"geometry":{"type":"Polygon","coordinates":[[[99.13870102000004,16.863553892000027],[99.13084312100005,16.876086977000057],[99.12066890400007,16.872042314000055],[99.12244488300007,16.866097178000075],[99.12409574000009,16.856332891000022],[99.13870102000004,16.863553892000027]]]}},{"type":"Feature","properties":{"code":"630705","name":"รวมไทยพัฒนา","parentCode":"6307"},"geometry":{"type":"Polygon","coordinates":[[[98.79973196900005,16.47893849600007],[98.72548646100006,16.44472504400005],[98.73099227200004,16.40655187300007],[98.77205685300004,16.392543765000028],[98.80415516300008,16.37837269700003],[98.84712490400005,16.419252963000076],[98.85685845200004,16.454775578000067],[98.79973196900005,16.47893849600007]]]}},{"type":"Feature","properties":{"code":"630405","name":"สามหมื่น","parentCode":"6304"},"geometry":{"type":"Polygon","coordinates":[[[98.84403285700006,17.15082842700002],[98.80570203600007,17.189884020000022],[98.72737771500005,17.158965110000054],[98.62577543100008,17.079610039000045],[98.70617641600006,17.052865677000057],[98.76849187800008,16.977837288000046],[98.77300434600005,16.967362625000078],[98.83826497600006,16.91189508800005],[98.89697191200008,16.911101302000077],[98.87684937900008,16.940459669000063],[98.91227994200005,16.975349221000045],[98.87349319300006,17.02218503100005],[98.82668173000008,17.089530240000045],[98.84403285700006,17.15082842700002]]]}},{"type":"Feature","properties":{"code":"630301","name":"สามเงา","parentCode":"6303"},"geometry":{"type":"Polygon","coordinates":[[[99.04671444600007,17.257150230000036],[98.97312962400008,17.27205483000006],[98.97274554600006,17.240595108000036],[99.02915967600006,17.23793338100006],[99.08092859300007,17.13107212400007],[99.09598436200008,17.16514427900006],[99.04671444600007,17.257150230000036]]]}},{"type":"Feature","properties":{"code":"630202","name":"สมอโคน","parentCode":"6302"},"geometry":{"type":"Polygon","coordinates":[[[99.21031935400003,17.033691271000066],[99.21604849200008,17.067353466000043],[99.18013349900008,17.10376861700007],[99.14282785100005,17.04093249500005],[99.08322664100007,17.019480944000065],[99.11720812600004,16.97136985800006],[99.17029289300007,16.98519230100004],[99.21031935400003,17.033691271000066]]]}},{"type":"Feature","properties":{"code":"630201","name":"ตากออก","parentCode":"6302"},"geometry":{"type":"Polygon","coordinates":[[[99.18013349900008,17.10376861700007],[99.08883295000004,17.103837122000073],[99.05865756100008,17.123935388000064],[99.03852433800006,17.09177730700003],[99.06159659000008,17.052197441000033],[99.08322664100007,17.019480944000065],[99.14282785100005,17.04093249500005],[99.18013349900008,17.10376861700007]]]}},{"type":"Feature","properties":{"code":"630204","name":"ตากตก","parentCode":"6302"},"geometry":{"type":"Polygon","coordinates":[[[99.06159659000008,17.052197441000033],[99.03890207800004,17.034416656000076],[99.02399726500005,17.004305463000037],[99.05979900400007,16.96659829500004],[99.11720812600004,16.97136985800006],[99.08322664100007,17.019480944000065],[99.06159659000008,17.052197441000033]]]}},{"type":"Feature","properties":{"code":"630115","name":"ตลุกกลางทุ่ง","parentCode":"6301"},"geometry":{"type":"Polygon","coordinates":[[[99.29803525500006,16.82767046200007],[99.32103573300009,16.839182994000055],[99.27774347300004,16.91425815100007],[99.17333450100006,16.880003988000055],[99.18093919600005,16.85182493700006],[99.21362651300007,16.813523389000068],[99.29803525500006,16.82767046200007]]]}},{"type":"Feature","properties":{"code":"630606","name":"ท่าสายลวด","parentCode":"6306"},"geometry":{"type":"Polygon","coordinates":[[[98.51482462800004,16.79121314300005],[98.48411524700003,16.78761071200006],[98.46307608800004,16.730372911000075],[98.51616350600005,16.694595598000035],[98.51491984300009,16.660161612000024],[98.55571787300005,16.693398930000058],[98.54743021200005,16.71413891800006],[98.51798951100005,16.73352452000006],[98.51482462800004,16.79121314300005]]]}},{"type":"Feature","properties":{"code":"630501","name":"ท่าสองยาง","parentCode":"6305"},"geometry":{"type":"Polygon","coordinates":[[[98.03971989500008,17.561548473000073],[97.99323534200005,17.617371369000068],[97.94884577200008,17.597883456000034],[97.93043800000004,17.672415655000066],[97.86207403400005,17.69257051900007],[97.89321076500005,17.707576420000066],[97.86727920400006,17.78899166700006],[97.81308845300003,17.785125954000023],[97.74237573800008,17.78576542600007],[97.76285732200006,17.725740979000022],[97.84965728200007,17.62510206500002],[97.90647016800006,17.582972846000075],[97.92309858700008,17.53926602000007],[97.98619268200008,17.510412229000053],[98.03971989500008,17.561548473000073]]]}},{"type":"Feature","properties":{"code":"630207","name":"ท้องฟ้า","parentCode":"6302"},"geometry":{"type":"Polygon","coordinates":[[[98.95453473100008,17.147304684000062],[98.87211295600008,17.168080657000075],[98.84403285700006,17.15082842700002],[98.82668173000008,17.089530240000045],[98.87349319300006,17.02218503100005],[98.96313656200005,17.028002240000035],[99.02977962000006,17.055528621000065],[98.97145881800009,17.092894365000063],[98.95453473100008,17.147304684000062]]]}},{"type":"Feature","properties":{"code":"630206","name":"ทุ่งกระเชาะ","parentCode":"6302"},"geometry":{"type":"Polygon","coordinates":[[[99.03890207800004,17.034416656000076],[99.02977962000006,17.055528621000065],[98.96313656200005,17.028002240000035],[98.87349319300006,17.02218503100005],[98.91227994200005,16.975349221000045],[98.93463239700009,16.935676174000037],[98.98694941900004,16.914875282000025],[99.05979900400007,16.96659829500004],[99.02399726500005,17.004305463000037],[99.03890207800004,17.034416656000076]]]}},{"type":"Feature","properties":{"code":"630801","name":"อุ้มผาง","parentCode":"6308"},"geometry":{"type":"Polygon","coordinates":[[[99.05045950400006,16.137091328000054],[99.01195129800004,16.098448157000064],[98.89200666200009,16.078811121000058],[98.81635568100006,16.003540288000067],[98.81553590700008,15.913526464000029],[98.84370477800007,15.904008266000062],[98.87489629200007,15.947697267000024],[98.92937955900004,15.927544485000055],[99.03770917800006,15.968803968000032],[99.05241287800004,16.027930321000042],[99.11460467600006,16.061232639000025],[99.10840386700005,16.085286430000053],[99.05045950400006,16.137091328000054]]]}},{"type":"Feature","properties":{"code":"630704","name":"วาเล่ย์","parentCode":"6307"},"geometry":{"type":"Polygon","coordinates":[[[98.80415516300008,16.37837269700003],[98.77205685300004,16.392543765000028],[98.74412987100004,16.359586551000064],[98.66429388500006,16.36534219600003],[98.67093966300007,16.28453339200007],[98.69942656200004,16.26861617700007],[98.72682986500007,16.328587264000078],[98.80415516300008,16.37837269700003]]]}},{"type":"Feature","properties":{"code":"630306","name":"วังจันทร์","parentCode":"6303"},"geometry":{"type":"Polygon","coordinates":[[[99.18795875200004,17.205556353000077],[99.22491507100005,17.24408384000003],[99.21089990500008,17.376537908000046],[99.17383769700007,17.335854203000054],[99.13537653400005,17.361606874000074],[99.14171997100004,17.304357552000056],[99.08703433800008,17.302721091000024],[99.07205397600006,17.255427046000023],[99.07539764700005,17.231208863000063],[99.13788640500007,17.22990196300003],[99.18795875200004,17.205556353000077]]]}},{"type":"Feature","properties":{"code":"630109","name":"วังหิน","parentCode":"6301"},"geometry":{"type":"Polygon","coordinates":[[[99.18093919600005,16.85182493700006],[99.14092773900006,16.86001881800007],[99.12914497800006,16.84318496800006],[99.16073047800006,16.80149355800006],[99.24110533600003,16.72437781700006],[99.27139435400005,16.684695316000045],[99.30551175900007,16.768682890000036],[99.31023138100005,16.794177398000045],[99.29803525500006,16.82767046200007],[99.21362651300007,16.813523389000068],[99.18093919600005,16.85182493700006]]]}},{"type":"Feature","properties":{"code":"630302","name":"วังหมัน","parentCode":"6303"},"geometry":{"type":"Polygon","coordinates":[[[99.07205397600006,17.255427046000023],[99.04671444600007,17.257150230000036],[99.09598436200008,17.16514427900006],[99.18795875200004,17.205556353000077],[99.13788640500007,17.22990196300003],[99.07539764700005,17.231208863000063],[99.07205397600006,17.255427046000023]]]}},{"type":"Feature","properties":{"code":"630114","name":"วังประจบ","parentCode":"6301"},"geometry":{"type":"Polygon","coordinates":[[[99.43548772200006,16.977848683000047],[99.33973183800003,16.98416515300005],[99.28705832800006,16.931595420000065],[99.27774347300004,16.91425815100007],[99.32103573300009,16.839182994000055],[99.29803525500006,16.82767046200007],[99.31023138100005,16.794177398000045],[99.38538510600006,16.807845691000068],[99.37872505800004,16.858908455000062],[99.43262009200004,16.87586147600007],[99.45520097700006,16.912677831000053],[99.43838012100008,16.94860920600007],[99.43548772200006,16.977848683000047]]]}},{"type":"Feature","properties":{"code":"630304","name":"ย่านรี","parentCode":"6303"},"geometry":{"type":"Polygon","coordinates":[[[99.08092859300007,17.13107212400007],[99.02915967600006,17.23793338100006],[98.97274554600006,17.240595108000036],[98.97008642900005,17.165871216000028],[99.08092859300007,17.13107212400007]]]}},{"type":"Feature","properties":{"code":"630303","name":"ยกกระบัตร","parentCode":"6303"},"geometry":{"type":"Polygon","coordinates":[[[99.11206775900007,17.360977539000032],[99.04694865400006,17.385633650000045],[98.98024673700007,17.46774829000003],[98.93131895600004,17.473867158000076],[98.91490962600005,17.454155444000037],[98.93703984300004,17.38680058400007],[98.98371092200006,17.357037470000023],[98.96311032500006,17.318291246000058],[98.97312962400008,17.27205483000006],[99.04671444600007,17.257150230000036],[99.07205397600006,17.255427046000023],[99.08703433800008,17.302721091000024],[99.14171997100004,17.304357552000056],[99.13537653400005,17.361606874000074],[99.11206775900007,17.360977539000032]]]}}]}