{"type":"FeatureCollection","features":[{"type":"Feature","properties":{"code":"640202","name":"บ้านด่าน","parentCode":"6402"},"geometry":{"type":"Polygon","coordinates":[[[99.64354415100007,17.069321612000067],[99.58856663300008,17.061946513000066],[99.55613499000003,17.08910017200003],[99.51224895100006,17.077740391000077],[99.53404641300006,17.027451468000038],[99.55828155100005,17.01500831000004],[99.59218175500007,16.993796743000075],[99.61914444200005,16.91841676300004],[99.61908543500004,16.963247461000037],[99.61861247100006,17.01369440800005],[99.64354415100007,17.069321612000067]]]}},{"type":"Feature","properties":{"code":"640510","name":"บ้านแก่ง","parentCode":"6405"},"geometry":{"type":"Polygon","coordinates":[[[99.69973353300009,17.55521501900006],[99.62594504600008,17.546697546000075],[99.62599822000004,17.59112691000007],[99.58033654000008,17.58872449100005],[99.49597988100004,17.627718168000058],[99.45433214400003,17.598105516000032],[99.41304272200006,17.57407357900007],[99.43936212100004,17.527422650000062],[99.41888945600004,17.488583994000066],[99.46936126400004,17.511348965000025],[99.52673086700008,17.50850141600006],[99.54889493300004,17.45097357000003],[99.55721294300008,17.46063976100004],[99.63427842500005,17.36567491900007],[99.67054291600004,17.36198607600005],[99.70165005800004,17.377041157000065],[99.69027388300003,17.43085099700005],[99.72212133400006,17.471199553000076],[99.67016097800007,17.50233455600005],[99.71850962500008,17.522938709000073],[99.69973353300009,17.55521501900006]]]}},{"type":"Feature","properties":{"code":"640106","name":"บ้านกล้วย","parentCode":"6401"},"geometry":{"type":"Polygon","coordinates":[[[99.80517222900005,17.083371663000037],[99.74041430900007,17.109043874000065],[99.74062319900008,17.071921902000042],[99.74000811800005,16.960461060000057],[99.80256391200004,16.95699965500006],[99.81713865400008,17.00441115900003],[99.81188716900004,17.011588286000062],[99.81703762000006,17.070749344000035],[99.80517222900005,17.083371663000037]]]}},{"type":"Feature","properties":{"code":"640402","name":"บ้านกร่าง","parentCode":"6404"},"geometry":{"type":"Polygon","coordinates":[[[99.98488045200008,16.957769502000076],[99.92828817800006,16.93942970300003],[99.97671403300006,16.925028631000032],[99.98488045200008,16.957769502000076]]]}},{"type":"Feature","properties":{"code":"640107","name":"บ้านหลุม","parentCode":"6401"},"geometry":{"type":"Polygon","coordinates":[[[99.83915366000008,17.023163373000045],[99.83310608700003,17.014259073000062],[99.83179201300004,16.999347373000035],[99.87122246600006,16.935485034000067],[99.88441200800008,16.93593994400004],[99.88917906700004,16.93676473000005],[99.92159045100004,17.005837076000034],[99.83915366000008,17.023163373000045]]]}},{"type":"Feature","properties":{"code":"640901","name":"บ้านใหม่ไชยมงคล","parentCode":"6409"},"geometry":{"type":"Polygon","coordinates":[[[99.72500986000006,17.376755890000027],[99.70165005800004,17.377041157000065],[99.67054291600004,17.36198607600005],[99.66922920600007,17.307790182000076],[99.62796236900004,17.300666152000076],[99.61308444700006,17.293782023000063],[99.66656323700005,17.244889990000047],[99.69309800500008,17.297863719000077],[99.71018421300005,17.34267741900004],[99.72500986000006,17.376755890000027]]]}},{"type":"Feature","properties":{"code":"640411","name":"บ้านใหม่สุขเกษม","parentCode":"6404"},"geometry":{"type":"Polygon","coordinates":[[[100.10413684900004,16.967798677000076],[100.09453186200005,16.985799838000048],[100.04032797700006,16.96858495500004],[100.07520168100007,16.921668860000068],[100.10691592000006,16.929377411000075],[100.10413684900004,16.967798677000076]]]}},{"type":"Feature","properties":{"code":"640604","name":"บ้านนา","parentCode":"6406"},"geometry":{"type":"Polygon","coordinates":[[[99.84579071500008,17.166573344000028],[99.79884985500007,17.17314188100005],[99.79375077600008,17.165020638000044],[99.79311674100006,17.162639349000074],[99.83318732800007,17.161046645000056],[99.84579071500008,17.166573344000028]]]}},{"type":"Feature","properties":{"code":"640309","name":"บ้านน้ำพุ","parentCode":"6403"},"geometry":{"type":"Polygon","coordinates":[[[99.65951228800009,16.74030579600003],[99.67306902700005,16.856094899000027],[99.63136716900004,16.87711106000006],[99.60484578100005,16.784980054000073],[99.65951228800009,16.74030579600003]]]}},{"type":"Feature","properties":{"code":"640303","name":"บ้านป้อม","parentCode":"6403"},"geometry":{"type":"Polygon","coordinates":[[[99.80256391200004,16.95699965500006],[99.74000811800005,16.960461060000057],[99.76204613700008,16.89874561000005],[99.80299080800006,16.89414836800006],[99.80957323100006,16.94492233400007],[99.80256391200004,16.95699965500006]]]}},{"type":"Feature","properties":{"code":"640609","name":"บ้านไร่","parentCode":"6406"},"geometry":{"type":"Polygon","coordinates":[[[99.74905300900008,17.201527931000044],[99.73118021000005,17.198697535000065],[99.76493511000007,17.14143372500007],[99.79650994600007,17.126576616000023],[99.79311674100006,17.162639349000074],[99.79375077600008,17.165020638000044],[99.74905300900008,17.201527931000044]]]}},{"type":"Feature","properties":{"code":"640611","name":"บ้านซ่าน","parentCode":"6406"},"geometry":{"type":"Polygon","coordinates":[[[99.80045026400006,17.20876548500007],[99.74405875000008,17.21297941100005],[99.74905300900008,17.201527931000044],[99.79375077600008,17.165020638000044],[99.79884985500007,17.17314188100005],[99.80045026400006,17.20876548500007]]]}},{"type":"Feature","properties":{"code":"640102","name":"บ้านสวน","parentCode":"6401"},"geometry":{"type":"Polygon","coordinates":[[[99.96611237800005,17.072688226000025],[99.90645440800006,17.090221416000077],[99.89370333700003,17.05785459300006],[99.84186310500007,17.030977843000073],[99.83915366000008,17.023163373000045],[99.92159045100004,17.005837076000034],[99.94697931200005,17.001388079000037],[99.96611237800005,17.072688226000025]]]}},{"type":"Feature","properties":{"code":"640505","name":"บ้านตึก","parentCode":"6405"},"geometry":{"type":"Polygon","coordinates":[[[99.97722823800007,17.65699820100002],[99.96326640500007,17.711380365000025],[99.92637173700007,17.74303292600007],[99.82658435900004,17.714633544000037],[99.79554501600006,17.65246687700005],[99.76468029300008,17.587128138000026],[99.78138519800007,17.576793357000042],[99.85348183400004,17.548671968000065],[99.89176996700007,17.594436374000054],[99.96061891600004,17.610387041000024],[99.97690698700006,17.622210059000054],[99.97722823800007,17.65699820100002]]]}},{"type":"Feature","properties":{"code":"640406","name":"ดงเดือย","parentCode":"6404"},"geometry":{"type":"Polygon","coordinates":[[[100.02228057100007,16.94712280600004],[99.98603711900006,16.962194853000028],[99.98488045200008,16.957769502000076],[99.97671403300006,16.925028631000032],[100.01062397600003,16.888826378000033],[100.04813560600007,16.89221334100006],[100.02228057100007,16.94712280600004]]]}},{"type":"Feature","properties":{"code":"640509","name":"ดงคู่","parentCode":"6405"},"geometry":{"type":"Polygon","coordinates":[[[99.92733977000006,17.564067718000047],[99.96061891600004,17.610387041000024],[99.89176996700007,17.594436374000054],[99.85348183400004,17.548671968000065],[99.86361311800005,17.49437277800007],[99.90890941600009,17.49782950200006],[99.92835011000005,17.521415250000075],[99.94231236600007,17.53633609800005],[99.92733977000006,17.564067718000047]]]}},{"type":"Feature","properties":{"code":"640501","name":"หาดเสี้ยว","parentCode":"6405"},"geometry":{"type":"Polygon","coordinates":[[[99.72414353200008,17.55352782600005],[99.69973353300009,17.55521501900006],[99.71850962500008,17.522938709000073],[99.81988848800006,17.479746172000034],[99.83130292000004,17.492066779000027],[99.79303371200007,17.532985719000067],[99.72414353200008,17.55352782600005]]]}},{"type":"Feature","properties":{"code":"640905","name":"เขาแก้วศรีสมบูรณ์","parentCode":"6409"},"geometry":{"type":"Polygon","coordinates":[[[99.67054291600004,17.36198607600005],[99.63427842500005,17.36567491900007],[99.62796236900004,17.300666152000076],[99.66922920600007,17.307790182000076],[99.67054291600004,17.36198607600005]]]}},{"type":"Feature","properties":{"code":"640703","name":"คลองกระจง","parentCode":"6407"},"geometry":{"type":"Polygon","coordinates":[[[99.86840056800008,17.252954857000077],[99.80666994100005,17.256833666000034],[99.82392811700004,17.224491659000023],[99.85160875000008,17.225188940000066],[99.87448853900008,17.239546794000034],[99.86840056800008,17.252954857000077]]]}},{"type":"Feature","properties":{"code":"640804","name":"คลองมะพลับ","parentCode":"6408"},"geometry":{"type":"Polygon","coordinates":[[[100.01578771800007,17.32988924800003],[100.00468655600008,17.348454442000047],[99.95504979800006,17.34096099800007],[99.91088544000007,17.313640591000024],[99.91075880300008,17.310210183000038],[99.99331919500008,17.312928605000025],[100.01578771800007,17.32988924800003]]]}},{"type":"Feature","properties":{"code":"640601","name":"คลองตาล","parentCode":"6406"},"geometry":{"type":"Polygon","coordinates":[[[99.88012794000008,17.16850523000005],[99.86188804400007,17.17563664200003],[99.84579071500008,17.166573344000028],[99.83318732800007,17.161046645000056],[99.84009993100005,17.153427615000055],[99.85480725800005,17.146562731000074],[99.88012794000008,17.16850523000005]]]}},{"type":"Feature","properties":{"code":"640708","name":"คลองยาง","parentCode":"6407"},"geometry":{"type":"Polygon","coordinates":[[[99.93865784700006,17.440604301000064],[99.92202914300003,17.490060409000023],[99.88361824000003,17.468415125000035],[99.88211132100008,17.389247521000073],[99.88620566300006,17.37972214900003],[99.91088544000007,17.313640591000024],[99.95504979800006,17.34096099800007],[99.96417169400007,17.39585665800007],[99.93865784700006,17.440604301000064]]]}},{"type":"Feature","properties":{"code":"640904","name":"กลางดง","parentCode":"6409"},"geometry":{"type":"Polygon","coordinates":[[[99.54889493300004,17.45097357000003],[99.52673086700008,17.50850141600006],[99.46936126400004,17.511348965000025],[99.41888945600004,17.488583994000066],[99.44070385000003,17.433752076000076],[99.43083422000007,17.390628571000036],[99.46848663800006,17.369015111000067],[99.47723180100007,17.326100818000043],[99.45536991000006,17.25454157400003],[99.45912170500009,17.242258308000032],[99.53548037300004,17.26326321700003],[99.55751620700005,17.37868062600006],[99.54889493300004,17.45097357000003]]]}},{"type":"Feature","properties":{"code":"640607","name":"เกาะตาเลี้ยง","parentCode":"6406"},"geometry":{"type":"Polygon","coordinates":[[[99.85480725800005,17.146562731000074],[99.84009993100005,17.153427615000055],[99.84291211600004,17.13688035200005],[99.83706987400006,17.106044191000024],[99.86835879400007,17.079389853000066],[99.90645440800006,17.090221416000077],[99.96611237800005,17.072688226000025],[99.98345560900003,17.082716039000047],[99.98351908500007,17.096383496000044],[99.95888246300007,17.12107700100006],[99.88381980700007,17.124748589000035],[99.85480725800005,17.146562731000074]]]}},{"type":"Feature","properties":{"code":"640408","name":"กกแรต","parentCode":"6404"},"geometry":{"type":"Polygon","coordinates":[[[100.07794970300006,17.00222244300005],[100.01077966000008,17.040811519000044],[100.01113676200004,16.99995605500004],[100.04032797700006,16.96858495500004],[100.09453186200005,16.985799838000048],[100.08678554600004,16.991544447000024],[100.07794970300006,17.00222244300005]]]}},{"type":"Feature","properties":{"code":"640401","name":"กง","parentCode":"6404"},"geometry":{"type":"Polygon","coordinates":[[[99.92828817800006,16.93942970300003],[99.90686256100008,16.932053470000028],[99.91369159600004,16.90944331000003],[99.95927433100007,16.864597119000052],[100.00684162500005,16.869177406000063],[100.01062397600003,16.888826378000033],[99.97671403300006,16.925028631000032],[99.92828817800006,16.93942970300003]]]}},{"type":"Feature","properties":{"code":"640404","name":"ไกรกลาง","parentCode":"6404"},"geometry":{"type":"Polygon","coordinates":[[[100.01077966000008,17.040811519000044],[100.00553908900008,17.057568593000042],[99.97665929000004,16.97642376500005],[99.98603711900006,16.962194853000028],[100.02228057100007,16.94712280600004],[100.01113676200004,16.99995605500004],[100.01077966000008,17.040811519000044]]]}},{"type":"Feature","properties":{"code":"640405","name":"ไกรใน","parentCode":"6404"},"geometry":{"type":"Polygon","coordinates":[[[100.01392260600005,17.07063722600003],[99.98345560900003,17.082716039000047],[99.96611237800005,17.072688226000025],[99.94697931200005,17.001388079000037],[99.97665929000004,16.97642376500005],[100.00553908900008,17.057568593000042],[100.01392260600005,17.07063722600003]]]}},{"type":"Feature","properties":{"code":"640403","name":"ไกรนอก","parentCode":"6404"},"geometry":{"type":"Polygon","coordinates":[[[100.04032797700006,16.96858495500004],[100.01113676200004,16.99995605500004],[100.02228057100007,16.94712280600004],[100.04813560600007,16.89221334100006],[100.11079455000004,16.914859313000022],[100.10691592000006,16.929377411000075],[100.07520168100007,16.921668860000068],[100.04032797700006,16.96858495500004]]]}},{"type":"Feature","properties":{"code":"640201","name":"ลานหอย","parentCode":"6402"},"geometry":{"type":"Polygon","coordinates":[[[99.61914444200005,16.91841676300004],[99.59218175500007,16.993796743000075],[99.55828155100005,17.01500831000004],[99.55168658400004,17.003013192000026],[99.54906140500003,16.863694165000027],[99.57075066300007,16.859535605000076],[99.60484578100005,16.784980054000073],[99.63136716900004,16.87711106000006],[99.63137032700007,16.88259824000005],[99.61914444200005,16.91841676300004]]]}},{"type":"Feature","properties":{"code":"640503","name":"แม่สำ","parentCode":"6405"},"geometry":{"type":"Polygon","coordinates":[[[99.79554501600006,17.65246687700005],[99.70982074700004,17.657797294000034],[99.63704254400005,17.638765484000032],[99.59513831900006,17.65695119000003],[99.47635387500009,17.677101537000055],[99.44753976300007,17.64463068400005],[99.45433214400003,17.598105516000032],[99.49597988100004,17.627718168000058],[99.58033654000008,17.58872449100005],[99.62599822000004,17.59112691000007],[99.62594504600008,17.546697546000075],[99.69973353300009,17.55521501900006],[99.72414353200008,17.55352782600005],[99.78138519800007,17.576793357000042],[99.76468029300008,17.587128138000026],[99.79554501600006,17.65246687700005]]]}},{"type":"Feature","properties":{"code":"640504","name":"แม่สิน","parentCode":"6405"},"geometry":{"type":"Polygon","coordinates":[[[99.62239020600003,17.813050788000055],[99.52955974000008,17.800570253000046],[99.49743184100004,17.771989141000063],[99.47105082100006,17.73786806100003],[99.47635387500009,17.677101537000055],[99.59513831900006,17.65695119000003],[99.63704254400005,17.638765484000032],[99.70982074700004,17.657797294000034],[99.79554501600006,17.65246687700005],[99.82658435900004,17.714633544000037],[99.92637173700007,17.74303292600007],[99.89449126700003,17.807192434000058],[99.80354330500006,17.800368411000022],[99.72629227100003,17.72151345800006],[99.68633512400004,17.777274602000034],[99.62239020600003,17.813050788000055]]]}},{"type":"Feature","properties":{"code":"640713","name":"เมืองบางขลัง","parentCode":"6407"},"geometry":{"type":"Polygon","coordinates":[[[99.70993956000007,17.281749664000074],[99.69309800500008,17.297863719000077],[99.66656323700005,17.244889990000047],[99.66921030300006,17.22051432300003],[99.73118021000005,17.198697535000065],[99.74905300900008,17.201527931000044],[99.74405875000008,17.21297941100005],[99.70993956000007,17.281749664000074]]]}},{"type":"Feature","properties":{"code":"640709","name":"เมืองบางยม","parentCode":"6407"},"geometry":{"type":"Polygon","coordinates":[[[99.89203607000007,17.20453175700004],[99.87448853900008,17.239546794000034],[99.85160875000008,17.225188940000066],[99.86095676800005,17.199232063000068],[99.89203607000007,17.20453175700004]]]}},{"type":"Feature","properties":{"code":"640103","name":"เมืองเก่า","parentCode":"6401"},"geometry":{"type":"Polygon","coordinates":[[[99.74062319900008,17.071921902000042],[99.64354415100007,17.069321612000067],[99.61861247100006,17.01369440800005],[99.61908543500004,16.963247461000037],[99.74000811800005,16.960461060000057],[99.74062319900008,17.071921902000042]]]}},{"type":"Feature","properties":{"code":"640701","name":"เมืองสวรรคโลก","parentCode":"6407"},"geometry":{"type":"Polygon","coordinates":[[[99.83057848600004,17.301618373000053],[99.83452465900007,17.33344217800004],[99.82677816200004,17.321738866000032],[99.83057848600004,17.301618373000053]]]}},{"type":"Feature","properties":{"code":"640307","name":"นาเชิงคีรี","parentCode":"6403"},"geometry":{"type":"Polygon","coordinates":[[[99.74000811800005,16.960461060000057],[99.61908543500004,16.963247461000037],[99.61914444200005,16.91841676300004],[99.63137032700007,16.88259824000005],[99.65126139400007,16.89402227000005],[99.75361468800008,16.888168284000074],[99.76204613700008,16.89874561000005],[99.74000811800005,16.960461060000057]]]}},{"type":"Feature","properties":{"code":"640606","name":"นาขุนไกร","parentCode":"6406"},"geometry":{"type":"Polygon","coordinates":[[[99.57410622300006,17.262994787000025],[99.53548037300004,17.26326321700003],[99.45912170500009,17.242258308000032],[99.51239572500003,17.199100059000045],[99.59634151600005,17.12570026900005],[99.63104180600004,17.125473788000022],[99.69720158100006,17.140443190000042],[99.68842287000007,17.171767524000074],[99.62374051700004,17.188959622000027],[99.67467934500007,17.200152933000027],[99.57410622300006,17.262994787000025]]]}},{"type":"Feature","properties":{"code":"640707","name":"นาทุ่ง","parentCode":"6407"},"geometry":{"type":"Polygon","coordinates":[[[99.79006335300005,17.330862742000022],[99.71018421300005,17.34267741900004],[99.69309800500008,17.297863719000077],[99.70993956000007,17.281749664000074],[99.78539467700006,17.282435057000043],[99.79006335300005,17.330862742000022]]]}},{"type":"Feature","properties":{"code":"640702","name":"ในเมือง","parentCode":"6407"},"geometry":{"type":"Polygon","coordinates":[[[99.91088544000007,17.313640591000024],[99.88620566300006,17.37972214900003],[99.82856952000009,17.344586200000037],[99.83452465900007,17.33344217800004],[99.83057848600004,17.301618373000053],[99.83086931600008,17.297077743000045],[99.92400164400004,17.281433349000054],[99.91075880300008,17.310210183000038],[99.91088544000007,17.313640591000024]]]}},{"type":"Feature","properties":{"code":"640802","name":"นครเดิฐ","parentCode":"6408"},"geometry":{"type":"Polygon","coordinates":[[[100.00275295800009,17.457990754000036],[99.92835011000005,17.521415250000075],[99.90890941600009,17.49782950200006],[99.92202914300003,17.490060409000023],[99.93865784700006,17.440604301000064],[99.97426380600007,17.426302287000055],[100.00275295800009,17.457990754000036]]]}},{"type":"Feature","properties":{"code":"640803","name":"น้ำขุม","parentCode":"6408"},"geometry":{"type":"Polygon","coordinates":[[[100.02000562500007,17.458565985000064],[100.00275295800009,17.457990754000036],[99.97426380600007,17.426302287000055],[99.93865784700006,17.440604301000064],[99.96417169400007,17.39585665800007],[99.99117285700004,17.400949465000053],[100.01713514200009,17.418423270000062],[100.02101240200005,17.42421277400007],[100.02000562500007,17.458565985000064]]]}},{"type":"Feature","properties":{"code":"640805","name":"หนองบัว","parentCode":"6408"},"geometry":{"type":"Polygon","coordinates":[[[99.96526637100004,17.264649844000076],[99.99331919500008,17.312928605000025],[99.91075880300008,17.310210183000038],[99.92400164400004,17.281433349000054],[99.94004962400004,17.264985134000028],[99.96291372100006,17.252177592000066],[99.96526637100004,17.264649844000076]]]}},{"type":"Feature","properties":{"code":"640306","name":"หนองจิก","parentCode":"6403"},"geometry":{"type":"Polygon","coordinates":[[[99.81484823200003,16.759478297000044],[99.75477343900008,16.806875410000032],[99.67485132300004,16.727990159000058],[99.74491369400005,16.74409805600004],[99.75960339100004,16.68491122300003],[99.80644456500005,16.707437665000043],[99.81556080800004,16.72091779400006],[99.81484823200003,16.759478297000044]]]}},{"type":"Feature","properties":{"code":"640714","name":"หนองกลับ","parentCode":"6407"},"geometry":{"type":"Polygon","coordinates":[[[99.78539467700006,17.282435057000043],[99.70993956000007,17.281749664000074],[99.74405875000008,17.21297941100005],[99.80045026400006,17.20876548500007],[99.82392811700004,17.224491659000023],[99.80666994100005,17.256833666000034],[99.78959350200006,17.28073757100003],[99.78539467700006,17.282435057000043]]]}},{"type":"Feature","properties":{"code":"640308","name":"หนองกระดิ่ง","parentCode":"6403"},"geometry":{"type":"Polygon","coordinates":[[[99.88411853200006,16.824627202000045],[99.81295435000004,16.814071202000036],[99.82654830000007,16.804171362000034],[99.87712852200008,16.766959117000056],[99.88953204700005,16.797662067000033],[99.88411853200006,16.824627202000045]]]}},{"type":"Feature","properties":{"code":"640506","name":"หนองอ้อ","parentCode":"6405"},"geometry":{"type":"Polygon","coordinates":[[[99.71850962500008,17.522938709000073],[99.67016097800007,17.50233455600005],[99.72212133400006,17.471199553000076],[99.76466980500004,17.432276982000076],[99.78727699500007,17.43804753300003],[99.81988848800006,17.479746172000034],[99.71850962500008,17.522938709000073]]]}},{"type":"Feature","properties":{"code":"640410","name":"หนองตูม","parentCode":"6404"},"geometry":{"type":"Polygon","coordinates":[[[99.95927433100007,16.864597119000052],[99.91369159600004,16.90944331000003],[99.90257890900006,16.801455800000042],[99.91123501700008,16.805814208000072],[99.95927433100007,16.864597119000052]]]}},{"type":"Feature","properties":{"code":"640206","name":"หนองหญ้าปล้อง","parentCode":"6402"},"geometry":{"type":"Polygon","coordinates":[[[99.55828155100005,17.01500831000004],[99.53404641300006,17.027451468000038],[99.46388539500003,17.00711248400006],[99.41827734700007,17.016577211000026],[99.43548772200006,16.977848683000047],[99.43838012100008,16.94860920600007],[99.49505511200005,16.996275883000067],[99.55168658400004,17.003013192000026],[99.55828155100005,17.01500831000004]]]}},{"type":"Feature","properties":{"code":"640407","name":"ป่าแฝก","parentCode":"6404"},"geometry":{"type":"Polygon","coordinates":[[[99.94697931200005,17.001388079000037],[99.92159045100004,17.005837076000034],[99.88917906700004,16.93676473000005],[99.90686256100008,16.932053470000028],[99.92828817800006,16.93942970300003],[99.98488045200008,16.957769502000076],[99.98603711900006,16.962194853000028],[99.97665929000004,16.97642376500005],[99.94697931200005,17.001388079000037]]]}},{"type":"Feature","properties":{"code":"640712","name":"ป่ากุมเกาะ","parentCode":"6407"},"geometry":{"type":"Polygon","coordinates":[[[99.88211132100008,17.389247521000073],[99.79450508100007,17.38587400700004],[99.73176429300008,17.372070025000028],[99.72500986000006,17.376755890000027],[99.71018421300005,17.34267741900004],[99.79006335300005,17.330862742000022],[99.82856952000009,17.344586200000037],[99.88620566300006,17.37972214900003],[99.88211132100008,17.389247521000073]]]}},{"type":"Feature","properties":{"code":"640502","name":"ป่างิ้ว","parentCode":"6405"},"geometry":{"type":"Polygon","coordinates":[[[99.85348183400004,17.548671968000065],[99.78138519800007,17.576793357000042],[99.72414353200008,17.55352782600005],[99.79303371200007,17.532985719000067],[99.83130292000004,17.492066779000027],[99.86361311800005,17.49437277800007],[99.85348183400004,17.548671968000065]]]}},{"type":"Feature","properties":{"code":"640104","name":"ปากแคว","parentCode":"6401"},"geometry":{"type":"Polygon","coordinates":[[[99.81703762000006,17.070749344000035],[99.81188716900004,17.011588286000062],[99.83310608700003,17.014259073000062],[99.83915366000008,17.023163373000045],[99.84186310500007,17.030977843000073],[99.84002252200008,17.06164584800007],[99.81703762000006,17.070749344000035]]]}},{"type":"Feature","properties":{"code":"640711","name":"ปากน้ำ","parentCode":"6407"},"geometry":{"type":"Polygon","coordinates":[[[99.94004962400004,17.264985134000028],[99.86840056800008,17.252954857000077],[99.87448853900008,17.239546794000034],[99.89203607000007,17.20453175700004],[99.95504577100007,17.171112467000057],[99.97287549400005,17.165173147000075],[99.97469913800006,17.208734595000067],[99.96291372100006,17.252177592000066],[99.94004962400004,17.264985134000028]]]}},{"type":"Feature","properties":{"code":"640109","name":"ปากพระ","parentCode":"6401"},"geometry":{"type":"Polygon","coordinates":[[[99.87122246600006,16.935485034000067],[99.80957323100006,16.94492233400007],[99.80299080800006,16.89414836800006],[99.84319914700006,16.87856596000006],[99.88441200800008,16.93593994400004],[99.87122246600006,16.935485034000067]]]}},{"type":"Feature","properties":{"code":"640613","name":"ราวต้นจันทร์","parentCode":"6406"},"geometry":{"type":"Polygon","coordinates":[[[99.66656323700005,17.244889990000047],[99.61308444700006,17.293782023000063],[99.59541239800006,17.283910922000075],[99.57410622300006,17.262994787000025],[99.67467934500007,17.200152933000027],[99.62374051700004,17.188959622000027],[99.68842287000007,17.171767524000074],[99.69720158100006,17.140443190000042],[99.74194487400007,17.123726332000047],[99.76493511000007,17.14143372500007],[99.73118021000005,17.198697535000065],[99.66921030300006,17.22051432300003],[99.66656323700005,17.244889990000047]]]}},{"type":"Feature","properties":{"code":"640304","name":"สามพวง","parentCode":"6403"},"geometry":{"type":"Polygon","coordinates":[[[99.81295435000004,16.814071202000036],[99.75609905800007,16.810723599000028],[99.75477343900008,16.806875410000032],[99.81484823200003,16.759478297000044],[99.82654830000007,16.804171362000034],[99.81295435000004,16.814071202000036]]]}},{"type":"Feature","properties":{"code":"640603","name":"สามเรือน","parentCode":"6406"},"geometry":{"type":"Polygon","coordinates":[[[99.95504577100007,17.171112467000057],[99.89203607000007,17.20453175700004],[99.86095676800005,17.199232063000068],[99.85378663100005,17.20165318000005],[99.86188804400007,17.17563664200003],[99.88012794000008,17.16850523000005],[99.95132639000008,17.166957662000073],[99.95504577100007,17.171112467000057]]]}},{"type":"Feature","properties":{"code":"640511","name":"สารจิตร","parentCode":"6405"},"geometry":{"type":"Polygon","coordinates":[[[99.76466980500004,17.432276982000076],[99.72212133400006,17.471199553000076],[99.69027388300003,17.43085099700005],[99.70165005800004,17.377041157000065],[99.72500986000006,17.376755890000027],[99.73176429300008,17.372070025000028],[99.76466980500004,17.432276982000076]]]}},{"type":"Feature","properties":{"code":"640305","name":"ศรีคีรีมาศ","parentCode":"6403"},"geometry":{"type":"Polygon","coordinates":[[[99.75361468800008,16.888168284000074],[99.65126139400007,16.89402227000005],[99.63137032700007,16.88259824000005],[99.63136716900004,16.87711106000006],[99.67306902700005,16.856094899000027],[99.65951228800009,16.74030579600003],[99.67485132300004,16.727990159000058],[99.75477343900008,16.806875410000032],[99.75609905800007,16.810723599000028],[99.77757457800004,16.860214864000056],[99.75361468800008,16.888168284000074]]]}},{"type":"Feature","properties":{"code":"640801","name":"ศรีนคร","parentCode":"6408"},"geometry":{"type":"Polygon","coordinates":[[[99.99117285700004,17.400949465000053],[99.96417169400007,17.39585665800007],[99.95504979800006,17.34096099800007],[100.00468655600008,17.348454442000047],[99.99117285700004,17.400949465000053]]]}},{"type":"Feature","properties":{"code":"640508","name":"ศรีสัชนาลัย","parentCode":"6405"},"geometry":{"type":"Polygon","coordinates":[[[99.78727699500007,17.43804753300003],[99.76466980500004,17.432276982000076],[99.73176429300008,17.372070025000028],[99.79450508100007,17.38587400700004],[99.78727699500007,17.43804753300003]]]}},{"type":"Feature","properties":{"code":"640205","name":"ตลิ่งชัน","parentCode":"6402"},"geometry":{"type":"Polygon","coordinates":[[[99.45536991000006,17.25454157400003],[99.43991809300007,17.229067275000034],[99.37391863400006,17.210581027000046],[99.35845424800004,17.249154947000022],[99.31522857500005,17.269839529000024],[99.31857129600007,17.213955713000075],[99.31434062200003,17.14568502900005],[99.33905258300007,17.093169199000045],[99.39327675000004,17.082776958000068],[99.43428872100009,17.062461996000025],[99.51377903000008,17.08967725800005],[99.52660781400004,17.11155445000003],[99.51239572500003,17.199100059000045],[99.45912170500009,17.242258308000032],[99.45536991000006,17.25454157400003]]]}},{"type":"Feature","properties":{"code":"640108","name":"ตาลเตี้ย","parentCode":"6401"},"geometry":{"type":"Polygon","coordinates":[[[99.90645440800006,17.090221416000077],[99.86835879400007,17.079389853000066],[99.84002252200008,17.06164584800007],[99.84186310500007,17.030977843000073],[99.89370333700003,17.05785459300006],[99.90645440800006,17.090221416000077]]]}},{"type":"Feature","properties":{"code":"640301","name":"โตนด","parentCode":"6403"},"geometry":{"type":"Polygon","coordinates":[[[99.88411853200006,16.824627202000045],[99.84196648000005,16.862131120000072],[99.77757457800004,16.860214864000056],[99.75609905800007,16.810723599000028],[99.81295435000004,16.814071202000036],[99.88411853200006,16.824627202000045]]]}},{"type":"Feature","properties":{"code":"640507","name":"ท่าชัย","parentCode":"6405"},"geometry":{"type":"Polygon","coordinates":[[[99.90890941600009,17.49782950200006],[99.86361311800005,17.49437277800007],[99.83130292000004,17.492066779000027],[99.81988848800006,17.479746172000034],[99.78727699500007,17.43804753300003],[99.79450508100007,17.38587400700004],[99.88211132100008,17.389247521000073],[99.88361824000003,17.468415125000035],[99.92202914300003,17.490060409000023],[99.90890941600009,17.49782950200006]]]}},{"type":"Feature","properties":{"code":"640409","name":"ท่าฉนวน","parentCode":"6404"},"geometry":{"type":"Polygon","coordinates":[[[99.90686256100008,16.932053470000028],[99.88917906700004,16.93676473000005],[99.88441200800008,16.93593994400004],[99.84319914700006,16.87856596000006],[99.84196648000005,16.862131120000072],[99.88411853200006,16.824627202000045],[99.88953204700005,16.797662067000033],[99.90257890900006,16.801455800000042],[99.91369159600004,16.90944331000003],[99.90686256100008,16.932053470000028]]]}},{"type":"Feature","properties":{"code":"640710","name":"ท่าทอง","parentCode":"6407"},"geometry":{"type":"Polygon","coordinates":[[[99.86095676800005,17.199232063000068],[99.85160875000008,17.225188940000066],[99.82392811700004,17.224491659000023],[99.80045026400006,17.20876548500007],[99.85378663100005,17.20165318000005],[99.86095676800005,17.199232063000068]]]}},{"type":"Feature","properties":{"code":"640902","name":"ไทยชนะศึก","parentCode":"6409"},"geometry":{"type":"Polygon","coordinates":[[[99.63427842500005,17.36567491900007],[99.55721294300008,17.46063976100004],[99.54889493300004,17.45097357000003],[99.55751620700005,17.37868062600006],[99.59541239800006,17.283910922000075],[99.61308444700006,17.293782023000063],[99.62796236900004,17.300666152000076],[99.63427842500005,17.36567491900007]]]}},{"type":"Feature","properties":{"code":"640101","name":"ธานี","parentCode":"6401"},"geometry":{"type":"Polygon","coordinates":[[[99.83310608700003,17.014259073000062],[99.81188716900004,17.011588286000062],[99.81713865400008,17.00441115900003],[99.83179201300004,16.999347373000035],[99.83310608700003,17.014259073000062]]]}},{"type":"Feature","properties":{"code":"640610","name":"ทับผึ้ง","parentCode":"6406"},"geometry":{"type":"Polygon","coordinates":[[[99.83706987400006,17.106044191000024],[99.80517222900005,17.083371663000037],[99.81703762000006,17.070749344000035],[99.84002252200008,17.06164584800007],[99.86835879400007,17.079389853000066],[99.83706987400006,17.106044191000024]]]}},{"type":"Feature","properties":{"code":"640302","name":"ทุ่งหลวง","parentCode":"6403"},"geometry":{"type":"Polygon","coordinates":[[[99.80299080800006,16.89414836800006],[99.76204613700008,16.89874561000005],[99.75361468800008,16.888168284000074],[99.77757457800004,16.860214864000056],[99.84196648000005,16.862131120000072],[99.84319914700006,16.87856596000006],[99.80299080800006,16.89414836800006]]]}},{"type":"Feature","properties":{"code":"640903","name":"ทุ่งเสลี่ยม","parentCode":"6409"},"geometry":{"type":"Polygon","coordinates":[[[99.59541239800006,17.283910922000075],[99.55751620700005,17.37868062600006],[99.53548037300004,17.26326321700003],[99.57410622300006,17.262994787000025],[99.59541239800006,17.283910922000075]]]}},{"type":"Feature","properties":{"code":"640310","name":"ทุ่งยางเมือง","parentCode":"6403"},"geometry":{"type":"Polygon","coordinates":[[[99.87712852200008,16.766959117000056],[99.82654830000007,16.804171362000034],[99.81484823200003,16.759478297000044],[99.81556080800004,16.72091779400006],[99.85341018000008,16.735271930000067],[99.87712852200008,16.766959117000056]]]}},{"type":"Feature","properties":{"code":"640207","name":"วังลึก","parentCode":"6402"},"geometry":{"type":"Polygon","coordinates":[[[99.51377903000008,17.08967725800005],[99.43428872100009,17.062461996000025],[99.39327675000004,17.082776958000068],[99.39486553500006,17.021714361000022],[99.41827734700007,17.016577211000026],[99.46388539500003,17.00711248400006],[99.53404641300006,17.027451468000038],[99.51224895100006,17.077740391000077],[99.51377903000008,17.08967725800005]]]}},{"type":"Feature","properties":{"code":"640602","name":"วังลึก","parentCode":"6406"},"geometry":{"type":"Polygon","coordinates":[[[99.95132639000008,17.166957662000073],[99.88012794000008,17.16850523000005],[99.85480725800005,17.146562731000074],[99.88381980700007,17.124748589000035],[99.95888246300007,17.12107700100006],[99.95132639000008,17.166957662000073]]]}},{"type":"Feature","properties":{"code":"640705","name":"วังไม้ขอน","parentCode":"6407"},"geometry":{"type":"Polygon","coordinates":[[[99.82677816200004,17.321738866000032],[99.79006335300005,17.330862742000022],[99.78539467700006,17.282435057000043],[99.78959350200006,17.28073757100003],[99.83086931600008,17.297077743000045],[99.83057848600004,17.301618373000053],[99.82677816200004,17.321738866000032]]]}},{"type":"Feature","properties":{"code":"640204","name":"วังน้ำขาว","parentCode":"6402"},"geometry":{"type":"Polygon","coordinates":[[[99.63104180600004,17.125473788000022],[99.59634151600005,17.12570026900005],[99.51239572500003,17.199100059000045],[99.52660781400004,17.11155445000003],[99.51377903000008,17.08967725800005],[99.51224895100006,17.077740391000077],[99.55613499000003,17.08910017200003],[99.58856663300008,17.061946513000066],[99.64354415100007,17.069321612000067],[99.63104180600004,17.125473788000022]]]}},{"type":"Feature","properties":{"code":"640704","name":"วังพิณพาทย์","parentCode":"6407"},"geometry":{"type":"Polygon","coordinates":[[[99.82856952000009,17.344586200000037],[99.79006335300005,17.330862742000022],[99.82677816200004,17.321738866000032],[99.83452465900007,17.33344217800004],[99.82856952000009,17.344586200000037]]]}},{"type":"Feature","properties":{"code":"640203","name":"วังตะคร้อ","parentCode":"6402"},"geometry":{"type":"Polygon","coordinates":[[[99.55168658400004,17.003013192000026],[99.49505511200005,16.996275883000067],[99.43838012100008,16.94860920600007],[99.45520097700006,16.912677831000053],[99.43262009200004,16.87586147600007],[99.45619805500007,16.87818573800007],[99.48874719000008,16.910435084000028],[99.53093557500006,16.825274327000045],[99.54906140500003,16.863694165000027],[99.55168658400004,17.003013192000026]]]}},{"type":"Feature","properties":{"code":"640605","name":"วังทอง","parentCode":"6406"},"geometry":{"type":"Polygon","coordinates":[[[99.83318732800007,17.161046645000056],[99.79311674100006,17.162639349000074],[99.79650994600007,17.126576616000023],[99.84291211600004,17.13688035200005],[99.84009993100005,17.153427615000055],[99.83318732800007,17.161046645000056]]]}},{"type":"Feature","properties":{"code":"640110","name":"วังทองแดง","parentCode":"6401"},"geometry":{"type":"Polygon","coordinates":[[[99.74194487400007,17.123726332000047],[99.69720158100006,17.140443190000042],[99.63104180600004,17.125473788000022],[99.64354415100007,17.069321612000067],[99.74062319900008,17.071921902000042],[99.74041430900007,17.109043874000065],[99.74194487400007,17.123726332000047]]]}},{"type":"Feature","properties":{"code":"640612","name":"วังใหญ่","parentCode":"6406"},"geometry":{"type":"Polygon","coordinates":[[[99.79650994600007,17.126576616000023],[99.76493511000007,17.14143372500007],[99.74194487400007,17.123726332000047],[99.74041430900007,17.109043874000065],[99.80517222900005,17.083371663000037],[99.83706987400006,17.106044191000024],[99.84291211600004,17.13688035200005],[99.79650994600007,17.126576616000023]]]}},{"type":"Feature","properties":{"code":"640608","name":"วัดเกาะ","parentCode":"6406"},"geometry":{"type":"Polygon","coordinates":[[[99.85378663100005,17.20165318000005],[99.80045026400006,17.20876548500007],[99.79884985500007,17.17314188100005],[99.84579071500008,17.166573344000028],[99.86188804400007,17.17563664200003],[99.85378663100005,17.20165318000005]]]}},{"type":"Feature","properties":{"code":"640706","name":"ย่านยาว","parentCode":"6407"},"geometry":{"type":"Polygon","coordinates":[[[99.92400164400004,17.281433349000054],[99.83086931600008,17.297077743000045],[99.78959350200006,17.28073757100003],[99.80666994100005,17.256833666000034],[99.86840056800008,17.252954857000077],[99.94004962400004,17.264985134000028],[99.92400164400004,17.281433349000054]]]}},{"type":"Feature","properties":{"code":"640105","name":"ยางซ้าย","parentCode":"6401"},"geometry":{"type":"Polygon","coordinates":[[[99.83179201300004,16.999347373000035],[99.81713865400008,17.00441115900003],[99.80256391200004,16.95699965500006],[99.80957323100006,16.94492233400007],[99.87122246600006,16.935485034000067],[99.83179201300004,16.999347373000035]]]}}]}