{"type":"FeatureCollection","features":[{"type":"Feature","properties":{"code":"650117","name":"อรัญญิก","parentCode":"6501"},"geometry":{"type":"Polygon","coordinates":[[[100.29453039000003,16.841839110000024],[100.26620494400004,16.83854662400006],[100.29769835800005,16.816039381000053],[100.26526618200006,16.79652451900006],[100.30270064000007,16.75736986900006],[100.30330371000008,16.789012754000055],[100.29453039000003,16.841839110000024]]]}},{"type":"Feature","properties":{"code":"650304","name":"บ้านดง","parentCode":"6503"},"geometry":{"type":"Polygon","coordinates":[[[100.64413885000005,17.473796754000034],[100.58490059200005,17.418943085000024],[100.50150787300004,17.428837475000023],[100.37164844600005,17.39110456900005],[100.40575338200006,17.32617659700003],[100.44437952900006,17.30985465300006],[100.47448099700006,17.263129038000045],[100.53515255200006,17.245314114000053],[100.49980796100004,17.292804163000028],[100.58948663400008,17.324828077000063],[100.64355571200008,17.40955565300004],[100.66420322300007,17.44166162500005],[100.64413885000005,17.473796754000034]]]}},{"type":"Feature","properties":{"code":"650114","name":"บ้านคลอง","parentCode":"6501"},"geometry":{"type":"Polygon","coordinates":[[[100.26079705700005,16.838429732000066],[100.25347379200008,16.848121040000024],[100.21570463700004,16.824114161000068],[100.23920341600007,16.816854319000072],[100.26079705700005,16.838429732000066]]]}},{"type":"Feature","properties":{"code":"650804","name":"บ้านกลาง","parentCode":"6508"},"geometry":{"type":"Polygon","coordinates":[[[100.64738518200005,16.996764034000023],[100.59640942900006,17.059785866000027],[100.61068397000008,17.148522270000058],[100.59538732100003,17.12352087000005],[100.52627748200007,17.100261169000078],[100.47738435700006,17.092153066000037],[100.45286919400007,17.050462245000062],[100.48592578600005,16.97700386400004],[100.48502513700004,16.900697774000037],[100.57294631700006,16.914347184000064],[100.65803133600008,16.977993678000075],[100.64738518200005,16.996764034000023]]]}},{"type":"Feature","properties":{"code":"650113","name":"บ้านกร่าง","parentCode":"6501"},"geometry":{"type":"Polygon","coordinates":[[[100.21894935800003,16.86383103000003],[100.19414600900006,16.899833424000064],[100.13562158100007,16.881749309000043],[100.13085690900004,16.86240981700007],[100.16551713500007,16.815982888000065],[100.20147384800003,16.81942207800006],[100.20254556500004,16.82665305200004],[100.21894935800003,16.86383103000003]]]}},{"type":"Feature","properties":{"code":"650902","name":"บ้านมุง","parentCode":"6509"},"geometry":{"type":"Polygon","coordinates":[[[100.84734297000006,16.58017497700007],[100.78704218300004,16.58356739000004],[100.74816385800005,16.627074365000055],[100.71237109700007,16.610098836000077],[100.67189519900006,16.58728275900006],[100.67288793700004,16.517178389000037],[100.63962916400004,16.517607269000052],[100.65955954700007,16.485010566000028],[100.70028465400009,16.483141793000073],[100.76160953400006,16.49804007700004],[100.79364184300005,16.472857426000076],[100.83379696300005,16.504028556000037],[100.85833115700007,16.546695512000042],[100.84734297000006,16.58017497700007]]]}},{"type":"Feature","properties":{"code":"650905","name":"บ้านน้อยซุ้มขี้เหล็ก","parentCode":"6509"},"geometry":{"type":"Polygon","coordinates":[[[100.63962916400004,16.517607269000052],[100.60200250200006,16.611483674000056],[100.57508382300006,16.58589813800006],[100.57754787700009,16.53348974000005],[100.57701317500005,16.524279297000078],[100.58568651200005,16.47076161800004],[100.65955954700007,16.485010566000028],[100.63962916400004,16.517607269000052]]]}},{"type":"Feature","properties":{"code":"650109","name":"บ้านป่า","parentCode":"6501"},"geometry":{"type":"Polygon","coordinates":[[[100.32447721000005,16.892301795000037],[100.38910906600006,16.931539073000067],[100.40671247400007,16.961814583000034],[100.35139913700004,16.95060242200003],[100.32915052800007,16.946391189000053],[100.29917478600004,16.92820970300005],[100.29677934100005,16.91543126700003],[100.32447721000005,16.892301795000037]]]}},{"type":"Feature","properties":{"code":"650210","name":"บ้านพร้าว","parentCode":"6502"},"geometry":{"type":"Polygon","coordinates":[[[100.81151518400009,17.185171938000053],[100.73365102100007,17.179884731000072],[100.69705936700007,17.202967994000062],[100.68076318800007,17.183356436000054],[100.73410303600008,17.097449277000067],[100.78920947300008,17.095840700000053],[100.82877315100006,17.14551706800006],[100.82687419000007,17.176839484000027],[100.81151518400009,17.185171938000053]]]}},{"type":"Feature","properties":{"code":"650502","name":"บ้านไร่","parentCode":"6505"},"geometry":{"type":"Polygon","coordinates":[[[100.24338712000008,16.635511778000023],[100.21652093700004,16.64843393900003],[100.23321460900007,16.59741581800006],[100.27597338300006,16.590967757000044],[100.28317798200004,16.642754246000038],[100.24338712000008,16.635511778000023]]]}},{"type":"Feature","properties":{"code":"650203","name":"บ้านแยง","parentCode":"6502"},"geometry":{"type":"Polygon","coordinates":[[[100.77461438600005,16.93654902800006],[100.71309662000004,17.004580970000063],[100.64738518200005,16.996764034000023],[100.65803133600008,16.977993678000075],[100.69811747000006,16.875496233000035],[100.79968020200005,16.876079193000066],[100.89620798900006,16.822489871000073],[100.88524582600007,16.868245556000034],[100.83527364000008,16.927823310000065],[100.77461438600005,16.93654902800006]]]}},{"type":"Feature","properties":{"code":"650704","name":"บ้านยาง","parentCode":"6507"},"geometry":{"type":"Polygon","coordinates":[[[100.47738435700006,17.092153066000037],[100.40779559100008,17.156115801000055],[100.38482919500007,17.156863086000044],[100.37067348200009,17.101115261000075],[100.33855187200004,17.10161803400007],[100.38951808300004,17.07622658200006],[100.36335363500007,16.993022274000054],[100.44168695900004,16.992548531000068],[100.44742565900003,16.97107959300007],[100.48592578600005,16.97700386400004],[100.45286919400007,17.050462245000062],[100.47738435700006,17.092153066000037]]]}},{"type":"Feature","properties":{"code":"650501","name":"บางกระทุ่ม","parentCode":"6505"},"geometry":{"type":"Polygon","coordinates":[[[100.29838396600007,16.636116129000072],[100.28317798200004,16.642754246000038],[100.27597338300006,16.590967757000044],[100.27496746200006,16.56538893100003],[100.30957407400007,16.553034596000032],[100.32724874500008,16.59585170500003],[100.30317286900004,16.623691895000036],[100.29838396600007,16.636116129000072]]]}},{"type":"Feature","properties":{"code":"650401","name":"บางระกำ","parentCode":"6504"},"geometry":{"type":"Polygon","coordinates":[[[100.16455028400009,16.767527503000053],[100.14003345700007,16.78477548500007],[100.07595879100006,16.755437748000077],[100.04823823500004,16.79664288400005],[100.03497977500007,16.755630799000073],[100.06874757100007,16.70646565100003],[100.13270252100006,16.71495197400003],[100.16280482600007,16.685414197000057],[100.19359906600005,16.71119230200003],[100.18547064200004,16.724519933000067],[100.16455028400009,16.767527503000053]]]}},{"type":"Feature","properties":{"code":"650305","name":"บ่อภาค","parentCode":"6503"},"geometry":{"type":"Polygon","coordinates":[[[100.96788010400007,17.571621966000066],[101.00919200300007,17.70023609900005],[100.98884959300005,17.743676454000024],[100.96569525200005,17.70182819100006],[100.87108999300006,17.70670139400005],[100.74041896000006,17.54284319800007],[100.64508423600006,17.494401995000032],[100.64413885000005,17.473796754000034],[100.66420322300007,17.44166162500005],[100.64355571200008,17.40955565300004],[100.68444511200005,17.370280277000063],[100.77824309500005,17.36970510900005],[100.80276406900003,17.351636340000027],[100.82007938400005,17.40890300800004],[100.79843508100004,17.424153439000065],[100.83478361100003,17.46848562200006],[100.87182919100007,17.529179433000024],[100.87928936200007,17.583796868000036],[100.96753068000004,17.571498383000062],[100.96788010400007,17.571621966000066]]]}},{"type":"Feature","properties":{"code":"650209","name":"บ่อโพธิ์","parentCode":"6502"},"geometry":{"type":"Polygon","coordinates":[[[101.08314309600007,17.279817594000065],[101.02374438400005,17.31133283300005],[100.97619406900009,17.188523704000033],[100.92408369800006,17.13926260200003],[100.99171740100007,17.091267111000036],[101.04620945700003,16.98659488100003],[101.05826103500004,17.028762648000054],[101.05120220500004,17.115306556000064],[101.07512771100005,17.169991048000043],[101.10798639800004,17.216353066000067],[101.08314309600007,17.279817594000065]]]}},{"type":"Feature","properties":{"code":"650409","name":"บ่อทอง","parentCode":"6504"},"geometry":{"type":"Polygon","coordinates":[[[100.14830500600004,16.659293432000027],[100.10997966500008,16.663624310000046],[100.08657362800005,16.59700571600007],[100.11865148800007,16.614071900000056],[100.17050382900004,16.590525128000024],[100.17929066700003,16.59913531500007],[100.18131710900008,16.638047026000038],[100.14830500600004,16.659293432000027]]]}},{"type":"Feature","properties":{"code":"650405","name":"บึงกอก","parentCode":"6504"},"geometry":{"type":"Polygon","coordinates":[[[100.03497977500007,16.755630799000073],[99.97337802100009,16.734740265000028],[99.95364578900006,16.703878710000026],[99.96129226700003,16.66715497000007],[100.02608089700004,16.651613110000028],[100.06874757100007,16.70646565100003],[100.03497977500007,16.755630799000073]]]}},{"type":"Feature","properties":{"code":"650118","name":"บึงพระ","parentCode":"6501"},"geometry":{"type":"Polygon","coordinates":[[[100.30270064000007,16.75736986900006],[100.26526618200006,16.79652451900006],[100.25455430100004,16.796846558000027],[100.25409852700005,16.774547231000042],[100.23606751300008,16.75924843000007],[100.26120327800004,16.722512127000073],[100.30448038800006,16.714143629000034],[100.30524718800007,16.742087639000033],[100.30270064000007,16.75736986900006]]]}},{"type":"Feature","properties":{"code":"650810","name":"ชัยนาม","parentCode":"6508"},"geometry":{"type":"Polygon","coordinates":[[[100.46894028900005,16.79194324200006],[100.50416408000007,16.83274939000006],[100.46230236400004,16.89118582900005],[100.42144095300006,16.865069263000066],[100.44323042700006,16.83333837500004],[100.46894028900005,16.79194324200006]]]}},{"type":"Feature","properties":{"code":"650302","name":"ชาติตระการ","parentCode":"6503"},"geometry":{"type":"Polygon","coordinates":[[[100.80276406900003,17.351636340000027],[100.77824309500005,17.36970510900005],[100.68444511200005,17.370280277000063],[100.64355571200008,17.40955565300004],[100.58948663400008,17.324828077000063],[100.63116322700006,17.267385356000034],[100.66157694600008,17.274981292000064],[100.75520929000004,17.245866456000044],[100.81814019700005,17.330063444000075],[100.80276406900003,17.351636340000027]]]}},{"type":"Feature","properties":{"code":"650112","name":"จอมทอง","parentCode":"6501"},"geometry":{"type":"Polygon","coordinates":[[[100.23212810900009,16.91315075800003],[100.19647147300009,16.922572994000063],[100.19414600900006,16.899833424000064],[100.21894935800003,16.86383103000003],[100.24152462600006,16.860797398000045],[100.24469371300006,16.86579030400003],[100.23212810900009,16.91315075800003]]]}},{"type":"Feature","properties":{"code":"650901","name":"ชมพู","parentCode":"6509"},"geometry":{"type":"Polygon","coordinates":[[[100.88622336200007,16.66649923400007],[100.87337564800004,16.711118189000047],[100.70925149100003,16.77068259600003],[100.66096212800005,16.768291224000052],[100.63233830900003,16.79573102200004],[100.61436271100007,16.755834185000026],[100.55720926500004,16.718658878000042],[100.57696921800004,16.655707878000044],[100.59500059500004,16.62677747400005],[100.66900350400005,16.650610279000034],[100.71237109700007,16.610098836000077],[100.74816385800005,16.627074365000055],[100.78704218300004,16.58356739000004],[100.84734297000006,16.58017497700007],[100.88622336200007,16.66649923400007]]]}},{"type":"Feature","properties":{"code":"650407","name":"ชุมแสงสงคราม","parentCode":"6504"},"geometry":{"type":"Polygon","coordinates":[[[100.11079455000004,16.914859313000022],[100.04813560600007,16.89221334100006],[100.01062397600003,16.888826378000033],[100.00684162500005,16.869177406000063],[100.04651175700008,16.834442657000068],[99.97444022800005,16.77684959000004],[99.92467419000008,16.76557865500007],[99.97337802100009,16.734740265000028],[100.03497977500007,16.755630799000073],[100.04823823500004,16.79664288400005],[100.08855101500006,16.816488599000024],[100.11034601900008,16.871772561000057],[100.13085690900004,16.86240981700007],[100.13562158100007,16.881749309000043],[100.12132669000005,16.907209253000076],[100.11079455000004,16.914859313000022]]]}},{"type":"Feature","properties":{"code":"650811","name":"ดินทอง","parentCode":"6508"},"geometry":{"type":"Polygon","coordinates":[[[100.46894028900005,16.79194324200006],[100.44323042700006,16.83333837500004],[100.41442662400004,16.774292653000032],[100.39661459100006,16.729809662000036],[100.40076696200003,16.72049243600003],[100.45375661000008,16.72386855800005],[100.47629965900006,16.75995196100007],[100.46894028900005,16.79194324200006]]]}},{"type":"Feature","properties":{"code":"650108","name":"ดอนทอง","parentCode":"6501"},"geometry":{"type":"Polygon","coordinates":[[[100.48592578600005,16.97700386400004],[100.44742565900003,16.97107959300007],[100.40671247400007,16.961814583000034],[100.38910906600006,16.931539073000067],[100.32447721000005,16.892301795000037],[100.29453039000003,16.841839110000024],[100.41744290500009,16.880514840000046],[100.42144095300006,16.865069263000066],[100.46230236400004,16.89118582900005],[100.48502513700004,16.900697774000037],[100.48592578600005,16.97700386400004]]]}},{"type":"Feature","properties":{"code":"650612","name":"ดงประคำ","parentCode":"6506"},"geometry":{"type":"Polygon","coordinates":[[[100.28246066200006,17.220608859000038],[100.16757914500005,17.201119232000053],[100.16186660000005,17.168700406000028],[100.16950824000008,17.16600102800004],[100.18814312500007,17.138052482000035],[100.22533339100005,17.12927817800005],[100.29226509600005,17.158234381000057],[100.28246066200006,17.220608859000038]]]}},{"type":"Feature","properties":{"code":"650705","name":"หินลาด","parentCode":"6507"},"geometry":{"type":"Polygon","coordinates":[[[100.38482919500007,17.156863086000044],[100.31622009000006,17.24370471700007],[100.28246066200006,17.220608859000038],[100.29226509600005,17.158234381000057],[100.30898539900005,17.11508025300003],[100.33855187200004,17.10161803400007],[100.37067348200009,17.101115261000075],[100.38482919500007,17.156863086000044]]]}},{"type":"Feature","properties":{"code":"650605","name":"หอกลอง","parentCode":"6506"},"geometry":{"type":"Polygon","coordinates":[[[100.28008526900004,17.01961220800007],[100.25859468400006,17.036665801000026],[100.20922990400004,17.01103293400007],[100.23172978900004,16.952509762000034],[100.28066422800003,16.933536120000042],[100.28008526900004,17.01961220800007]]]}},{"type":"Feature","properties":{"code":"650111","name":"หัวรอ","parentCode":"6501"},"geometry":{"type":"Polygon","coordinates":[[[100.32447721000005,16.892301795000037],[100.29677934100005,16.91543126700003],[100.27394986800005,16.90388244600007],[100.24469371300006,16.86579030400003],[100.24152462600006,16.860797398000045],[100.25347379200008,16.848121040000024],[100.26079705700005,16.838429732000066],[100.26620494400004,16.83854662400006],[100.29453039000003,16.841839110000024],[100.32447721000005,16.892301795000037]]]}},{"type":"Feature","properties":{"code":"650211","name":"ห้วยเฮี้ย","parentCode":"6502"},"geometry":{"type":"Polygon","coordinates":[[[101.07148949800006,16.924477397000032],[100.97138116400004,16.923393924000038],[100.91894517300005,16.970438840000043],[100.90568375000004,17.007608564000066],[100.88545018100007,16.958413845000052],[100.82121787400007,16.98104163900007],[100.77461438600005,16.93654902800006],[100.83527364000008,16.927823310000065],[100.88524582600007,16.868245556000034],[100.89620798900006,16.822489871000073],[100.90300956800007,16.80177326000006],[100.95543301100008,16.795893784000043],[100.95440264400008,16.826007383000047],[101.06702827300006,16.902846108000062],[101.07148949800006,16.924477397000032]]]}},{"type":"Feature","properties":{"code":"650806","name":"แก่งโสภา","parentCode":"6508"},"geometry":{"type":"Polygon","coordinates":[[[100.79968020200005,16.876079193000066],[100.69811747000006,16.875496233000035],[100.65803133600008,16.977993678000075],[100.57294631700006,16.914347184000064],[100.60958775000006,16.85313628600005],[100.65323950400006,16.887631516000056],[100.66328428500003,16.85566964800006],[100.75293722600009,16.844275719000052],[100.79968020200005,16.876079193000066]]]}},{"type":"Feature","properties":{"code":"650706","name":"คันโช้ง","parentCode":"6507"},"geometry":{"type":"Polygon","coordinates":[[[100.37164844600005,17.39110456900005],[100.28891178000003,17.376113505000035],[100.27369013300006,17.254106850000028],[100.28246066200006,17.220608859000038],[100.31622009000006,17.24370471700007],[100.38482919500007,17.156863086000044],[100.40779559100008,17.156115801000055],[100.47738435700006,17.092153066000037],[100.52627748200007,17.100261169000078],[100.49218804400005,17.12440682600004],[100.49103408500008,17.19491435300006],[100.45462035300005,17.204455885000073],[100.43009565800008,17.246240327000066],[100.47448099700006,17.263129038000045],[100.44437952900006,17.30985465300006],[100.40575338200006,17.32617659700003],[100.37164844600005,17.39110456900005]]]}},{"type":"Feature","properties":{"code":"650503","name":"โคกสลุด","parentCode":"6505"},"geometry":{"type":"Polygon","coordinates":[[[100.27597338300006,16.590967757000044],[100.23321460900007,16.59741581800006],[100.23414949300007,16.55533953500003],[100.27496746200006,16.56538893100003],[100.27597338300006,16.590967757000044]]]}},{"type":"Feature","properties":{"code":"650411","name":"คุยม่วง","parentCode":"6504"},"geometry":{"type":"Polygon","coordinates":[[[99.92467419000008,16.76557865500007],[99.97444022800005,16.77684959000004],[100.04651175700008,16.834442657000068],[100.00684162500005,16.869177406000063],[99.95927433100007,16.864597119000052],[99.91123501700008,16.805814208000072],[99.92467419000008,16.76557865500007]]]}},{"type":"Feature","properties":{"code":"650803","name":"แม่ระกา","parentCode":"6508"},"geometry":{"type":"Polygon","coordinates":[[[100.39661459100006,16.729809662000036],[100.38205611600006,16.75163291900003],[100.33261445600004,16.72767936200006],[100.30524718800007,16.742087639000033],[100.30448038800006,16.714143629000034],[100.30439982300004,16.709289863000038],[100.33586663400007,16.701340473000073],[100.37769780500008,16.64339401700005],[100.41313840500004,16.654888329000073],[100.40076696200003,16.72049243600003],[100.39661459100006,16.729809662000036]]]}},{"type":"Feature","properties":{"code":"650116","name":"มะขามสูง","parentCode":"6501"},"geometry":{"type":"Polygon","coordinates":[[[100.28066422800003,16.933536120000042],[100.23172978900004,16.952509762000034],[100.22101261500006,16.94446741400003],[100.23212810900009,16.91315075800003],[100.27394986800005,16.90388244600007],[100.29677934100005,16.91543126700003],[100.29917478600004,16.92820970300005],[100.28066422800003,16.933536120000042]]]}},{"type":"Feature","properties":{"code":"650610","name":"มะต้อง","parentCode":"6506"},"geometry":{"type":"Polygon","coordinates":[[[100.22533339100005,17.12927817800005],[100.18814312500007,17.138052482000035],[100.16468936700005,17.096595015000048],[100.10235755800005,17.093924514000037],[100.10149100800004,17.06325729100007],[100.20383266300007,17.07224827700003],[100.20262774700007,17.079636685000025],[100.22533339100005,17.12927817800005]]]}},{"type":"Feature","properties":{"code":"650604","name":"มะตูม","parentCode":"6506"},"geometry":{"type":"Polygon","coordinates":[[[100.22101261500006,16.94446741400003],[100.13157021800004,16.94900321500006],[100.12411069500007,16.909690977000025],[100.18294680600007,16.93834285300005],[100.19647147300009,16.922572994000063],[100.23212810900009,16.91315075800003],[100.22101261500006,16.94446741400003]]]}},{"type":"Feature","properties":{"code":"650205","name":"นาบัว","parentCode":"6502"},"geometry":{"type":"Polygon","coordinates":[[[100.95532993000006,17.337625307000053],[100.91367983200007,17.342615238000064],[100.89281601300007,17.336510540000063],[100.88063200600004,17.25511093800003],[100.81176421400005,17.227275614000064],[100.81151518400009,17.185171938000053],[100.82687419000007,17.176839484000027],[100.87765804100007,17.14370113500007],[100.89699119200009,17.16085376600006],[100.95532993000006,17.337625307000053]]]}},{"type":"Feature","properties":{"code":"650101","name":"ในเมือง","parentCode":"6501"},"geometry":{"type":"Polygon","coordinates":[[[100.26620494400004,16.83854662400006],[100.26079705700005,16.838429732000066],[100.23920341600007,16.816854319000072],[100.25455430100004,16.796846558000027],[100.26526618200006,16.79652451900006],[100.29769835800005,16.816039381000053],[100.26620494400004,16.83854662400006]]]}},{"type":"Feature","properties":{"code":"650206","name":"นครชุม","parentCode":"6502"},"geometry":{"type":"Polygon","coordinates":[[[100.89281601300007,17.336510540000063],[100.87440850800004,17.324556092000023],[100.80276406900003,17.351636340000027],[100.81814019700005,17.330063444000075],[100.75520929000004,17.245866456000044],[100.69705936700007,17.202967994000062],[100.73365102100007,17.179884731000072],[100.81151518400009,17.185171938000053],[100.81176421400005,17.227275614000064],[100.88063200600004,17.25511093800003],[100.89281601300007,17.336510540000063]]]}},{"type":"Feature","properties":{"code":"650507","name":"นครป่าหมาก","parentCode":"6505"},"geometry":{"type":"Polygon","coordinates":[[[100.43645882200008,16.629627355000025],[100.41313840500004,16.654888329000073],[100.37769780500008,16.64339401700005],[100.36592502200006,16.622652177000077],[100.30317286900004,16.623691895000036],[100.32724874500008,16.59585170500003],[100.38063850600008,16.587789858000065],[100.40822155200004,16.608054152000022],[100.43645882200008,16.629627355000025]]]}},{"type":"Feature","properties":{"code":"650201","name":"นครไทย","parentCode":"6502"},"geometry":{"type":"Polygon","coordinates":[[[100.87765804100007,17.14370113500007],[100.82687419000007,17.176839484000027],[100.82877315100006,17.14551706800006],[100.78920947300008,17.095840700000053],[100.83179690900005,17.08387201200003],[100.87648258700005,17.139667727000074],[100.87765804100007,17.14370113500007]]]}},{"type":"Feature","properties":{"code":"650207","name":"น้ำกุ่ม","parentCode":"6502"},"geometry":{"type":"Polygon","coordinates":[[[100.89433754200007,17.465579904000037],[100.83478361100003,17.46848562200006],[100.79843508100004,17.424153439000065],[100.82007938400005,17.40890300800004],[100.80276406900003,17.351636340000027],[100.87440850800004,17.324556092000023],[100.89281601300007,17.336510540000063],[100.91367983200007,17.342615238000064],[100.91653515600007,17.395361732000026],[100.92460887900006,17.420479915000044],[100.89433754200007,17.465579904000037]]]}},{"type":"Feature","properties":{"code":"650120","name":"งิ้วงาม","parentCode":"6501"},"geometry":{"type":"Polygon","coordinates":[[[100.27057992700009,16.68690045200003],[100.20652192500006,16.688438345000066],[100.21652093700004,16.64843393900003],[100.24338712000008,16.635511778000023],[100.27057992700009,16.68690045200003]]]}},{"type":"Feature","properties":{"code":"650408","name":"นิคมพัฒนา","parentCode":"6504"},"geometry":{"type":"Polygon","coordinates":[[[99.92467419000008,16.76557865500007],[99.91123501700008,16.805814208000072],[99.90257890900006,16.801455800000042],[99.88953204700005,16.797662067000033],[99.87712852200008,16.766959117000056],[99.85341018000008,16.735271930000067],[99.88864028600005,16.71504438000005],[99.95364578900006,16.703878710000026],[99.97337802100009,16.734740265000028],[99.92467419000008,16.76557865500007]]]}},{"type":"Feature","properties":{"code":"650508","name":"เนินกุ่ม","parentCode":"6505"},"geometry":{"type":"Polygon","coordinates":[[[100.40822155200004,16.608054152000022],[100.38063850600008,16.587789858000065],[100.38848639800005,16.55430049900002],[100.43445341400007,16.518984036000063],[100.48245720700004,16.543161828000052],[100.48442892200006,16.551798490000067],[100.48157494200007,16.559347898000055],[100.41790948900007,16.578636351000057],[100.40822155200004,16.608054152000022]]]}},{"type":"Feature","properties":{"code":"650906","name":"เนินมะปราง","parentCode":"6509"},"geometry":{"type":"Polygon","coordinates":[[[100.71237109700007,16.610098836000077],[100.66900350400005,16.650610279000034],[100.59500059500004,16.62677747400005],[100.60200250200006,16.611483674000056],[100.63962916400004,16.517607269000052],[100.67288793700004,16.517178389000037],[100.67189519900006,16.58728275900006],[100.71237109700007,16.610098836000077]]]}},{"type":"Feature","properties":{"code":"650204","name":"เนินเพิ่ม","parentCode":"6502"},"geometry":{"type":"Polygon","coordinates":[[[100.92408369800006,17.13926260200003],[100.87648258700005,17.139667727000074],[100.83179690900005,17.08387201200003],[100.83703333000005,17.056103216000054],[100.90568375000004,17.007608564000066],[100.91894517300005,16.970438840000043],[100.97138116400004,16.923393924000038],[101.07148949800006,16.924477397000032],[101.02668548600008,16.943896151000047],[101.04620945700003,16.98659488100003],[100.99171740100007,17.091267111000036],[100.92408369800006,17.13926260200003]]]}},{"type":"Feature","properties":{"code":"650202","name":"หนองกะท้าว","parentCode":"6502"},"geometry":{"type":"Polygon","coordinates":[[[100.68076318800007,17.183356436000054],[100.64082039800007,17.22228577100003],[100.61271463700007,17.211589050000043],[100.61068397000008,17.148522270000058],[100.59640942900006,17.059785866000027],[100.64738518200005,16.996764034000023],[100.71309662000004,17.004580970000063],[100.77461438600005,16.93654902800006],[100.82121787400007,16.98104163900007],[100.88545018100007,16.958413845000052],[100.90568375000004,17.007608564000066],[100.83703333000005,17.056103216000054],[100.83179690900005,17.08387201200003],[100.78920947300008,17.095840700000053],[100.73410303600008,17.097449277000067],[100.68076318800007,17.183356436000054]]]}},{"type":"Feature","properties":{"code":"650609","name":"หนองแขม","parentCode":"6506"},"geometry":{"type":"Polygon","coordinates":[[[100.20383266300007,17.07224827700003],[100.10149100800004,17.06325729100007],[100.07794970300006,17.00222244300005],[100.08678554600004,16.991544447000024],[100.11528912400007,17.023001790000023],[100.20383266300007,17.07224827700003]]]}},{"type":"Feature","properties":{"code":"650406","name":"หนองกุลา","parentCode":"6504"},"geometry":{"type":"Polygon","coordinates":[[[99.95364578900006,16.703878710000026],[99.88864028600005,16.71504438000005],[99.89458477400007,16.664284699000063],[99.91620533100007,16.600722001000065],[99.92514809600004,16.579092245000027],[99.98626533500004,16.57606478200006],[100.01378001800003,16.574208663000036],[100.03370746500008,16.583484670000075],[100.02767374800004,16.63259865300006],[100.02608089700004,16.651613110000028],[99.96129226700003,16.66715497000007],[99.95364578900006,16.703878710000026]]]}},{"type":"Feature","properties":{"code":"650809","name":"หนองพระ","parentCode":"6508"},"geometry":{"type":"Polygon","coordinates":[[[100.45375661000008,16.72386855800005],[100.40076696200003,16.72049243600003],[100.41313840500004,16.654888329000073],[100.43645882200008,16.629627355000025],[100.44248006000004,16.619441589000076],[100.47215888200009,16.64651348900003],[100.45375661000008,16.72386855800005]]]}},{"type":"Feature","properties":{"code":"650301","name":"ป่าแดง","parentCode":"6503"},"geometry":{"type":"Polygon","coordinates":[[[100.63116322700006,17.267385356000034],[100.58948663400008,17.324828077000063],[100.49980796100004,17.292804163000028],[100.53515255200006,17.245314114000053],[100.58350466800005,17.229502984000078],[100.58027662500007,17.25885035300007],[100.63116322700006,17.267385356000034]]]}},{"type":"Feature","properties":{"code":"650110","name":"ปากโทก","parentCode":"6501"},"geometry":{"type":"Polygon","coordinates":[[[100.27394986800005,16.90388244600007],[100.23212810900009,16.91315075800003],[100.24469371300006,16.86579030400003],[100.27394986800005,16.90388244600007]]]}},{"type":"Feature","properties":{"code":"650119","name":"ไผ่ขอดอน","parentCode":"6501"},"geometry":{"type":"Polygon","coordinates":[[[100.19647147300009,16.922572994000063],[100.18294680600007,16.93834285300005],[100.12411069500007,16.909690977000025],[100.12132669000005,16.907209253000076],[100.13562158100007,16.881749309000043],[100.19414600900006,16.899833424000064],[100.19647147300009,16.922572994000063]]]}},{"type":"Feature","properties":{"code":"650506","name":"ไผ่ล้อม","parentCode":"6505"},"geometry":{"type":"Polygon","coordinates":[[[100.38063850600008,16.587789858000065],[100.32724874500008,16.59585170500003],[100.30957407400007,16.553034596000032],[100.32338092700007,16.525922214000047],[100.36130665200005,16.536803660000032],[100.38848639800005,16.55430049900002],[100.38063850600008,16.587789858000065]]]}},{"type":"Feature","properties":{"code":"650802","name":"พันชาลี","parentCode":"6508"},"geometry":{"type":"Polygon","coordinates":[[[100.59500059500004,16.62677747400005],[100.57696921800004,16.655707878000044],[100.54737478400006,16.63838478300005],[100.47215888200009,16.64651348900003],[100.44248006000004,16.619441589000076],[100.48157494200007,16.559347898000055],[100.48442892200006,16.551798490000067],[100.53997011300004,16.567759678000073],[100.57508382300006,16.58589813800006],[100.60200250200006,16.611483674000056],[100.59500059500004,16.62677747400005]]]}},{"type":"Feature","properties":{"code":"650403","name":"พันเสา","parentCode":"6504"},"geometry":{"type":"Polygon","coordinates":[[[100.10997966500008,16.663624310000046],[100.07528980900008,16.678023335000034],[100.02767374800004,16.63259865300006],[100.03370746500008,16.583484670000075],[100.08923076000008,16.58858069000007],[100.08657362800005,16.59700571600007],[100.10997966500008,16.663624310000046]]]}},{"type":"Feature","properties":{"code":"650115","name":"พลายชุมพล","parentCode":"6501"},"geometry":{"type":"Polygon","coordinates":[[[100.24152462600006,16.860797398000045],[100.21894935800003,16.86383103000003],[100.20254556500004,16.82665305200004],[100.21570463700004,16.824114161000068],[100.25347379200008,16.848121040000024],[100.24152462600006,16.860797398000045]]]}},{"type":"Feature","properties":{"code":"650601","name":"พรหมพิราม","parentCode":"6506"},"geometry":{"type":"Polygon","coordinates":[[[100.25859468400006,17.036665801000026],[100.20262774700007,17.079636685000025],[100.20383266300007,17.07224827700003],[100.11528912400007,17.023001790000023],[100.08678554600004,16.991544447000024],[100.09453186200005,16.985799838000048],[100.10413684900004,16.967798677000076],[100.14633249600007,17.00343777100005],[100.20922990400004,17.01103293400007],[100.25859468400006,17.036665801000026]]]}},{"type":"Feature","properties":{"code":"650402","name":"ปลักแรด","parentCode":"6504"},"geometry":{"type":"Polygon","coordinates":[[[100.16280482600007,16.685414197000057],[100.13270252100006,16.71495197400003],[100.06874757100007,16.70646565100003],[100.02608089700004,16.651613110000028],[100.02767374800004,16.63259865300006],[100.07528980900008,16.678023335000034],[100.10997966500008,16.663624310000046],[100.14830500600004,16.659293432000027],[100.16280482600007,16.685414197000057]]]}},{"type":"Feature","properties":{"code":"650903","name":"ไทรย้อย","parentCode":"6509"},"geometry":{"type":"Polygon","coordinates":[[[100.70028465400009,16.483141793000073],[100.65955954700007,16.485010566000028],[100.58568651200005,16.47076161800004],[100.56811760800008,16.459781835000058],[100.57901097200005,16.43978695000004],[100.62885820300005,16.399253589000068],[100.67562259900006,16.441273400000057],[100.70028465400009,16.483141793000073]]]}},{"type":"Feature","properties":{"code":"650107","name":"สมอแข","parentCode":"6501"},"geometry":{"type":"Polygon","coordinates":[[[100.42144095300006,16.865069263000066],[100.41744290500009,16.880514840000046],[100.29453039000003,16.841839110000024],[100.30330371000008,16.789012754000055],[100.35207590300007,16.81743448800006],[100.42144095300006,16.865069263000066]]]}},{"type":"Feature","properties":{"code":"650504","name":"สนามคลี","parentCode":"6505"},"geometry":{"type":"Polygon","coordinates":[[[100.30957407400007,16.553034596000032],[100.27496746200006,16.56538893100003],[100.23414949300007,16.55533953500003],[100.22989295600007,16.537921030000064],[100.23593454200005,16.529398283000035],[100.28549964400008,16.531427477000022],[100.32338092700007,16.525922214000047],[100.30957407400007,16.553034596000032]]]}},{"type":"Feature","properties":{"code":"650606","name":"ศรีภิรมย์","parentCode":"6506"},"geometry":{"type":"Polygon","coordinates":[[[100.16186660000005,17.168700406000028],[100.12974614700005,17.183878271000026],[99.98351908500007,17.096383496000044],[99.98345560900003,17.082716039000047],[100.01392260600005,17.07063722600003],[100.07481520100004,17.103681127000073],[100.10705754300005,17.137335215000064],[100.15518738900005,17.133052174000056],[100.16950824000008,17.16600102800004],[100.16186660000005,17.168700406000028]]]}},{"type":"Feature","properties":{"code":"650303","name":"สวนเมี่ยง","parentCode":"6503"},"geometry":{"type":"Polygon","coordinates":[[[100.53515255200006,17.245314114000053],[100.47448099700006,17.263129038000045],[100.43009565800008,17.246240327000066],[100.45462035300005,17.204455885000073],[100.49103408500008,17.19491435300006],[100.49218804400005,17.12440682600004],[100.52627748200007,17.100261169000078],[100.59538732100003,17.12352087000005],[100.61068397000008,17.148522270000058],[100.61271463700007,17.211589050000043],[100.58350466800005,17.229502984000078],[100.53515255200006,17.245314114000053]]]}},{"type":"Feature","properties":{"code":"650607","name":"ตลุกเทียม","parentCode":"6506"},"geometry":{"type":"Polygon","coordinates":[[[100.12974614700005,17.183878271000026],[100.06430456500004,17.181434065000076],[100.01383479900005,17.13903737800007],[99.97287549400005,17.165173147000075],[99.95504577100007,17.171112467000057],[99.95132639000008,17.166957662000073],[99.95888246300007,17.12107700100006],[99.98351908500007,17.096383496000044],[100.12974614700005,17.183878271000026]]]}},{"type":"Feature","properties":{"code":"650602","name":"ท่าช้าง","parentCode":"6506"},"geometry":{"type":"Polygon","coordinates":[[[100.23172978900004,16.952509762000034],[100.20922990400004,17.01103293400007],[100.14633249600007,17.00343777100005],[100.10413684900004,16.967798677000076],[100.10691592000006,16.929377411000075],[100.11079455000004,16.914859313000022],[100.12132669000005,16.907209253000076],[100.12411069500007,16.909690977000025],[100.13157021800004,16.94900321500006],[100.22101261500006,16.94446741400003],[100.23172978900004,16.952509762000034]]]}},{"type":"Feature","properties":{"code":"650807","name":"ท่าหมื่นราม","parentCode":"6508"},"geometry":{"type":"Polygon","coordinates":[[[100.55720926500004,16.718658878000042],[100.52053491900006,16.721163583000077],[100.47629965900006,16.75995196100007],[100.45375661000008,16.72386855800005],[100.47215888200009,16.64651348900003],[100.54737478400006,16.63838478300005],[100.57696921800004,16.655707878000044],[100.55720926500004,16.718658878000042]]]}},{"type":"Feature","properties":{"code":"650410","name":"ท่านางงาม","parentCode":"6504"},"geometry":{"type":"Polygon","coordinates":[[[100.13085690900004,16.86240981700007],[100.11034601900008,16.871772561000057],[100.08855101500006,16.816488599000024],[100.04823823500004,16.79664288400005],[100.07595879100006,16.755437748000077],[100.14003345700007,16.78477548500007],[100.16455028400009,16.767527503000053],[100.16216160000005,16.796219843000074],[100.16551713500007,16.815982888000065],[100.13085690900004,16.86240981700007]]]}},{"type":"Feature","properties":{"code":"650702","name":"ท่างาม","parentCode":"6507"},"geometry":{"type":"Polygon","coordinates":[[[100.33855187200004,17.10161803400007],[100.30898539900005,17.11508025300003],[100.32653305000008,17.071143389000042],[100.30497602800006,17.052218708000055],[100.32924999100004,17.044393489000072],[100.35139913700004,16.95060242200003],[100.40671247400007,16.961814583000034],[100.44742565900003,16.97107959300007],[100.44168695900004,16.992548531000068],[100.36335363500007,16.993022274000054],[100.38951808300004,17.07622658200006],[100.33855187200004,17.10161803400007]]]}},{"type":"Feature","properties":{"code":"650106","name":"ท่าโพธิ์","parentCode":"6501"},"geometry":{"type":"Polygon","coordinates":[[[100.23339648800004,16.781175680000047],[100.16216160000005,16.796219843000074],[100.16455028400009,16.767527503000053],[100.18547064200004,16.724519933000067],[100.23606751300008,16.75924843000007],[100.25409852700005,16.774547231000042],[100.23339648800004,16.781175680000047]]]}},{"type":"Feature","properties":{"code":"650306","name":"ท่าสะแก","parentCode":"6503"},"geometry":{"type":"Polygon","coordinates":[[[100.75520929000004,17.245866456000044],[100.66157694600008,17.274981292000064],[100.63116322700006,17.267385356000034],[100.58027662500007,17.25885035300007],[100.58350466800005,17.229502984000078],[100.61271463700007,17.211589050000043],[100.64082039800007,17.22228577100003],[100.68076318800007,17.183356436000054],[100.69705936700007,17.202967994000062],[100.75520929000004,17.245866456000044]]]}},{"type":"Feature","properties":{"code":"650505","name":"ท่าตาล","parentCode":"6505"},"geometry":{"type":"Polygon","coordinates":[[[100.37769780500008,16.64339401700005],[100.33586663400007,16.701340473000073],[100.30439982300004,16.709289863000038],[100.30071136600009,16.696806689000027],[100.29838396600007,16.636116129000072],[100.30317286900004,16.623691895000036],[100.36592502200006,16.622652177000077],[100.37769780500008,16.64339401700005]]]}},{"type":"Feature","properties":{"code":"650105","name":"ท่าทอง","parentCode":"6501"},"geometry":{"type":"Polygon","coordinates":[[[100.23339648800004,16.781175680000047],[100.20147384800003,16.81942207800006],[100.16551713500007,16.815982888000065],[100.16216160000005,16.796219843000074],[100.23339648800004,16.781175680000047]]]}},{"type":"Feature","properties":{"code":"650611","name":"ทับยายเชียง","parentCode":"6506"},"geometry":{"type":"Polygon","coordinates":[[[100.29226509600005,17.158234381000057],[100.22533339100005,17.12927817800005],[100.20262774700007,17.079636685000025],[100.25859468400006,17.036665801000026],[100.30497602800006,17.052218708000055],[100.32653305000008,17.071143389000042],[100.30898539900005,17.11508025300003],[100.29226509600005,17.158234381000057]]]}},{"type":"Feature","properties":{"code":"650703","name":"ท้อแท้","parentCode":"6507"},"geometry":{"type":"Polygon","coordinates":[[[100.32915052800007,16.946391189000053],[100.28008526900004,17.01961220800007],[100.28066422800003,16.933536120000042],[100.29917478600004,16.92820970300005],[100.32915052800007,16.946391189000053]]]}},{"type":"Feature","properties":{"code":"650404","name":"วังอิทก","parentCode":"6504"},"geometry":{"type":"Polygon","coordinates":[[[100.20652192500006,16.688438345000066],[100.19359906600005,16.71119230200003],[100.16280482600007,16.685414197000057],[100.14830500600004,16.659293432000027],[100.18131710900008,16.638047026000038],[100.17929066700003,16.59913531500007],[100.21652093700004,16.64843393900003],[100.20652192500006,16.688438345000066]]]}},{"type":"Feature","properties":{"code":"650102","name":"วังน้ำคู้","parentCode":"6501"},"geometry":{"type":"Polygon","coordinates":[[[100.29838396600007,16.636116129000072],[100.30071136600009,16.696806689000027],[100.27057992700009,16.68690045200003],[100.24338712000008,16.635511778000023],[100.28317798200004,16.642754246000038],[100.29838396600007,16.636116129000072]]]}},{"type":"Feature","properties":{"code":"650808","name":"วังนกแอ่น","parentCode":"6508"},"geometry":{"type":"Polygon","coordinates":[[[100.57294631700006,16.914347184000064],[100.48502513700004,16.900697774000037],[100.46230236400004,16.89118582900005],[100.50416408000007,16.83274939000006],[100.46894028900005,16.79194324200006],[100.47629965900006,16.75995196100007],[100.52053491900006,16.721163583000077],[100.55720926500004,16.718658878000042],[100.61436271100007,16.755834185000026],[100.63233830900003,16.79573102200004],[100.66096212800005,16.768291224000052],[100.70925149100003,16.77068259600003],[100.87337564800004,16.711118189000047],[100.88622336200007,16.66649923400007],[100.94256225300006,16.68106930600004],[100.91980197000004,16.756963531000054],[100.90300956800007,16.80177326000006],[100.89620798900006,16.822489871000073],[100.79968020200005,16.876079193000066],[100.75293722600009,16.844275719000052],[100.66328428500003,16.85566964800006],[100.65323950400006,16.887631516000056],[100.60958775000006,16.85313628600005],[100.57294631700006,16.914347184000064]]]}},{"type":"Feature","properties":{"code":"650805","name":"วังพิกุล","parentCode":"6508"},"geometry":{"type":"Polygon","coordinates":[[[100.35207590300007,16.81743448800006],[100.30330371000008,16.789012754000055],[100.30270064000007,16.75736986900006],[100.30524718800007,16.742087639000033],[100.33261445600004,16.72767936200006],[100.38205611600006,16.75163291900003],[100.39661459100006,16.729809662000036],[100.41442662400004,16.774292653000032],[100.35207590300007,16.81743448800006]]]}},{"type":"Feature","properties":{"code":"650904","name":"วังโพรง","parentCode":"6509"},"geometry":{"type":"Polygon","coordinates":[[[100.70869051900007,16.419132569000055],[100.67562259900006,16.441273400000057],[100.62885820300005,16.399253589000068],[100.62243716500006,16.360874343000035],[100.62596781700006,16.318967930000042],[100.65145192700004,16.320786549000047],[100.65146167000006,16.320812990000036],[100.70656148000006,16.384677562000036],[100.70869051900007,16.419132569000055]]]}},{"type":"Feature","properties":{"code":"650801","name":"วังทอง","parentCode":"6508"},"geometry":{"type":"Polygon","coordinates":[[[100.44323042700006,16.83333837500004],[100.42144095300006,16.865069263000066],[100.35207590300007,16.81743448800006],[100.41442662400004,16.774292653000032],[100.44323042700006,16.83333837500004]]]}},{"type":"Feature","properties":{"code":"650608","name":"วังวน","parentCode":"6506"},"geometry":{"type":"Polygon","coordinates":[[[100.10235755800005,17.093924514000037],[100.07481520100004,17.103681127000073],[100.01392260600005,17.07063722600003],[100.00553908900008,17.057568593000042],[100.01077966000008,17.040811519000044],[100.07794970300006,17.00222244300005],[100.10149100800004,17.06325729100007],[100.10235755800005,17.093924514000037]]]}},{"type":"Feature","properties":{"code":"650907","name":"วังยาง","parentCode":"6509"},"geometry":{"type":"Polygon","coordinates":[[[100.79364184300005,16.472857426000076],[100.76160953400006,16.49804007700004],[100.70028465400009,16.483141793000073],[100.67562259900006,16.441273400000057],[100.70869051900007,16.419132569000055],[100.80544148700005,16.44842962000007],[100.79364184300005,16.472857426000076]]]}},{"type":"Feature","properties":{"code":"650701","name":"วัดโบสถ์","parentCode":"6507"},"geometry":{"type":"Polygon","coordinates":[[[100.35139913700004,16.95060242200003],[100.32924999100004,17.044393489000072],[100.30497602800006,17.052218708000055],[100.25859468400006,17.036665801000026],[100.28008526900004,17.01961220800007],[100.32915052800007,16.946391189000053],[100.35139913700004,16.95060242200003]]]}},{"type":"Feature","properties":{"code":"650103","name":"วัดจันทร์","parentCode":"6501"},"geometry":{"type":"Polygon","coordinates":[[[100.21570463700004,16.824114161000068],[100.20254556500004,16.82665305200004],[100.20147384800003,16.81942207800006],[100.23339648800004,16.781175680000047],[100.25409852700005,16.774547231000042],[100.25455430100004,16.796846558000027],[100.23920341600007,16.816854319000072],[100.21570463700004,16.824114161000068]]]}},{"type":"Feature","properties":{"code":"650104","name":"วัดพริก","parentCode":"6501"},"geometry":{"type":"Polygon","coordinates":[[[100.30448038800006,16.714143629000034],[100.26120327800004,16.722512127000073],[100.23606751300008,16.75924843000007],[100.18547064200004,16.724519933000067],[100.19359906600005,16.71119230200003],[100.20652192500006,16.688438345000066],[100.27057992700009,16.68690045200003],[100.30071136600009,16.696806689000027],[100.30439982300004,16.709289863000038],[100.30448038800006,16.714143629000034]]]}},{"type":"Feature","properties":{"code":"650509","name":"วัดตายม","parentCode":"6505"},"geometry":{"type":"Polygon","coordinates":[[[100.43645882200008,16.629627355000025],[100.40822155200004,16.608054152000022],[100.41790948900007,16.578636351000057],[100.48157494200007,16.559347898000055],[100.44248006000004,16.619441589000076],[100.43645882200008,16.629627355000025]]]}},{"type":"Feature","properties":{"code":"650603","name":"วงฆ้อง","parentCode":"6506"},"geometry":{"type":"Polygon","coordinates":[[[100.18814312500007,17.138052482000035],[100.16950824000008,17.16600102800004],[100.15518738900005,17.133052174000056],[100.10705754300005,17.137335215000064],[100.07481520100004,17.103681127000073],[100.10235755800005,17.093924514000037],[100.16468936700005,17.096595015000048],[100.18814312500007,17.138052482000035]]]}},{"type":"Feature","properties":{"code":"650208","name":"ยางโกลน","parentCode":"6502"},"geometry":{"type":"Polygon","coordinates":[[[101.02374438400005,17.31133283300005],[100.99292998600004,17.34142722000007],[100.95532993000006,17.337625307000053],[100.89699119200009,17.16085376600006],[100.87765804100007,17.14370113500007],[100.87648258700005,17.139667727000074],[100.92408369800006,17.13926260200003],[100.97619406900009,17.188523704000033],[101.02374438400005,17.31133283300005]]]}}]}