{"type":"FeatureCollection","features":[{"type":"Feature","properties":{"code":"660110","name":"บ้านบุ่ง","parentCode":"6601"},"geometry":{"type":"Polygon","coordinates":[[[100.41378171300005,16.443646456000067],[100.40455082600005,16.434810619000075],[100.37728731500005,16.40379516300004],[100.39839132100008,16.360060746000045],[100.47672263300007,16.37678850100002],[100.42925835900007,16.426329947000056],[100.41378171300005,16.443646456000067]]]}},{"type":"Feature","properties":{"code":"661201","name":"บ้านนา","parentCode":"6612"},"geometry":{"type":"Polygon","coordinates":[[[100.17195034900004,16.533302371000048],[100.08243969100005,16.536428320000027],[100.10110213000007,16.44228364600002],[100.17503353900008,16.450099524000052],[100.16924714700008,16.464377307000063],[100.18886068300009,16.531627465000042],[100.17195034900004,16.533302371000048]]]}},{"type":"Feature","properties":{"code":"660612","name":"บ้านน้อย","parentCode":"6606"},"geometry":{"type":"Polygon","coordinates":[[[100.28137551300006,16.083770624000067],[100.24416719100009,16.07349795400006],[100.24059953300008,16.055334859000027],[100.24736237200005,16.042723409000075],[100.32567172600005,16.005401791000054],[100.33393157900008,16.02321652300003],[100.28137551300006,16.083770624000067]]]}},{"type":"Feature","properties":{"code":"660608","name":"บางคลาน","parentCode":"6606"},"geometry":{"type":"Polygon","coordinates":[[[100.32567172600005,16.005401791000054],[100.24736237200005,16.042723409000075],[100.25460803700008,16.021890708000058],[100.25075895000003,15.98812255100006],[100.30247656900008,15.987246907000042],[100.32567172600005,16.005401791000054]]]}},{"type":"Feature","properties":{"code":"661004","name":"บางลาย","parentCode":"6610"},"geometry":{"type":"Polygon","coordinates":[[[100.26064241900008,16.24231026900003],[100.21305628700009,16.245334179000054],[100.19712333400008,16.18986949400005],[100.25393488900005,16.157248038000034],[100.25544422500008,16.157367691000047],[100.25803386700005,16.188274930000034],[100.26361610500004,16.234289956000055],[100.26064241900008,16.24231026900003]]]}},{"type":"Feature","properties":{"code":"660501","name":"บางมูลนาก","parentCode":"6605"},"geometry":{"type":"Polygon","coordinates":[[[100.36895646500005,16.02288343600003],[100.38830483700008,16.037384490000022],[100.37353030700007,16.041779030000043],[100.36895646500005,16.02288343600003]]]}},{"type":"Feature","properties":{"code":"660502","name":"บางไผ่","parentCode":"6605"},"geometry":{"type":"Polygon","coordinates":[[[100.42742032400008,16.156836586000054],[100.39576723600004,16.156023686000026],[100.38999389400004,16.151957192000054],[100.35816220300006,16.118368383000075],[100.36570071100004,16.098517548000075],[100.42916153200008,16.066127264000045],[100.43469777300004,16.116425005000053],[100.42742032400008,16.156836586000054]]]}},{"type":"Feature","properties":{"code":"661202","name":"บึงบัว","parentCode":"6612"},"geometry":{"type":"Polygon","coordinates":[[[100.08243969100005,16.536428320000027],[100.01218903500006,16.539617906000046],[100.03466242900004,16.502250434000075],[99.99383106800008,16.43500653500007],[100.10110213000007,16.44228364600002],[100.08243969100005,16.536428320000027]]]}},{"type":"Feature","properties":{"code":"661005","name":"บึงนาราง","parentCode":"6610"},"geometry":{"type":"Polygon","coordinates":[[[100.21305628700009,16.245334179000054],[100.12514538100004,16.247168504000058],[100.11289630500005,16.18192988000004],[100.18228644300007,16.16108528600006],[100.19712333400008,16.18986949400005],[100.21305628700009,16.245334179000054]]]}},{"type":"Feature","properties":{"code":"660120","name":"ดงกลาง","parentCode":"6601"},"geometry":{"type":"Polygon","coordinates":[[[100.34351837700007,16.381386129000077],[100.31602353100004,16.361936979000063],[100.33297698200005,16.31434487300004],[100.37901464500004,16.335215336000033],[100.34351837700007,16.381386129000077]]]}},{"type":"Feature","properties":{"code":"660112","name":"ดงป่าคำ","parentCode":"6601"},"geometry":{"type":"Polygon","coordinates":[[[100.40933799500004,16.29987706000003],[100.39043638800007,16.342374017000054],[100.37901464500004,16.335215336000033],[100.33297698200005,16.31434487300004],[100.31037828300003,16.277854123000054],[100.36303185800006,16.251676496000073],[100.39652698800006,16.27060927100007],[100.40933799500004,16.29987706000003]]]}},{"type":"Feature","properties":{"code":"660305","name":"ดงเสือเหลือง","parentCode":"6603"},"geometry":{"type":"Polygon","coordinates":[[[100.18678662700006,16.293395372000077],[100.12808592800008,16.291961806000074],[100.12514538100004,16.247168504000058],[100.21305628700009,16.245334179000054],[100.18678662700006,16.293395372000077]]]}},{"type":"Feature","properties":{"code":"660407","name":"ดงตะขบ","parentCode":"6604"},"geometry":{"type":"Polygon","coordinates":[[[100.48648366700007,16.172784738000075],[100.45141668400004,16.174393124000062],[100.44822849900004,16.17079909000006],[100.42742032400008,16.156836586000054],[100.43469777300004,16.116425005000053],[100.49934859300004,16.092334745000073],[100.48648366700007,16.172784738000075]]]}},{"type":"Feature","properties":{"code":"660503","name":"หอไกร","parentCode":"6605"},"geometry":{"type":"Polygon","coordinates":[[[100.42916153200008,16.066127264000045],[100.36570071100004,16.098517548000075],[100.33843117800006,16.02418988100004],[100.36895646500005,16.02288343600003],[100.37353030700007,16.041779030000043],[100.38830483700008,16.037384490000022],[100.40171948200003,16.045217540000067],[100.41970362600006,16.05899184200007],[100.42916153200008,16.066127264000045]]]}},{"type":"Feature","properties":{"code":"660113","name":"หัวดง","parentCode":"6601"},"geometry":{"type":"Polygon","coordinates":[[[100.48123948600005,16.29520532500004],[100.47672263300007,16.37678850100002],[100.39839132100008,16.360060746000045],[100.39043638800007,16.342374017000054],[100.40933799500004,16.29987706000003],[100.48123948600005,16.29520532500004]]]}},{"type":"Feature","properties":{"code":"661001","name":"ห้วยแก้ว","parentCode":"6610"},"geometry":{"type":"Polygon","coordinates":[[[100.11289630500005,16.18192988000004],[100.03828873900005,16.17736532600003],[100.07740099200004,16.157214682000074],[100.17101434600005,16.147826443000042],[100.18228644300007,16.16108528600006],[100.11289630500005,16.18192988000004]]]}},{"type":"Feature","properties":{"code":"660403","name":"ห้วยเกตุ","parentCode":"6604"},"geometry":{"type":"Polygon","coordinates":[[[100.41592562500006,16.228876468000067],[100.40933799500004,16.29987706000003],[100.39652698800006,16.27060927100007],[100.38238702700005,16.197662371000035],[100.40753509000007,16.196184980000055],[100.41382000400006,16.20414528500004],[100.41592562500006,16.228876468000067]]]}},{"type":"Feature","properties":{"code":"660508","name":"ห้วยเขน","parentCode":"6605"},"geometry":{"type":"Polygon","coordinates":[[[100.48210915700008,16.013952439000036],[100.48788742500005,16.052356305000046],[100.46871035600009,16.017166988000042],[100.48210915700008,16.013952439000036]]]}},{"type":"Feature","properties":{"code":"661104","name":"ห้วยพุก","parentCode":"6611"},"geometry":{"type":"Polygon","coordinates":[[[100.65414808200006,16.026881236000065],[100.60539020300007,16.029438483000035],[100.57514319700005,16.014473060000057],[100.57928123500005,15.945980216000066],[100.65414808200006,16.026881236000065]]]}},{"type":"Feature","properties":{"code":"661103","name":"ห้วยร่วม","parentCode":"6611"},"geometry":{"type":"Polygon","coordinates":[[[100.57514319700005,16.014473060000057],[100.53369795600008,16.010273209000047],[100.49373645500003,16.000539980000042],[100.51923335200007,15.940200138000023],[100.54735169100007,15.92684255200004],[100.57928123500005,15.945980216000066],[100.57514319700005,16.014473060000057]]]}},{"type":"Feature","properties":{"code":"660702","name":"กำแพงดิน","parentCode":"6607"},"geometry":{"type":"Polygon","coordinates":[[[100.23321460900007,16.59741581800006],[100.21652093700004,16.64843393900003],[100.17929066700003,16.59913531500007],[100.17050382900004,16.590525128000024],[100.19378706800006,16.541145080000035],[100.22989295600007,16.537921030000064],[100.23414949300007,16.55533953500003],[100.23321460900007,16.59741581800006]]]}},{"type":"Feature","properties":{"code":"660111","name":"ฆะมัง","parentCode":"6601"},"geometry":{"type":"Polygon","coordinates":[[[100.39839132100008,16.360060746000045],[100.37728731500005,16.40379516300004],[100.34351837700007,16.381386129000077],[100.37901464500004,16.335215336000033],[100.39043638800007,16.342374017000054],[100.39839132100008,16.360060746000045]]]}},{"type":"Feature","properties":{"code":"660803","name":"เขาเจ็ดลูก","parentCode":"6608"},"geometry":{"type":"Polygon","coordinates":[[[100.65145192700004,16.320786549000047],[100.62596781700006,16.318967930000042],[100.56261176600003,16.29390273300004],[100.52252034400004,16.302746513000045],[100.52042854700005,16.299231548000023],[100.50285130100008,16.25494573700007],[100.58118340400006,16.24040902200005],[100.67044704100005,16.272380356000042],[100.65145192700004,16.320786549000047]]]}},{"type":"Feature","properties":{"code":"660802","name":"เขาทราย","parentCode":"6608"},"geometry":{"type":"Polygon","coordinates":[[[100.67847673000006,16.271036356000025],[100.67044704100005,16.272380356000042],[100.58118340400006,16.24040902200005],[100.57369518500008,16.230685832000063],[100.61629885200006,16.179257435000068],[100.57736809000005,16.150794086000076],[100.58181946400003,16.122784626000055],[100.65308613900004,16.10244516000006],[100.64430510000005,16.138111956000046],[100.68374866100004,16.202707993000047],[100.71811169700004,16.256592200000057],[100.67847673000006,16.271036356000025]]]}},{"type":"Feature","properties":{"code":"660106","name":"คลองคะเชนทร์","parentCode":"6601"},"geometry":{"type":"Polygon","coordinates":[[[100.28081665500008,16.477406818000077],[100.25005971000007,16.48625426700005],[100.25468057800003,16.461073184000043],[100.25216489400003,16.449539394000055],[100.31564412800009,16.423879232000047],[100.33038791500007,16.41861540900004],[100.33826191000009,16.42823990200003],[100.33038116300008,16.452988833000063],[100.30856048600003,16.479238382000062],[100.30584361300004,16.48444674900003],[100.28081665500008,16.477406818000077]]]}},{"type":"Feature","properties":{"code":"660408","name":"คลองคูณ","parentCode":"6604"},"geometry":{"type":"Polygon","coordinates":[[[100.37966294900008,16.19115535000003],[100.34449537200004,16.189706627000078],[100.33184042500005,16.167886446000068],[100.34492372100004,16.14005605600005],[100.35816220300006,16.118368383000075],[100.38999389400004,16.151957192000054],[100.37966294900008,16.19115535000003]]]}},{"type":"Feature","properties":{"code":"660903","name":"คลองทราย","parentCode":"6609"},"geometry":{"type":"Polygon","coordinates":[[[100.57754787700009,16.53348974000005],[100.57508382300006,16.58589813800006],[100.53997011300004,16.567759678000073],[100.53890881900008,16.531056835000072],[100.57754787700009,16.53348974000005]]]}},{"type":"Feature","properties":{"code":"661003","name":"แหลมรัง","parentCode":"6610"},"geometry":{"type":"Polygon","coordinates":[[[100.03828873900005,16.17736532600003],[100.11289630500005,16.18192988000004],[100.12514538100004,16.247168504000058],[100.02894512400007,16.270558701000027],[100.02742788900008,16.240625391000037],[100.02485074300006,16.19118436800005],[100.03828873900005,16.17736532600003]]]}},{"type":"Feature","properties":{"code":"660514","name":"ลำประดา","parentCode":"6605"},"geometry":{"type":"Polygon","coordinates":[[[100.49934859300004,16.092334745000073],[100.43469777300004,16.116425005000053],[100.42916153200008,16.066127264000045],[100.41970362600006,16.05899184200007],[100.48788742500005,16.052356305000046],[100.49934859300004,16.092334745000073]]]}},{"type":"Feature","properties":{"code":"660108","name":"เมืองเก่า","parentCode":"6601"},"geometry":{"type":"Polygon","coordinates":[[[100.33038791500007,16.41861540900004],[100.31564412800009,16.423879232000047],[100.26447535300008,16.394580457000075],[100.27214694800006,16.360948350000058],[100.31602353100004,16.361936979000063],[100.34351837700007,16.381386129000077],[100.33038791500007,16.41861540900004]]]}},{"type":"Feature","properties":{"code":"660101","name":"ในเมือง","parentCode":"6601"},"geometry":{"type":"Polygon","coordinates":[[[100.36795927400004,16.43853120400007],[100.33038116300008,16.452988833000063],[100.33826191000009,16.42823990200003],[100.36795927400004,16.43853120400007]]]}},{"type":"Feature","properties":{"code":"660402","name":"งิ้วราย","parentCode":"6604"},"geometry":{"type":"Polygon","coordinates":[[[100.48123948600005,16.29520532500004],[100.40933799500004,16.29987706000003],[100.41592562500006,16.228876468000067],[100.43099984000008,16.215570034000052],[100.41382000400006,16.20414528500004],[100.40753509000007,16.196184980000055],[100.40843826000008,16.180268659000035],[100.44238618900005,16.173962455000037],[100.43967119000007,16.25897104200004],[100.48123948600005,16.29520532500004]]]}},{"type":"Feature","properties":{"code":"660504","name":"เนินมะกอก","parentCode":"6605"},"geometry":{"type":"Polygon","coordinates":[[[100.40171948200003,16.045217540000067],[100.38830483700008,16.037384490000022],[100.36895646500005,16.02288343600003],[100.33843117800006,16.02418988100004],[100.33393157900008,16.02321652300003],[100.32567172600005,16.005401791000054],[100.30247656900008,15.987246907000042],[100.30649835800006,15.973463683000034],[100.34636881500006,15.973784519000048],[100.33118930000006,15.940653068000074],[100.35661486000004,15.938853950000066],[100.38769368300007,15.938730710000073],[100.40439714800004,16.018394902000068],[100.40171948200003,16.045217540000067]]]}},{"type":"Feature","properties":{"code":"660706","name":"เนินปอ","parentCode":"6607"},"geometry":{"type":"Polygon","coordinates":[[[100.17503353900008,16.450099524000052],[100.10110213000007,16.44228364600002],[100.06988154600003,16.35689175300007],[100.10476521300006,16.374775046000025],[100.19783258600006,16.381823522000047],[100.17503353900008,16.450099524000052]]]}},{"type":"Feature","properties":{"code":"660306","name":"เนินสว่าง","parentCode":"6603"},"geometry":{"type":"Polygon","coordinates":[[[100.06200272600006,16.33052794500003],[100.05279340600003,16.32579531300007],[100.12808592800008,16.291961806000074],[100.18678662700006,16.293395372000077],[100.22432880300005,16.313595806000023],[100.10602100300008,16.342870065000056],[100.06200272600006,16.33052794500003]]]}},{"type":"Feature","properties":{"code":"661204","name":"หนองหลุม","parentCode":"6612"},"geometry":{"type":"Polygon","coordinates":[[[100.17050382900004,16.590525128000024],[100.11865148800007,16.614071900000056],[100.08657362800005,16.59700571600007],[100.08923076000008,16.58858069000007],[100.17195034900004,16.533302371000048],[100.18886068300009,16.531627465000042],[100.19378706800006,16.541145080000035],[100.17050382900004,16.590525128000024]]]}},{"type":"Feature","properties":{"code":"660405","name":"หนองพยอม","parentCode":"6604"},"geometry":{"type":"Polygon","coordinates":[[[100.52042854700005,16.299231548000023],[100.48123948600005,16.29520532500004],[100.43967119000007,16.25897104200004],[100.44238618900005,16.173962455000037],[100.44822849900004,16.17079909000006],[100.45141668400004,16.174393124000062],[100.51246941400007,16.228060579000044],[100.50285130100008,16.25494573700007],[100.52042854700005,16.299231548000023]]]}},{"type":"Feature","properties":{"code":"660203","name":"หนองพระ","parentCode":"6602"},"geometry":{"type":"Polygon","coordinates":[[[100.62243716500006,16.360874343000035],[100.60362103200004,16.353567417000022],[100.51429105100004,16.412116248000075],[100.51905168600007,16.376746897000032],[100.52252034400004,16.302746513000045],[100.56261176600003,16.29390273300004],[100.62596781700006,16.318967930000042],[100.62243716500006,16.360874343000035]]]}},{"type":"Feature","properties":{"code":"660202","name":"หนองปลาไหล","parentCode":"6602"},"geometry":{"type":"Polygon","coordinates":[[[100.53021286800004,16.462881776000074],[100.41499992800004,16.452990955000075],[100.41378171300005,16.443646456000067],[100.42925835900007,16.426329947000056],[100.46241551800006,16.436066009000058],[100.51429105100004,16.412116248000075],[100.57901097200005,16.43978695000004],[100.56811760800008,16.459781835000058],[100.53021286800004,16.462881776000074]]]}},{"type":"Feature","properties":{"code":"660204","name":"หนองปล้อง","parentCode":"6602"},"geometry":{"type":"Polygon","coordinates":[[[100.51905168600007,16.376746897000032],[100.47672263300007,16.37678850100002],[100.48123948600005,16.29520532500004],[100.52042854700005,16.299231548000023],[100.52252034400004,16.302746513000045],[100.51905168600007,16.376746897000032]]]}},{"type":"Feature","properties":{"code":"660707","name":"หนองโสน","parentCode":"6607"},"geometry":{"type":"Polygon","coordinates":[[[100.10110213000007,16.44228364600002],[99.99383106800008,16.43500653500007],[99.99485493600008,16.416494099000033],[99.99540943900007,16.35626459200006],[100.00184870500004,16.34278520600003],[100.02128504300003,16.312874919000024],[100.05279340600003,16.32579531300007],[100.06200272600006,16.33052794500003],[100.06988154600003,16.35689175300007],[100.10110213000007,16.44228364600002]]]}},{"type":"Feature","properties":{"code":"660904","name":"หนองหญ้าไทร","parentCode":"6609"},"geometry":{"type":"Polygon","coordinates":[[[100.53997011300004,16.567759678000073],[100.48442892200006,16.551798490000067],[100.48245720700004,16.543161828000052],[100.49066298800005,16.516485729000067],[100.53890881900008,16.531056835000072],[100.53997011300004,16.567759678000073]]]}},{"type":"Feature","properties":{"code":"660115","name":"ป่ามะคาบ","parentCode":"6601"},"geometry":{"type":"Polygon","coordinates":[[[100.43445341400007,16.518984036000063],[100.38848639800005,16.55430049900002],[100.36130665200005,16.536803660000032],[100.36225341900007,16.494439344000057],[100.38538595700004,16.447249147000036],[100.40455082600005,16.434810619000075],[100.41378171300005,16.443646456000067],[100.41499992800004,16.452990955000075],[100.43445341400007,16.518984036000063]]]}},{"type":"Feature","properties":{"code":"660105","name":"ปากทาง","parentCode":"6601"},"geometry":{"type":"Polygon","coordinates":[[[100.38538595700004,16.447249147000036],[100.36225341900007,16.494439344000057],[100.30856048600003,16.479238382000062],[100.33038116300008,16.452988833000063],[100.36795927400004,16.43853120400007],[100.38538595700004,16.447249147000036]]]}},{"type":"Feature","properties":{"code":"660102","name":"ไผ่ขวาง","parentCode":"6601"},"geometry":{"type":"Polygon","coordinates":[[[100.32338092700007,16.525922214000047],[100.28549964400008,16.531427477000022],[100.28081665500008,16.477406818000077],[100.30584361300004,16.48444674900003],[100.32338092700007,16.525922214000047]]]}},{"type":"Feature","properties":{"code":"660413","name":"ไผ่หลวง","parentCode":"6604"},"geometry":{"type":"Polygon","coordinates":[[[100.40753509000007,16.196184980000055],[100.38238702700005,16.197662371000035],[100.37966294900008,16.19115535000003],[100.38999389400004,16.151957192000054],[100.39576723600004,16.156023686000026],[100.40843826000008,16.180268659000035],[100.40753509000007,16.196184980000055]]]}},{"type":"Feature","properties":{"code":"660304","name":"ไผ่รอบ","parentCode":"6603"},"geometry":{"type":"Polygon","coordinates":[[[100.22891176900004,16.31138517900007],[100.24055510200009,16.368595329000073],[100.21905339900007,16.38843184600006],[100.19783258600006,16.381823522000047],[100.10476521300006,16.374775046000025],[100.06988154600003,16.35689175300007],[100.06200272600006,16.33052794500003],[100.10602100300008,16.342870065000056],[100.22432880300005,16.313595806000023],[100.22891176900004,16.31138517900007]]]}},{"type":"Feature","properties":{"code":"660302","name":"ไผ่ท่าโพ","parentCode":"6603"},"geometry":{"type":"Polygon","coordinates":[[[100.22891176900004,16.31138517900007],[100.22432880300005,16.313595806000023],[100.18678662700006,16.293395372000077],[100.21305628700009,16.245334179000054],[100.26064241900008,16.24231026900003],[100.28272604900008,16.292216541000073],[100.27626606000007,16.300509616000056],[100.22891176900004,16.31138517900007]]]}},{"type":"Feature","properties":{"code":"660301","name":"โพธิ์ประทับช้าง","parentCode":"6603"},"geometry":{"type":"Polygon","coordinates":[[[100.31602353100004,16.361936979000063],[100.27214694800006,16.360948350000058],[100.27626606000007,16.300509616000056],[100.28272604900008,16.292216541000073],[100.31037828300003,16.277854123000054],[100.33297698200005,16.31434487300004],[100.31602353100004,16.361936979000063]]]}},{"type":"Feature","properties":{"code":"661002","name":"โพธิ์ไทรงาม","parentCode":"6610"},"geometry":{"type":"Polygon","coordinates":[[[100.17101434600005,16.147826443000042],[100.07740099200004,16.157214682000074],[100.11345103400004,16.07955045500006],[100.16092406400008,16.106475772000067],[100.17101434600005,16.147826443000042]]]}},{"type":"Feature","properties":{"code":"660601","name":"โพทะเล","parentCode":"6606"},"geometry":{"type":"Polygon","coordinates":[[[100.27606729900003,16.13530024100004],[100.25544422500008,16.157367691000047],[100.25393488900005,16.157248038000034],[100.21854760300005,16.115572178000036],[100.24416719100009,16.07349795400006],[100.28137551300006,16.083770624000067],[100.28205263600006,16.094284508000044],[100.27606729900003,16.13530024100004]]]}},{"type":"Feature","properties":{"code":"660506","name":"ภูมิ","parentCode":"6605"},"geometry":{"type":"Polygon","coordinates":[[[100.48788742500005,16.052356305000046],[100.41970362600006,16.05899184200007],[100.40171948200003,16.045217540000067],[100.40439714800004,16.018394902000068],[100.44063845300008,16.018013197000073],[100.46871035600009,16.017166988000042],[100.48788742500005,16.052356305000046]]]}},{"type":"Feature","properties":{"code":"660703","name":"รังนก","parentCode":"6607"},"geometry":{"type":"Polygon","coordinates":[[[100.25468057800003,16.461073184000043],[100.16924714700008,16.464377307000063],[100.17503353900008,16.450099524000052],[100.19783258600006,16.381823522000047],[100.21905339900007,16.38843184600006],[100.22591113700008,16.40542872700007],[100.25216489400003,16.449539394000055],[100.25468057800003,16.461073184000043]]]}},{"type":"Feature","properties":{"code":"660107","name":"โรงช้าง","parentCode":"6601"},"geometry":{"type":"Polygon","coordinates":[[[100.31564412800009,16.423879232000047],[100.25216489400003,16.449539394000055],[100.22591113700008,16.40542872700007],[100.26447535300008,16.394580457000075],[100.31564412800009,16.423879232000047]]]}},{"type":"Feature","properties":{"code":"660119","name":"สายคำโห้","parentCode":"6601"},"geometry":{"type":"Polygon","coordinates":[[[100.51429105100004,16.412116248000075],[100.46241551800006,16.436066009000058],[100.42925835900007,16.426329947000056],[100.47672263300007,16.37678850100002],[100.51905168600007,16.376746897000032],[100.51429105100004,16.412116248000075]]]}},{"type":"Feature","properties":{"code":"660404","name":"ไทรโรงโขน","parentCode":"6604"},"geometry":{"type":"Polygon","coordinates":[[[100.44238618900005,16.173962455000037],[100.40843826000008,16.180268659000035],[100.39576723600004,16.156023686000026],[100.42742032400008,16.156836586000054],[100.44822849900004,16.17079909000006],[100.44238618900005,16.173962455000037]]]}},{"type":"Feature","properties":{"code":"660901","name":"สากเหล็ก","parentCode":"6609"},"geometry":{"type":"Polygon","coordinates":[[[100.49066298800005,16.516485729000067],[100.48245720700004,16.543161828000052],[100.43445341400007,16.518984036000063],[100.41499992800004,16.452990955000075],[100.53021286800004,16.462881776000074],[100.51402231500003,16.486247732000038],[100.49066298800005,16.516485729000067]]]}},{"type":"Feature","properties":{"code":"660701","name":"สามง่าม","parentCode":"6607"},"geometry":{"type":"Polygon","coordinates":[[[100.22989295600007,16.537921030000064],[100.19378706800006,16.541145080000035],[100.18886068300009,16.531627465000042],[100.16924714700008,16.464377307000063],[100.25468057800003,16.461073184000043],[100.25005971000007,16.48625426700005],[100.23593454200005,16.529398283000035],[100.22989295600007,16.537921030000064]]]}},{"type":"Feature","properties":{"code":"661105","name":"สำนักขุนเณร","parentCode":"6611"},"geometry":{"type":"Polygon","coordinates":[[[100.53369795600008,16.010273209000047],[100.57514319700005,16.014473060000057],[100.60539020300007,16.029438483000035],[100.61708255000008,16.061520404000078],[100.54245844400003,16.080054756000038],[100.53369795600008,16.010273209000047]]]}},{"type":"Feature","properties":{"code":"660801","name":"ทับคล้อ","parentCode":"6608"},"geometry":{"type":"Polygon","coordinates":[[[100.57369518500008,16.230685832000063],[100.53273717300004,16.173765453000044],[100.51623218400005,16.14587867700004],[100.57736809000005,16.150794086000076],[100.61629885200006,16.179257435000068],[100.57369518500008,16.230685832000063]]]}},{"type":"Feature","properties":{"code":"660401","name":"ตะพานหิน","parentCode":"6604"},"geometry":{"type":"Polygon","coordinates":[[[100.41382000400006,16.20414528500004],[100.43099984000008,16.215570034000052],[100.41592562500006,16.228876468000067],[100.41382000400006,16.20414528500004]]]}},{"type":"Feature","properties":{"code":"660604","name":"ท่าบัว","parentCode":"6606"},"geometry":{"type":"Polygon","coordinates":[[[100.36570071100004,16.098517548000075],[100.35816220300006,16.118368383000075],[100.32387998100006,16.090112254000076],[100.28205263600006,16.094284508000044],[100.28137551300006,16.083770624000067],[100.33393157900008,16.02321652300003],[100.33843117800006,16.02418988100004],[100.36570071100004,16.098517548000075]]]}},{"type":"Feature","properties":{"code":"660606","name":"ท่าขมิ้น","parentCode":"6606"},"geometry":{"type":"Polygon","coordinates":[[[100.24059953300008,16.055334859000027],[100.13867377400004,16.052654202000042],[100.13801283600009,16.010428733000026],[100.15967772100004,15.967868021000072],[100.25460803700008,16.021890708000058],[100.24736237200005,16.042723409000075],[100.24059953300008,16.055334859000027]]]}},{"type":"Feature","properties":{"code":"660104","name":"ท่าฬ่อ","parentCode":"6601"},"geometry":{"type":"Polygon","coordinates":[[[100.36225341900007,16.494439344000057],[100.36130665200005,16.536803660000032],[100.32338092700007,16.525922214000047],[100.30584361300004,16.48444674900003],[100.30856048600003,16.479238382000062],[100.36225341900007,16.494439344000057]]]}},{"type":"Feature","properties":{"code":"660109","name":"ท่าหลวง","parentCode":"6601"},"geometry":{"type":"Polygon","coordinates":[[[100.38538595700004,16.447249147000036],[100.36795927400004,16.43853120400007],[100.33826191000009,16.42823990200003],[100.33038791500007,16.41861540900004],[100.34351837700007,16.381386129000077],[100.37728731500005,16.40379516300004],[100.40455082600005,16.434810619000075],[100.38538595700004,16.447249147000036]]]}},{"type":"Feature","properties":{"code":"660611","name":"ท่านั่ง","parentCode":"6606"},"geometry":{"type":"Polygon","coordinates":[[[100.30247656900008,15.987246907000042],[100.25075895000003,15.98812255100006],[100.24746351100003,15.938380619000043],[100.27604032100004,15.943445551000025],[100.30649835800006,15.973463683000034],[100.30247656900008,15.987246907000042]]]}},{"type":"Feature","properties":{"code":"660607","name":"ท่าเสา","parentCode":"6606"},"geometry":{"type":"Polygon","coordinates":[[[100.25075895000003,15.98812255100006],[100.25460803700008,16.021890708000058],[100.15967772100004,15.967868021000072],[100.16067488900006,15.959192871000027],[100.17512349500004,15.933324189000075],[100.21670961900008,15.927905562000035],[100.24746351100003,15.938380619000043],[100.25075895000003,15.98812255100006]]]}},{"type":"Feature","properties":{"code":"660902","name":"ท่าเยี่ยม","parentCode":"6609"},"geometry":{"type":"Polygon","coordinates":[[[100.57754787700009,16.53348974000005],[100.53890881900008,16.531056835000072],[100.49066298800005,16.516485729000067],[100.51402231500003,16.486247732000038],[100.57701317500005,16.524279297000078],[100.57754787700009,16.53348974000005]]]}},{"type":"Feature","properties":{"code":"660602","name":"ท้ายน้ำ","parentCode":"6606"},"geometry":{"type":"Polygon","coordinates":[[[100.25393488900005,16.157248038000034],[100.19712333400008,16.18986949400005],[100.18228644300007,16.16108528600006],[100.17101434600005,16.147826443000042],[100.16092406400008,16.106475772000067],[100.21854760300005,16.115572178000036],[100.25393488900005,16.157248038000034]]]}},{"type":"Feature","properties":{"code":"660804","name":"ท้ายทุ่ง","parentCode":"6608"},"geometry":{"type":"Polygon","coordinates":[[[100.57736809000005,16.150794086000076],[100.51623218400005,16.14587867700004],[100.52289991300006,16.095628238000074],[100.54245844400003,16.080054756000038],[100.61708255000008,16.061520404000078],[100.63863807400008,16.056725362000066],[100.65308613900004,16.10244516000006],[100.58181946400003,16.122784626000055],[100.57736809000005,16.150794086000076]]]}},{"type":"Feature","properties":{"code":"660603","name":"ทะนง","parentCode":"6606"},"geometry":{"type":"Polygon","coordinates":[[[100.21854760300005,16.115572178000036],[100.16092406400008,16.106475772000067],[100.11345103400004,16.07955045500006],[100.11164932600008,16.069539642000052],[100.13801283600009,16.010428733000026],[100.13867377400004,16.052654202000042],[100.24059953300008,16.055334859000027],[100.24416719100009,16.07349795400006],[100.21854760300005,16.115572178000036]]]}},{"type":"Feature","properties":{"code":"660412","name":"ทับหมัน","parentCode":"6604"},"geometry":{"type":"Polygon","coordinates":[[[100.33996076200003,16.217138936000026],[100.26361610500004,16.234289956000055],[100.25803386700005,16.188274930000034],[100.33184042500005,16.167886446000068],[100.34449537200004,16.189706627000078],[100.33996076200003,16.217138936000026]]]}},{"type":"Feature","properties":{"code":"660605","name":"ทุ่งน้อย","parentCode":"6606"},"geometry":{"type":"Polygon","coordinates":[[[100.34492372100004,16.14005605600005],[100.27606729900003,16.13530024100004],[100.28205263600006,16.094284508000044],[100.32387998100006,16.090112254000076],[100.35816220300006,16.118368383000075],[100.34492372100004,16.14005605600005]]]}},{"type":"Feature","properties":{"code":"660406","name":"ทุ่งโพธิ์","parentCode":"6604"},"geometry":{"type":"Polygon","coordinates":[[[100.51623218400005,16.14587867700004],[100.53273717300004,16.173765453000044],[100.48648366700007,16.172784738000075],[100.49934859300004,16.092334745000073],[100.52289991300006,16.095628238000074],[100.51623218400005,16.14587867700004]]]}},{"type":"Feature","properties":{"code":"660307","name":"ทุ่งใหญ่","parentCode":"6603"},"geometry":{"type":"Polygon","coordinates":[[[100.05279340600003,16.32579531300007],[100.02128504300003,16.312874919000024],[100.02894512400007,16.270558701000027],[100.12514538100004,16.247168504000058],[100.12808592800008,16.291961806000074],[100.05279340600003,16.32579531300007]]]}},{"type":"Feature","properties":{"code":"660303","name":"วังจิก","parentCode":"6603"},"geometry":{"type":"Polygon","coordinates":[[[100.26447535300008,16.394580457000075],[100.22591113700008,16.40542872700007],[100.21905339900007,16.38843184600006],[100.24055510200009,16.368595329000073],[100.22891176900004,16.31138517900007],[100.27626606000007,16.300509616000056],[100.27214694800006,16.360948350000058],[100.26447535300008,16.394580457000075]]]}},{"type":"Feature","properties":{"code":"660507","name":"วังกรด","parentCode":"6605"},"geometry":{"type":"Polygon","coordinates":[[[100.46871035600009,16.017166988000042],[100.44063845300008,16.018013197000073],[100.47538489600004,15.935072714000057],[100.51923335200007,15.940200138000023],[100.49373645500003,16.000539980000042],[100.48210915700008,16.013952439000036],[100.46871035600009,16.017166988000042]]]}},{"type":"Feature","properties":{"code":"660411","name":"วังหลุม","parentCode":"6604"},"geometry":{"type":"Polygon","coordinates":[[[100.58118340400006,16.24040902200005],[100.50285130100008,16.25494573700007],[100.51246941400007,16.228060579000044],[100.45141668400004,16.174393124000062],[100.48648366700007,16.172784738000075],[100.53273717300004,16.173765453000044],[100.57369518500008,16.230685832000063],[100.58118340400006,16.24040902200005]]]}},{"type":"Feature","properties":{"code":"661203","name":"วังโมกข์","parentCode":"6612"},"geometry":{"type":"Polygon","coordinates":[[[100.17195034900004,16.533302371000048],[100.08923076000008,16.58858069000007],[100.03370746500008,16.583484670000075],[100.01378001800003,16.574208663000036],[100.01218903500006,16.539617906000046],[100.08243969100005,16.536428320000027],[100.17195034900004,16.533302371000048]]]}},{"type":"Feature","properties":{"code":"661102","name":"วังงิ้ว","parentCode":"6611"},"geometry":{"type":"Polygon","coordinates":[[[100.78204775500006,15.993990238000038],[100.68945125900007,16.026883266000027],[100.68257469000008,15.99984426900005],[100.73802045400004,15.989824832000068],[100.76606668700003,15.931128310000076],[100.79905206100005,15.93623804200007],[100.78204775500006,15.993990238000038]]]}},{"type":"Feature","properties":{"code":"661101","name":"วังงิ้วใต้","parentCode":"6611"},"geometry":{"type":"Polygon","coordinates":[[[100.63863807400008,16.056725362000066],[100.61708255000008,16.061520404000078],[100.60539020300007,16.029438483000035],[100.65414808200006,16.026881236000065],[100.68257469000008,15.99984426900005],[100.68945125900007,16.026883266000027],[100.65719350500007,16.050894595000045],[100.63863807400008,16.056725362000066]]]}},{"type":"Feature","properties":{"code":"660201","name":"วังทรายพูน","parentCode":"6602"},"geometry":{"type":"Polygon","coordinates":[[[100.57901097200005,16.43978695000004],[100.51429105100004,16.412116248000075],[100.60362103200004,16.353567417000022],[100.62243716500006,16.360874343000035],[100.62885820300005,16.399253589000068],[100.57901097200005,16.43978695000004]]]}},{"type":"Feature","properties":{"code":"660409","name":"วังสำโรง","parentCode":"6604"},"geometry":{"type":"Polygon","coordinates":[[[100.31037828300003,16.277854123000054],[100.28272604900008,16.292216541000073],[100.26064241900008,16.24231026900003],[100.26361610500004,16.234289956000055],[100.33996076200003,16.217138936000026],[100.36303185800006,16.251676496000073],[100.31037828300003,16.277854123000054]]]}},{"type":"Feature","properties":{"code":"660505","name":"วังสำโรง","parentCode":"6605"},"geometry":{"type":"Polygon","coordinates":[[[100.44063845300008,16.018013197000073],[100.40439714800004,16.018394902000068],[100.38769368300007,15.938730710000073],[100.46074139700005,15.938385346000075],[100.47538489600004,15.935072714000057],[100.44063845300008,16.018013197000073]]]}},{"type":"Feature","properties":{"code":"660509","name":"วังตะกู","parentCode":"6605"},"geometry":{"type":"Polygon","coordinates":[[[100.54245844400003,16.080054756000038],[100.52289991300006,16.095628238000074],[100.49934859300004,16.092334745000073],[100.48788742500005,16.052356305000046],[100.48210915700008,16.013952439000036],[100.49373645500003,16.000539980000042],[100.53369795600008,16.010273209000047],[100.54245844400003,16.080054756000038]]]}},{"type":"Feature","properties":{"code":"660905","name":"วังทับไทร","parentCode":"6609"},"geometry":{"type":"Polygon","coordinates":[[[100.58568651200005,16.47076161800004],[100.57701317500005,16.524279297000078],[100.51402231500003,16.486247732000038],[100.53021286800004,16.462881776000074],[100.56811760800008,16.459781835000058],[100.58568651200005,16.47076161800004]]]}},{"type":"Feature","properties":{"code":"660410","name":"วังหว้า","parentCode":"6604"},"geometry":{"type":"Polygon","coordinates":[[[100.39652698800006,16.27060927100007],[100.36303185800006,16.251676496000073],[100.33996076200003,16.217138936000026],[100.34449537200004,16.189706627000078],[100.37966294900008,16.19115535000003],[100.38238702700005,16.197662371000035],[100.39652698800006,16.27060927100007]]]}},{"type":"Feature","properties":{"code":"660613","name":"วัดขวาง","parentCode":"6606"},"geometry":{"type":"Polygon","coordinates":[[[100.33184042500005,16.167886446000068],[100.25803386700005,16.188274930000034],[100.25544422500008,16.157367691000047],[100.27606729900003,16.13530024100004],[100.34492372100004,16.14005605600005],[100.33184042500005,16.167886446000068]]]}},{"type":"Feature","properties":{"code":"660103","name":"ย่านยาว","parentCode":"6601"},"geometry":{"type":"Polygon","coordinates":[[[100.28549964400008,16.531427477000022],[100.23593454200005,16.529398283000035],[100.25005971000007,16.48625426700005],[100.28081665500008,16.477406818000077],[100.28549964400008,16.531427477000022]]]}}]}