{"type":"FeatureCollection","features":[{"type":"Feature","properties":{"code":"670109","name":"บ้านโคก","parentCode":"6701"},"geometry":{"type":"Polygon","coordinates":[[[101.24756663100004,16.549602479000043],[101.23396193400004,16.54646004800003],[101.20957833000006,16.41796862500007],[101.32472692600004,16.421134162000044],[101.26779266700004,16.445032730000037],[101.26804270300005,16.529204853000067],[101.24756663100004,16.549602479000043]]]}},{"type":"Feature","properties":{"code":"670319","name":"บ้านกลาง","parentCode":"6703"},"geometry":{"type":"Polygon","coordinates":[[[101.51051927000003,16.676995076000026],[101.44723152500006,16.68029881500007],[101.38507334000008,16.661290974000053],[101.27033989600005,16.67514462400004],[101.23797484300007,16.652463029000046],[101.22112442900004,16.589492777000032],[101.31013813600003,16.615034269000034],[101.44241654500007,16.630772157000024],[101.44072268800005,16.60873329100002],[101.49874710000006,16.579158866000057],[101.52624842100005,16.621723245000055],[101.51051927000003,16.676995076000026]]]}},{"type":"Feature","properties":{"code":"670206","name":"บ้านกล้วย","parentCode":"6702"},"geometry":{"type":"Polygon","coordinates":[[[100.79061681300004,16.088953502000038],[100.69945682700006,16.08881670900007],[100.65719350500007,16.050894595000045],[100.68945125900007,16.026883266000027],[100.78204775500006,15.993990238000038],[100.80899298100007,16.05528759300006],[100.79061681300004,16.088953502000038]]]}},{"type":"Feature","properties":{"code":"670404","name":"บ้านเนิน","parentCode":"6704"},"geometry":{"type":"Polygon","coordinates":[[[101.19919377900004,16.89403783100005],[101.07904047000005,16.899557526000024],[101.05573115900006,16.82286731000005],[101.07994138300006,16.819438653000077],[101.14035286700005,16.809419324000032],[101.14301250500006,16.84841315400007],[101.20334916400009,16.86350410800003],[101.20736318200005,16.880120689000023],[101.19919377900004,16.89403783100005]]]}},{"type":"Feature","properties":{"code":"670703","name":"บ้านโภชน์","parentCode":"6707"},"geometry":{"type":"Polygon","coordinates":[[[101.06641065700006,15.900851437000028],[101.05236810600007,15.925928912000074],[100.97614970400008,15.924415957000065],[100.90158598100004,15.953159163000066],[100.90140476500005,15.896926837000024],[100.90735563000004,15.897485528000061],[101.00113875700004,15.909447955000076],[101.06341171800005,15.871961616000021],[101.07438566500008,15.87843386000003],[101.06641065700006,15.900851437000028]]]}},{"type":"Feature","properties":{"code":"670321","name":"บ้านไร่","parentCode":"6703"},"geometry":{"type":"Polygon","coordinates":[[[101.23797484300007,16.652463029000046],[101.22976421800007,16.69224808100006],[101.20855298900005,16.633390448000057],[101.20790990300009,16.58330275900005],[101.22112442900004,16.589492777000032],[101.23797484300007,16.652463029000046]]]}},{"type":"Feature","properties":{"code":"670309","name":"บ้านโสก","parentCode":"6703"},"geometry":{"type":"Polygon","coordinates":[[[101.29180050100007,16.797474558000033],[101.28610307900004,16.81968364100004],[101.26763527600008,16.80546342400004],[101.25779822800007,16.761011105000023],[101.29283791400007,16.792772194000065],[101.29180050100007,16.797474558000033]]]}},{"type":"Feature","properties":{"code":"670310","name":"บ้านติ้ว","parentCode":"6703"},"geometry":{"type":"Polygon","coordinates":[[[101.42291739200004,16.801351564000072],[101.38071833200007,16.829696799000033],[101.29180050100007,16.797474558000033],[101.29283791400007,16.792772194000065],[101.33892729400009,16.742231489000062],[101.37913556000007,16.74511086700005],[101.42291739200004,16.801351564000072]]]}},{"type":"Feature","properties":{"code":"670103","name":"บ้านโตก","parentCode":"6701"},"geometry":{"type":"Polygon","coordinates":[[[101.10952383700004,16.38192986400003],[101.04720137800007,16.405309484000043],[100.98481401600009,16.37796428300004],[100.96039556500006,16.31536752200003],[101.03624418600003,16.29927962100004],[101.08238759800008,16.312758489000032],[101.14323950000005,16.27657015500006],[101.14450142700008,16.288623354000038],[101.12181347300003,16.321723857000052],[101.12119356000005,16.383006753000075],[101.10952383700004,16.38192986400003]]]}},{"type":"Feature","properties":{"code":"670323","name":"บ้านหวาย","parentCode":"6703"},"geometry":{"type":"Polygon","coordinates":[[[101.33892729400009,16.742231489000062],[101.29283791400007,16.792772194000065],[101.25779822800007,16.761011105000023],[101.26350145000004,16.746491830000025],[101.33892729400009,16.742231489000062]]]}},{"type":"Feature","properties":{"code":"670506","name":"บ่อรัง","parentCode":"6705"},"geometry":{"type":"Polygon","coordinates":[[[101.33953530500008,15.654365202000065],[101.19982657000008,15.643570164000039],[101.16868197800005,15.605124664000073],[101.12138416500005,15.615797891000057],[101.09582109100006,15.592393522000066],[101.08829714600006,15.577422807000062],[101.09370478700004,15.561499144000038],[101.19961750700008,15.557168345000036],[101.31081139000008,15.575458534000063],[101.33953530500008,15.654365202000065]]]}},{"type":"Feature","properties":{"code":"670706","name":"บ่อไทย","parentCode":"6707"},"geometry":{"type":"Polygon","coordinates":[[[101.37720956200008,16.185362330000032],[101.37889689700006,16.18761951500005],[101.19395471500007,16.17631516600005],[101.19263748200007,16.148332614000026],[101.17523377100008,16.08062915000005],[101.18028770600006,16.012496292000037],[101.24754291100004,16.051132731000052],[101.33729489400008,16.113032798000063],[101.37720956200008,16.185362330000032]]]}},{"type":"Feature","properties":{"code":"670709","name":"บัววัฒนา","parentCode":"6707"},"geometry":{"type":"Polygon","coordinates":[[[100.97329382600009,15.996068926000078],[100.90216375600005,15.989245181000058],[100.90158598100004,15.953159163000066],[100.97614970400008,15.924415957000065],[101.05236810600007,15.925928912000074],[101.06641065700006,15.900851437000028],[101.07535523000007,15.91341684200006],[101.06810195300005,15.937616902000059],[101.02444433800008,15.97824872700005],[100.97329382600009,15.996068926000078]]]}},{"type":"Feature","properties":{"code":"670511","name":"บึงกระจับ","parentCode":"6705"},"geometry":{"type":"Polygon","coordinates":[[[101.12890404600006,15.810770692000062],[101.05670073200008,15.770133169000076],[101.05612576300007,15.76064668600003],[101.08713374700005,15.678792395000073],[101.11267345300007,15.705886832000033],[101.12890404600006,15.810770692000062]]]}},{"type":"Feature","properties":{"code":"670809","name":"บึงสามพัน","parentCode":"6708"},"geometry":{"type":"Polygon","coordinates":[[[101.05086191800007,15.834170715000027],[101.00963057400008,15.838786516000027],[101.01306833700005,15.747469625000065],[101.05612576300007,15.76064668600003],[101.05670073200008,15.770133169000076],[101.05086191800007,15.834170715000027]]]}},{"type":"Feature","properties":{"code":"670317","name":"บุ่งคล้า","parentCode":"6703"},"geometry":{"type":"Polygon","coordinates":[[[101.20855298900005,16.633390448000057],[101.17770366500008,16.66272667000004],[101.11244902600004,16.63844665000005],[101.05159583600005,16.64516470500007],[101.14224516800004,16.63117287800003],[101.21722667400007,16.560790949000022],[101.20790990300009,16.58330275900005],[101.20855298900005,16.633390448000057]]]}},{"type":"Feature","properties":{"code":"670318","name":"บุ่งน้ำเต้า","parentCode":"6703"},"geometry":{"type":"Polygon","coordinates":[[[101.17638407100009,16.69755321300005],[101.08978949300007,16.706717910000066],[101.05628326000004,16.678829318000055],[101.05159583600005,16.64516470500007],[101.11244902600004,16.63844665000005],[101.17770366500008,16.66272667000004],[101.17638407100009,16.69755321300005]]]}},{"type":"Feature","properties":{"code":"670320","name":"ช้างตะลูด","parentCode":"6703"},"geometry":{"type":"Polygon","coordinates":[[[101.44072268800005,16.60873329100002],[101.44241654500007,16.630772157000024],[101.31013813600003,16.615034269000034],[101.22112442900004,16.589492777000032],[101.20790990300009,16.58330275900005],[101.21722667400007,16.560790949000022],[101.21307045300006,16.550713615000063],[101.23396193400004,16.54646004800003],[101.24756663100004,16.549602479000043],[101.32333457500005,16.548351468000078],[101.36964277800007,16.59316623600006],[101.44072268800005,16.60873329100002]]]}},{"type":"Feature","properties":{"code":"670201","name":"ชนแดน","parentCode":"6702"},"geometry":{"type":"Polygon","coordinates":[[[100.98020890900005,16.185879707000026],[100.93350270200006,16.154991980000034],[100.90244572100005,16.219023795000055],[100.82658350200006,16.186537678000036],[100.84516464900008,16.127986108000073],[100.88867412000008,16.09245185900005],[100.90724431900009,16.107125432000032],[100.92552499700008,16.13293485500003],[100.98596578800004,16.137261912000042],[100.98455626300006,16.166148617000033],[100.98020890900005,16.185879707000026]]]}},{"type":"Feature","properties":{"code":"670110","name":"ชอนไพร","parentCode":"6701"},"geometry":{"type":"Polygon","coordinates":[[[101.15301591700006,16.381244835000075],[101.12119356000005,16.383006753000075],[101.12181347300003,16.321723857000052],[101.14450142700008,16.288623354000038],[101.18609879400003,16.359591126000055],[101.15301591700006,16.381244835000075]]]}},{"type":"Feature","properties":{"code":"670202","name":"ดงขุย","parentCode":"6702"},"geometry":{"type":"Polygon","coordinates":[[[100.77275895400004,16.12335083100004],[100.68840104600008,16.130788924000058],[100.70402622700004,16.199865072000023],[100.68374866100004,16.202707993000047],[100.64430510000005,16.138111956000046],[100.65308613900004,16.10244516000006],[100.63863807400008,16.056725362000066],[100.65719350500007,16.050894595000045],[100.69945682700006,16.08881670900007],[100.79061681300004,16.088953502000038],[100.77275895400004,16.12335083100004]]]}},{"type":"Feature","properties":{"code":"670108","name":"ดงมูลเหล็ก","parentCode":"6701"},"geometry":{"type":"Polygon","coordinates":[[[101.23396193400004,16.54646004800003],[101.21307045300006,16.550713615000063],[101.19668153300006,16.53524153500007],[101.17654029600004,16.46207042900005],[101.18333575300005,16.414996931000076],[101.20957833000006,16.41796862500007],[101.23396193400004,16.54646004800003]]]}},{"type":"Feature","properties":{"code":"670304","name":"ฝายนาแซง","parentCode":"6703"},"geometry":{"type":"Polygon","coordinates":[[[101.23882445900006,16.825519574000054],[101.21908239400005,16.847692668000036],[101.19391855900005,16.80968129300004],[101.21684227300005,16.80096203900007],[101.23882445900006,16.825519574000054]]]}},{"type":"Feature","properties":{"code":"670403","name":"หินฮาว","parentCode":"6704"},"geometry":{"type":"Polygon","coordinates":[[[101.28705370700004,17.016407754000056],[101.17693760500003,16.986426702000074],[101.15607196900004,17.03446468100003],[101.12891512400006,17.026580632000048],[101.11413747000006,16.978284177000035],[101.15826154800004,16.972423890000073],[101.21832925400008,16.919480303000057],[101.28366300900007,16.92006507900004],[101.31465479300005,16.92189524500003],[101.29129562600008,16.969114511000043],[101.31109797600004,16.985128248000024],[101.28705370700004,17.016407754000056]]]}},{"type":"Feature","properties":{"code":"670707","name":"ห้วยโป่ง","parentCode":"6707"},"geometry":{"type":"Polygon","coordinates":[[[101.09418200300007,16.12494508800006],[101.03086230100007,16.171439574000033],[100.98455626300006,16.166148617000033],[100.98596578800004,16.137261912000042],[101.02908467200007,16.109417903000065],[101.09418200300007,16.12494508800006]]]}},{"type":"Feature","properties":{"code":"670311","name":"ห้วยไร่","parentCode":"6703"},"geometry":{"type":"Polygon","coordinates":[[[101.43336447000007,16.84654806800006],[101.40745499300004,16.88568674100003],[101.37964362100007,16.849912635000067],[101.30958768300007,16.836177906000046],[101.28610307900004,16.81968364100004],[101.29180050100007,16.797474558000033],[101.38071833200007,16.829696799000033],[101.42291739200004,16.801351564000072],[101.44030041100007,16.825342443000068],[101.43336447000007,16.84654806800006]]]}},{"type":"Feature","properties":{"code":"670115","name":"ห้วยสะแก","parentCode":"6701"},"geometry":{"type":"Polygon","coordinates":[[[101.13810135000006,16.208565255000053],[101.08497996200003,16.242741614000067],[101.04901001900004,16.203092733000062],[100.99413378100007,16.213513996000074],[100.98020890900005,16.185879707000026],[100.98455626300006,16.166148617000033],[101.03086230100007,16.171439574000033],[101.09418200300007,16.12494508800006],[101.09799560200008,16.123669835000044],[101.10271746500007,16.17515342200005],[101.13810135000006,16.208565255000053]]]}},{"type":"Feature","properties":{"code":"670116","name":"ห้วยใหญ่","parentCode":"6701"},"geometry":{"type":"Polygon","coordinates":[[[101.44072268800005,16.60873329100002],[101.36964277800007,16.59316623600006],[101.32333457500005,16.548351468000078],[101.24756663100004,16.549602479000043],[101.26804270300005,16.529204853000067],[101.26779266700004,16.445032730000037],[101.32472692600004,16.421134162000044],[101.41735043600005,16.410764049000022],[101.44948499900005,16.452124240000046],[101.46475970100005,16.514653294000027],[101.51953684400007,16.54958823100003],[101.49874710000006,16.579158866000057],[101.44072268800005,16.60873329100002]]]}},{"type":"Feature","properties":{"code":"670804","name":"กันจุ","parentCode":"6708"},"geometry":{"type":"Polygon","coordinates":[[[101.18452209000009,15.876257899000052],[101.07438566500008,15.87843386000003],[101.06341171800005,15.871961616000021],[101.05086191800007,15.834170715000027],[101.05670073200008,15.770133169000076],[101.12890404600006,15.810770692000062],[101.18320250900007,15.802840914000058],[101.19672923800005,15.833037212000022],[101.18452209000009,15.876257899000052]]]}},{"type":"Feature","properties":{"code":"671102","name":"แคมป์สน","parentCode":"6711"},"geometry":{"type":"Polygon","coordinates":[[[101.07994138300006,16.819438653000077],[101.05573115900006,16.82286731000005],[100.99790929600005,16.787144685000044],[100.98872852400007,16.756658221000066],[100.95543301100008,16.795893784000043],[100.90300956800007,16.80177326000006],[100.91980197000004,16.756963531000054],[101.06183294500005,16.72881359200005],[101.09923545600009,16.73233770400003],[101.10565674200006,16.785088733000066],[101.07994138300006,16.819438653000077]]]}},{"type":"Feature","properties":{"code":"671103","name":"เขาค้อ","parentCode":"6711"},"geometry":{"type":"Polygon","coordinates":[[[101.05628326000004,16.678829318000055],[100.94256225300006,16.68106930600004],[100.93569422800005,16.60262412900005],[100.95703975300006,16.593617987000073],[101.01221963200004,16.570206017000032],[101.05567291200003,16.57568320400003],[101.07189470300005,16.606178944000078],[101.05159583600005,16.64516470500007],[101.05628326000004,16.678829318000055]]]}},{"type":"Feature","properties":{"code":"671107","name":"เข็กน้อย","parentCode":"6711"},"geometry":{"type":"Polygon","coordinates":[[[101.06702827300006,16.902846108000062],[100.95440264400008,16.826007383000047],[100.95543301100008,16.795893784000043],[100.98872852400007,16.756658221000066],[100.99790929600005,16.787144685000044],[101.05573115900006,16.82286731000005],[101.07904047000005,16.899557526000024],[101.06702827300006,16.902846108000062]]]}},{"type":"Feature","properties":{"code":"670603","name":"คลองกระจัง","parentCode":"6706"},"geometry":{"type":"Polygon","coordinates":[[[101.19663098400008,15.392685801000027],[101.13190650600006,15.388348417000032],[101.10111717000007,15.43632105200004],[101.08836321300004,15.390255196000055],[101.02808669000007,15.393553484000051],[100.97862445000004,15.367443607000041],[100.97705417100008,15.336465455000052],[101.05094424200007,15.32094475100007],[101.08227669600006,15.356381916000032],[101.20543512900008,15.319421657000078],[101.22593035300008,15.340971255000056],[101.19663098400008,15.392685801000027]]]}},{"type":"Feature","properties":{"code":"670904","name":"โคกมน","parentCode":"6709"},"geometry":{"type":"Polygon","coordinates":[[[101.75081656800006,16.667821305000075],[101.77196985600006,16.685968055000046],[101.79724812800004,16.76901172500004],[101.73456731200008,16.75460272500004],[101.70864054700007,16.73232964600004],[101.62734998500008,16.725889103000043],[101.60379474900009,16.707034770000064],[101.61886921000007,16.685437037000042],[101.75081656800006,16.667821305000075]]]}},{"type":"Feature","properties":{"code":"670504","name":"โคกปรง","parentCode":"6705"},"geometry":{"type":"Polygon","coordinates":[[[101.17213395200008,15.737685894000037],[101.26675951600004,15.820165458000076],[101.24721456100008,15.860320772000023],[101.19672923800005,15.833037212000022],[101.18320250900007,15.802840914000058],[101.12890404600006,15.810770692000062],[101.11267345300007,15.705886832000033],[101.17213395200008,15.737685894000037]]]}},{"type":"Feature","properties":{"code":"670605","name":"โคกสะอาด","parentCode":"6706"},"geometry":{"type":"Polygon","coordinates":[[[101.03150078000004,15.493009584000049],[101.00207691800006,15.508939740000073],[100.92869897300005,15.487688026000058],[100.93157161100004,15.467821234000041],[101.01757155900003,15.450953434000041],[101.09826071300006,15.443015374000026],[101.08995526300004,15.487094073000037],[101.03150078000004,15.493009584000049]]]}},{"type":"Feature","properties":{"code":"670701","name":"กองทูล","parentCode":"6707"},"geometry":{"type":"Polygon","coordinates":[[[101.11611915300006,16.002456863000077],[101.09115319800009,16.006575678000047],[101.06810195300005,15.937616902000059],[101.07535523000007,15.91341684200006],[101.13783618000008,15.945120312000029],[101.12356900400005,15.993547715000034],[101.11611915300006,16.002456863000077]]]}},{"type":"Feature","properties":{"code":"670902","name":"หลักด่าน","parentCode":"6709"},"geometry":{"type":"Polygon","coordinates":[[[101.56320644900006,16.989817724000034],[101.53359369800006,17.02319238000007],[101.50427930500007,17.010135199000047],[101.43185652400007,17.00818631900006],[101.41694172500007,16.93170539500005],[101.40745499300004,16.88568674100003],[101.43336447000007,16.84654806800006],[101.48182696400005,16.87222180300006],[101.49775795000005,16.909187675000055],[101.53883774300004,16.92153127100005],[101.56320644900006,16.989817724000034]]]}},{"type":"Feature","properties":{"code":"670316","name":"ลานบ่า","parentCode":"6703"},"geometry":{"type":"Polygon","coordinates":[[[101.23204159100004,16.714319700000033],[101.19176348700006,16.722097570000074],[101.17638407100009,16.69755321300005],[101.17770366500008,16.66272667000004],[101.20855298900005,16.633390448000057],[101.22976421800007,16.69224808100006],[101.23863801800007,16.701953201000038],[101.23204159100004,16.714319700000033]]]}},{"type":"Feature","properties":{"code":"670205","name":"ลาดแค","parentCode":"6702"},"geometry":{"type":"Polygon","coordinates":[[[100.87314175700004,16.074213753000038],[100.80899298100007,16.05528759300006],[100.78204775500006,15.993990238000038],[100.79905206100005,15.93623804200007],[100.76606668700003,15.931128310000076],[100.79609866200008,15.892696844000056],[100.79741633700007,15.92530897100005],[100.85606279800004,15.929514193000045],[100.90140476500005,15.896926837000024],[100.90158598100004,15.953159163000066],[100.90216375600005,15.989245181000058],[100.87779538500007,15.997353753000027],[100.87314175700004,16.074213753000038]]]}},{"type":"Feature","properties":{"code":"670401","name":"หล่มเก่า","parentCode":"6704"},"geometry":{"type":"Polygon","coordinates":[[[101.28366300900007,16.92006507900004],[101.21832925400008,16.919480303000057],[101.19919377900004,16.89403783100005],[101.20736318200005,16.880120689000023],[101.26733318400005,16.883374375000074],[101.28366300900007,16.92006507900004]]]}},{"type":"Feature","properties":{"code":"670301","name":"หล่มสัก","parentCode":"6703"},"geometry":{"type":"Polygon","coordinates":[[[101.25252270100003,16.772156911000025],[101.24548733900008,16.797625634000042],[101.22989791800006,16.773893042000054],[101.25252270100003,16.772156911000025]]]}},{"type":"Feature","properties":{"code":"670702","name":"นาเฉลียง","parentCode":"6707"},"geometry":{"type":"Polygon","coordinates":[[[101.09418200300007,16.12494508800006],[101.02908467200007,16.109417903000065],[101.08064616100006,16.045303878000027],[101.07139488600006,16.01460719000005],[101.09115319800009,16.006575678000047],[101.11611915300006,16.002456863000077],[101.10815859300004,16.09986194800007],[101.09799560200008,16.123669835000044],[101.09418200300007,16.12494508800006]]]}},{"type":"Feature","properties":{"code":"670408","name":"นาเกาะ","parentCode":"6704"},"geometry":{"type":"Polygon","coordinates":[[[101.20334916400009,16.86350410800003],[101.14301250500006,16.84841315400007],[101.14035286700005,16.809419324000032],[101.16596523400005,16.816848597000046],[101.21185238900006,16.845159986000056],[101.20334916400009,16.86350410800003]]]}},{"type":"Feature","properties":{"code":"670106","name":"นางั่ว","parentCode":"6701"},"geometry":{"type":"Polygon","coordinates":[[[101.19668153300006,16.53524153500007],[101.10400863500007,16.547223505000034],[101.11481519300008,16.47633582900005],[101.14067830500005,16.465679202000047],[101.17654029600004,16.46207042900005],[101.19668153300006,16.53524153500007]]]}},{"type":"Feature","properties":{"code":"670111","name":"นาป่า","parentCode":"6701"},"geometry":{"type":"Polygon","coordinates":[[[101.32472692600004,16.421134162000044],[101.20957833000006,16.41796862500007],[101.18333575300005,16.414996931000076],[101.15301591700006,16.381244835000075],[101.18609879400003,16.359591126000055],[101.21065338100004,16.356799721000073],[101.25257999300004,16.370802489000027],[101.39291008200007,16.37281520500005],[101.41735043600005,16.410764049000022],[101.32472692600004,16.421134162000044]]]}},{"type":"Feature","properties":{"code":"670406","name":"นาแซง","parentCode":"6704"},"geometry":{"type":"Polygon","coordinates":[[[101.26737608800005,16.872068381000076],[101.26733318400005,16.883374375000074],[101.20736318200005,16.880120689000023],[101.20334916400009,16.86350410800003],[101.21185238900006,16.845159986000056],[101.21908239400005,16.847692668000036],[101.24957037100006,16.84662050000003],[101.26737608800005,16.872068381000076]]]}},{"type":"Feature","properties":{"code":"670402","name":"นาซำ","parentCode":"6704"},"geometry":{"type":"Polygon","coordinates":[[[101.28705370700004,17.016407754000056],[101.22623441800005,17.075855975000025],[101.18843519100005,17.06596998200007],[101.15607196900004,17.03446468100003],[101.17693760500003,16.986426702000074],[101.28705370700004,17.016407754000056]]]}},{"type":"Feature","properties":{"code":"670604","name":"นาสนุ่น","parentCode":"6706"},"geometry":{"type":"Polygon","coordinates":[[[101.30439086500007,15.519682568000064],[101.31081139000008,15.575458534000063],[101.19961750700008,15.557168345000036],[101.09370478700004,15.561499144000038],[101.08001616500007,15.551582378000035],[101.08978949500005,15.487420370000052],[101.16912977600003,15.485509037000043],[101.30439086500007,15.519682568000064]]]}},{"type":"Feature","properties":{"code":"670112","name":"นายม","parentCode":"6701"},"geometry":{"type":"Polygon","coordinates":[[[101.14323950000005,16.27657015500006],[101.08238759800008,16.312758489000032],[101.08497996200003,16.242741614000067],[101.13810135000006,16.208565255000053],[101.17657010600004,16.146631832000025],[101.19263748200007,16.148332614000026],[101.19395471500007,16.17631516600005],[101.37889689700006,16.18761951500005],[101.35481047300004,16.260871352000038],[101.37040931100006,16.275789904000078],[101.25076467100007,16.256758261000073],[101.21453151300005,16.275628133000055],[101.14323950000005,16.27657015500006]]]}},{"type":"Feature","properties":{"code":"670101","name":"ในเมือง","parentCode":"6701"},"geometry":{"type":"Polygon","coordinates":[[[101.14939380100009,16.438011352000046],[101.13418360600008,16.42028342800006],[101.16903074500004,16.40070655100004],[101.14939380100009,16.438011352000046]]]}},{"type":"Feature","properties":{"code":"670314","name":"น้ำชุน","parentCode":"6703"},"geometry":{"type":"Polygon","coordinates":[[[101.18547790700006,16.76521705600004],[101.14989815400008,16.76388883100003],[101.07994138300006,16.819438653000077],[101.10565674200006,16.785088733000066],[101.09923545600009,16.73233770400003],[101.08978949300007,16.706717910000066],[101.17638407100009,16.69755321300005],[101.19176348700006,16.722097570000074],[101.18547790700006,16.76521705600004]]]}},{"type":"Feature","properties":{"code":"670306","name":"น้ำเฮี้ย","parentCode":"6703"},"geometry":{"type":"Polygon","coordinates":[[[101.21908239400005,16.847692668000036],[101.21185238900006,16.845159986000056],[101.16596523400005,16.816848597000046],[101.19391855900005,16.80968129300004],[101.21908239400005,16.847692668000036]]]}},{"type":"Feature","properties":{"code":"670312","name":"น้ำก้อ","parentCode":"6703"},"geometry":{"type":"Polygon","coordinates":[[[101.14035286700005,16.809419324000032],[101.07994138300006,16.819438653000077],[101.14989815400008,16.76388883100003],[101.18547790700006,16.76521705600004],[101.21136713000004,16.779667623000023],[101.21684227300005,16.80096203900007],[101.19391855900005,16.80968129300004],[101.16596523400005,16.816848597000046],[101.14035286700005,16.809419324000032]]]}},{"type":"Feature","properties":{"code":"670901","name":"น้ำหนาว","parentCode":"6709"},"geometry":{"type":"Polygon","coordinates":[[[101.68638246800003,16.79848012100007],[101.60479958300004,16.878862866000077],[101.53231900600008,16.847613082000066],[101.51914987100008,16.808932796000022],[101.51342721600008,16.68113119700007],[101.57174879700005,16.648255541000026],[101.55324888200005,16.727594218000036],[101.60379474900009,16.707034770000064],[101.62734998500008,16.725889103000043],[101.70864054700007,16.73232964600004],[101.73456731200008,16.75460272500004],[101.68638246800003,16.79848012100007]]]}},{"type":"Feature","properties":{"code":"670114","name":"น้ำร้อน","parentCode":"6701"},"geometry":{"type":"Polygon","coordinates":[[[101.21065338100004,16.356799721000073],[101.18609879400003,16.359591126000055],[101.14450142700008,16.288623354000038],[101.14323950000005,16.27657015500006],[101.21453151300005,16.275628133000055],[101.22977568200008,16.301744633000055],[101.21065338100004,16.356799721000073]]]}},{"type":"Feature","properties":{"code":"670505","name":"น้ำร้อน","parentCode":"6705"},"geometry":{"type":"Polygon","coordinates":[[[101.33666076600008,15.723157557000036],[101.17416908300004,15.729707638000036],[101.19982657000008,15.643570164000039],[101.33953530500008,15.654365202000065],[101.36006119500007,15.688499464000074],[101.33666076600008,15.723157557000036]]]}},{"type":"Feature","properties":{"code":"670803","name":"หนองแจง","parentCode":"6708"},"geometry":{"type":"Polygon","coordinates":[[[101.06341171800005,15.871961616000021],[101.00113875700004,15.909447955000076],[100.90735563000004,15.897485528000061],[100.91426490000003,15.863262537000026],[100.93943062400007,15.871666856000047],[101.00963057400008,15.838786516000027],[101.05086191800007,15.834170715000027],[101.06341171800005,15.871961616000021]]]}},{"type":"Feature","properties":{"code":"670315","name":"หนองไขว่","parentCode":"6703"},"geometry":{"type":"Polygon","coordinates":[[[101.22989791800006,16.773893042000054],[101.21136713000004,16.779667623000023],[101.18547790700006,16.76521705600004],[101.19176348700006,16.722097570000074],[101.23204159100004,16.714319700000033],[101.23841388200003,16.729869407000024],[101.25252270100003,16.772156911000025],[101.22989791800006,16.773893042000054]]]}},{"type":"Feature","properties":{"code":"671106","name":"หนองแม่นา","parentCode":"6711"},"geometry":{"type":"Polygon","coordinates":[[[100.94256225300006,16.68106930600004],[100.88622336200007,16.66649923400007],[100.84734297000006,16.58017497700007],[100.85833115700007,16.546695512000042],[100.83379696300005,16.504028556000037],[100.90371606300005,16.48473160900005],[100.96170076600004,16.513329678000048],[100.92428654500009,16.550135133000026],[100.95703975300006,16.593617987000073],[100.93569422800005,16.60262412900005],[100.94256225300006,16.68106930600004]]]}},{"type":"Feature","properties":{"code":"670710","name":"หนองไผ่","parentCode":"6707"},"geometry":{"type":"Polygon","coordinates":[[[101.07139488600006,16.01460719000005],[100.98880550400008,16.041788444000076],[100.97329382600009,15.996068926000078],[101.02444433800008,15.97824872700005],[101.06810195300005,15.937616902000059],[101.09115319800009,16.006575678000047],[101.07139488600006,16.01460719000005]]]}},{"type":"Feature","properties":{"code":"670305","name":"หนองสว่าง","parentCode":"6703"},"geometry":{"type":"Polygon","coordinates":[[[101.24957037100006,16.84662050000003],[101.21908239400005,16.847692668000036],[101.23882445900006,16.825519574000054],[101.24957037100006,16.84662050000003]]]}},{"type":"Feature","properties":{"code":"670606","name":"หนองย่างทอย","parentCode":"6706"},"geometry":{"type":"Polygon","coordinates":[[[101.30277065200005,15.430735279000032],[101.30226546700004,15.502778853000052],[101.25069358300004,15.449415669000075],[101.21429521700009,15.451859980000052],[101.19663098400008,15.392685801000027],[101.22593035300008,15.340971255000056],[101.29901727700008,15.380235601000038],[101.30277065200005,15.430735279000032]]]}},{"type":"Feature","properties":{"code":"670105","name":"ป่าเลา","parentCode":"6701"},"geometry":{"type":"Polygon","coordinates":[[[100.96170076600004,16.513329678000048],[100.90371606300005,16.48473160900005],[100.83379696300005,16.504028556000037],[100.79364184300005,16.472857426000076],[100.80544148700005,16.44842962000007],[100.85476462900004,16.43776450000007],[100.98481401600009,16.37796428300004],[101.04720137800007,16.405309484000043],[101.10952383700004,16.38192986400003],[101.14067830500005,16.465679202000047],[101.11481519300008,16.47633582900005],[101.00654601100007,16.477548187000025],[100.96170076600004,16.513329678000048]]]}},{"type":"Feature","properties":{"code":"670313","name":"ปากช่อง","parentCode":"6703"},"geometry":{"type":"Polygon","coordinates":[[[101.51914987100008,16.808932796000022],[101.50375117800007,16.857538900000065],[101.44030041100007,16.825342443000068],[101.42291739200004,16.801351564000072],[101.37913556000007,16.74511086700005],[101.33892729400009,16.742231489000062],[101.26350145000004,16.746491830000025],[101.26400226200008,16.72742273500006],[101.23863801800007,16.701953201000038],[101.22976421800007,16.69224808100006],[101.23797484300007,16.652463029000046],[101.27033989600005,16.67514462400004],[101.38507334000008,16.661290974000053],[101.44723152500006,16.68029881500007],[101.51051927000003,16.676995076000026],[101.51342721600008,16.68113119700007],[101.51914987100008,16.808932796000022]]]}},{"type":"Feature","properties":{"code":"670322","name":"ปากดุก","parentCode":"6703"},"geometry":{"type":"Polygon","coordinates":[[[101.26400226200008,16.72742273500006],[101.23841388200003,16.729869407000024],[101.23204159100004,16.714319700000033],[101.23863801800007,16.701953201000038],[101.26400226200008,16.72742273500006]]]}},{"type":"Feature","properties":{"code":"670806","name":"พญาวัง","parentCode":"6708"},"geometry":{"type":"Polygon","coordinates":[[[100.90140476500005,15.896926837000024],[100.85606279800004,15.929514193000045],[100.79741633700007,15.92530897100005],[100.79609866200008,15.892696844000056],[100.80517113300004,15.86803367400006],[100.80822834500003,15.835060267000074],[100.87875635800003,15.828326082000046],[100.91426490000003,15.863262537000026],[100.90735563000004,15.897485528000061],[100.90140476500005,15.896926837000024]]]}},{"type":"Feature","properties":{"code":"670705","name":"เพชรละคร","parentCode":"6707"},"geometry":{"type":"Polygon","coordinates":[[[101.13783618000008,15.945120312000029],[101.07535523000007,15.91341684200006],[101.06641065700006,15.900851437000028],[101.07438566500008,15.87843386000003],[101.18452209000009,15.876257899000052],[101.24063888300009,15.912318563000042],[101.14263497900004,15.931087663000028],[101.13783618000008,15.945120312000029]]]}},{"type":"Feature","properties":{"code":"670508","name":"พุขาม","parentCode":"6705"},"geometry":{"type":"Polygon","coordinates":[[[101.08995526300004,15.487094073000037],[101.08978949500005,15.487420370000052],[101.08001616500007,15.551582378000035],[100.98381276600009,15.567052363000073],[101.03150078000004,15.493009584000049],[101.08995526300004,15.487094073000037]]]}},{"type":"Feature","properties":{"code":"670509","name":"ภูน้ำหยด","parentCode":"6705"},"geometry":{"type":"Polygon","coordinates":[[[100.85760607400005,15.613927882000041],[100.82562486800003,15.615055859000051],[100.83096617000007,15.56263414800003],[100.92869897300005,15.487688026000058],[101.00207691800006,15.508939740000073],[101.03150078000004,15.493009584000049],[100.98381276600009,15.567052363000073],[100.94827134100007,15.573019584000065],[100.94800010800009,15.600949916000047],[100.85760607400005,15.613927882000041]]]}},{"type":"Feature","properties":{"code":"670507","name":"พุเตย","parentCode":"6705"},"geometry":{"type":"Polygon","coordinates":[[[101.03795542800003,15.601680316000056],[100.97733718600006,15.636187428000028],[100.94827134100007,15.573019584000065],[100.98381276600009,15.567052363000073],[101.08001616500007,15.551582378000035],[101.09370478700004,15.561499144000038],[101.08829714600006,15.577422807000062],[101.03795542800003,15.601680316000056]]]}},{"type":"Feature","properties":{"code":"670204","name":"พุทธบาท","parentCode":"6702"},"geometry":{"type":"Polygon","coordinates":[[[100.94206206400008,16.308623728000043],[100.86430827800007,16.33154797000003],[100.84557410700006,16.31435519200005],[100.83994906400005,16.268309405000025],[100.79018470400007,16.27283694600004],[100.82658350200006,16.186537678000036],[100.90244572100005,16.219023795000055],[100.93350270200006,16.154991980000034],[100.98020890900005,16.185879707000026],[100.99413378100007,16.213513996000074],[100.94206206400008,16.308623728000043]]]}},{"type":"Feature","properties":{"code":"670607","name":"ประดู่งาม","parentCode":"6706"},"geometry":{"type":"Polygon","coordinates":[[[101.01757155900003,15.450953434000041],[100.93157161100004,15.467821234000041],[100.93169243500006,15.414653034000025],[100.97563370700004,15.416021413000067],[101.01757155900003,15.450953434000041]]]}},{"type":"Feature","properties":{"code":"670117","name":"ระวิง","parentCode":"6701"},"geometry":{"type":"Polygon","coordinates":[[[101.17657010600004,16.146631832000025],[101.13810135000006,16.208565255000053],[101.10271746500007,16.17515342200005],[101.09799560200008,16.123669835000044],[101.10815859300004,16.09986194800007],[101.17171497200007,16.109637392000025],[101.17657010600004,16.146631832000025]]]}},{"type":"Feature","properties":{"code":"671104","name":"ริมสีม่วง","parentCode":"6711"},"geometry":{"type":"Polygon","coordinates":[[[101.05567291200003,16.57568320400003],[101.01221963200004,16.570206017000032],[100.99080290700005,16.534928356000023],[101.00654601100007,16.477548187000025],[101.11481519300008,16.47633582900005],[101.10400863500007,16.547223505000034],[101.05567291200003,16.57568320400003]]]}},{"type":"Feature","properties":{"code":"670808","name":"สระแก้ว","parentCode":"6708"},"geometry":{"type":"Polygon","coordinates":[[[101.36425765200005,15.930975459000024],[101.30214838800003,15.942300277000072],[101.24796881900005,15.912619323000058],[101.24063888300009,15.912318563000042],[101.18452209000009,15.876257899000052],[101.19672923800005,15.833037212000022],[101.24721456100008,15.860320772000023],[101.32669867100009,15.851395489000026],[101.32865011300004,15.857937027000048],[101.36425765200005,15.930975459000024]]]}},{"type":"Feature","properties":{"code":"670602","name":"สระกรวด","parentCode":"6706"},"geometry":{"type":"Polygon","coordinates":[[[101.09826071300006,15.443015374000026],[101.01757155900003,15.450953434000041],[100.97563370700004,15.416021413000067],[100.97862445000004,15.367443607000041],[101.02808669000007,15.393553484000051],[101.08836321300004,15.390255196000055],[101.10111717000007,15.43632105200004],[101.09826071300006,15.443015374000026]]]}},{"type":"Feature","properties":{"code":"670502","name":"สระประดู่","parentCode":"6705"},"geometry":{"type":"Polygon","coordinates":[[[101.08372960700007,15.659733637000045],[101.01988564400006,15.653271564000022],[101.03795542800003,15.601680316000056],[101.08829714600006,15.577422807000062],[101.09582109100006,15.592393522000066],[101.08372960700007,15.659733637000045]]]}},{"type":"Feature","properties":{"code":"670104","name":"สะเดียง","parentCode":"6701"},"geometry":{"type":"Polygon","coordinates":[[[101.17654029600004,16.46207042900005],[101.14067830500005,16.465679202000047],[101.10952383700004,16.38192986400003],[101.12119356000005,16.383006753000075],[101.15301591700006,16.381244835000075],[101.18333575300005,16.414996931000076],[101.17654029600004,16.46207042900005]],[[101.14939380100009,16.438011352000046],[101.16903074500004,16.40070655100004],[101.13418360600008,16.42028342800006],[101.14939380100009,16.438011352000046]]]}},{"type":"Feature","properties":{"code":"671105","name":"สะเดาะพง","parentCode":"6711"},"geometry":{"type":"Polygon","coordinates":[[[101.01221963200004,16.570206017000032],[100.95703975300006,16.593617987000073],[100.92428654500009,16.550135133000026],[100.96170076600004,16.513329678000048],[101.00654601100007,16.477548187000025],[100.99080290700005,16.534928356000023],[101.01221963200004,16.570206017000032]]]}},{"type":"Feature","properties":{"code":"670307","name":"สักหลง","parentCode":"6703"},"geometry":{"type":"Polygon","coordinates":[[[101.30958768300007,16.836177906000046],[101.26737608800005,16.872068381000076],[101.24957037100006,16.84662050000003],[101.23882445900006,16.825519574000054],[101.25649831800007,16.80283976100003],[101.26763527600008,16.80546342400004],[101.28610307900004,16.81968364100004],[101.30958768300007,16.836177906000046]]]}},{"type":"Feature","properties":{"code":"670210","name":"ศาลาลาย","parentCode":"6702"},"geometry":{"type":"Polygon","coordinates":[[[100.84516464900008,16.127986108000073],[100.76974896500008,16.131850713000063],[100.77275895400004,16.12335083100004],[100.79061681300004,16.088953502000038],[100.80899298100007,16.05528759300006],[100.87314175700004,16.074213753000038],[100.88867412000008,16.09245185900005],[100.84516464900008,16.127986108000073]]]}},{"type":"Feature","properties":{"code":"670503","name":"สามแยก","parentCode":"6705"},"geometry":{"type":"Polygon","coordinates":[[[101.05612576300007,15.76064668600003],[101.01306833700005,15.747469625000065],[100.96146155600007,15.732945571000073],[100.95125773900008,15.727927093000062],[100.98000876300006,15.705887528000062],[101.01988564400006,15.653271564000022],[101.08372960700007,15.659733637000045],[101.08713374700005,15.678792395000073],[101.05612576300007,15.76064668600003]]]}},{"type":"Feature","properties":{"code":"670802","name":"ซับไม้แดง","parentCode":"6708"},"geometry":{"type":"Polygon","coordinates":[[[100.96146155600007,15.732945571000073],[100.97113266600007,15.810911673000078],[100.91426490000003,15.863262537000026],[100.87875635800003,15.828326082000046],[100.85289615100004,15.797692507000022],[100.90546907300006,15.77344996100004],[100.90388620600004,15.737535343000047],[100.95125773900008,15.727927093000062],[100.96146155600007,15.732945571000073]]]}},{"type":"Feature","properties":{"code":"670514","name":"ซับน้อย","parentCode":"6705"},"geometry":{"type":"Polygon","coordinates":[[[100.90388620600004,15.737535343000047],[100.81852095600004,15.713012298000024],[100.82726875400004,15.664041517000044],[100.82562486800003,15.615055859000051],[100.85760607400005,15.613927882000041],[100.92349186500007,15.63260744400003],[100.98000876300006,15.705887528000062],[100.95125773900008,15.727927093000062],[100.90388620600004,15.737535343000047]]]}},{"type":"Feature","properties":{"code":"670208","name":"ซับพุทรา","parentCode":"6702"},"geometry":{"type":"Polygon","coordinates":[[[100.98880550400008,16.041788444000076],[100.93975179300008,16.063757258000066],[100.90724431900009,16.107125432000032],[100.88867412000008,16.09245185900005],[100.87314175700004,16.074213753000038],[100.87779538500007,15.997353753000027],[100.90216375600005,15.989245181000058],[100.97329382600009,15.996068926000078],[100.98880550400008,16.041788444000076]]]}},{"type":"Feature","properties":{"code":"671003","name":"ซับเปิบ","parentCode":"6710"},"geometry":{"type":"Polygon","coordinates":[[[100.98481401600009,16.37796428300004],[100.85476462900004,16.43776450000007],[100.84117704400006,16.40822254400007],[100.86430827800007,16.33154797000003],[100.94206206400008,16.308623728000043],[100.96039556500006,16.31536752200003],[100.98481401600009,16.37796428300004]]]}},{"type":"Feature","properties":{"code":"670801","name":"ซับสมอทอด","parentCode":"6708"},"geometry":{"type":"Polygon","coordinates":[[[101.00963057400008,15.838786516000027],[100.93943062400007,15.871666856000047],[100.91426490000003,15.863262537000026],[100.97113266600007,15.810911673000078],[100.96146155600007,15.732945571000073],[101.01306833700005,15.747469625000065],[101.00963057400008,15.838786516000027]]]}},{"type":"Feature","properties":{"code":"670510","name":"ซับสมบูรณ์","parentCode":"6705"},"geometry":{"type":"Polygon","coordinates":[[[101.01988564400006,15.653271564000022],[100.98000876300006,15.705887528000062],[100.92349186500007,15.63260744400003],[100.97733718600006,15.636187428000028],[101.03795542800003,15.601680316000056],[101.01988564400006,15.653271564000022]]]}},{"type":"Feature","properties":{"code":"670807","name":"ศรีมงคล","parentCode":"6708"},"geometry":{"type":"Polygon","coordinates":[[[100.87875635800003,15.828326082000046],[100.80822834500003,15.835060267000074],[100.79891042400004,15.828960334000044],[100.81262041900004,15.780968527000027],[100.81499178600006,15.775328925000053],[100.85289615100004,15.797692507000022],[100.87875635800003,15.828326082000046]]]}},{"type":"Feature","properties":{"code":"670601","name":"ศรีเทพ","parentCode":"6706"},"geometry":{"type":"Polygon","coordinates":[[[101.30439086500007,15.519682568000064],[101.16912977600003,15.485509037000043],[101.08978949500005,15.487420370000052],[101.08995526300004,15.487094073000037],[101.09826071300006,15.443015374000026],[101.10111717000007,15.43632105200004],[101.13190650600006,15.388348417000032],[101.19663098400008,15.392685801000027],[101.21429521700009,15.451859980000052],[101.25069358300004,15.449415669000075],[101.30226546700004,15.502778853000052],[101.30439086500007,15.519682568000064]]]}},{"type":"Feature","properties":{"code":"670405","name":"ศิลา","parentCode":"6704"},"geometry":{"type":"Polygon","coordinates":[[[101.46817304500007,17.093047195000054],[101.45274086900008,17.139571088000025],[101.39847884100004,17.17797431400004],[101.31819373600007,17.13669036600004],[101.22623441800005,17.075855975000025],[101.28705370700004,17.016407754000056],[101.31109797600004,16.985128248000024],[101.34423679100007,16.983276686000067],[101.38208166600003,17.041491232000055],[101.46817304500007,17.093047195000054]]]}},{"type":"Feature","properties":{"code":"670102","name":"ตะเบาะ","parentCode":"6701"},"geometry":{"type":"Polygon","coordinates":[[[101.39291008200007,16.37281520500005],[101.25257999300004,16.370802489000027],[101.21065338100004,16.356799721000073],[101.22977568200008,16.301744633000055],[101.21453151300005,16.275628133000055],[101.25076467100007,16.256758261000073],[101.37040931100006,16.275789904000078],[101.39291008200007,16.37281520500005]]]}},{"type":"Feature","properties":{"code":"670209","name":"ตะกุดไร","parentCode":"6702"},"geometry":{"type":"Polygon","coordinates":[[[100.74175602500009,16.257190346000073],[100.71811169700004,16.256592200000057],[100.68374866100004,16.202707993000047],[100.70402622700004,16.199865072000023],[100.68840104600008,16.130788924000058],[100.77275895400004,16.12335083100004],[100.76974896500008,16.131850713000063],[100.74149436500005,16.18893588900005],[100.74175602500009,16.257190346000073]]]}},{"type":"Feature","properties":{"code":"670303","name":"ตาลเดี่ยว","parentCode":"6703"},"geometry":{"type":"Polygon","coordinates":[[[101.25779822800007,16.761011105000023],[101.26763527600008,16.80546342400004],[101.25649831800007,16.80283976100003],[101.24548733900008,16.797625634000042],[101.25252270100003,16.772156911000025],[101.23841388200003,16.729869407000024],[101.26400226200008,16.72742273500006],[101.26350145000004,16.746491830000025],[101.25779822800007,16.761011105000023]]]}},{"type":"Feature","properties":{"code":"670409","name":"ตาดกลอย","parentCode":"6704"},"geometry":{"type":"Polygon","coordinates":[[[101.47503018200007,17.08921573600003],[101.46817304500007,17.093047195000054],[101.38208166600003,17.041491232000055],[101.34423679100007,16.983276686000067],[101.31109797600004,16.985128248000024],[101.29129562600008,16.969114511000043],[101.31465479300005,16.92189524500003],[101.32677877000003,16.93560412100004],[101.41694172500007,16.93170539500005],[101.43185652400007,17.00818631900006],[101.50427930500007,17.010135199000047],[101.47503018200007,17.08921573600003]]]}},{"type":"Feature","properties":{"code":"670704","name":"ท่าแดง","parentCode":"6707"},"geometry":{"type":"Polygon","coordinates":[[[101.17816228600009,16.009716929000035],[101.12356900400005,15.993547715000034],[101.13783618000008,15.945120312000029],[101.14263497900004,15.931087663000028],[101.24063888300009,15.912318563000042],[101.24796881900005,15.912619323000058],[101.24664175300006,15.941859377000071],[101.17816228600009,16.009716929000035]]]}},{"type":"Feature","properties":{"code":"670713","name":"ท่าด้วง","parentCode":"6707"},"geometry":{"type":"Polygon","coordinates":[[[101.36497552600008,16.075004079000053],[101.33729489400008,16.113032798000063],[101.24754291100004,16.051132731000052],[101.26582880400008,16.02206321600005],[101.24664175300006,15.941859377000071],[101.24796881900005,15.912619323000058],[101.30214838800003,15.942300277000072],[101.36425765200005,15.930975459000024],[101.37201794200007,15.95436752300003],[101.36497552600008,16.075004079000053]]]}},{"type":"Feature","properties":{"code":"670308","name":"ท่าอิบุญ","parentCode":"6703"},"geometry":{"type":"Polygon","coordinates":[[[101.41694172500007,16.93170539500005],[101.32677877000003,16.93560412100004],[101.31465479300005,16.92189524500003],[101.28366300900007,16.92006507900004],[101.26733318400005,16.883374375000074],[101.26737608800005,16.872068381000076],[101.30958768300007,16.836177906000046],[101.37964362100007,16.849912635000067],[101.40745499300004,16.88568674100003],[101.41694172500007,16.93170539500005]]]}},{"type":"Feature","properties":{"code":"670203","name":"ท่าข้าม","parentCode":"6702"},"geometry":{"type":"Polygon","coordinates":[[[100.79018470400007,16.27283694600004],[100.74175602500009,16.257190346000073],[100.74149436500005,16.18893588900005],[100.76974896500008,16.131850713000063],[100.84516464900008,16.127986108000073],[100.82658350200006,16.186537678000036],[100.79018470400007,16.27283694600004]]]}},{"type":"Feature","properties":{"code":"670107","name":"ท่าพล","parentCode":"6701"},"geometry":{"type":"Polygon","coordinates":[[[101.21722667400007,16.560790949000022],[101.14224516800004,16.63117287800003],[101.05159583600005,16.64516470500007],[101.07189470300005,16.606178944000078],[101.05567291200003,16.57568320400003],[101.10400863500007,16.547223505000034],[101.19668153300006,16.53524153500007],[101.21307045300006,16.550713615000063],[101.21722667400007,16.560790949000022]]]}},{"type":"Feature","properties":{"code":"670501","name":"ท่าโรง","parentCode":"6705"},"geometry":{"type":"Polygon","coordinates":[[[101.17416908300004,15.729707638000036],[101.17213395200008,15.737685894000037],[101.11267345300007,15.705886832000033],[101.08713374700005,15.678792395000073],[101.08372960700007,15.659733637000045],[101.09582109100006,15.592393522000066],[101.12138416500005,15.615797891000057],[101.16868197800005,15.605124664000073],[101.19982657000008,15.643570164000039],[101.17416908300004,15.729707638000036]]]}},{"type":"Feature","properties":{"code":"671002","name":"ท้ายดง","parentCode":"6710"},"geometry":{"type":"Polygon","coordinates":[[[100.75530495200007,16.34044692300006],[100.65146167000006,16.320812990000036],[100.65145192700004,16.320786549000047],[100.67044704100005,16.272380356000042],[100.67847673000006,16.271036356000025],[100.73542204300009,16.31170472900004],[100.77204011300006,16.316057466000075],[100.75530495200007,16.34044692300006]]]}},{"type":"Feature","properties":{"code":"671101","name":"ทุ่งสมอ","parentCode":"6711"},"geometry":{"type":"Polygon","coordinates":[[[101.09923545600009,16.73233770400003],[101.06183294500005,16.72881359200005],[100.91980197000004,16.756963531000054],[100.94256225300006,16.68106930600004],[101.05628326000004,16.678829318000055],[101.08978949300007,16.706717910000066],[101.09923545600009,16.73233770400003]]]}},{"type":"Feature","properties":{"code":"670407","name":"วังบาล","parentCode":"6704"},"geometry":{"type":"Polygon","coordinates":[[[101.21832925400008,16.919480303000057],[101.15826154800004,16.972423890000073],[101.11413747000006,16.978284177000035],[101.10053165400006,16.911551690000067],[101.07904047000005,16.899557526000024],[101.19919377900004,16.89403783100005],[101.21832925400008,16.919480303000057]]]}},{"type":"Feature","properties":{"code":"670711","name":"วังโบสถ์","parentCode":"6707"},"geometry":{"type":"Polygon","coordinates":[[[101.18028770600006,16.012496292000037],[101.17523377100008,16.08062915000005],[101.19263748200007,16.148332614000026],[101.17657010600004,16.146631832000025],[101.17171497200007,16.109637392000025],[101.10815859300004,16.09986194800007],[101.11611915300006,16.002456863000077],[101.12356900400005,15.993547715000034],[101.17816228600009,16.009716929000035],[101.18028770600006,16.012496292000037]]]}},{"type":"Feature","properties":{"code":"670113","name":"วังชมภู","parentCode":"6701"},"geometry":{"type":"Polygon","coordinates":[[[101.08238759800008,16.312758489000032],[101.03624418600003,16.29927962100004],[100.96039556500006,16.31536752200003],[100.94206206400008,16.308623728000043],[100.99413378100007,16.213513996000074],[101.04901001900004,16.203092733000062],[101.08497996200003,16.242741614000067],[101.08238759800008,16.312758489000032]]]}},{"type":"Feature","properties":{"code":"671004","name":"วังหิน","parentCode":"6710"},"geometry":{"type":"Polygon","coordinates":[[[100.80544148700005,16.44842962000007],[100.70869051900007,16.419132569000055],[100.70656148000006,16.384677562000036],[100.65146167000006,16.320812990000036],[100.75530495200007,16.34044692300006],[100.84117704400006,16.40822254400007],[100.85476462900004,16.43776450000007],[100.80544148700005,16.44842962000007]]]}},{"type":"Feature","properties":{"code":"670903","name":"วังกวาง","parentCode":"6709"},"geometry":{"type":"Polygon","coordinates":[[[101.67256251300006,16.958673313000077],[101.62878108000007,17.045208407000075],[101.61297585800008,17.004288649000046],[101.56320644900006,16.989817724000034],[101.53883774300004,16.92153127100005],[101.49775795000005,16.909187675000055],[101.48182696400005,16.87222180300006],[101.43336447000007,16.84654806800006],[101.44030041100007,16.825342443000068],[101.50375117800007,16.857538900000065],[101.51914987100008,16.808932796000022],[101.53231900600008,16.847613082000066],[101.60479958300004,16.878862866000077],[101.68638246800003,16.79848012100007],[101.71877720900005,16.815525940000043],[101.67777224900004,16.86789760100004],[101.67256251300006,16.958673313000077]]]}},{"type":"Feature","properties":{"code":"670805","name":"วังพิกุล","parentCode":"6708"},"geometry":{"type":"Polygon","coordinates":[[[100.85289615100004,15.797692507000022],[100.81499178600006,15.775328925000053],[100.81852095600004,15.713012298000024],[100.90388620600004,15.737535343000047],[100.90546907300006,15.77344996100004],[100.85289615100004,15.797692507000022]]]}},{"type":"Feature","properties":{"code":"671001","name":"วังโป่ง","parentCode":"6710"},"geometry":{"type":"Polygon","coordinates":[[[100.86430827800007,16.33154797000003],[100.84117704400006,16.40822254400007],[100.75530495200007,16.34044692300006],[100.77204011300006,16.316057466000075],[100.84557410700006,16.31435519200005],[100.86430827800007,16.33154797000003]]]}},{"type":"Feature","properties":{"code":"671005","name":"วังศาล","parentCode":"6710"},"geometry":{"type":"Polygon","coordinates":[[[100.84557410700006,16.31435519200005],[100.77204011300006,16.316057466000075],[100.73542204300009,16.31170472900004],[100.67847673000006,16.271036356000025],[100.71811169700004,16.256592200000057],[100.74175602500009,16.257190346000073],[100.79018470400007,16.27283694600004],[100.83994906400005,16.268309405000025],[100.84557410700006,16.31435519200005]]]}},{"type":"Feature","properties":{"code":"670708","name":"วังท่าดี","parentCode":"6707"},"geometry":{"type":"Polygon","coordinates":[[[101.24754291100004,16.051132731000052],[101.18028770600006,16.012496292000037],[101.17816228600009,16.009716929000035],[101.24664175300006,15.941859377000071],[101.26582880400008,16.02206321600005],[101.24754291100004,16.051132731000052]]]}},{"type":"Feature","properties":{"code":"670512","name":"วังใหญ่","parentCode":"6705"},"geometry":{"type":"Polygon","coordinates":[[[100.97733718600006,15.636187428000028],[100.92349186500007,15.63260744400003],[100.85760607400005,15.613927882000041],[100.94800010800009,15.600949916000047],[100.94827134100007,15.573019584000065],[100.97733718600006,15.636187428000028]]]}},{"type":"Feature","properties":{"code":"670302","name":"วัดป่า","parentCode":"6703"},"geometry":{"type":"Polygon","coordinates":[[[101.25649831800007,16.80283976100003],[101.23882445900006,16.825519574000054],[101.21684227300005,16.80096203900007],[101.21136713000004,16.779667623000023],[101.22989791800006,16.773893042000054],[101.24548733900008,16.797625634000042],[101.25649831800007,16.80283976100003]]]}},{"type":"Feature","properties":{"code":"670712","name":"ยางงาม","parentCode":"6707"},"geometry":{"type":"Polygon","coordinates":[[[100.98596578800004,16.137261912000042],[100.92552499700008,16.13293485500003],[100.90724431900009,16.107125432000032],[100.93975179300008,16.063757258000066],[100.98880550400008,16.041788444000076],[101.07139488600006,16.01460719000005],[101.08064616100006,16.045303878000027],[101.02908467200007,16.109417903000065],[100.98596578800004,16.137261912000042]]]}},{"type":"Feature","properties":{"code":"670513","name":"ยางสาว","parentCode":"6705"},"geometry":{"type":"Polygon","coordinates":[[[101.32669867100009,15.851395489000026],[101.24721456100008,15.860320772000023],[101.26675951600004,15.820165458000076],[101.17213395200008,15.737685894000037],[101.17416908300004,15.729707638000036],[101.33666076600008,15.723157557000036],[101.33632334300006,15.75302154600007],[101.31963413200003,15.788739503000045],[101.32669867100009,15.851395489000026]]]}}]}