{"type":"FeatureCollection","features":[{"type":"Feature","properties":{"code":"700808","name":"อ่างหิน","parentCode":"7008"},"geometry":{"type":"Polygon","coordinates":[[[99.68386888300006,13.502351306000037],[99.58455913500006,13.504197236000039],[99.54153322600007,13.417986107000047],[99.58520981700008,13.406308602000024],[99.66326199000008,13.440394551000054],[99.73078668700003,13.44902922500006],[99.70488494900007,13.482401408000044],[99.68386888300006,13.502351306000037]]]}},{"type":"Feature","properties":{"code":"700108","name":"อ่างทอง","parentCode":"7001"},"geometry":{"type":"Polygon","coordinates":[[[99.79933118300005,13.488016978000076],[99.77602623700005,13.49385845200004],[99.76400773500006,13.450340528000027],[99.78539098300007,13.445522913000048],[99.81447671300003,13.445865189000074],[99.79933118300005,13.488016978000076]]]}},{"type":"Feature","properties":{"code":"701002","name":"บ้านบึง","parentCode":"7010"},"geometry":{"type":"Polygon","coordinates":[[[99.21003922400007,13.208078904000047],[99.27191953800008,13.148793589000036],[99.32493894000004,13.178546079000057],[99.32331207500005,13.222852641000031],[99.35123799600007,13.243744185000025],[99.44248258900006,13.183454955000059],[99.50666288300005,13.180379064000022],[99.52929815300007,13.207145706000063],[99.49867200500006,13.30153249500006],[99.52809599900007,13.351905417000069],[99.52156650100005,13.400956746000077],[99.49200678900007,13.403012471000068],[99.36146970900006,13.342823046000035],[99.32782826000005,13.369554884000024],[99.26788174800004,13.303157523000039],[99.22320298100004,13.300804404000075],[99.19882698100008,13.329131193000023],[99.18711022600007,13.291114209000057],[99.21003922400007,13.208078904000047]]]}},{"type":"Feature","properties":{"code":"701001","name":"บ้านคา","parentCode":"7010"},"geometry":{"type":"Polygon","coordinates":[[[99.34786425300007,13.513300833000073],[99.33438786600004,13.437055225000051],[99.35487627200007,13.40951109200006],[99.32782826000005,13.369554884000024],[99.36146970900006,13.342823046000035],[99.49200678900007,13.403012471000068],[99.45769024600008,13.394461000000035],[99.40372784800007,13.450154963000045],[99.41796031700005,13.491233556000054],[99.38418821900007,13.482173787000022],[99.34786425300007,13.513300833000073]]]}},{"type":"Feature","properties":{"code":"700706","name":"บ้านฆ้อง","parentCode":"7007"},"geometry":{"type":"Polygon","coordinates":[[[99.90405672200006,13.68541865900005],[99.86423361700008,13.696508317000053],[99.86249839100009,13.678190095000048],[99.90459783900008,13.655587456000035],[99.90744403800005,13.683043429000065],[99.90405672200006,13.68541865900005]]]}},{"type":"Feature","properties":{"code":"700704","name":"บ้านเลือก","parentCode":"7007"},"geometry":{"type":"Polygon","coordinates":[[[99.88349309700004,13.749142231000064],[99.87405946700005,13.748298329000022],[99.86423361700008,13.696508317000053],[99.90405672200006,13.68541865900005],[99.90758245200004,13.727135933000056],[99.90093244200006,13.740541824000047],[99.88349309700004,13.749142231000064]]]}},{"type":"Feature","properties":{"code":"700510","name":"บ้านม่วง","parentCode":"7005"},"geometry":{"type":"Polygon","coordinates":[[[99.81100857600006,13.78344670000007],[99.79072637200005,13.766910475000032],[99.83834976900005,13.747287072000063],[99.84199593800008,13.756809051000062],[99.84619776700004,13.770927310000047],[99.81100857600006,13.78344670000007]]]}},{"type":"Feature","properties":{"code":"700501","name":"บ้านโป่ง","parentCode":"7005"},"geometry":{"type":"Polygon","coordinates":[[[99.89169423400006,13.815771146000031],[99.86431187100004,13.824922571000059],[99.87155329800004,13.805791942000042],[99.89169423400006,13.815771146000031]]]}},{"type":"Feature","properties":{"code":"700122","name":"บ้านไร่","parentCode":"7001"},"geometry":{"type":"Polygon","coordinates":[[[99.85963579800006,13.524870656000076],[99.84165609000007,13.540019784000037],[99.82793943500008,13.519586231000062],[99.84586307700005,13.490568243000041],[99.86063993300007,13.494745676000036],[99.85963579800006,13.524870656000076]]]}},{"type":"Feature","properties":{"code":"700408","name":"บ้านไร่","parentCode":"7004"},"geometry":{"type":"Polygon","coordinates":[[[99.93081909900008,13.625477519000071],[99.90838353900006,13.633233268000026],[99.88904678000006,13.609922987000061],[99.88919910800007,13.589483146000077],[99.88757289500006,13.579898668000055],[99.89883245600004,13.582519538000042],[99.93081909900008,13.625477519000071]]]}},{"type":"Feature","properties":{"code":"700707","name":"บ้านสิงห์","parentCode":"7007"},"geometry":{"type":"Polygon","coordinates":[[[99.90459783900008,13.655587456000035],[99.86249839100009,13.678190095000048],[99.85221107500007,13.652918778000071],[99.87645208700008,13.631202036000047],[99.88904678000006,13.609922987000061],[99.90838353900006,13.633233268000026],[99.90459783900008,13.655587456000035]]]}},{"type":"Feature","properties":{"code":"700118","name":"บางป่า","parentCode":"7001"},"geometry":{"type":"Polygon","coordinates":[[[99.89883245600004,13.582519538000042],[99.88757289500006,13.579898668000055],[99.86865560600006,13.554945642000064],[99.86572170600004,13.531337051000037],[99.88106829400004,13.530330236000054],[99.90224705500003,13.528047516000072],[99.89883245600004,13.582519538000042]]]}},{"type":"Feature","properties":{"code":"700601","name":"บางแพ","parentCode":"7006"},"geometry":{"type":"Polygon","coordinates":[[[99.98412848200007,13.670557150000036],[99.98257701000006,13.733333019000042],[99.97354880100005,13.728837548000058],[99.96017556000004,13.72185182100003],[99.91908149300008,13.683503942000073],[99.93161911200008,13.659397497000043],[99.98412848200007,13.670557150000036]]]}},{"type":"Feature","properties":{"code":"700714","name":"บางโตนด","parentCode":"7007"},"geometry":{"type":"Polygon","coordinates":[[[99.81504054000004,13.669935550000048],[99.79085098400009,13.681524612000032],[99.78580224500007,13.671073491000072],[99.78074703000004,13.636717808000071],[99.78768146800007,13.628468910000038],[99.81066414900005,13.625465512000062],[99.81615614300006,13.660085959000071],[99.81504054000004,13.669935550000048]]]}},{"type":"Feature","properties":{"code":"700809","name":"บ่อกระดาน","parentCode":"7008"},"geometry":{"type":"Polygon","coordinates":[[[99.84462710300005,13.459729392000042],[99.83957994500008,13.461868952000032],[99.81447671300003,13.445865189000074],[99.78539098300007,13.445522913000048],[99.78189683400007,13.42734923100005],[99.80748644200008,13.426491207000026],[99.84642758100006,13.43372435300006],[99.85354242100004,13.43713092400003],[99.84462710300005,13.459729392000042]]]}},{"type":"Feature","properties":{"code":"700203","name":"เบิกไพร","parentCode":"7002"},"geometry":{"type":"Polygon","coordinates":[[[99.53674708100004,13.72603672200006],[99.47127862500008,13.707361586000047],[99.49180343100005,13.653920439000046],[99.56193286700005,13.619454426000061],[99.57376781100004,13.692622135000022],[99.55689184900007,13.705263527000056],[99.53674708100004,13.72603672200006]]]}},{"type":"Feature","properties":{"code":"700514","name":"เบิกไพร","parentCode":"7005"},"geometry":{"type":"Polygon","coordinates":[[[99.86489866100004,13.84184459200003],[99.85238482100004,13.844765910000035],[99.81912851200008,13.826472458000069],[99.80092272300004,13.82506692000004],[99.81204287200006,13.817076496000027],[99.86406257400006,13.791801014000043],[99.86619080700007,13.80085654900006],[99.87155329800004,13.805791942000042],[99.86431187100004,13.824922571000059],[99.86489866100004,13.84184459200003]]]}},{"type":"Feature","properties":{"code":"700407","name":"บัวงาม","parentCode":"7004"},"geometry":{"type":"Polygon","coordinates":[[[100.03110954200008,13.612613751000026],[99.99626349500005,13.643507721000049],[99.98629597200005,13.641444364000051],[100.00629792200004,13.58472114500006],[100.02293136000009,13.57642368200004],[100.03722203700005,13.582497471000067],[100.03110954200008,13.612613751000026]]]}},{"type":"Feature","properties":{"code":"700711","name":"ชำแระ","parentCode":"7007"},"geometry":{"type":"Polygon","coordinates":[[[99.83834976900005,13.747287072000063],[99.79072637200005,13.766910475000032],[99.78186606600008,13.751899149000053],[99.80703374600006,13.714999678000027],[99.81827826100005,13.714701516000048],[99.83920982400008,13.743775127000049],[99.83834976900005,13.747287072000063]]]}},{"type":"Feature","properties":{"code":"700102","name":"เจดีย์หัก","parentCode":"7001"},"geometry":{"type":"Polygon","coordinates":[[[99.80502103200007,13.545863922000024],[99.79165146300005,13.58219465600007],[99.78821926400008,13.580466913000066],[99.76201098800004,13.559079612000062],[99.75740582300006,13.533022896000034],[99.76649526900007,13.51766510400006],[99.79221385900007,13.526817472000062],[99.80502103200007,13.545863922000024]]]}},{"type":"Feature","properties":{"code":"700709","name":"เจ็ดเสมียน","parentCode":"7007"},"geometry":{"type":"Polygon","coordinates":[[[99.81615614300006,13.660085959000071],[99.81066414900005,13.625465512000062],[99.83442518400005,13.61463442400003],[99.84387607600007,13.643792217000055],[99.83987129600007,13.653338656000074],[99.81615614300006,13.660085959000071]]]}},{"type":"Feature","properties":{"code":"700201","name":"จอมบึง","parentCode":"7002"},"geometry":{"type":"Polygon","coordinates":[[[99.66052662200008,13.61242919700004],[99.63029203300005,13.668150125000068],[99.57376781100004,13.692622135000022],[99.56193286700005,13.619454426000061],[99.60624937900008,13.55385396400004],[99.61576705800007,13.583492675000059],[99.66403156500007,13.587724234000063],[99.66052662200008,13.61242919700004]]]}},{"type":"Feature","properties":{"code":"700902","name":"จอมประทัด","parentCode":"7009"},"geometry":{"type":"Polygon","coordinates":[[[99.89037029100007,13.429953157000057],[99.89114946800004,13.438259617000028],[99.85354242100004,13.43713092400003],[99.84642758100006,13.43372435300006],[99.84153404900007,13.406230332000064],[99.85139197500007,13.406577425000023],[99.88368261600004,13.416274197000064],[99.89037029100007,13.429953157000057]]]}},{"type":"Feature","properties":{"code":"700401","name":"ดำเนินสะดวก","parentCode":"7004"},"geometry":{"type":"Polygon","coordinates":[[[99.97385641700004,13.517722355000046],[99.96802029900005,13.534107278000022],[99.95140663700005,13.526091035000036],[99.94134556100005,13.51030970100004],[99.96628666500004,13.515224446000047],[99.97385641700004,13.517722355000046]]]}},{"type":"Feature","properties":{"code":"700204","name":"ด่านทับตะโก","parentCode":"7002"},"geometry":{"type":"Polygon","coordinates":[[[99.47127862500008,13.707361586000047],[99.33649119600005,13.699395479000032],[99.37245043400009,13.648433044000058],[99.40556195700003,13.652257461000033],[99.43360328100005,13.600621036000064],[99.46750024000005,13.608659138000064],[99.49180343100005,13.653920439000046],[99.47127862500008,13.707361586000047]]]}},{"type":"Feature","properties":{"code":"700606","name":"ดอนคา","parentCode":"7006"},"geometry":{"type":"Polygon","coordinates":[[[100.06788866400007,13.69335264700004],[100.03332972800007,13.694684342000073],[99.98494909500005,13.670822225000052],[99.99361311900009,13.658371759000033],[100.06034109300003,13.659446503000026],[100.06026825100008,13.660286144000054],[100.06788866400007,13.69335264700004]]]}},{"type":"Feature","properties":{"code":"700406","name":"ดอนคลัง","parentCode":"7004"},"geometry":{"type":"Polygon","coordinates":[[[99.98629597200005,13.641444364000051],[99.96260424700006,13.639055619000032],[99.96182695100003,13.619917200000032],[99.99456266000004,13.576598098000034],[100.00629792200004,13.58472114500006],[99.98629597200005,13.641444364000051]]]}},{"type":"Feature","properties":{"code":"700507","name":"ดอนกระเบื้อง","parentCode":"7005"},"geometry":{"type":"Polygon","coordinates":[[[99.94916623100005,13.772764488000064],[99.89288470800005,13.773503627000025],[99.89411447000003,13.76275705200004],[99.93077355000008,13.767392374000053],[99.93792437800005,13.769773061000024],[99.94916623100005,13.772764488000064]]]}},{"type":"Feature","properties":{"code":"700702","name":"ดอนกระเบื้อง","parentCode":"7007"},"geometry":{"type":"Polygon","coordinates":[[[99.93077355000008,13.767392374000053],[99.89411447000003,13.76275705200004],[99.88534387800007,13.755310780000059],[99.88349309700004,13.749142231000064],[99.90093244200006,13.740541824000047],[99.93077355000008,13.767392374000053]]]}},{"type":"Feature","properties":{"code":"700405","name":"ดอนกรวย","parentCode":"7004"},"geometry":{"type":"Polygon","coordinates":[[[99.99456266000004,13.576598098000034],[99.96182695100003,13.619917200000032],[99.94840935100007,13.617550727000037],[99.94821745300004,13.556037915000047],[99.98901587000006,13.557234444000073],[99.99456266000004,13.576598098000034]]]}},{"type":"Feature","properties":{"code":"700413","name":"ดอนไผ่","parentCode":"7004"},"geometry":{"type":"Polygon","coordinates":[[[100.02293136000009,13.57642368200004],[100.00629792200004,13.58472114500006],[99.99456266000004,13.576598098000034],[99.98901587000006,13.557234444000073],[99.99391890200008,13.547160919000078],[100.00060662400006,13.528150209000046],[100.02897323700006,13.528822260000027],[100.03601509600009,13.534032277000051],[100.02293136000009,13.57642368200004]]]}},{"type":"Feature","properties":{"code":"700113","name":"ดอนแร่","parentCode":"7001"},"geometry":{"type":"Polygon","coordinates":[[[99.77602623700005,13.49385845200004],[99.76276766900008,13.505563385000073],[99.70622251900005,13.482683143000031],[99.76400773500006,13.450340528000027],[99.77602623700005,13.49385845200004]]]}},{"type":"Feature","properties":{"code":"700708","name":"ดอนทราย","parentCode":"7007"},"geometry":{"type":"Polygon","coordinates":[[[99.87645208700008,13.631202036000047],[99.85221107500007,13.652918778000071],[99.84387607600007,13.643792217000055],[99.83442518400005,13.61463442400003],[99.87645208700008,13.631202036000047]]]}},{"type":"Feature","properties":{"code":"700803","name":"ดอนทราย","parentCode":"7008"},"geometry":{"type":"Polygon","coordinates":[[[99.81572300400006,13.395667498000023],[99.72838225800007,13.384355307000021],[99.72621245800008,13.382210891000057],[99.75521939200007,13.35179297700006],[99.83092929200006,13.365152437000063],[99.82101870800005,13.396089765000056],[99.81572300400006,13.395667498000023]]]}},{"type":"Feature","properties":{"code":"700103","name":"ดอนตะโก","parentCode":"7001"},"geometry":{"type":"Polygon","coordinates":[[[99.82793943500008,13.519586231000062],[99.79221385900007,13.526817472000062],[99.76649526900007,13.51766510400006],[99.76276766900008,13.505563385000073],[99.77602623700005,13.49385845200004],[99.79933118300005,13.488016978000076],[99.82793943500008,13.519586231000062]]]}},{"type":"Feature","properties":{"code":"700605","name":"ดอนใหญ่","parentCode":"7006"},"geometry":{"type":"Polygon","coordinates":[[[100.03332972800007,13.694684342000073],[100.02207288700004,13.750169551000056],[99.99682354500004,13.742642492000073],[99.98257701000006,13.733333019000042],[99.98412848200007,13.670557150000036],[99.98494909500005,13.670822225000052],[100.03332972800007,13.694684342000073]]]}},{"type":"Feature","properties":{"code":"700114","name":"หินกอง","parentCode":"7001"},"geometry":{"type":"Polygon","coordinates":[[[99.71586522500007,13.600648983000042],[99.66052662200008,13.61242919700004],[99.66403156500007,13.587724234000063],[99.67877559800007,13.53143766200003],[99.75740582300006,13.533022896000034],[99.76201098800004,13.559079612000062],[99.71586522500007,13.600648983000042]]]}},{"type":"Feature","properties":{"code":"700603","name":"หัวโพ","parentCode":"7006"},"geometry":{"type":"Polygon","coordinates":[[[99.99361311900009,13.658371759000033],[99.98494909500005,13.670822225000052],[99.98412848200007,13.670557150000036],[99.93161911200008,13.659397497000043],[99.96260424700006,13.639055619000032],[99.98629597200005,13.641444364000051],[99.99626349500005,13.643507721000049],[99.99361311900009,13.658371759000033]]]}},{"type":"Feature","properties":{"code":"700105","name":"ห้วยไผ่","parentCode":"7001"},"geometry":{"type":"Polygon","coordinates":[[[99.75740582300006,13.533022896000034],[99.67877559800007,13.53143766200003],[99.68386888300006,13.502351306000037],[99.70488494900007,13.482401408000044],[99.70622251900005,13.482683143000031],[99.76276766900008,13.505563385000073],[99.76649526900007,13.51766510400006],[99.75740582300006,13.533022896000034]]]}},{"type":"Feature","properties":{"code":"700812","name":"ห้วยยางโทน","parentCode":"7008"},"geometry":{"type":"Polygon","coordinates":[[[99.72621245800008,13.382210891000057],[99.65700470900003,13.377643743000021],[99.63927517500008,13.351557495000066],[99.69002401400007,13.301915001000054],[99.75798935400007,13.34334565000006],[99.75521939200007,13.35179297700006],[99.72621245800008,13.382210891000057]]]}},{"type":"Feature","properties":{"code":"700205","name":"แก้มอ้น","parentCode":"7002"},"geometry":{"type":"Polygon","coordinates":[[[99.48406852000005,13.793761215000075],[99.47020767500004,13.806619688000069],[99.45827590200008,13.78358017000005],[99.35392398500005,13.753024419000042],[99.31602040000007,13.767380999000068],[99.33649119600005,13.699395479000032],[99.47127862500008,13.707361586000047],[99.53674708100004,13.72603672200006],[99.53301833100005,13.759841084000072],[99.48406852000005,13.793761215000075]]]}},{"type":"Feature","properties":{"code":"700718","name":"เขาชะงุ้ม","parentCode":"7007"},"geometry":{"type":"Polygon","coordinates":[[[99.67971080000007,13.78234376000006],[99.65149410400005,13.785323512000048],[99.63494354300008,13.703169185000036],[99.66031427700005,13.702877501000046],[99.75297445700005,13.67254084800004],[99.76930853600004,13.717169959000046],[99.67971080000007,13.78234376000006]]]}},{"type":"Feature","properties":{"code":"700513","name":"เขาขลุง","parentCode":"7005"},"geometry":{"type":"Polygon","coordinates":[[[99.69206261200009,13.83782896100007],[99.66627356800007,13.846297271000026],[99.60641461100005,13.795518733000051],[99.65149410400005,13.785323512000048],[99.67971080000007,13.78234376000006],[99.76887267200004,13.753317977000052],[99.74715421800005,13.819817627000077],[99.69206261200009,13.83782896100007]]]}},{"type":"Feature","properties":{"code":"700115","name":"เขาแร้ง","parentCode":"7001"},"geometry":{"type":"Polygon","coordinates":[[[99.78074703000004,13.636717808000071],[99.73507805700007,13.64375965000005],[99.73192572500005,13.605785519000051],[99.78527730200005,13.605202903000077],[99.78768146800007,13.628468910000038],[99.78074703000004,13.636717808000071]]]}},{"type":"Feature","properties":{"code":"700710","name":"คลองข่อย","parentCode":"7007"},"geometry":{"type":"Polygon","coordinates":[[[99.83612951000003,13.692244221000067],[99.81504054000004,13.669935550000048],[99.81615614300006,13.660085959000071],[99.83987129600007,13.653338656000074],[99.83412718600005,13.686862862000055],[99.83612951000003,13.692244221000067]]]}},{"type":"Feature","properties":{"code":"700705","name":"คลองตาคต","parentCode":"7007"},"geometry":{"type":"Polygon","coordinates":[[[99.87405946700005,13.748298329000022],[99.84199593800008,13.756809051000062],[99.83834976900005,13.747287072000063],[99.83920982400008,13.743775127000049],[99.84978545000007,13.705608694000034],[99.85245607600007,13.68108548400005],[99.83412718600005,13.686862862000055],[99.83987129600007,13.653338656000074],[99.84387607600007,13.643792217000055],[99.85221107500007,13.652918778000071],[99.86249839100009,13.678190095000048],[99.86423361700008,13.696508317000053],[99.87405946700005,13.748298329000022]]]}},{"type":"Feature","properties":{"code":"700109","name":"โคกหม้อ","parentCode":"7001"},"geometry":{"type":"Polygon","coordinates":[[[99.84389571200006,13.57990257800003],[99.83985797900004,13.587896355000055],[99.81713775800006,13.57804365800007],[99.81854271900005,13.553589628000054],[99.82402709900003,13.541255793000062],[99.84935862300006,13.557992634000072],[99.84389571200006,13.57990257800003]]]}},{"type":"Feature","properties":{"code":"700120","name":"คูบัว","parentCode":"7001"},"geometry":{"type":"Polygon","coordinates":[[[99.84586307700005,13.490568243000041],[99.82793943500008,13.519586231000062],[99.79933118300005,13.488016978000076],[99.81447671300003,13.445865189000074],[99.83957994500008,13.461868952000032],[99.84586307700005,13.490568243000041]]]}},{"type":"Feature","properties":{"code":"700412","name":"ขุนพิทักษ์","parentCode":"7004"},"geometry":{"type":"Polygon","coordinates":[[[100.02897323700006,13.528822260000027],[100.00060662400006,13.528150209000046],[99.97385641700004,13.517722355000046],[99.96628666500004,13.515224446000047],[99.96855884500008,13.490567158000033],[99.99483117300008,13.493891142000052],[100.02627364800009,13.504561636000062],[100.02951576800007,13.507781799000043],[100.02897323700006,13.528822260000027]]]}},{"type":"Feature","properties":{"code":"700107","name":"คุ้งกระถิน","parentCode":"7001"},"geometry":{"type":"Polygon","coordinates":[[[99.88106829400004,13.530330236000054],[99.86572170600004,13.531337051000037],[99.85963579800006,13.524870656000076],[99.86063993300007,13.494745676000036],[99.88916384500004,13.470097473000067],[99.89443315300008,13.474438085000031],[99.89542286400007,13.481574049000074],[99.88106829400004,13.530330236000054]]]}},{"type":"Feature","properties":{"code":"700106","name":"คุ้งน้ำวน","parentCode":"7001"},"geometry":{"type":"Polygon","coordinates":[[[99.90224705500003,13.528047516000072],[99.88106829400004,13.530330236000054],[99.89542286400007,13.481574049000074],[99.91903807800009,13.500701426000035],[99.91345807800008,13.51048323200007],[99.90839560400008,13.517350696000051],[99.90224705500003,13.528047516000072]]]}},{"type":"Feature","properties":{"code":"700511","name":"คุ้งพยอม","parentCode":"7005"},"geometry":{"type":"Polygon","coordinates":[[[99.86406257400006,13.791801014000043],[99.81204287200006,13.817076496000027],[99.80312242900004,13.807153389000064],[99.81100857600006,13.78344670000007],[99.84619776700004,13.770927310000047],[99.86406257400006,13.791801014000043]]]}},{"type":"Feature","properties":{"code":"700116","name":"เกาะพลับพลา","parentCode":"7001"},"geometry":{"type":"Polygon","coordinates":[[[99.78527730200005,13.605202903000077],[99.73192572500005,13.605785519000051],[99.71586522500007,13.600648983000042],[99.76201098800004,13.559079612000062],[99.78821926400008,13.580466913000066],[99.78527730200005,13.605202903000077]]]}},{"type":"Feature","properties":{"code":"700901","name":"เกาะศาลพระ","parentCode":"7009"},"geometry":{"type":"Polygon","coordinates":[[[99.86063993300007,13.494745676000036],[99.84586307700005,13.490568243000041],[99.83957994500008,13.461868952000032],[99.84462710300005,13.459729392000042],[99.89093776700008,13.467083641000045],[99.88916384500004,13.470097473000067],[99.86063993300007,13.494745676000036]]]}},{"type":"Feature","properties":{"code":"700503","name":"กรับใหญ่","parentCode":"7005"},"geometry":{"type":"Polygon","coordinates":[[[99.89754809800007,13.942385698000066],[99.87586105300005,13.961235181000063],[99.86405349100005,13.928038886000024],[99.84842806200004,13.896166523000034],[99.90954473500005,13.876616979000062],[99.92398135000008,13.89983983600007],[99.92702629000007,13.933968390000075],[99.89754809800007,13.942385698000066]]]}},{"type":"Feature","properties":{"code":"700515","name":"ลาดบัวขาว","parentCode":"7005"},"geometry":{"type":"Polygon","coordinates":[[[99.85238482100004,13.844765910000035],[99.82123521400007,13.857806292000078],[99.81912851200008,13.826472458000069],[99.85238482100004,13.844765910000035]]]}},{"type":"Feature","properties":{"code":"700117","name":"หลุมดิน","parentCode":"7001"},"geometry":{"type":"Polygon","coordinates":[[[99.81713775800006,13.57804365800007],[99.80873054900007,13.593281688000047],[99.79165146300005,13.58219465600007],[99.80502103200007,13.545863922000024],[99.81854271900005,13.553589628000054],[99.81713775800006,13.57804365800007]]]}},{"type":"Feature","properties":{"code":"700101","name":"หน้าเมือง","parentCode":"7001"},"geometry":{"type":"Polygon","coordinates":[[[99.82402709900003,13.541255793000062],[99.81854271900005,13.553589628000054],[99.80502103200007,13.545863922000024],[99.79221385900007,13.526817472000062],[99.82793943500008,13.519586231000062],[99.84165609000007,13.540019784000037],[99.82402709900003,13.541255793000062]]]}},{"type":"Feature","properties":{"code":"700509","name":"นครชุมน์","parentCode":"7005"},"geometry":{"type":"Polygon","coordinates":[[[99.88534387800007,13.755310780000059],[99.86619080700007,13.80085654900006],[99.86406257400006,13.791801014000043],[99.84619776700004,13.770927310000047],[99.84199593800008,13.756809051000062],[99.87405946700005,13.748298329000022],[99.88349309700004,13.749142231000064],[99.88534387800007,13.755310780000059]]]}},{"type":"Feature","properties":{"code":"700112","name":"น้ำพุ","parentCode":"7001"},"geometry":{"type":"Polygon","coordinates":[[[99.66403156500007,13.587724234000063],[99.61576705800007,13.583492675000059],[99.60624937900008,13.55385396400004],[99.58455913500006,13.504197236000039],[99.68386888300006,13.502351306000037],[99.67877559800007,13.53143766200003],[99.66403156500007,13.587724234000063]]]}},{"type":"Feature","properties":{"code":"700716","name":"นางแก้ว","parentCode":"7007"},"geometry":{"type":"Polygon","coordinates":[[[99.78632759900006,13.706520144000024],[99.76930853600004,13.717169959000046],[99.75297445700005,13.67254084800004],[99.78580224500007,13.671073491000072],[99.79085098400009,13.681524612000032],[99.78632759900006,13.706520144000024]]]}},{"type":"Feature","properties":{"code":"700104","name":"หนองกลางนา","parentCode":"7001"},"geometry":{"type":"Polygon","coordinates":[[[99.81066414900005,13.625465512000062],[99.78768146800007,13.628468910000038],[99.78527730200005,13.605202903000077],[99.78821926400008,13.580466913000066],[99.79165146300005,13.58219465600007],[99.80873054900007,13.593281688000047],[99.81066414900005,13.625465512000062]]]}},{"type":"Feature","properties":{"code":"700505","name":"หนองกบ","parentCode":"7005"},"geometry":{"type":"Polygon","coordinates":[[[99.95687397300009,13.835619571000052],[99.91560267700004,13.844313556000031],[99.89982447900007,13.810442518000059],[99.96904313000005,13.806259710000063],[99.96330364700003,13.821373984000047],[99.95687397300009,13.835619571000052]]]}},{"type":"Feature","properties":{"code":"700804","name":"หนองกระทุ่ม","parentCode":"7008"},"geometry":{"type":"Polygon","coordinates":[[[99.80748644200008,13.426491207000026],[99.78189683400007,13.42734923100005],[99.72838225800007,13.384355307000021],[99.81572300400006,13.395667498000023],[99.80748644200008,13.426491207000026]]]}},{"type":"Feature","properties":{"code":"700719","name":"หนองกวาง","parentCode":"7007"},"geometry":{"type":"Polygon","coordinates":[[[99.65149410400005,13.785323512000048],[99.60641461100005,13.795518733000051],[99.53301833100005,13.759841084000072],[99.53674708100004,13.72603672200006],[99.55689184900007,13.705263527000056],[99.63494354300008,13.703169185000036],[99.65149410400005,13.785323512000048]]]}},{"type":"Feature","properties":{"code":"700506","name":"หนองอ้อ","parentCode":"7005"},"geometry":{"type":"Polygon","coordinates":[[[99.96904313000005,13.806259710000063],[99.89982447900007,13.810442518000059],[99.89918082300005,13.805964730000028],[99.89288470800005,13.773503627000025],[99.94916623100005,13.772764488000064],[99.95385965900005,13.781729318000032],[99.97077486600006,13.801217118000068],[99.96904313000005,13.806259710000063]]]}},{"type":"Feature","properties":{"code":"701003","name":"หนองพันจันทร์","parentCode":"7010"},"geometry":{"type":"Polygon","coordinates":[[[99.54153322600007,13.417986107000047],[99.47014450200004,13.484896434000063],[99.47482732300006,13.514569481000024],[99.41796031700005,13.491233556000054],[99.40372784800007,13.450154963000045],[99.45769024600008,13.394461000000035],[99.49200678900007,13.403012471000068],[99.52156650100005,13.400956746000077],[99.54153322600007,13.417986107000047]]]}},{"type":"Feature","properties":{"code":"700703","name":"หนองโพ","parentCode":"7007"},"geometry":{"type":"Polygon","coordinates":[[[99.94821213300008,13.737627470000064],[99.93792437800005,13.769773061000024],[99.93077355000008,13.767392374000053],[99.90093244200006,13.740541824000047],[99.90758245200004,13.727135933000056],[99.94821213300008,13.737627470000064]]]}},{"type":"Feature","properties":{"code":"700512","name":"หนองปลาหมอ","parentCode":"7005"},"geometry":{"type":"Polygon","coordinates":[[[99.80312242900004,13.807153389000064],[99.74715421800005,13.819817627000077],[99.76887267200004,13.753317977000052],[99.78186606600008,13.751899149000053],[99.79072637200005,13.766910475000032],[99.81100857600006,13.78344670000007],[99.80312242900004,13.807153389000064]]]}},{"type":"Feature","properties":{"code":"700806","name":"ป่าไก่","parentCode":"7008"},"geometry":{"type":"Polygon","coordinates":[[[99.84153404900007,13.406230332000064],[99.84642758100006,13.43372435300006],[99.80748644200008,13.426491207000026],[99.81572300400006,13.395667498000023],[99.82101870800005,13.396089765000056],[99.84153404900007,13.406230332000064]]]}},{"type":"Feature","properties":{"code":"700302","name":"ป่าหวาย","parentCode":"7003"},"geometry":{"type":"Polygon","coordinates":[[[99.31602040000007,13.767380999000068],[99.25478924600009,13.746611991000066],[99.25516551500004,13.674009553000076],[99.35419282300006,13.543633242000055],[99.44194264600009,13.546501120000073],[99.47942184000004,13.583082799000067],[99.46750024000005,13.608659138000064],[99.43360328100005,13.600621036000064],[99.40556195700003,13.652257461000033],[99.37245043400009,13.648433044000058],[99.33649119600005,13.699395479000032],[99.31602040000007,13.767380999000068]]]}},{"type":"Feature","properties":{"code":"700202","name":"ปากช่อง","parentCode":"7002"},"geometry":{"type":"Polygon","coordinates":[[[99.63494354300008,13.703169185000036],[99.55689184900007,13.705263527000056],[99.57376781100004,13.692622135000022],[99.63029203300005,13.668150125000068],[99.66052662200008,13.61242919700004],[99.71586522500007,13.600648983000042],[99.73192572500005,13.605785519000051],[99.73507805700007,13.64375965000005],[99.66031427700005,13.702877501000046],[99.63494354300008,13.703169185000036]]]}},{"type":"Feature","properties":{"code":"700504","name":"ปากแรต","parentCode":"7005"},"geometry":{"type":"Polygon","coordinates":[[[99.90357047400005,13.848385428000029],[99.86489866100004,13.84184459200003],[99.86431187100004,13.824922571000059],[99.89169423400006,13.815771146000031],[99.89918082300005,13.805964730000028],[99.89982447900007,13.810442518000059],[99.91560267700004,13.844313556000031],[99.90357047400005,13.848385428000029]]]}},{"type":"Feature","properties":{"code":"700805","name":"ปากท่อ","parentCode":"7008"},"geometry":{"type":"Polygon","coordinates":[[[99.85942708900006,13.376968255000065],[99.85139197500007,13.406577425000023],[99.84153404900007,13.406230332000064],[99.82101870800005,13.396089765000056],[99.83092929200006,13.365152437000063],[99.84544357800007,13.359996609000063],[99.85942708900006,13.376968255000065]]]}},{"type":"Feature","properties":{"code":"700409","name":"แพงพวย","parentCode":"7004"},"geometry":{"type":"Polygon","coordinates":[[[99.94840935100007,13.617550727000037],[99.93081909900008,13.625477519000071],[99.89883245600004,13.582519538000042],[99.90224705500003,13.528047516000072],[99.90839560400008,13.517350696000051],[99.93180356700003,13.536597596000036],[99.94821745300004,13.556037915000047],[99.94840935100007,13.617550727000037]]]}},{"type":"Feature","properties":{"code":"700111","name":"พิกุลทอง","parentCode":"7001"},"geometry":{"type":"Polygon","coordinates":[[[99.88919910800007,13.589483146000077],[99.84389571200006,13.57990257800003],[99.84935862300006,13.557992634000072],[99.86865560600006,13.554945642000064],[99.88757289500006,13.579898668000055],[99.88919910800007,13.589483146000077]]]}},{"type":"Feature","properties":{"code":"700607","name":"โพหัก","parentCode":"7006"},"geometry":{"type":"Polygon","coordinates":[[[100.06034109300003,13.659446503000026],[99.99361311900009,13.658371759000033],[99.99626349500005,13.643507721000049],[100.03110954200008,13.612613751000026],[100.05447544300006,13.62922270200005],[100.06034109300003,13.659446503000026]]]}},{"type":"Feature","properties":{"code":"700119","name":"พงสวาย","parentCode":"7001"},"geometry":{"type":"Polygon","coordinates":[[[99.86865560600006,13.554945642000064],[99.84935862300006,13.557992634000072],[99.82402709900003,13.541255793000062],[99.84165609000007,13.540019784000037],[99.85963579800006,13.524870656000076],[99.86572170600004,13.531337051000037],[99.86865560600006,13.554945642000064]]]}},{"type":"Feature","properties":{"code":"700701","name":"โพธาราม","parentCode":"7007"},"geometry":{"type":"Polygon","coordinates":[[[99.83412718600005,13.686862862000055],[99.85245607600007,13.68108548400005],[99.84978545000007,13.705608694000034],[99.84808444400005,13.698367016000077],[99.83612951000003,13.692244221000067],[99.83412718600005,13.686862862000055]]]}},{"type":"Feature","properties":{"code":"700402","name":"ประสาทสิทธิ์","parentCode":"7004"},"geometry":{"type":"Polygon","coordinates":[[[100.04599703500008,13.55931398100006],[100.03722203700005,13.582497471000067],[100.02293136000009,13.57642368200004],[100.03601509600009,13.534032277000051],[100.04599703500008,13.55931398100006]]]}},{"type":"Feature","properties":{"code":"700206","name":"รางบัว","parentCode":"7002"},"geometry":{"type":"Polygon","coordinates":[[[99.56193286700005,13.619454426000061],[99.49180343100005,13.653920439000046],[99.46750024000005,13.608659138000064],[99.47942184000004,13.583082799000067],[99.47482732300006,13.514569481000024],[99.47014450200004,13.484896434000063],[99.54153322600007,13.417986107000047],[99.58455913500006,13.504197236000039],[99.60624937900008,13.55385396400004],[99.56193286700005,13.619454426000061]]]}},{"type":"Feature","properties":{"code":"700110","name":"สามเรือน","parentCode":"7001"},"geometry":{"type":"Polygon","coordinates":[[[99.88904678000006,13.609922987000061],[99.87645208700008,13.631202036000047],[99.83442518400005,13.61463442400003],[99.83985797900004,13.587896355000055],[99.84389571200006,13.57990257800003],[99.88919910800007,13.589483146000077],[99.88904678000006,13.609922987000061]]]}},{"type":"Feature","properties":{"code":"700410","name":"สี่หมื่น","parentCode":"7004"},"geometry":{"type":"Polygon","coordinates":[[[99.95140663700005,13.526091035000036],[99.93180356700003,13.536597596000036],[99.90839560400008,13.517350696000051],[99.91345807800008,13.51048323200007],[99.93223515200003,13.504341199000066],[99.93292032300008,13.505116117000057],[99.94134556100005,13.51030970100004],[99.95140663700005,13.526091035000036]]]}},{"type":"Feature","properties":{"code":"700403","name":"ศรีสุราษฎร์","parentCode":"7004"},"geometry":{"type":"Polygon","coordinates":[[[100.00060662400006,13.528150209000046],[99.99391890200008,13.547160919000078],[99.96802029900005,13.534107278000022],[99.97385641700004,13.517722355000046],[100.00060662400006,13.528150209000046]]]}},{"type":"Feature","properties":{"code":"700712","name":"สร้อยฟ้า","parentCode":"7007"},"geometry":{"type":"Polygon","coordinates":[[[99.84978545000007,13.705608694000034],[99.83920982400008,13.743775127000049],[99.81827826100005,13.714701516000048],[99.84808444400005,13.698367016000077],[99.84978545000007,13.705608694000034]]]}},{"type":"Feature","properties":{"code":"700508","name":"สวนกล้วย","parentCode":"7005"},"geometry":{"type":"Polygon","coordinates":[[[99.89918082300005,13.805964730000028],[99.89169423400006,13.815771146000031],[99.87155329800004,13.805791942000042],[99.86619080700007,13.80085654900006],[99.88534387800007,13.755310780000059],[99.89411447000003,13.76275705200004],[99.89288470800005,13.773503627000025],[99.89918082300005,13.805964730000028]]]}},{"type":"Feature","properties":{"code":"700301","name":"สวนผึ้ง","parentCode":"7003"},"geometry":{"type":"Polygon","coordinates":[[[99.24178367700006,13.749939846000075],[99.16731530500005,13.725852798000062],[99.16283622200007,13.574157463000063],[99.19158153500007,13.544756306000068],[99.20177894000005,13.480390506000049],[99.35416282900007,13.542845512000042],[99.35419282300006,13.543633242000055],[99.25516551500004,13.674009553000076],[99.25478924600009,13.746611991000066],[99.24178367700006,13.749939846000075]]]}},{"type":"Feature","properties":{"code":"700404","name":"ตาหลวง","parentCode":"7004"},"geometry":{"type":"Polygon","coordinates":[[[99.96855884500008,13.490567158000033],[99.96628666500004,13.515224446000047],[99.94134556100005,13.51030970100004],[99.93292032300008,13.505116117000057],[99.95186595200005,13.498896635000051],[99.96657392200007,13.485499190000041],[99.96855884500008,13.490567158000033]]]}},{"type":"Feature","properties":{"code":"700307","name":"ตะนาวศรี","parentCode":"7003"},"geometry":{"type":"Polygon","coordinates":[[[99.34786425300007,13.513300833000073],[99.35416282900007,13.542845512000042],[99.20177894000005,13.480390506000049],[99.19882698100008,13.329131193000023],[99.22320298100004,13.300804404000075],[99.26788174800004,13.303157523000039],[99.32782826000005,13.369554884000024],[99.35487627200007,13.40951109200006],[99.33438786600004,13.437055225000051],[99.34786425300007,13.513300833000073]]]}},{"type":"Feature","properties":{"code":"700715","name":"เตาปูน","parentCode":"7007"},"geometry":{"type":"Polygon","coordinates":[[[99.76887267200004,13.753317977000052],[99.67971080000007,13.78234376000006],[99.76930853600004,13.717169959000046],[99.78632759900006,13.706520144000024],[99.80703374600006,13.714999678000027],[99.78186606600008,13.751899149000053],[99.76887267200004,13.753317977000052]]]}},{"type":"Feature","properties":{"code":"700713","name":"ท่าชุมพล","parentCode":"7007"},"geometry":{"type":"Polygon","coordinates":[[[99.81827826100005,13.714701516000048],[99.80703374600006,13.714999678000027],[99.78632759900006,13.706520144000024],[99.79085098400009,13.681524612000032],[99.81504054000004,13.669935550000048],[99.83612951000003,13.692244221000067],[99.84808444400005,13.698367016000077],[99.81827826100005,13.714701516000048]]]}},{"type":"Feature","properties":{"code":"700304","name":"ท่าเคย","parentCode":"7003"},"geometry":{"type":"Polygon","coordinates":[[[99.47482732300006,13.514569481000024],[99.47942184000004,13.583082799000067],[99.44194264600009,13.546501120000073],[99.35419282300006,13.543633242000055],[99.35416282900007,13.542845512000042],[99.34786425300007,13.513300833000073],[99.38418821900007,13.482173787000022],[99.41796031700005,13.491233556000054],[99.47482732300006,13.514569481000024]]]}},{"type":"Feature","properties":{"code":"700411","name":"ท่านัด","parentCode":"7004"},"geometry":{"type":"Polygon","coordinates":[[[99.98901587000006,13.557234444000073],[99.94821745300004,13.556037915000047],[99.93180356700003,13.536597596000036],[99.95140663700005,13.526091035000036],[99.96802029900005,13.534107278000022],[99.99391890200008,13.547160919000078],[99.98901587000006,13.557234444000073]]]}},{"type":"Feature","properties":{"code":"700502","name":"ท่าผา","parentCode":"7005"},"geometry":{"type":"Polygon","coordinates":[[[99.90954473500005,13.876616979000062],[99.84842806200004,13.896166523000034],[99.82007420800005,13.864574725000068],[99.82123521400007,13.857806292000078],[99.85238482100004,13.844765910000035],[99.86489866100004,13.84184459200003],[99.90357047400005,13.848385428000029],[99.90954473500005,13.876616979000062]]]}},{"type":"Feature","properties":{"code":"700121","name":"ท่าราบ","parentCode":"7001"},"geometry":{"type":"Polygon","coordinates":[[[99.83442518400005,13.61463442400003],[99.81066414900005,13.625465512000062],[99.80873054900007,13.593281688000047],[99.81713775800006,13.57804365800007],[99.83985797900004,13.587896355000055],[99.83442518400005,13.61463442400003]]]}},{"type":"Feature","properties":{"code":"700717","name":"ธรรมเสน","parentCode":"7007"},"geometry":{"type":"Polygon","coordinates":[[[99.75297445700005,13.67254084800004],[99.66031427700005,13.702877501000046],[99.73507805700007,13.64375965000005],[99.78074703000004,13.636717808000071],[99.78580224500007,13.671073491000072],[99.75297445700005,13.67254084800004]]]}},{"type":"Feature","properties":{"code":"700801","name":"ทุ่งหลวง","parentCode":"7008"},"geometry":{"type":"Polygon","coordinates":[[[99.76400773500006,13.450340528000027],[99.70622251900005,13.482683143000031],[99.70488494900007,13.482401408000044],[99.73078668700003,13.44902922500006],[99.66326199000008,13.440394551000054],[99.58520981700008,13.406308602000024],[99.58720939100004,13.36908666000005],[99.63927517500008,13.351557495000066],[99.65700470900003,13.377643743000021],[99.72621245800008,13.382210891000057],[99.72838225800007,13.384355307000021],[99.78189683400007,13.42734923100005],[99.78539098300007,13.445522913000048],[99.76400773500006,13.450340528000027]]]}},{"type":"Feature","properties":{"code":"700811","name":"วันดาว","parentCode":"7008"},"geometry":{"type":"Polygon","coordinates":[[[99.86796827000006,13.375827546000039],[99.85942708900006,13.376968255000065],[99.84544357800007,13.359996609000063],[99.84928336400009,13.33031703100005],[99.85595101000007,13.329181510000069],[99.86620376800005,13.367648320000058],[99.86796827000006,13.375827546000039]]]}},{"type":"Feature","properties":{"code":"700802","name":"วังมะนาว","parentCode":"7008"},"geometry":{"type":"Polygon","coordinates":[[[99.84544357800007,13.359996609000063],[99.83092929200006,13.365152437000063],[99.75521939200007,13.35179297700006],[99.75798935400007,13.34334565000006],[99.83081768800008,13.338063827000042],[99.84928336400009,13.33031703100005],[99.84544357800007,13.359996609000063]]]}},{"type":"Feature","properties":{"code":"700602","name":"วังเย็น","parentCode":"7006"},"geometry":{"type":"Polygon","coordinates":[[[99.96017556000004,13.72185182100003],[99.94821213300008,13.737627470000064],[99.90758245200004,13.727135933000056],[99.90405672200006,13.68541865900005],[99.90744403800005,13.683043429000065],[99.91908149300008,13.683503942000073],[99.96017556000004,13.72185182100003]]]}},{"type":"Feature","properties":{"code":"700604","name":"วัดแก้ว","parentCode":"7006"},"geometry":{"type":"Polygon","coordinates":[[[99.91908149300008,13.683503942000073],[99.90744403800005,13.683043429000065],[99.90459783900008,13.655587456000035],[99.90838353900006,13.633233268000026],[99.93081909900008,13.625477519000071],[99.94840935100007,13.617550727000037],[99.96182695100003,13.619917200000032],[99.96260424700006,13.639055619000032],[99.93161911200008,13.659397497000043],[99.91908149300008,13.683503942000073]]]}},{"type":"Feature","properties":{"code":"700903","name":"วัดเพลง","parentCode":"7009"},"geometry":{"type":"Polygon","coordinates":[[[99.89091936900007,13.449203085000022],[99.89093776700008,13.467083641000045],[99.84462710300005,13.459729392000042],[99.85354242100004,13.43713092400003],[99.89114946800004,13.438259617000028],[99.89091936900007,13.449203085000022]]]}},{"type":"Feature","properties":{"code":"700807","name":"วัดยางงาม","parentCode":"7008"},"geometry":{"type":"Polygon","coordinates":[[[99.88368261600004,13.416274197000064],[99.85139197500007,13.406577425000023],[99.85942708900006,13.376968255000065],[99.86796827000006,13.375827546000039],[99.88368261600004,13.416274197000064]]]}},{"type":"Feature","properties":{"code":"700810","name":"ยางหัก","parentCode":"7008"},"geometry":{"type":"Polygon","coordinates":[[[99.54153322600007,13.417986107000047],[99.52156650100005,13.400956746000077],[99.52809599900007,13.351905417000069],[99.49867200500006,13.30153249500006],[99.52929815300007,13.207145706000063],[99.59292232700005,13.19825052400006],[99.66162021600007,13.211477367000043],[99.66629749200007,13.28685680500007],[99.68824370900006,13.300372667000033],[99.69002401400007,13.301915001000054],[99.63927517500008,13.351557495000066],[99.58720939100004,13.36908666000005],[99.58520981700008,13.406308602000024],[99.54153322600007,13.417986107000047]]]}}]}