{"type":"FeatureCollection","features":[{"type":"Feature","properties":{"code":"710113","name":"บ้านเก่า","parentCode":"7101"},"geometry":{"type":"Polygon","coordinates":[[[99.39631744300004,14.005126842000038],[99.36212224900004,14.022902429000055],[99.31412640800005,14.012543744000027],[99.27756302700004,13.983712824000065],[99.22553921000008,13.977852810000059],[99.15781038800009,13.918006494000053],[99.09431572600005,13.945880975000023],[99.06902366000008,13.989209122000034],[99.02059922500007,13.946455601000025],[99.10875111300004,13.890645907000021],[99.09963076300005,13.837490898000055],[99.12165684100006,13.772850273000074],[99.14854927300007,13.757132642000045],[99.17809547600007,13.798389267000061],[99.18133113300007,13.88191878400005],[99.22231553700004,13.865289614000062],[99.26073248300008,13.885596962000022],[99.29144841400006,13.949503005000054],[99.32041257500003,13.949601010000038],[99.37630074200007,13.98370226700007],[99.39631744300004,14.005126842000038]]]}},{"type":"Feature","properties":{"code":"710609","name":"บ้านใหม่","parentCode":"7106"},"geometry":{"type":"Polygon","coordinates":[[[99.63643463900007,13.95008695200005],[99.63437113000003,13.950882602000036],[99.60617087900005,13.899775333000036],[99.57164815200008,13.88006291000005],[99.53489801800004,13.828582231000041],[99.59021955300005,13.841581249000058],[99.67610569400006,13.921791983000048],[99.63643463900007,13.95008695200005]]]}},{"type":"Feature","properties":{"code":"710101","name":"บ้านเหนือ","parentCode":"7101"},"geometry":{"type":"Polygon","coordinates":[[[99.52033614700008,14.039279247000024],[99.52104086900005,14.030978867000044],[99.53022537100009,14.016309112000044],[99.54080160800004,14.019135733000041],[99.52033614700008,14.039279247000024]]]}},{"type":"Feature","properties":{"code":"710102","name":"บ้านใต้","parentCode":"7101"},"geometry":{"type":"Polygon","coordinates":[[[99.54080160800004,14.019135733000041],[99.53022537100009,14.016309112000044],[99.53443857300005,14.008972819000064],[99.54080160800004,14.019135733000041]]]}},{"type":"Feature","properties":{"code":"710301","name":"บ่อพลอย","parentCode":"7103"},"geometry":{"type":"Polygon","coordinates":[[[99.58554740900007,14.267090942000038],[99.58526133500004,14.336738319000062],[99.54775990800005,14.396413446000054],[99.51756489100006,14.333200845000022],[99.47992005000003,14.332063155000071],[99.44766741400008,14.369995266000046],[99.38488771300007,14.385227376000046],[99.34355315700009,14.368679060000034],[99.36590441700008,14.313289636000036],[99.43467807900004,14.268896820000066],[99.56052786700008,14.278847865000046],[99.58554740900007,14.267090942000038]]]}},{"type":"Feature","properties":{"code":"710207","name":"บ้องตี้","parentCode":"7102"},"geometry":{"type":"Polygon","coordinates":[[[99.04051638800007,14.127018379000049],[98.99049204400006,14.178689341000052],[98.86813308400008,14.146555396000053],[98.90028736500005,14.108220680000045],[98.96731657500004,14.082835700000032],[98.99791878800005,14.01827260400006],[99.06031312200008,14.081798181000067],[99.04051638800007,14.127018379000049]]]}},{"type":"Feature","properties":{"code":"710705","name":"ชะแล","parentCode":"7107"},"geometry":{"type":"Polygon","coordinates":[[[98.98400297400008,15.179953423000029],[98.95555765300008,15.246997434000036],[98.88626122400007,15.275066768000045],[98.78024943300005,15.20882712200006],[98.65235465600006,15.07347141400004],[98.63365534300004,15.008947097000032],[98.66201693100004,14.963082024000073],[98.62418771900008,14.853291247000072],[98.63659288700006,14.839018559000067],[98.73196295100007,14.838679071000058],[98.76322354900003,14.788114932000042],[98.82694653200008,14.755106351000052],[98.83654327200009,14.716843577000077],[98.87784117300004,14.704281000000037],[98.91111799000004,14.769724351000036],[98.95223069800005,14.761355134000041],[98.97716073400005,14.854041178000045],[98.96776435100008,15.002030036000065],[98.99966125200007,15.071000168000069],[99.00752795400007,15.144516729000031],[98.98400297400008,15.179953423000029]]]}},{"type":"Feature","properties":{"code":"710308","name":"ช่องด่าน","parentCode":"7103"},"geometry":{"type":"Polygon","coordinates":[[[99.42357200900005,14.455348684000057],[99.39555875700006,14.476637476000064],[99.31529705700007,14.457728345000078],[99.31920759100007,14.41916737200006],[99.34355315700009,14.368679060000034],[99.38488771300007,14.385227376000046],[99.44766741400008,14.369995266000046],[99.47992005000003,14.332063155000071],[99.51756489100006,14.333200845000022],[99.54775990800005,14.396413446000054],[99.55825942700005,14.417495891000044],[99.50453632100005,14.405728916000044],[99.50045472200009,14.429650011000035],[99.42357200900005,14.455348684000057]]]}},{"type":"Feature","properties":{"code":"710109","name":"ช่องสะเดา","parentCode":"7101"},"geometry":{"type":"Polygon","coordinates":[[[99.35992845800007,14.290141048000066],[99.27779302200008,14.344921126000031],[99.18652749800003,14.314221755000062],[99.20319120200008,14.272010933000047],[99.14704541500004,14.287310900000023],[99.13187740100005,14.228359972000021],[99.18233143400005,14.19203682400007],[99.19504629600004,14.160760117000052],[99.26981207200004,14.195927459000075],[99.27733584300006,14.227016725000055],[99.33859932200005,14.245714729000042],[99.35992845800007,14.290141048000066]]]}},{"type":"Feature","properties":{"code":"711103","name":"จรเข้เผือก","parentCode":"7111"},"geometry":{"type":"Polygon","coordinates":[[[99.32041257500003,13.949601010000038],[99.29144841400006,13.949503005000054],[99.26073248300008,13.885596962000022],[99.22231553700004,13.865289614000062],[99.18133113300007,13.88191878400005],[99.17809547600007,13.798389267000061],[99.14854927300007,13.757132642000045],[99.16731530500005,13.725852798000062],[99.24178367700006,13.749939846000075],[99.25883781400006,13.812861231000056],[99.34776533700006,13.848074097000051],[99.37315773400007,13.885397043000069],[99.39498915200005,13.93512107500004],[99.32041257500003,13.949601010000038]]]}},{"type":"Feature","properties":{"code":"710402","name":"ด่านแม่แฉลบ","parentCode":"7104"},"geometry":{"type":"Polygon","coordinates":[[[99.25467028000008,14.648154668000075],[99.19603985500004,14.59775569900006],[99.04880588800006,14.61833417300005],[99.15028443800009,14.635290221000048],[99.18687215700004,14.697775057000058],[99.15317929200006,14.708051154000032],[99.09687385800004,14.681787259000032],[99.06480807500009,14.696927684000059],[99.00152623500009,14.774464629000022],[98.95223069800005,14.761355134000041],[98.91111799000004,14.769724351000036],[98.87784117300004,14.704281000000037],[98.89264526400007,14.633168325000042],[98.91263877700004,14.607075332000022],[98.96046730000006,14.59683281100007],[98.99655636900007,14.617924851000055],[99.04374779600005,14.59305835400005],[99.07922767200006,14.458713875000058],[99.13206186700006,14.486006752000037],[99.15507884200008,14.499186007000048],[99.30748903900007,14.518934985000044],[99.27968318100005,14.56504867800004],[99.27900012800006,14.619350920000045],[99.25467028000008,14.648154668000075]]]}},{"type":"Feature","properties":{"code":"711101","name":"ด่านมะขามเตี้ย","parentCode":"7111"},"geometry":{"type":"Polygon","coordinates":[[[99.43658384800005,13.837381343000061],[99.37315773400007,13.885397043000069],[99.34776533700006,13.848074097000051],[99.25883781400006,13.812861231000056],[99.24178367700006,13.749939846000075],[99.25478924600009,13.746611991000066],[99.31602040000007,13.767380999000068],[99.35392398500005,13.753024419000042],[99.34582004400005,13.764138956000068],[99.43658384800005,13.837381343000061]]]}},{"type":"Feature","properties":{"code":"710503","name":"ดอนชะเอม","parentCode":"7105"},"geometry":{"type":"Polygon","coordinates":[[[99.82919218100005,13.998384678000036],[99.78449970200006,13.988673642000037],[99.78890724900003,13.95178646900007],[99.82356147300004,13.944187214000067],[99.82646350400006,13.945078134000028],[99.83954097100008,13.98325370200007],[99.82919218100005,13.998384678000036]]]}},{"type":"Feature","properties":{"code":"710904","name":"ดอนเจดีย์","parentCode":"7109"},"geometry":{"type":"Polygon","coordinates":[[[99.71314692400006,14.039991713000063],[99.71495247500008,14.100502582000047],[99.70013034700008,14.088970238000059],[99.65950361700004,14.048128554000073],[99.66239613900007,14.026598226000033],[99.68577507500004,14.019324238000024],[99.69838424200003,14.023099219000073],[99.71314692400006,14.039991713000063]]]}},{"type":"Feature","properties":{"code":"710509","name":"ดอนขมิ้น","parentCode":"7105"},"geometry":{"type":"Polygon","coordinates":[[[99.84842806200004,13.896166523000034],[99.81157235000006,13.880297131000077],[99.80390387500006,13.872804465000058],[99.82007420800005,13.864574725000068],[99.84842806200004,13.896166523000034]]]}},{"type":"Feature","properties":{"code":"711303","name":"ดอนแสลบ","parentCode":"7113"},"geometry":{"type":"Polygon","coordinates":[[[99.80814954000004,14.315199986000039],[99.71593410800006,14.341287556000054],[99.68765130600008,14.337368712000057],[99.65930197500006,14.272699746000058],[99.68782419500008,14.242472726000074],[99.70197171800004,14.243557766000038],[99.82852159500004,14.275251739000055],[99.80814954000004,14.315199986000039]]]}},{"type":"Feature","properties":{"code":"710912","name":"ดอนตาเพชร","parentCode":"7109"},"geometry":{"type":"Polygon","coordinates":[[[99.68782419500008,14.242472726000074],[99.60848746900007,14.230259404000037],[99.66285384000008,14.140372915000057],[99.73812747100004,14.176099363000048],[99.74815582000008,14.18351161000004],[99.70197171800004,14.243557766000038],[99.68782419500008,14.242472726000074]]]}},{"type":"Feature","properties":{"code":"710703","name":"หินดาด","parentCode":"7107"},"geometry":{"type":"Polygon","coordinates":[[[98.87784117300004,14.704281000000037],[98.83654327200009,14.716843577000077],[98.74351808400007,14.667925313000069],[98.71901735300008,14.63353853600006],[98.63200217000008,14.60024512700005],[98.55589643900004,14.534403958000041],[98.55383086800003,14.506150713000068],[98.63995171200008,14.572084864000033],[98.74628564500006,14.578101719000074],[98.89264526400007,14.633168325000042],[98.87784117300004,14.704281000000037]]]}},{"type":"Feature","properties":{"code":"710706","name":"ห้วยเขย่ง","parentCode":"7107"},"geometry":{"type":"Polygon","coordinates":[[[98.56579944500004,14.758233847000042],[98.54141067700004,14.788993063000078],[98.43788441800007,14.775107681000065],[98.46604308000008,14.671519248000038],[98.51315142800007,14.641975761000026],[98.52293292200005,14.601957251000044],[98.46932583500006,14.535453988000029],[98.49263023000003,14.539045341000076],[98.51663683500004,14.47408463100004],[98.55383086800003,14.506150713000068],[98.55589643900004,14.534403958000041],[98.63200217000008,14.60024512700005],[98.56579944500004,14.758233847000042]]]}},{"type":"Feature","properties":{"code":"711301","name":"ห้วยกระเจา","parentCode":"7113"},"geometry":{"type":"Polygon","coordinates":[[[99.68765130600008,14.337368712000057],[99.58265867600005,14.407675617000052],[99.55958632200009,14.436311893000038],[99.55825942700005,14.417495891000044],[99.54775990800005,14.396413446000054],[99.58526133500004,14.336738319000062],[99.58554740900007,14.267090942000038],[99.58223208800007,14.242373719000057],[99.60848746900007,14.230259404000037],[99.68782419500008,14.242472726000074],[99.65930197500006,14.272699746000058],[99.68765130600008,14.337368712000057]]]}},{"type":"Feature","properties":{"code":"710105","name":"แก่งเสี้ยน","parentCode":"7101"},"geometry":{"type":"Polygon","coordinates":[[[99.56561035900006,14.128642099000047],[99.45403595400006,14.15063516600003],[99.44595524300007,14.132804927000052],[99.47587128200007,14.078753217000042],[99.42998414400006,14.02164990700004],[99.47107780800008,14.01402235200004],[99.47386618000007,14.047605807000025],[99.51564044300005,14.077030145000037],[99.55769982500004,14.081233154000074],[99.57191375000008,14.100818491000041],[99.56561035900006,14.128642099000047]]]}},{"type":"Feature","properties":{"code":"710405","name":"เขาโจด","parentCode":"7104"},"geometry":{"type":"Polygon","coordinates":[[[99.28280207500006,14.997616249000032],[99.25627443500008,14.987564860000077],[99.18992941100004,15.027670139000065],[99.16974551800007,15.014146896000057],[99.11825759700008,15.05464723800003],[99.04271438700005,15.045700707000037],[99.08409826600007,14.960269186000062],[99.12025675200005,14.918581742000072],[99.07603926000007,14.884817165000072],[99.12941569400004,14.796193505000076],[99.18910094800003,14.748001453000029],[99.18713570800008,14.720802376000051],[99.24647893800005,14.685006919000045],[99.25467028000008,14.648154668000075],[99.27900012800006,14.619350920000045],[99.31906654800008,14.633983641000043],[99.35296724400007,14.665117646000056],[99.33950288300008,14.692418411000062],[99.29092952500008,14.704582277000043],[99.27298578400007,14.784123676000036],[99.23917827900004,14.821798191000028],[99.29478658300008,14.832054719000041],[99.28723130800006,14.86466185200004],[99.32102115600009,14.89509445300007],[99.32501374800006,14.941626950000057],[99.28280207500006,14.997616249000032]]]}},{"type":"Feature","properties":{"code":"710607","name":"เขาน้อย","parentCode":"7106"},"geometry":{"type":"Polygon","coordinates":[[[99.59853707700006,13.964111781000042],[99.55134880300005,13.99251554500006],[99.54453986400006,13.975163098000053],[99.57316611600004,13.929128671000058],[99.53182910300006,13.911882977000062],[99.57164815200008,13.88006291000005],[99.60617087900005,13.899775333000036],[99.59853707700006,13.964111781000042]]]}},{"type":"Feature","properties":{"code":"710511","name":"เขาสามสิบหาบ","parentCode":"7105"},"geometry":{"type":"Polygon","coordinates":[[[99.76207417000006,13.876871799000071],[99.74238374700008,13.895867360000068],[99.70757567700008,13.884220165000045],[99.66627356800007,13.846297271000026],[99.69206261200009,13.83782896100007],[99.74680543100004,13.853218484000024],[99.76207417000006,13.876871799000071]]]}},{"type":"Feature","properties":{"code":"710508","name":"โคกตะบอง","parentCode":"7105"},"geometry":{"type":"Polygon","coordinates":[[[99.74680543100004,13.853218484000024],[99.69206261200009,13.83782896100007],[99.74715421800005,13.819817627000077],[99.80312242900004,13.807153389000064],[99.81204287200006,13.817076496000027],[99.80092272300004,13.82506692000004],[99.78064246900004,13.850510604000021],[99.74680543100004,13.853218484000024]]]}},{"type":"Feature","properties":{"code":"711102","name":"กลอนโด","parentCode":"7111"},"geometry":{"type":"Polygon","coordinates":[[[99.47915482700006,13.907304583000041],[99.39498915200005,13.93512107500004],[99.37315773400007,13.885397043000069],[99.43658384800005,13.837381343000061],[99.45818092300004,13.825167538000073],[99.48222157800006,13.833330387000046],[99.50981955300006,13.909994340000026],[99.47915482700006,13.907304583000041]]]}},{"type":"Feature","properties":{"code":"710111","name":"เกาะสำโรง","parentCode":"7101"},"geometry":{"type":"Polygon","coordinates":[[[99.54453986400006,13.975163098000053],[99.51834852200005,14.005568660000051],[99.50978796100009,13.973336136000057],[99.46685885200009,13.966856378000045],[99.49851643400007,13.92644985000004],[99.47915482700006,13.907304583000041],[99.50981955300006,13.909994340000026],[99.53182910300006,13.911882977000062],[99.57316611600004,13.929128671000058],[99.54453986400006,13.975163098000053]]]}},{"type":"Feature","properties":{"code":"710803","name":"ไล่โว่","parentCode":"7108"},"geometry":{"type":"Polygon","coordinates":[[[98.88626122400007,15.275066768000045],[98.87086460100005,15.324801179000076],[98.82943309500007,15.355831229000046],[98.75455476000008,15.441755886000067],[98.76075698800008,15.470500644000026],[98.70540538800003,15.498223112000062],[98.72370291100003,15.516458116000024],[98.64861585800008,15.632502720000048],[98.55777965600004,15.652479867000068],[98.55275628900006,15.602380797000023],[98.58522625100005,15.47142206600006],[98.58024270100003,15.376883970000051],[98.55953237800009,15.337091980000025],[98.50049562900006,15.40459816300006],[98.43550932000005,15.362364127000035],[98.46002029200008,15.276474883000049],[98.45607950900006,15.219557800000075],[98.50784422300006,15.130169341000055],[98.57461193600005,15.143794637000042],[98.59923980300005,15.104332623000062],[98.65235465600006,15.07347141400004],[98.78024943300005,15.20882712200006],[98.88626122400007,15.275066768000045]]]}},{"type":"Feature","properties":{"code":"711001","name":"เลาขวัญ","parentCode":"7110"},"geometry":{"type":"Polygon","coordinates":[[[99.79808185800005,14.614694550000024],[99.73575060600007,14.61826318900006],[99.73480959500006,14.591599573000053],[99.68381986100007,14.557511684000076],[99.73717221600003,14.538198660000035],[99.77760272400008,14.52398564400005],[99.78540462000007,14.465259132000028],[99.82107665000007,14.423837381000055],[99.81471425500007,14.43849318100007],[99.83273301100007,14.479425684000034],[99.80967665200006,14.53973828900007],[99.79808185800005,14.614694550000024]]]}},{"type":"Feature","properties":{"code":"710107","name":"ลาดหญ้า","parentCode":"7101"},"geometry":{"type":"Polygon","coordinates":[[[99.45403595400006,14.15063516600003],[99.43741985500009,14.193895248000047],[99.38319571100004,14.218449785000075],[99.37005576600006,14.180727631000025],[99.39704285600004,14.112863871000059],[99.31837784300006,14.056219947000045],[99.31412640800005,14.012543744000027],[99.36212224900004,14.022902429000055],[99.37626368300005,14.05718609400003],[99.44595524300007,14.132804927000052],[99.45403595400006,14.15063516600003]]]}},{"type":"Feature","properties":{"code":"710704","name":"ลิ่นถิ่น","parentCode":"7107"},"geometry":{"type":"Polygon","coordinates":[[[98.91263877700004,14.607075332000022],[98.89264526400007,14.633168325000042],[98.74628564500006,14.578101719000074],[98.63995171200008,14.572084864000033],[98.55383086800003,14.506150713000068],[98.51663683500004,14.47408463100004],[98.53335444600003,14.442886796000039],[98.56574416100005,14.49807469600006],[98.65804645100008,14.543083556000056],[98.70831252600004,14.518845707000025],[98.79234976200007,14.523703473000069],[98.83585208200009,14.55838848600007],[98.89831165100009,14.51047082100007],[98.91876416000008,14.525764853000055],[98.93585339100008,14.597248230000048],[98.91263877700004,14.607075332000022]]]}},{"type":"Feature","properties":{"code":"710305","name":"หลุมรัง","parentCode":"7103"},"geometry":{"type":"Polygon","coordinates":[[[99.57813537500004,14.481645571000058],[99.49448443200004,14.50626522500005],[99.43831128200009,14.491929156000026],[99.42357200900005,14.455348684000057],[99.50045472200009,14.429650011000035],[99.50453632100005,14.405728916000044],[99.55825942700005,14.417495891000044],[99.55958632200009,14.436311893000038],[99.56968700000004,14.461406046000036],[99.57813537500004,14.481645571000058]]]}},{"type":"Feature","properties":{"code":"710201","name":"ลุ่มสุ่ม","parentCode":"7102"},"geometry":{"type":"Polygon","coordinates":[[[99.19504629600004,14.160760117000052],[99.18233143400005,14.19203682400007],[99.12194699300005,14.14062997700006],[99.07974924800004,14.115952202000074],[99.04051638800007,14.127018379000049],[99.06031312200008,14.081798181000067],[99.10674172800003,14.03971806900006],[99.20861835600004,14.071165301000065],[99.18702493600006,14.115560818000063],[99.19798082900007,14.158428933000039],[99.19504629600004,14.160760117000052]]]}},{"type":"Feature","properties":{"code":"710406","name":"แม่กระบุง","parentCode":"7104"},"geometry":{"type":"Polygon","coordinates":[[[99.07922767200006,14.458713875000058],[99.04374779600005,14.59305835400005],[98.99655636900007,14.617924851000055],[98.96046730000006,14.59683281100007],[98.91263877700004,14.607075332000022],[98.93585339100008,14.597248230000048],[98.91876416000008,14.525764853000055],[98.97017573900007,14.451296145000072],[99.02655969900007,14.399359394000044],[99.07922767200006,14.458713875000058]]]}},{"type":"Feature","properties":{"code":"710608","name":"ม่วงชุม","parentCode":"7106"},"geometry":{"type":"Polygon","coordinates":[[[99.63437113000003,13.950882602000036],[99.62136607900004,13.960447743000032],[99.59853707700006,13.964111781000042],[99.60617087900005,13.899775333000036],[99.63437113000003,13.950882602000036]]]}},{"type":"Feature","properties":{"code":"710401","name":"นาสวน","parentCode":"7104"},"geometry":{"type":"Polygon","coordinates":[[[99.04271438700005,15.045700707000037],[98.99966125200007,15.071000168000069],[98.96776435100008,15.002030036000065],[98.97716073400005,14.854041178000045],[98.95223069800005,14.761355134000041],[99.00152623500009,14.774464629000022],[99.06480807500009,14.696927684000059],[99.09687385800004,14.681787259000032],[99.15317929200006,14.708051154000032],[99.18687215700004,14.697775057000058],[99.15028443800009,14.635290221000048],[99.04880588800006,14.61833417300005],[99.19603985500004,14.59775569900006],[99.25467028000008,14.648154668000075],[99.24647893800005,14.685006919000045],[99.18713570800008,14.720802376000051],[99.18910094800003,14.748001453000029],[99.12941569400004,14.796193505000076],[99.07603926000007,14.884817165000072],[99.12025675200005,14.918581742000072],[99.08409826600007,14.960269186000062],[99.04271438700005,15.045700707000037]]]}},{"type":"Feature","properties":{"code":"710106","name":"หนองบัว","parentCode":"7101"},"geometry":{"type":"Polygon","coordinates":[[[99.42998414400006,14.02164990700004],[99.47587128200007,14.078753217000042],[99.44595524300007,14.132804927000052],[99.37626368300005,14.05718609400003],[99.36212224900004,14.022902429000055],[99.39631744300004,14.005126842000038],[99.42998414400006,14.02164990700004]]]}},{"type":"Feature","properties":{"code":"711007","name":"หนองฝ้าย","parentCode":"7110"},"geometry":{"type":"Polygon","coordinates":[[[99.71897675900004,14.679110217000073],[99.67866777900008,14.720017536000057],[99.62334044300007,14.739937518000033],[99.57385900400004,14.69799973000005],[99.56342752400008,14.676584943000023],[99.61641145100003,14.62015626300007],[99.66784690100008,14.637441146000072],[99.71897675900004,14.679110217000073]]]}},{"type":"Feature","properties":{"code":"710605","name":"หนองขาว","parentCode":"7106"},"geometry":{"type":"Polygon","coordinates":[[[99.63249570000005,14.093177025000045],[99.57191375000008,14.100818491000041],[99.55769982500004,14.081233154000074],[99.58116713300006,14.019155430000069],[99.60805206900005,14.000089033000052],[99.66239613900007,14.026598226000033],[99.65950361700004,14.048128554000073],[99.63249570000005,14.093177025000045]]]}},{"type":"Feature","properties":{"code":"710309","name":"หนองกร่าง","parentCode":"7103"},"geometry":{"type":"Polygon","coordinates":[[[99.58033394500006,14.590778455000077],[99.50054880300007,14.539138175000062],[99.49448443200004,14.50626522500005],[99.57813537500004,14.481645571000058],[99.59425783000006,14.565040857000042],[99.58033394500006,14.590778455000077]]]}},{"type":"Feature","properties":{"code":"710302","name":"หนองกุ่ม","parentCode":"7103"},"geometry":{"type":"Polygon","coordinates":[[[99.58554740900007,14.267090942000038],[99.56052786700008,14.278847865000046],[99.43467807900004,14.268896820000066],[99.36590441700008,14.313289636000036],[99.35992845800007,14.290141048000066],[99.33859932200005,14.245714729000042],[99.38319571100004,14.218449785000075],[99.43741985500009,14.193895248000047],[99.45403595400006,14.15063516600003],[99.56561035900006,14.128642099000047],[99.56276423100007,14.219677984000043],[99.58223208800007,14.242373719000057],[99.58554740900007,14.267090942000038]]]}},{"type":"Feature","properties":{"code":"710517","name":"หนองลาน","parentCode":"7105"},"geometry":{"type":"Polygon","coordinates":[[[99.81410249700008,14.064243240000053],[99.81076154600004,14.065662690000067],[99.80474097000007,14.052339407000034],[99.83218393400006,14.002537546000042],[99.83404248900007,14.008752163000054],[99.84758474100005,14.052695705000076],[99.81410249700008,14.064243240000053]]]}},{"type":"Feature","properties":{"code":"710801","name":"หนองลู","parentCode":"7108"},"geometry":{"type":"Polygon","coordinates":[[[98.43550932000005,15.362364127000035],[98.39345542600006,15.342535418000068],[98.39842338000005,15.307661835000033],[98.34433957000005,15.292542466000043],[98.30591857200005,15.313323252000032],[98.25802149400005,15.224344985000073],[98.20916613900005,15.238804921000053],[98.21310941300004,15.183241946000066],[98.18117530200004,15.11522070600006],[98.23052008600007,15.046086980000041],[98.20869529900006,14.980885654000076],[98.24977355500005,14.91627420900005],[98.29908709300008,14.91958238500007],[98.30835252100007,14.891568409000058],[98.34762580500006,14.906503263000047],[98.37716925400008,14.950615815000049],[98.41438499300006,14.932954596000059],[98.44684813200007,14.996301343000027],[98.44954421400007,15.055230772000073],[98.47869467500004,15.080130065000048],[98.47114487800008,15.120890566000071],[98.50784422300006,15.130169341000055],[98.45607950900006,15.219557800000075],[98.46002029200008,15.276474883000049],[98.43550932000005,15.362364127000035]]]}},{"type":"Feature","properties":{"code":"711005","name":"หนองนกแก้ว","parentCode":"7110"},"geometry":{"type":"Polygon","coordinates":[[[99.68381986100007,14.557511684000076],[99.59425783000006,14.565040857000042],[99.57813537500004,14.481645571000058],[99.56968700000004,14.461406046000036],[99.63014332000006,14.457530072000054],[99.68762635500008,14.48076949800003],[99.73717221600003,14.538198660000035],[99.68381986100007,14.557511684000076]]]}},{"type":"Feature","properties":{"code":"710403","name":"หนองเป็ด","parentCode":"7104"},"geometry":{"type":"Polygon","coordinates":[[[99.30748903900007,14.518934985000044],[99.15507884200008,14.499186007000048],[99.13206186700006,14.486006752000037],[99.15266703200007,14.434939649000057],[99.25537916200005,14.402570342000047],[99.31920759100007,14.41916737200006],[99.31529705700007,14.457728345000078],[99.30748903900007,14.518934985000044]]]}},{"type":"Feature","properties":{"code":"711104","name":"หนองไผ่","parentCode":"7111"},"geometry":{"type":"Polygon","coordinates":[[[99.45818092300004,13.825167538000073],[99.43658384800005,13.837381343000061],[99.34582004400005,13.764138956000068],[99.35392398500005,13.753024419000042],[99.45827590200008,13.78358017000005],[99.47020767500004,13.806619688000069],[99.45818092300004,13.825167538000073]]]}},{"type":"Feature","properties":{"code":"711202","name":"หนองปลาไหล","parentCode":"7112"},"geometry":{"type":"Polygon","coordinates":[[[99.54493724300005,14.708949846000053],[99.51382113800008,14.70351594400006],[99.47259818500004,14.680758596000032],[99.49449828800005,14.627091864000022],[99.49678047500004,14.537591468000073],[99.50054880300007,14.539138175000062],[99.58033394500006,14.590778455000077],[99.53328164600003,14.668878850000056],[99.54493724300005,14.708949846000053]]]}},{"type":"Feature","properties":{"code":"711004","name":"หนองปลิง","parentCode":"7110"},"geometry":{"type":"Polygon","coordinates":[[[99.74598056600007,14.74927787300004],[99.71765757500003,14.750983310000038],[99.65283459500006,14.802116322000074],[99.57708316700007,14.788575713000057],[99.56802496600005,14.710686059000068],[99.57385900400004,14.69799973000005],[99.62334044300007,14.739937518000033],[99.67866777900008,14.720017536000057],[99.71897675900004,14.679110217000073],[99.79713006700007,14.679116713000042],[99.79835191800004,14.699549077000029],[99.78944300400008,14.736016902000074],[99.74598056600007,14.74927787300004]]]}},{"type":"Feature","properties":{"code":"711003","name":"หนองประดู่","parentCode":"7110"},"geometry":{"type":"Polygon","coordinates":[[[99.82107665000007,14.423837381000055],[99.78540462000007,14.465259132000028],[99.77760272400008,14.52398564400005],[99.73717221600003,14.538198660000035],[99.68762635500008,14.48076949800003],[99.63014332000006,14.457530072000054],[99.70819997800004,14.418473746000075],[99.81878099300008,14.38111811300007],[99.82439396500007,14.400821956000073],[99.82107665000007,14.423837381000055]]]}},{"type":"Feature","properties":{"code":"711201","name":"หนองปรือ","parentCode":"7112"},"geometry":{"type":"Polygon","coordinates":[[[99.43296104200004,14.75964381800003],[99.40790971400008,14.763292590000049],[99.33950288300008,14.692418411000062],[99.35296724400007,14.665117646000056],[99.31906654800008,14.633983641000043],[99.34911480100004,14.604312010000058],[99.40003922000005,14.617677139000023],[99.44992732700007,14.534561282000027],[99.49678047500004,14.537591468000073],[99.49449828800005,14.627091864000022],[99.47259818500004,14.680758596000032],[99.51382113800008,14.70351594400006],[99.44800739500005,14.731133328000055],[99.43296104200004,14.75964381800003]]]}},{"type":"Feature","properties":{"code":"710303","name":"หนองรี","parentCode":"7103"},"geometry":{"type":"Polygon","coordinates":[[[99.31906654800008,14.633983641000043],[99.27900012800006,14.619350920000045],[99.27968318100005,14.56504867800004],[99.30748903900007,14.518934985000044],[99.31529705700007,14.457728345000078],[99.39555875700006,14.476637476000064],[99.42357200900005,14.455348684000057],[99.43831128200009,14.491929156000026],[99.49448443200004,14.50626522500005],[99.50054880300007,14.539138175000062],[99.49678047500004,14.537591468000073],[99.44992732700007,14.534561282000027],[99.40003922000005,14.617677139000023],[99.34911480100004,14.604312010000058],[99.31906654800008,14.633983641000043]]]}},{"type":"Feature","properties":{"code":"710902","name":"หนองโรง","parentCode":"7109"},"geometry":{"type":"Polygon","coordinates":[[[99.60848746900007,14.230259404000037],[99.58223208800007,14.242373719000057],[99.56276423100007,14.219677984000043],[99.56561035900006,14.128642099000047],[99.57191375000008,14.100818491000041],[99.63249570000005,14.093177025000045],[99.66992586500004,14.088857145000077],[99.66285384000008,14.140372915000057],[99.60848746900007,14.230259404000037]]]}},{"type":"Feature","properties":{"code":"711002","name":"หนองโสน","parentCode":"7110"},"geometry":{"type":"Polygon","coordinates":[[[99.79713006700007,14.679116713000042],[99.71897675900004,14.679110217000073],[99.66784690100008,14.637441146000072],[99.73575060600007,14.61826318900006],[99.79808185800005,14.614694550000024],[99.82129183600006,14.635297738000077],[99.79713006700007,14.679116713000042]]]}},{"type":"Feature","properties":{"code":"710911","name":"หนองสาหร่าย","parentCode":"7109"},"geometry":{"type":"Polygon","coordinates":[[[99.73289526700006,14.103308294000044],[99.71495247500008,14.100502582000047],[99.71314692400006,14.039991713000063],[99.73556776100008,14.036649404000059],[99.75377065900005,14.082647394000048],[99.73289526700006,14.103308294000044]]]}},{"type":"Feature","properties":{"code":"710613","name":"หนองตากยา","parentCode":"7106"},"geometry":{"type":"Polygon","coordinates":[[[99.60641461100005,13.795518733000051],[99.59021955300005,13.841581249000058],[99.53489801800004,13.828582231000041],[99.48406852000005,13.793761215000075],[99.53301833100005,13.759841084000072],[99.60641461100005,13.795518733000051]]]}},{"type":"Feature","properties":{"code":"710110","name":"หนองหญ้า","parentCode":"7101"},"geometry":{"type":"Polygon","coordinates":[[[99.42998414400006,14.02164990700004],[99.39631744300004,14.005126842000038],[99.37630074200007,13.98370226700007],[99.45956794000006,13.940110376000064],[99.47915482700006,13.907304583000041],[99.49851643400007,13.92644985000004],[99.46685885200009,13.966856378000045],[99.50978796100009,13.973336136000057],[99.51834852200005,14.005568660000051],[99.51616976300005,14.007481624000036],[99.47107780800008,14.01402235200004],[99.42998414400006,14.02164990700004]]]}},{"type":"Feature","properties":{"code":"710103","name":"ปากแพรก","parentCode":"7101"},"geometry":{"type":"Polygon","coordinates":[[[99.55769982500004,14.081233154000074],[99.51564044300005,14.077030145000037],[99.52033614700008,14.039279247000024],[99.54080160800004,14.019135733000041],[99.53443857300005,14.008972819000064],[99.53022537100009,14.016309112000044],[99.52104086900005,14.030978867000044],[99.51616976300005,14.007481624000036],[99.51834852200005,14.005568660000051],[99.54453986400006,13.975163098000053],[99.55134880300005,13.99251554500006],[99.58116713300006,14.019155430000069],[99.55769982500004,14.081233154000074]]]}},{"type":"Feature","properties":{"code":"710610","name":"พังตรุ","parentCode":"7106"},"geometry":{"type":"Polygon","coordinates":[[[99.71126693500008,13.88957914200006],[99.68286104700007,13.926742950000062],[99.67610569400006,13.921791983000048],[99.59021955300005,13.841581249000058],[99.60641461100005,13.795518733000051],[99.66627356800007,13.846297271000026],[99.70757567700008,13.884220165000045],[99.71126693500008,13.88957914200006]]]}},{"type":"Feature","properties":{"code":"710905","name":"พังตรุ","parentCode":"7109"},"geometry":{"type":"Polygon","coordinates":[[[99.80039482900008,14.184226113000022],[99.79846659600008,14.205821626000045],[99.74815582000008,14.18351161000004],[99.73812747100004,14.176099363000048],[99.73289526700006,14.103308294000044],[99.75377065900005,14.082647394000048],[99.77221318000005,14.094012947000067],[99.80039482900008,14.184226113000022]]]}},{"type":"Feature","properties":{"code":"710901","name":"พนมทวน","parentCode":"7109"},"geometry":{"type":"Polygon","coordinates":[[[99.73289526700006,14.103308294000044],[99.73812747100004,14.176099363000048],[99.66285384000008,14.140372915000057],[99.66992586500004,14.088857145000077],[99.70013034700008,14.088970238000059],[99.71495247500008,14.100502582000047],[99.73289526700006,14.103308294000044]]]}},{"type":"Feature","properties":{"code":"710501","name":"พงตึก","parentCode":"7105"},"geometry":{"type":"Polygon","coordinates":[[[99.80354348500003,13.874209417000031],[99.78474865200008,13.89896705800004],[99.77676127200004,13.89607757500005],[99.76207417000006,13.876871799000071],[99.74680543100004,13.853218484000024],[99.78064246900004,13.850510604000021],[99.80354348500003,13.874209417000031]]]}},{"type":"Feature","properties":{"code":"710512","name":"พระแท่น","parentCode":"7105"},"geometry":{"type":"Polygon","coordinates":[[[99.83218393400006,14.002537546000042],[99.80474097000007,14.052339407000034],[99.75557190000006,14.020953832000032],[99.78449970200006,13.988673642000037],[99.82919218100005,13.998384678000036],[99.83218393400006,14.002537546000042]]]}},{"type":"Feature","properties":{"code":"710702","name":"ปิล๊อก","parentCode":"7107"},"geometry":{"type":"Polygon","coordinates":[[[98.41438499300006,14.932954596000059],[98.37716925400008,14.950615815000049],[98.34762580500006,14.906503263000047],[98.30835252100007,14.891568409000058],[98.29908709300008,14.91958238500007],[98.24977355500005,14.91627420900005],[98.22973623200005,14.890274720000036],[98.24594212000005,14.830934959000047],[98.32986005300006,14.704941318000067],[98.43276365800006,14.61378961500003],[98.46932583500006,14.535453988000029],[98.52293292200005,14.601957251000044],[98.51315142800007,14.641975761000026],[98.46604308000008,14.671519248000038],[98.43788441800007,14.775107681000065],[98.54141067700004,14.788993063000078],[98.56579944500004,14.758233847000042],[98.54800889300009,14.811895608000043],[98.55869505600003,14.858667141000069],[98.53285895000005,14.889315642000042],[98.45548819800007,14.868873548000067],[98.43516811800004,14.932249932000047],[98.41438499300006,14.932954596000059]]]}},{"type":"Feature","properties":{"code":"710802","name":"ปรังเผล","parentCode":"7108"},"geometry":{"type":"Polygon","coordinates":[[[98.65235465600006,15.07347141400004],[98.59923980300005,15.104332623000062],[98.57461193600005,15.143794637000042],[98.50784422300006,15.130169341000055],[98.47114487800008,15.120890566000071],[98.47869467500004,15.080130065000048],[98.44954421400007,15.055230772000073],[98.44684813200007,14.996301343000027],[98.41438499300006,14.932954596000059],[98.43516811800004,14.932249932000047],[98.45548819800007,14.868873548000067],[98.53285895000005,14.889315642000042],[98.54514851600004,14.908952208000073],[98.60809104000003,14.897023813000033],[98.62418771900008,14.853291247000072],[98.66201693100004,14.963082024000073],[98.63365534300004,15.008947097000032],[98.65235465600006,15.07347141400004]]]}},{"type":"Feature","properties":{"code":"710612","name":"รางสาลี่","parentCode":"7106"},"geometry":{"type":"Polygon","coordinates":[[[99.57164815200008,13.88006291000005],[99.53182910300006,13.911882977000062],[99.50981955300006,13.909994340000026],[99.48222157800006,13.833330387000046],[99.45818092300004,13.825167538000073],[99.47020767500004,13.806619688000069],[99.48406852000005,13.793761215000075],[99.53489801800004,13.828582231000041],[99.57164815200008,13.88006291000005]]]}},{"type":"Feature","properties":{"code":"710906","name":"รางหวาย","parentCode":"7109"},"geometry":{"type":"Polygon","coordinates":[[[99.82852159500004,14.275251739000055],[99.70197171800004,14.243557766000038],[99.74815582000008,14.18351161000004],[99.79846659600008,14.205821626000045],[99.81290715700004,14.228791614000045],[99.82852159500004,14.275251739000055]]]}},{"type":"Feature","properties":{"code":"711304","name":"สระลงเรือ","parentCode":"7113"},"geometry":{"type":"Polygon","coordinates":[[[99.81878099300008,14.38111811300007],[99.70819997800004,14.418473746000075],[99.71593410800006,14.341287556000054],[99.80814954000004,14.315199986000039],[99.81878099300008,14.38111811300007]]]}},{"type":"Feature","properties":{"code":"710514","name":"แสนตอ","parentCode":"7105"},"geometry":{"type":"Polygon","coordinates":[[[99.74740425200008,13.943934056000046],[99.73726483500008,13.960874877000037],[99.73220209200008,13.955264475000035],[99.71415767600007,13.938980512000057],[99.71126693500008,13.88957914200006],[99.70757567700008,13.884220165000045],[99.74238374700008,13.895867360000068],[99.75223611800004,13.929745604000061],[99.74740425200008,13.943934056000046]]]}},{"type":"Feature","properties":{"code":"710707","name":"สหกรณ์นิคม","parentCode":"7107"},"geometry":{"type":"Polygon","coordinates":[[[98.76322354900003,14.788114932000042],[98.69312052700008,14.707498824000027],[98.68818340400009,14.639915195000071],[98.71901735300008,14.63353853600006],[98.74351808400007,14.667925313000069],[98.83654327200009,14.716843577000077],[98.82694653200008,14.755106351000052],[98.76322354900003,14.788114932000042]]]}},{"type":"Feature","properties":{"code":"710204","name":"ไทรโยค","parentCode":"7102"},"geometry":{"type":"Polygon","coordinates":[[[98.91876416000008,14.525764853000055],[98.89831165100009,14.51047082100007],[98.83585208200009,14.55838848600007],[98.79234976200007,14.523703473000069],[98.70831252600004,14.518845707000025],[98.65804645100008,14.543083556000056],[98.56574416100005,14.49807469600006],[98.53335444600003,14.442886796000039],[98.56222864300008,14.386321245000033],[98.59584577700008,14.368511042000023],[98.59721009000003,14.327092605000075],[98.70033759700004,14.26443791500003],[98.75442432000006,14.28172094100006],[98.75715267800007,14.311567238000066],[98.81075536300006,14.318635277000055],[98.89263491400004,14.365828831000044],[98.90121732500006,14.403092129000072],[98.97017573900007,14.451296145000072],[98.91876416000008,14.525764853000055]]]}},{"type":"Feature","properties":{"code":"710515","name":"สนามแย้","parentCode":"7105"},"geometry":{"type":"Polygon","coordinates":[[[99.87586105300005,13.961235181000063],[99.83954097100008,13.98325370200007],[99.82646350400006,13.945078134000028],[99.86405349100005,13.928038886000024],[99.87586105300005,13.961235181000063]]]}},{"type":"Feature","properties":{"code":"710206","name":"ศรีมงคล","parentCode":"7102"},"geometry":{"type":"Polygon","coordinates":[[[99.20861835600004,14.071165301000065],[99.10674172800003,14.03971806900006],[99.06031312200008,14.081798181000067],[98.99791878800005,14.01827260400006],[99.02059922500007,13.946455601000025],[99.06902366000008,13.989209122000034],[99.09431572600005,13.945880975000023],[99.15781038800009,13.918006494000053],[99.22553921000008,13.977852810000059],[99.27756302700004,13.983712824000065],[99.23192625000007,14.060023065000053],[99.20861835600004,14.071165301000065]]]}},{"type":"Feature","properties":{"code":"710203","name":"สิงห์","parentCode":"7102"},"geometry":{"type":"Polygon","coordinates":[[[99.31837784300006,14.056219947000045],[99.23863422000005,14.090344602000073],[99.19798082900007,14.158428933000039],[99.18702493600006,14.115560818000063],[99.20861835600004,14.071165301000065],[99.23192625000007,14.060023065000053],[99.27756302700004,13.983712824000065],[99.31412640800005,14.012543744000027],[99.31837784300006,14.056219947000045]]]}},{"type":"Feature","properties":{"code":"711203","name":"สมเด็จเจริญ","parentCode":"7112"},"geometry":{"type":"Polygon","coordinates":[[[99.29478658300008,14.832054719000041],[99.23917827900004,14.821798191000028],[99.27298578400007,14.784123676000036],[99.29092952500008,14.704582277000043],[99.33950288300008,14.692418411000062],[99.40790971400008,14.763292590000049],[99.43296104200004,14.75964381800003],[99.34165618900005,14.784320998000055],[99.29478658300008,14.832054719000041]]]}},{"type":"Feature","properties":{"code":"710505","name":"ตะคร้ำเอน","parentCode":"7105"},"geometry":{"type":"Polygon","coordinates":[[[99.73556776100008,14.036649404000059],[99.71314692400006,14.039991713000063],[99.69838424200003,14.023099219000073],[99.73220209200008,13.955264475000035],[99.73726483500008,13.960874877000037],[99.76039704100003,13.945060592000061],[99.78890724900003,13.95178646900007],[99.78449970200006,13.988673642000037],[99.75557190000006,14.020953832000032],[99.73556776100008,14.036649404000059]]]}},{"type":"Feature","properties":{"code":"710701","name":"ท่าขนุน","parentCode":"7107"},"geometry":{"type":"Polygon","coordinates":[[[98.62418771900008,14.853291247000072],[98.60809104000003,14.897023813000033],[98.54514851600004,14.908952208000073],[98.53285895000005,14.889315642000042],[98.55869505600003,14.858667141000069],[98.54800889300009,14.811895608000043],[98.56579944500004,14.758233847000042],[98.63200217000008,14.60024512700005],[98.71901735300008,14.63353853600006],[98.68818340400009,14.639915195000071],[98.69312052700008,14.707498824000027],[98.76322354900003,14.788114932000042],[98.73196295100007,14.838679071000058],[98.63659288700006,14.839018559000067],[98.62418771900008,14.853291247000072]]]}},{"type":"Feature","properties":{"code":"710404","name":"ท่ากระดาน","parentCode":"7104"},"geometry":{"type":"Polygon","coordinates":[[[99.31920759100007,14.41916737200006],[99.25537916200005,14.402570342000047],[99.15266703200007,14.434939649000057],[99.13206186700006,14.486006752000037],[99.07922767200006,14.458713875000058],[99.02655969900007,14.399359394000044],[99.07625325100008,14.325602742000058],[99.09878452200007,14.25722062400007],[99.13187740100005,14.228359972000021],[99.14704541500004,14.287310900000023],[99.20319120200008,14.272010933000047],[99.18652749800003,14.314221755000062],[99.27779302200008,14.344921126000031],[99.35992845800007,14.290141048000066],[99.36590441700008,14.313289636000036],[99.34355315700009,14.368679060000034],[99.31920759100007,14.41916737200006]]]}},{"type":"Feature","properties":{"code":"710604","name":"ท่าล้อ","parentCode":"7106"},"geometry":{"type":"Polygon","coordinates":[[[99.60805206900005,14.000089033000052],[99.58116713300006,14.019155430000069],[99.55134880300005,13.99251554500006],[99.59853707700006,13.964111781000042],[99.62136607900004,13.960447743000032],[99.61907895000007,13.982114438000053],[99.60805206900005,14.000089033000052]]]}},{"type":"Feature","properties":{"code":"710504","name":"ท่าไม้","parentCode":"7105"},"geometry":{"type":"Polygon","coordinates":[[[99.80351570400006,13.929465738000033],[99.78474865200008,13.89896705800004],[99.80354348500003,13.874209417000031],[99.80390387500006,13.872804465000058],[99.81157235000006,13.880297131000077],[99.80351570400006,13.929465738000033]]]}},{"type":"Feature","properties":{"code":"710506","name":"ท่ามะกา","parentCode":"7105"},"geometry":{"type":"Polygon","coordinates":[[[99.78890724900003,13.95178646900007],[99.76039704100003,13.945060592000061],[99.74740425200008,13.943934056000046],[99.75223611800004,13.929745604000061],[99.77676127200004,13.89607757500005],[99.78474865200008,13.89896705800004],[99.80351570400006,13.929465738000033],[99.82356147300004,13.944187214000067],[99.78890724900003,13.95178646900007]]]}},{"type":"Feature","properties":{"code":"710104","name":"ท่ามะขาม","parentCode":"7101"},"geometry":{"type":"Polygon","coordinates":[[[99.52033614700008,14.039279247000024],[99.51564044300005,14.077030145000037],[99.47386618000007,14.047605807000025],[99.47107780800008,14.01402235200004],[99.51616976300005,14.007481624000036],[99.52104086900005,14.030978867000044],[99.52033614700008,14.039279247000024]]]}},{"type":"Feature","properties":{"code":"710601","name":"ท่าม่วง","parentCode":"7106"},"geometry":{"type":"Polygon","coordinates":[[[99.65703771400007,13.977259580000066],[99.61907895000007,13.982114438000053],[99.62136607900004,13.960447743000032],[99.63437113000003,13.950882602000036],[99.63643463900007,13.95008695200005],[99.65703771400007,13.977259580000066]]]}},{"type":"Feature","properties":{"code":"710507","name":"ท่าเรือ","parentCode":"7105"},"geometry":{"type":"Polygon","coordinates":[[[99.76039704100003,13.945060592000061],[99.73726483500008,13.960874877000037],[99.74740425200008,13.943934056000046],[99.76039704100003,13.945060592000061]]]}},{"type":"Feature","properties":{"code":"710202","name":"ท่าเสา","parentCode":"7102"},"geometry":{"type":"Polygon","coordinates":[[[98.97017573900007,14.451296145000072],[98.90121732500006,14.403092129000072],[98.89263491400004,14.365828831000044],[98.96198984500006,14.336869652000075],[99.01684096700006,14.241718096000056],[99.12194699300005,14.14062997700006],[99.18233143400005,14.19203682400007],[99.13187740100005,14.228359972000021],[99.09878452200007,14.25722062400007],[99.07625325100008,14.325602742000058],[99.02655969900007,14.399359394000044],[98.97017573900007,14.451296145000072]]]}},{"type":"Feature","properties":{"code":"710516","name":"ท่าเสา","parentCode":"7105"},"geometry":{"type":"Polygon","coordinates":[[[99.80390387500006,13.872804465000058],[99.80354348500003,13.874209417000031],[99.78064246900004,13.850510604000021],[99.80092272300004,13.82506692000004],[99.81912851200008,13.826472458000069],[99.82123521400007,13.857806292000078],[99.82007420800005,13.864574725000068],[99.80390387500006,13.872804465000058]]]}},{"type":"Feature","properties":{"code":"710611","name":"ท่าตะคร้อ","parentCode":"7106"},"geometry":{"type":"Polygon","coordinates":[[[99.71415767600007,13.938980512000057],[99.68286104700007,13.926742950000062],[99.71126693500008,13.88957914200006],[99.71415767600007,13.938980512000057]]]}},{"type":"Feature","properties":{"code":"711006","name":"ทุ่งกระบ่ำ","parentCode":"7110"},"geometry":{"type":"Polygon","coordinates":[[[99.57385900400004,14.69799973000005],[99.56802496600005,14.710686059000068],[99.54493724300005,14.708949846000053],[99.53328164600003,14.668878850000056],[99.58033394500006,14.590778455000077],[99.59425783000006,14.565040857000042],[99.68381986100007,14.557511684000076],[99.73480959500006,14.591599573000053],[99.73575060600007,14.61826318900006],[99.66784690100008,14.637441146000072],[99.61641145100003,14.62015626300007],[99.56342752400008,14.676584943000023],[99.57385900400004,14.69799973000005]]]}},{"type":"Feature","properties":{"code":"710903","name":"ทุ่งสมอ","parentCode":"7109"},"geometry":{"type":"Polygon","coordinates":[[[99.66992586500004,14.088857145000077],[99.63249570000005,14.093177025000045],[99.65950361700004,14.048128554000073],[99.70013034700008,14.088970238000059],[99.66992586500004,14.088857145000077]]]}},{"type":"Feature","properties":{"code":"710606","name":"ทุ่งทอง","parentCode":"7106"},"geometry":{"type":"Polygon","coordinates":[[[99.60805206900005,14.000089033000052],[99.61907895000007,13.982114438000053],[99.65703771400007,13.977259580000066],[99.68389703700007,14.002099053000052],[99.68577507500004,14.019324238000024],[99.66239613900007,14.026598226000033],[99.60805206900005,14.000089033000052]]]}},{"type":"Feature","properties":{"code":"710510","name":"อุโลกสี่หมื่น","parentCode":"7105"},"geometry":{"type":"Polygon","coordinates":[[[99.81076154600004,14.065662690000067],[99.77221318000005,14.094012947000067],[99.75377065900005,14.082647394000048],[99.73556776100008,14.036649404000059],[99.75557190000006,14.020953832000032],[99.80474097000007,14.052339407000034],[99.81076154600004,14.065662690000067]]]}},{"type":"Feature","properties":{"code":"710513","name":"หวายเหนียว","parentCode":"7105"},"geometry":{"type":"Polygon","coordinates":[[[99.77676127200004,13.89607757500005],[99.75223611800004,13.929745604000061],[99.74238374700008,13.895867360000068],[99.76207417000006,13.876871799000071],[99.77676127200004,13.89607757500005]]]}},{"type":"Feature","properties":{"code":"710108","name":"วังด้ง","parentCode":"7101"},"geometry":{"type":"Polygon","coordinates":[[[99.33859932200005,14.245714729000042],[99.27733584300006,14.227016725000055],[99.26981207200004,14.195927459000075],[99.19504629600004,14.160760117000052],[99.19798082900007,14.158428933000039],[99.23863422000005,14.090344602000073],[99.31837784300006,14.056219947000045],[99.39704285600004,14.112863871000059],[99.37005576600006,14.180727631000025],[99.38319571100004,14.218449785000075],[99.33859932200005,14.245714729000042]]]}},{"type":"Feature","properties":{"code":"710602","name":"วังขนาย","parentCode":"7106"},"geometry":{"type":"Polygon","coordinates":[[[99.67610569400006,13.921791983000048],[99.68389703700007,14.002099053000052],[99.65703771400007,13.977259580000066],[99.63643463900007,13.95008695200005],[99.67610569400006,13.921791983000048]]]}},{"type":"Feature","properties":{"code":"710205","name":"วังกระแจะ","parentCode":"7102"},"geometry":{"type":"Polygon","coordinates":[[[99.12194699300005,14.14062997700006],[99.01684096700006,14.241718096000056],[98.96198984500006,14.336869652000075],[98.89263491400004,14.365828831000044],[98.81075536300006,14.318635277000055],[98.75715267800007,14.311567238000066],[98.75442432000006,14.28172094100006],[98.70033759700004,14.26443791500003],[98.75717778100005,14.213629294000043],[98.86813308400008,14.146555396000053],[98.99049204400006,14.178689341000052],[99.04051638800007,14.127018379000049],[99.07974924800004,14.115952202000074],[99.12194699300005,14.14062997700006]]]}},{"type":"Feature","properties":{"code":"711302","name":"วังไผ่","parentCode":"7113"},"geometry":{"type":"Polygon","coordinates":[[[99.63014332000006,14.457530072000054],[99.56968700000004,14.461406046000036],[99.55958632200009,14.436311893000038],[99.58265867600005,14.407675617000052],[99.68765130600008,14.337368712000057],[99.71593410800006,14.341287556000054],[99.70819997800004,14.418473746000075],[99.63014332000006,14.457530072000054]]]}},{"type":"Feature","properties":{"code":"710603","name":"วังศาลา","parentCode":"7106"},"geometry":{"type":"Polygon","coordinates":[[[99.73220209200008,13.955264475000035],[99.69838424200003,14.023099219000073],[99.68577507500004,14.019324238000024],[99.68389703700007,14.002099053000052],[99.67610569400006,13.921791983000048],[99.68286104700007,13.926742950000062],[99.71415767600007,13.938980512000057],[99.73220209200008,13.955264475000035]]]}},{"type":"Feature","properties":{"code":"710116","name":"วังเย็น","parentCode":"7101"},"geometry":{"type":"Polygon","coordinates":[[[99.37630074200007,13.98370226700007],[99.32041257500003,13.949601010000038],[99.39498915200005,13.93512107500004],[99.47915482700006,13.907304583000041],[99.45956794000006,13.940110376000064],[99.37630074200007,13.98370226700007]]]}},{"type":"Feature","properties":{"code":"710502","name":"ยางม่วง","parentCode":"7105"},"geometry":{"type":"Polygon","coordinates":[[[99.86405349100005,13.928038886000024],[99.82646350400006,13.945078134000028],[99.82356147300004,13.944187214000067],[99.80351570400006,13.929465738000033],[99.81157235000006,13.880297131000077],[99.84842806200004,13.896166523000034],[99.86405349100005,13.928038886000024]]]}}]}