{"type":"FeatureCollection","features":[{"type":"Feature","properties":{"code":"720709","name":"บ้านช้าง","parentCode":"7207"},"geometry":{"type":"Polygon","coordinates":[[[100.20820539800008,14.250865094000062],[100.13636726500005,14.28696188300006],[100.13544623100006,14.260091174000024],[100.23146079800006,14.213102763000052],[100.23365112100004,14.241556800000069],[100.20820539800008,14.250865094000062]]]}},{"type":"Feature","properties":{"code":"720904","name":"บ้านดอน","parentCode":"7209"},"geometry":{"type":"Polygon","coordinates":[[[99.97273901600005,14.340913714000067],[99.95535239200007,14.349927551000064],[99.90731299600009,14.302918865000038],[99.91615490300006,14.289440133000028],[99.93965331900006,14.281373471000052],[99.96638533900006,14.285632048000025],[99.97273901600005,14.340913714000067]]]}},{"type":"Feature","properties":{"code":"720910","name":"บ้านโข้ง","parentCode":"7209"},"geometry":{"type":"Polygon","coordinates":[[[99.82129183600006,14.635297738000077],[99.79808185800005,14.614694550000024],[99.80967665200006,14.53973828900007],[99.82153696900008,14.565550194000025],[99.85984632900005,14.532944091000047],[99.92756118800008,14.555562964000046],[99.92547138900005,14.573292532000039],[99.91870657600003,14.594945880000068],[99.88260775100008,14.609889055000053],[99.82129183600006,14.635297738000077]]]}},{"type":"Feature","properties":{"code":"720502","name":"บ้านกร่าง","parentCode":"7205"},"geometry":{"type":"Polygon","coordinates":[[[100.14918667400008,14.63134102600003],[100.11207916800004,14.668331834000071],[100.08667728800003,14.627842802000032],[100.13280444500003,14.599307361000058],[100.15103951900005,14.598677074000022],[100.14918667400008,14.63134102600003]]]}},{"type":"Feature","properties":{"code":"720705","name":"บ้านกุ่ม","parentCode":"7207"},"geometry":{"type":"Polygon","coordinates":[[[100.13710346900007,14.287587207000058],[100.08842837500003,14.284596180000051],[100.08044936900006,14.270279955000035],[100.09690641000009,14.252689858000053],[100.11912664800008,14.236986209000065],[100.13544623100006,14.260091174000024],[100.13636726500005,14.28696188300006],[100.13710346900007,14.287587207000058]]]}},{"type":"Feature","properties":{"code":"720410","name":"บ้านแหลม","parentCode":"7204"},"geometry":{"type":"Polygon","coordinates":[[[100.16926855400004,14.38863907700005],[100.16522478900004,14.392729449000058],[100.13764855700003,14.370707539000023],[100.12881717700009,14.324499674000037],[100.14752053600006,14.32367608100003],[100.16926855400004,14.38863907700005]]]}},{"type":"Feature","properties":{"code":"720112","name":"บ้านโพธิ์","parentCode":"7201"},"geometry":{"type":"Polygon","coordinates":[[[100.08147416900005,14.560061650000023],[100.05947075000006,14.571940186000063],[100.04593502100005,14.549813208000046],[100.03433592100004,14.513280357000042],[100.04001814800006,14.490194967000036],[100.05945603300006,14.490224546000036],[100.07412321000004,14.484419107000065],[100.08947846200005,14.496446846000026],[100.08301142300007,14.548633206000034],[100.08147416900005,14.560061650000023]]]}},{"type":"Feature","properties":{"code":"720805","name":"บ้านสระ","parentCode":"7208"},"geometry":{"type":"Polygon","coordinates":[[[100.08250345400006,14.733211729000061],[99.99222319100005,14.732334406000064],[99.98424573000005,14.689889837000067],[100.08069901000005,14.676537006000046],[100.08103246900004,14.67801084100006],[100.08133174600005,14.73124058600007],[100.08250345400006,14.733211729000061]]]}},{"type":"Feature","properties":{"code":"720115","name":"บางกุ้ง","parentCode":"7201"},"geometry":{"type":"Polygon","coordinates":[[[100.02989960800005,14.458266568000056],[99.99460555700006,14.467785105000075],[100.00027859200009,14.447400513000048],[100.03006657200007,14.447748310000065],[100.02989960800005,14.458266568000056]]]}},{"type":"Feature","properties":{"code":"720702","name":"บางเลน","parentCode":"7207"},"geometry":{"type":"Polygon","coordinates":[[[100.08834223700006,14.207383227000037],[100.07192790000005,14.199677755000039],[100.05744444100009,14.204913372000021],[100.04762468300004,14.176859720000039],[100.03676770700008,14.15300908200004],[100.06343058700008,14.145437848000029],[100.13125592900008,14.145805773000063],[100.11678831100005,14.169480098000065],[100.08834223700006,14.207383227000037]]]}},{"type":"Feature","properties":{"code":"720504","name":"บางงาม","parentCode":"7205"},"geometry":{"type":"Polygon","coordinates":[[[100.13280444500003,14.599307361000058],[100.08667728800003,14.627842802000032],[100.06066686000008,14.610813768000071],[100.05235490100006,14.58976960800004],[100.08632056800008,14.571062848000054],[100.09243503800008,14.570224984000049],[100.13280444500003,14.599307361000058]]]}},{"type":"Feature","properties":{"code":"720707","name":"บางพลับ","parentCode":"7207"},"geometry":{"type":"Polygon","coordinates":[[[100.06152221300005,14.297374943000023],[100.00718927900004,14.292713656000046],[100.03922993600008,14.28689520200004],[100.03688215200003,14.245930461000057],[100.03485757700008,14.237180416000058],[100.04236343500008,14.231403030000024],[100.08044936900006,14.270279955000035],[100.08842837500003,14.284596180000051],[100.06152221300005,14.297374943000023]]]}},{"type":"Feature","properties":{"code":"720402","name":"บางปลาม้า","parentCode":"7204"},"geometry":{"type":"Polygon","coordinates":[[[100.13671447400009,14.431030689000067],[100.08212151100008,14.410304388000043],[100.08934247700006,14.359656034000068],[100.13764855700003,14.370707539000023],[100.16522478900004,14.392729449000058],[100.13684471000005,14.429249123000034],[100.13671447400009,14.431030689000067]]]}},{"type":"Feature","properties":{"code":"720703","name":"บางตาเถร","parentCode":"7207"},"geometry":{"type":"Polygon","coordinates":[[[100.23146079800006,14.213102763000052],[100.13544623100006,14.260091174000024],[100.11912664800008,14.236986209000065],[100.11678831100005,14.169480098000065],[100.13125592900008,14.145805773000063],[100.17382084500008,14.157005759000072],[100.21290035300007,14.179213636000043],[100.23608597400005,14.204408090000072],[100.23146079800006,14.213102763000052]]]}},{"type":"Feature","properties":{"code":"720704","name":"บางตะเคียน","parentCode":"7207"},"geometry":{"type":"Polygon","coordinates":[[[100.09690641000009,14.252689858000053],[100.08834223700006,14.207383227000037],[100.11678831100005,14.169480098000065],[100.11912664800008,14.236986209000065],[100.09690641000009,14.252689858000053]]]}},{"type":"Feature","properties":{"code":"720404","name":"บางใหญ่","parentCode":"7204"},"geometry":{"type":"Polygon","coordinates":[[[100.14752053600006,14.32367608100003],[100.12881717700009,14.324499674000037],[100.07005523200007,14.309815885000035],[100.06152221300005,14.297374943000023],[100.08842837500003,14.284596180000051],[100.13710346900007,14.287587207000058],[100.14826291200006,14.302664980000031],[100.14752053600006,14.32367608100003]]]}},{"type":"Feature","properties":{"code":"720210","name":"บ่อกรุ","parentCode":"7202"},"geometry":{"type":"Polygon","coordinates":[[[99.86889895600007,14.925932044000035],[99.83145926900005,14.93499780600007],[99.86603751800004,14.858399677000023],[99.91907247100005,14.87032172000005],[99.93229034500007,14.886225620000062],[99.91960596500007,14.912859639000033],[99.86889895600007,14.925932044000035]]]}},{"type":"Feature","properties":{"code":"720714","name":"บ่อสุพรรณ","parentCode":"7207"},"geometry":{"type":"Polygon","coordinates":[[[99.84607687600004,14.177861549000056],[99.80039482900008,14.184226113000022],[99.77221318000005,14.094012947000067],[99.81076154600004,14.065662690000067],[99.81410249700008,14.064243240000053],[99.86933692200006,14.074412649000067],[99.89225007800007,14.090124739000032],[99.92945605300008,14.125472056000035],[99.93229466800005,14.170949925000059],[99.84607687600004,14.177861549000056]]]}},{"type":"Feature","properties":{"code":"721004","name":"แจงงาม","parentCode":"7210"},"geometry":{"type":"Polygon","coordinates":[[[99.85144913000005,14.853844598000023],[99.81295772100003,14.847790839000027],[99.75707963400004,14.825732161000076],[99.69877233000005,14.819214503000069],[99.74459207800004,14.783185901000024],[99.79911939800007,14.793891716000076],[99.85565918300006,14.81505254800004],[99.87180442300007,14.817102913000042],[99.85144913000005,14.853844598000023]]]}},{"type":"Feature","properties":{"code":"720911","name":"เจดีย์","parentCode":"7209"},"geometry":{"type":"Polygon","coordinates":[[[99.95180068600007,14.423183754000036],[99.93067252500003,14.402518651000037],[99.95011560200004,14.356238140000073],[99.95535239200007,14.349927551000064],[99.97273901600005,14.340913714000067],[99.97542250800007,14.340758214000061],[99.95454653600007,14.405564708000043],[99.95180068600007,14.423183754000036]]]}},{"type":"Feature","properties":{"code":"720903","name":"จรเข้สามพัน","parentCode":"7209"},"geometry":{"type":"Polygon","coordinates":[[[99.84549686700007,14.397749760000067],[99.82439396500007,14.400821956000073],[99.81878099300008,14.38111811300007],[99.80814954000004,14.315199986000039],[99.82852159500004,14.275251739000055],[99.81290715700004,14.228791614000045],[99.83587872500004,14.218325176000064],[99.85539982500006,14.29308154000006],[99.88590160600006,14.308855213000072],[99.88681812900006,14.344426284000065],[99.84617817100008,14.35544797600005],[99.84549686700007,14.397749760000067]]]}},{"type":"Feature","properties":{"code":"720409","name":"จรเข้ใหญ่","parentCode":"7204"},"geometry":{"type":"Polygon","coordinates":[[[100.24611592000008,14.453801830000032],[100.20825590100009,14.43749950800003],[100.21224728900006,14.393725552000035],[100.26896844500004,14.412558353000065],[100.25096396500004,14.438538132000076],[100.24611592000008,14.453801830000032]]]}},{"type":"Feature","properties":{"code":"720302","name":"ด่านช้าง","parentCode":"7203"},"geometry":{"type":"Polygon","coordinates":[[[99.75707963400004,14.825732161000076],[99.68638257500004,14.83967891900005],[99.66852204600008,14.876216397000064],[99.64223596100004,14.867725955000026],[99.61066966000004,14.812679021000065],[99.55437925400008,14.820842167000023],[99.51609304600004,14.803305609000063],[99.48556271900009,14.847108357000025],[99.46429808000005,14.822001513000032],[99.44800739500005,14.731133328000055],[99.51382113800008,14.70351594400006],[99.54493724300005,14.708949846000053],[99.56802496600005,14.710686059000068],[99.57708316700007,14.788575713000057],[99.65283459500006,14.802116322000074],[99.69877233000005,14.819214503000069],[99.75707963400004,14.825732161000076]]]}},{"type":"Feature","properties":{"code":"720202","name":"เดิมบาง","parentCode":"7202"},"geometry":{"type":"Polygon","coordinates":[[[100.12713645800005,14.926406472000053],[100.07718715600004,14.905491596000047],[100.04500594900009,14.930073373000027],[100.04173330800006,14.914929855000025],[100.06737661700004,14.86886727500007],[100.12001145800008,14.881286958000032],[100.12632472500007,14.922981841000023],[100.12713645800005,14.926406472000053]]]}},{"type":"Feature","properties":{"code":"720601","name":"ดอนเจดีย์","parentCode":"7206"},"geometry":{"type":"Polygon","coordinates":[[[99.98648329900004,14.651312802000064],[99.92156286100004,14.654363975000024],[99.93228201900007,14.614809315000059],[100.05235490100006,14.58976960800004],[100.06066686000008,14.610813768000071],[100.06186935100004,14.629216191000069],[99.98648329900004,14.651312802000064]]]}},{"type":"Feature","properties":{"code":"720110","name":"ดอนกำยาน","parentCode":"7201"},"geometry":{"type":"Polygon","coordinates":[[[100.07412321000004,14.484419107000065],[100.05945603300006,14.490224546000036],[100.04414910300005,14.408105078000062],[100.07981021200004,14.423834530000022],[100.08283163900006,14.432197495000025],[100.07412321000004,14.484419107000065]]]}},{"type":"Feature","properties":{"code":"720908","name":"ดอนคา","parentCode":"7209"},"geometry":{"type":"Polygon","coordinates":[[[99.96689628100006,14.477727247000075],[99.94225726100007,14.508224430000041],[99.91804644300004,14.475948721000066],[99.88155098000004,14.492571273000067],[99.83273301100007,14.479425684000034],[99.81471425500007,14.43849318100007],[99.88432447800005,14.43677761500004],[99.95534689000004,14.456333710000024],[99.96689628100006,14.477727247000075]]]}},{"type":"Feature","properties":{"code":"720906","name":"ดอนมะเกลือ","parentCode":"7209"},"geometry":{"type":"Polygon","coordinates":[[[99.96638533900006,14.285632048000025],[99.93965331900006,14.281373471000052],[99.92265346600004,14.231716868000035],[99.97932415900004,14.233175670000037],[99.99371148800009,14.264439366000033],[99.96638533900006,14.285632048000025]]]}},{"type":"Feature","properties":{"code":"720715","name":"ดอนมะนาว","parentCode":"7207"},"geometry":{"type":"Polygon","coordinates":[[[100.04762468300004,14.176859720000039],[99.99266226400005,14.192411678000042],[99.98499844400004,14.140034740000033],[100.03676770700008,14.15300908200004],[100.04762468300004,14.176859720000039]]]}},{"type":"Feature","properties":{"code":"720108","name":"ดอนมะสังข์","parentCode":"7201"},"geometry":{"type":"Polygon","coordinates":[[[100.20773728200004,14.522816381000041],[100.19711133600003,14.555511256000045],[100.17273070300007,14.531092260000037],[100.17270399200004,14.524452808000035],[100.17262146200005,14.509737834000077],[100.20773728200004,14.522816381000041]]]}},{"type":"Feature","properties":{"code":"720111","name":"ดอนโพธิ์ทอง","parentCode":"7201"},"geometry":{"type":"Polygon","coordinates":[[[100.05945603300006,14.490224546000036],[100.04001814800006,14.490194967000036],[100.02989960800005,14.458266568000056],[100.03006657200007,14.447748310000065],[100.00527750500004,14.407566290000034],[100.04378360000004,14.403653060000067],[100.04414910300005,14.408105078000062],[100.05945603300006,14.490224546000036]]]}},{"type":"Feature","properties":{"code":"720505","name":"ดอนปรู","parentCode":"7205"},"geometry":{"type":"Polygon","coordinates":[[[100.20547012900005,14.749391737000053],[100.20541775900006,14.770696972000053],[100.19779201400007,14.767665686000043],[100.14743992100006,14.714490019000039],[100.13127507100006,14.697660976000066],[100.17152368400008,14.660246915000073],[100.21473031200009,14.701244182000039],[100.21521830900008,14.724372712000047],[100.20547012900005,14.749391737000053]]]}},{"type":"Feature","properties":{"code":"720107","name":"ดอนตาล","parentCode":"7201"},"geometry":{"type":"Polygon","coordinates":[[[100.22497681700008,14.508499166000036],[100.20773728200004,14.522816381000041],[100.17262146200005,14.509737834000077],[100.17333470800008,14.497802746000048],[100.17663469900003,14.470229311000026],[100.23562238500006,14.480306373000076],[100.22497681700008,14.508499166000036]]]}},{"type":"Feature","properties":{"code":"720208","name":"หัวเขา","parentCode":"7202"},"geometry":{"type":"Polygon","coordinates":[[[100.06737661700004,14.86886727500007],[100.04173330800006,14.914929855000025],[100.00540574400009,14.908008556000027],[99.99695389200008,14.85497157900005],[100.00757908400004,14.845754559000056],[100.06549873300008,14.82174432200003],[100.06737661700004,14.86886727500007]]]}},{"type":"Feature","properties":{"code":"720209","name":"หัวนา","parentCode":"7202"},"geometry":{"type":"Polygon","coordinates":[[[100.00540574400009,14.908008556000027],[99.95172454400006,14.909854185000029],[99.91960596500007,14.912859639000033],[99.93229034500007,14.886225620000062],[99.97477019600007,14.85987583800005],[99.99695389200008,14.85497157900005],[100.00540574400009,14.908008556000027]]]}},{"type":"Feature","properties":{"code":"720706","name":"หัวโพธิ์","parentCode":"7207"},"geometry":{"type":"Polygon","coordinates":[[[99.97542250800007,14.340758214000061],[99.97273901600005,14.340913714000067],[99.96638533900006,14.285632048000025],[99.99371148800009,14.264439366000033],[100.03688215200003,14.245930461000057],[100.03922993600008,14.28689520200004],[100.00718927900004,14.292713656000046],[99.98978888600004,14.335523781000063],[99.98404669700005,14.336716616000047],[99.97542250800007,14.340758214000061]]]}},{"type":"Feature","properties":{"code":"720303","name":"ห้วยขมิ้น","parentCode":"7203"},"geometry":{"type":"Polygon","coordinates":[[[99.55652146400007,14.963265095000054],[99.45029454400009,14.989136293000058],[99.43125769700004,14.973005053000065],[99.46591863900005,14.891863968000052],[99.50325949900008,14.878197624000052],[99.63935262500007,14.86853972700004],[99.63131805200004,14.943277374000047],[99.56471036700003,14.961995081000055],[99.55652146400007,14.963265095000054]]]}},{"type":"Feature","properties":{"code":"720204","name":"เขาดิน","parentCode":"7202"},"geometry":{"type":"Polygon","coordinates":[[[100.20934454000007,14.826097576000052],[100.18076360700007,14.828946985000073],[100.14993695200008,14.812846738000076],[100.14383395900006,14.795053753000047],[100.19779201400007,14.767665686000043],[100.20541775900006,14.770696972000053],[100.22643316800009,14.795045493000032],[100.20934454000007,14.826097576000052]]]}},{"type":"Feature","properties":{"code":"720201","name":"เขาพระ","parentCode":"7202"},"geometry":{"type":"Polygon","coordinates":[[[100.12126060100007,14.837102911000045],[100.12001145800008,14.881286958000032],[100.06737661700004,14.86886727500007],[100.06549873300008,14.82174432200003],[100.08073257600006,14.815039975000047],[100.12126060100007,14.837102911000045]]]}},{"type":"Feature","properties":{"code":"720207","name":"โคกช้าง","parentCode":"7202"},"geometry":{"type":"Polygon","coordinates":[[[100.20269512300007,14.953456120000055],[100.18672684600006,14.957972652000024],[100.12632472500007,14.922981841000023],[100.12001145800008,14.881286958000032],[100.15645056300008,14.890381253000044],[100.20683522400009,14.896411749000038],[100.22211570400003,14.908399922000058],[100.18690015500005,14.907694073000073],[100.20269512300007,14.953456120000055]]]}},{"type":"Feature","properties":{"code":"720106","name":"โคกโคเฒ่า","parentCode":"7201"},"geometry":{"type":"Polygon","coordinates":[[[100.25314556100005,14.48286126100004],[100.23562238500006,14.480306373000076],[100.17663469900003,14.470229311000026],[100.16799741600005,14.445909262000043],[100.17288356600005,14.43560203900006],[100.20825590100009,14.43749950800003],[100.24611592000008,14.453801830000032],[100.25314556100005,14.48286126100004]]]}},{"type":"Feature","properties":{"code":"720401","name":"โคกคราม","parentCode":"7204"},"geometry":{"type":"Polygon","coordinates":[[[100.20825590100009,14.43749950800003],[100.17288356600005,14.43560203900006],[100.13684471000005,14.429249123000034],[100.16522478900004,14.392729449000058],[100.16926855400004,14.38863907700005],[100.20198261200005,14.376358538000034],[100.21224728900006,14.393725552000035],[100.20825590100009,14.43749950800003]]]}},{"type":"Feature","properties":{"code":"720913","name":"กระจัน","parentCode":"7209"},"geometry":{"type":"Polygon","coordinates":[[[99.93067252500003,14.402518651000037],[99.91733616300007,14.387003939000067],[99.90232472600007,14.354020880000064],[99.95011560200004,14.356238140000073],[99.93067252500003,14.402518651000037]]]}},{"type":"Feature","properties":{"code":"720807","name":"กระเสียว","parentCode":"7208"},"geometry":{"type":"Polygon","coordinates":[[[100.06549873300008,14.82174432200003],[100.00757908400004,14.845754559000056],[100.00075276800004,14.839245636000044],[100.01909334100009,14.786691990000065],[100.06497517500009,14.782275478000031],[100.08790909900006,14.788441713000054],[100.08073257600006,14.815039975000047],[100.06549873300008,14.82174432200003]]]}},{"type":"Feature","properties":{"code":"720405","name":"กฤษณา","parentCode":"7204"},"geometry":{"type":"Polygon","coordinates":[[[100.18909654500004,14.319751703000065],[100.14826291200006,14.302664980000031],[100.13710346900007,14.287587207000058],[100.13636726500005,14.28696188300006],[100.20820539800008,14.250865094000062],[100.18909654500004,14.319751703000065]]]}},{"type":"Feature","properties":{"code":"720411","name":"มะขามล้ม","parentCode":"7204"},"geometry":{"type":"Polygon","coordinates":[[[100.08212151100008,14.410304388000043],[100.07981021200004,14.423834530000022],[100.04414910300005,14.408105078000062],[100.04378360000004,14.403653060000067],[100.01597850500008,14.351425122000023],[100.07886877600004,14.351981114000068],[100.08934247700006,14.359656034000068],[100.08212151100008,14.410304388000043]]]}},{"type":"Feature","properties":{"code":"720503","name":"มดแดง","parentCode":"7205"},"geometry":{"type":"Polygon","coordinates":[[[100.15103951900005,14.598677074000022],[100.13280444500003,14.599307361000058],[100.09243503800008,14.570224984000049],[100.12393999100004,14.537987722000025],[100.14704693600004,14.581517236000025],[100.15103951900005,14.598677074000022]]]}},{"type":"Feature","properties":{"code":"720203","name":"นางบวช","parentCode":"7202"},"geometry":{"type":"Polygon","coordinates":[[[100.14993695200008,14.812846738000076],[100.12126060100007,14.837102911000045],[100.08073257600006,14.815039975000047],[100.08790909900006,14.788441713000054],[100.10593890700005,14.788148225000043],[100.14383395900006,14.795053753000047],[100.14993695200008,14.812846738000076]]]}},{"type":"Feature","properties":{"code":"720306","name":"นิคมกระเสียว","parentCode":"7203"},"geometry":{"type":"Polygon","coordinates":[[[99.63935262500007,14.86853972700004],[99.50325949900008,14.878197624000052],[99.46591863900005,14.891863968000052],[99.46248148800004,14.874794104000046],[99.48556271900009,14.847108357000025],[99.51609304600004,14.803305609000063],[99.55437925400008,14.820842167000023],[99.61066966000004,14.812679021000065],[99.64223596100004,14.867725955000026],[99.63935262500007,14.86853972700004]]]}},{"type":"Feature","properties":{"code":"720708","name":"เนินพระปรางค์","parentCode":"7207"},"geometry":{"type":"Polygon","coordinates":[[[100.05744444100009,14.204913372000021],[100.01981455100008,14.211391957000046],[99.99025722200008,14.198243147000028],[99.99266226400005,14.192411678000042],[100.04762468300004,14.176859720000039],[100.05744444100009,14.204913372000021]]]}},{"type":"Feature","properties":{"code":"720713","name":"หนองบ่อ","parentCode":"7207"},"geometry":{"type":"Polygon","coordinates":[[[99.91677412900003,14.229593421000061],[99.86013815100006,14.22083897300007],[99.83587872500004,14.218325176000064],[99.81290715700004,14.228791614000045],[99.79846659600008,14.205821626000045],[99.80039482900008,14.184226113000022],[99.84607687600004,14.177861549000056],[99.92683226100007,14.203707119000057],[99.91677412900003,14.229593421000061]]]}},{"type":"Feature","properties":{"code":"721005","name":"หนองขาม","parentCode":"7210"},"geometry":{"type":"Polygon","coordinates":[[[99.69877233000005,14.819214503000069],[99.65283459500006,14.802116322000074],[99.71765757500003,14.750983310000038],[99.74598056600007,14.74927787300004],[99.79911939800007,14.793891716000076],[99.74459207800004,14.783185901000024],[99.69877233000005,14.819214503000069]]]}},{"type":"Feature","properties":{"code":"720214","name":"หนองกระทุ่ม","parentCode":"7202"},"geometry":{"type":"Polygon","coordinates":[[[99.83145926900005,14.93499780600007],[99.73173369100004,14.962623385000029],[99.73132010700004,14.947495177000064],[99.76964919800008,14.931527109000058],[99.76176200600008,14.900593042000025],[99.82484395600005,14.867434486000036],[99.81295772100003,14.847790839000027],[99.85144913000005,14.853844598000023],[99.86603751800004,14.858399677000023],[99.83145926900005,14.93499780600007]]]}},{"type":"Feature","properties":{"code":"720301","name":"หนองมะค่าโมง","parentCode":"7203"},"geometry":{"type":"Polygon","coordinates":[[[99.73132010700004,14.947495177000064],[99.66359495800003,14.898016506000033],[99.66852204600008,14.876216397000064],[99.68638257500004,14.83967891900005],[99.75707963400004,14.825732161000076],[99.81295772100003,14.847790839000027],[99.82484395600005,14.867434486000036],[99.76176200600008,14.900593042000025],[99.76964919800008,14.931527109000058],[99.73132010700004,14.947495177000064]]]}},{"type":"Feature","properties":{"code":"720907","name":"หนองโอ่ง","parentCode":"7209"},"geometry":{"type":"Polygon","coordinates":[[[99.95534689000004,14.456333710000024],[99.88432447800005,14.43677761500004],[99.81471425500007,14.43849318100007],[99.82107665000007,14.423837381000055],[99.82439396500007,14.400821956000073],[99.84549686700007,14.397749760000067],[99.91733616300007,14.387003939000067],[99.93067252500003,14.402518651000037],[99.95180068600007,14.423183754000036],[99.95534689000004,14.456333710000024]]]}},{"type":"Feature","properties":{"code":"720804","name":"หนองผักนาก","parentCode":"7208"},"geometry":{"type":"Polygon","coordinates":[[[100.01909334100009,14.786691990000065],[99.97836254900005,14.771758737000027],[99.97877978200006,14.751970214000039],[99.99222319100005,14.732334406000064],[100.08250345400006,14.733211729000061],[100.06497517500009,14.782275478000031],[100.01909334100009,14.786691990000065]]]}},{"type":"Feature","properties":{"code":"721003","name":"หนองโพธิ์","parentCode":"7210"},"geometry":{"type":"Polygon","coordinates":[[[99.91907247100005,14.87032172000005],[99.86603751800004,14.858399677000023],[99.85144913000005,14.853844598000023],[99.87180442300007,14.817102913000042],[99.94254715800008,14.791364224000063],[99.98175999300008,14.840010643000028],[99.97195047300005,14.842262954000034],[99.91907247100005,14.87032172000005]]]}},{"type":"Feature","properties":{"code":"721002","name":"หนองราชวัตร","parentCode":"7210"},"geometry":{"type":"Polygon","coordinates":[[[99.97877978200006,14.751970214000039],[99.90105000200003,14.74904671400003],[99.88498544000004,14.718628270000067],[99.87327817700003,14.700739747000057],[99.95271290900007,14.681578130000048],[99.98424573000005,14.689889837000067],[99.99222319100005,14.732334406000064],[99.97877978200006,14.751970214000039]]]}},{"type":"Feature","properties":{"code":"720806","name":"หนองสะเดา","parentCode":"7208"},"geometry":{"type":"Polygon","coordinates":[[[100.00075276800004,14.839245636000044],[99.98175999300008,14.840010643000028],[99.94254715800008,14.791364224000063],[99.97836254900005,14.771758737000027],[100.01909334100009,14.786691990000065],[100.00075276800004,14.839245636000044]]]}},{"type":"Feature","properties":{"code":"720602","name":"หนองสาหร่าย","parentCode":"7206"},"geometry":{"type":"Polygon","coordinates":[[[100.08069901000005,14.676537006000046],[99.98424573000005,14.689889837000067],[99.95271290900007,14.681578130000048],[99.98648329900004,14.651312802000064],[100.06186935100004,14.629216191000069],[100.08069901000005,14.676537006000046]]]}},{"type":"Feature","properties":{"code":"721001","name":"หนองหญ้าไซ","parentCode":"7210"},"geometry":{"type":"Polygon","coordinates":[[[99.94254715800008,14.791364224000063],[99.87180442300007,14.817102913000042],[99.85565918300006,14.81505254800004],[99.85298360500008,14.728537636000055],[99.88498544000004,14.718628270000067],[99.90105000200003,14.74904671400003],[99.97877978200006,14.751970214000039],[99.97836254900005,14.771758737000027],[99.94254715800008,14.791364224000063]]]}},{"type":"Feature","properties":{"code":"720304","name":"องค์พระ","parentCode":"7203"},"geometry":{"type":"Polygon","coordinates":[[[99.46248148800004,14.874794104000046],[99.41745959700006,14.822422326000037],[99.38095493600008,14.814436149000073],[99.39338190200004,14.870678045000034],[99.32102115600009,14.89509445300007],[99.28723130800006,14.86466185200004],[99.29478658300008,14.832054719000041],[99.34165618900005,14.784320998000055],[99.43296104200004,14.75964381800003],[99.44800739500005,14.731133328000055],[99.46429808000005,14.822001513000032],[99.48556271900009,14.847108357000025],[99.46248148800004,14.874794104000046]]]}},{"type":"Feature","properties":{"code":"720408","name":"องครักษ์","parentCode":"7204"},"geometry":{"type":"Polygon","coordinates":[[[100.27347966600007,14.407166232000066],[100.26896844500004,14.412558353000065],[100.21224728900006,14.393725552000035],[100.20198261200005,14.376358538000034],[100.19847191100007,14.332616637000058],[100.21504115600004,14.337180728000021],[100.26439361300004,14.362087590000044],[100.27347966600007,14.407166232000066]]]}},{"type":"Feature","properties":{"code":"720212","name":"ป่าสะแก","parentCode":"7202"},"geometry":{"type":"Polygon","coordinates":[[[99.97477019600007,14.85987583800005],[99.93229034500007,14.886225620000062],[99.91907247100005,14.87032172000005],[99.97195047300005,14.842262954000034],[99.97477019600007,14.85987583800005]]]}},{"type":"Feature","properties":{"code":"720205","name":"ปากน้ำ","parentCode":"7202"},"geometry":{"type":"Polygon","coordinates":[[[100.08709981500004,14.955579406000027],[100.03738267900007,14.956852402000038],[100.04500594900009,14.930073373000027],[100.07718715600004,14.905491596000047],[100.12713645800005,14.926406472000053],[100.08709981500004,14.955579406000027]]]}},{"type":"Feature","properties":{"code":"720105","name":"ไผ่ขวาง","parentCode":"7201"},"geometry":{"type":"Polygon","coordinates":[[[100.17333470800008,14.497802746000048],[100.13747841800006,14.474055125000064],[100.16799741600005,14.445909262000043],[100.17663469900003,14.470229311000026],[100.17333470800008,14.497802746000048]]]}},{"type":"Feature","properties":{"code":"720407","name":"ไผ่กองดิน","parentCode":"7204"},"geometry":{"type":"Polygon","coordinates":[[[100.26439361300004,14.362087590000044],[100.21504115600004,14.337180728000021],[100.25574104900005,14.299143281000056],[100.25695968900004,14.299304262000021],[100.27521509700006,14.351882766000074],[100.26439361300004,14.362087590000044]]]}},{"type":"Feature","properties":{"code":"720109","name":"พิหารแดง","parentCode":"7201"},"geometry":{"type":"Polygon","coordinates":[[[100.11793170000004,14.528141961000074],[100.08301142300007,14.548633206000034],[100.08947846200005,14.496446846000026],[100.12305003100005,14.499565872000062],[100.11793170000004,14.528141961000074]]]}},{"type":"Feature","properties":{"code":"720909","name":"พลับพลาไชย","parentCode":"7209"},"geometry":{"type":"Polygon","coordinates":[[[99.92756118800008,14.555562964000046],[99.85984632900005,14.532944091000047],[99.82153696900008,14.565550194000025],[99.80967665200006,14.53973828900007],[99.83273301100007,14.479425684000034],[99.88155098000004,14.492571273000067],[99.91804644300004,14.475948721000066],[99.94225726100007,14.508224430000041],[99.95820858300004,14.528825649000055],[99.92756118800008,14.555562964000046]]]}},{"type":"Feature","properties":{"code":"720119","name":"โพธิ์พระยา","parentCode":"7201"},"geometry":{"type":"Polygon","coordinates":[[[100.12393999100004,14.537987722000025],[100.09243503800008,14.570224984000049],[100.08632056800008,14.571062848000054],[100.08147416900005,14.560061650000023],[100.08301142300007,14.548633206000034],[100.11793170000004,14.528141961000074],[100.17270399200004,14.524452808000035],[100.17273070300007,14.531092260000037],[100.12393999100004,14.537987722000025]]]}},{"type":"Feature","properties":{"code":"720506","name":"ปลายนา","parentCode":"7205"},"geometry":{"type":"Polygon","coordinates":[[[100.21473031200009,14.701244182000039],[100.17152368400008,14.660246915000073],[100.16304727400006,14.640699832000053],[100.19443972400006,14.620619301000033],[100.20737958300003,14.622818261000077],[100.21387225400008,14.638269920000027],[100.24264875200004,14.652946421000024],[100.21473031200009,14.701244182000039]]]}},{"type":"Feature","properties":{"code":"720603","name":"ไร่รถ","parentCode":"7206"},"geometry":{"type":"Polygon","coordinates":[[[99.93228201900007,14.614809315000059],[99.88260775100008,14.609889055000053],[99.91870657600003,14.594945880000068],[99.92884043600009,14.610632077000048],[99.99784501200008,14.574341219000075],[100.05947075000006,14.571940186000063],[100.08147416900005,14.560061650000023],[100.08632056800008,14.571062848000054],[100.05235490100006,14.58976960800004],[99.93228201900007,14.614809315000059]]]}},{"type":"Feature","properties":{"code":"720102","name":"รั้วใหญ่","parentCode":"7201"},"geometry":{"type":"Polygon","coordinates":[[[100.12305003100005,14.499565872000062],[100.08947846200005,14.496446846000026],[100.07412321000004,14.484419107000065],[100.08283163900006,14.432197495000025],[100.11900619700003,14.446199378000074],[100.12098877200003,14.457725491000076],[100.12501326200004,14.490267509000034],[100.12305003100005,14.499565872000062]]]}},{"type":"Feature","properties":{"code":"720113","name":"สระแก้ว","parentCode":"7201"},"geometry":{"type":"Polygon","coordinates":[[[100.03433592100004,14.513280357000042],[99.95820858300004,14.528825649000055],[99.94225726100007,14.508224430000041],[99.96689628100006,14.477727247000075],[99.99460555700006,14.467785105000075],[100.02989960800005,14.458266568000056],[100.04001814800006,14.490194967000036],[100.03433592100004,14.513280357000042]]]}},{"type":"Feature","properties":{"code":"720604","name":"สระกระโจม","parentCode":"7206"},"geometry":{"type":"Polygon","coordinates":[[[99.92156286100004,14.654363975000024],[99.87007644200008,14.661745942000039],[99.79835191800004,14.699549077000029],[99.79713006700007,14.679116713000042],[99.82129183600006,14.635297738000077],[99.88260775100008,14.609889055000053],[99.93228201900007,14.614809315000059],[99.92156286100004,14.654363975000024]]]}},{"type":"Feature","properties":{"code":"720912","name":"สระพังลาน","parentCode":"7209"},"geometry":{"type":"Polygon","coordinates":[[[99.93965331900006,14.281373471000052],[99.91615490300006,14.289440133000028],[99.86013815100006,14.22083897300007],[99.91677412900003,14.229593421000061],[99.92265346600004,14.231716868000035],[99.93965331900006,14.281373471000052]]]}},{"type":"Feature","properties":{"code":"720902","name":"สระยายโสม","parentCode":"7209"},"geometry":{"type":"Polygon","coordinates":[[[99.88590160600006,14.308855213000072],[99.85539982500006,14.29308154000006],[99.83587872500004,14.218325176000064],[99.86013815100006,14.22083897300007],[99.91615490300006,14.289440133000028],[99.90731299600009,14.302918865000038],[99.88590160600006,14.308855213000072]]]}},{"type":"Feature","properties":{"code":"720116","name":"ศาลาขาว","parentCode":"7201"},"geometry":{"type":"Polygon","coordinates":[[[99.99460555700006,14.467785105000075],[99.96689628100006,14.477727247000075],[99.95534689000004,14.456333710000024],[99.95180068600007,14.423183754000036],[99.95454653600007,14.405564708000043],[100.00027859200009,14.447400513000048],[99.99460555700006,14.467785105000075]]]}},{"type":"Feature","properties":{"code":"720406","name":"สาลี","parentCode":"7204"},"geometry":{"type":"Polygon","coordinates":[[[100.21504115600004,14.337180728000021],[100.19847191100007,14.332616637000058],[100.18909654500004,14.319751703000065],[100.20820539800008,14.250865094000062],[100.23365112100004,14.241556800000069],[100.24994387100008,14.268495658000063],[100.25574104900005,14.299143281000056],[100.21504115600004,14.337180728000021]]]}},{"type":"Feature","properties":{"code":"720803","name":"สามชุก","parentCode":"7208"},"geometry":{"type":"Polygon","coordinates":[[[100.10593890700005,14.788148225000043],[100.08790909900006,14.788441713000054],[100.06497517500009,14.782275478000031],[100.08250345400006,14.733211729000061],[100.08133174600005,14.73124058600007],[100.11631183400004,14.752567902000067],[100.10593890700005,14.788148225000043]]]}},{"type":"Feature","properties":{"code":"720118","name":"สนามชัย","parentCode":"7201"},"geometry":{"type":"Polygon","coordinates":[[[100.17270399200004,14.524452808000035],[100.11793170000004,14.528141961000074],[100.12305003100005,14.499565872000062],[100.12501326200004,14.490267509000034],[100.12443411500004,14.476341474000037],[100.13747841800006,14.474055125000064],[100.17333470800008,14.497802746000048],[100.17262146200005,14.509737834000077],[100.17270399200004,14.524452808000035]]]}},{"type":"Feature","properties":{"code":"720120","name":"สนามคลี","parentCode":"7201"},"geometry":{"type":"Polygon","coordinates":[[[100.04593502100005,14.549813208000046],[99.97019013500005,14.546523045000072],[99.92547138900005,14.573292532000039],[99.92756118800008,14.555562964000046],[99.95820858300004,14.528825649000055],[100.03433592100004,14.513280357000042],[100.04593502100005,14.549813208000046]]]}},{"type":"Feature","properties":{"code":"720501","name":"ศรีประจันต์","parentCode":"7205"},"geometry":{"type":"Polygon","coordinates":[[[100.19443972400006,14.620619301000033],[100.16304727400006,14.640699832000053],[100.14918667400008,14.63134102600003],[100.15103951900005,14.598677074000022],[100.14704693600004,14.581517236000025],[100.20685790700009,14.582482882000022],[100.19443972400006,14.620619301000033]]]}},{"type":"Feature","properties":{"code":"720711","name":"ศรีสำราญ","parentCode":"7207"},"geometry":{"type":"Polygon","coordinates":[[[100.03688215200003,14.245930461000057],[99.99371148800009,14.264439366000033],[99.97932415900004,14.233175670000037],[99.92265346600004,14.231716868000035],[99.91677412900003,14.229593421000061],[99.92683226100007,14.203707119000057],[99.99025722200008,14.198243147000028],[100.01981455100008,14.211391957000046],[100.03485757700008,14.237180416000058],[100.03688215200003,14.245930461000057]]]}},{"type":"Feature","properties":{"code":"720701","name":"สองพี่น้อง","parentCode":"7207"},"geometry":{"type":"Polygon","coordinates":[[[100.03485757700008,14.237180416000058],[100.01981455100008,14.211391957000046],[100.05744444100009,14.204913372000021],[100.07192790000005,14.199677755000039],[100.04236343500008,14.231403030000024],[100.03485757700008,14.237180416000058]]]}},{"type":"Feature","properties":{"code":"720117","name":"สวนแตง","parentCode":"7201"},"geometry":{"type":"Polygon","coordinates":[[[100.03006657200007,14.447748310000065],[100.00027859200009,14.447400513000048],[99.95454653600007,14.405564708000043],[99.97542250800007,14.340758214000061],[99.98404669700005,14.336716616000047],[100.00527750500004,14.407566290000034],[100.03006657200007,14.447748310000065]]]}},{"type":"Feature","properties":{"code":"720403","name":"ตะค่า","parentCode":"7204"},"geometry":{"type":"Polygon","coordinates":[[[100.16926855400004,14.38863907700005],[100.14752053600006,14.32367608100003],[100.14826291200006,14.302664980000031],[100.18909654500004,14.319751703000065],[100.19847191100007,14.332616637000058],[100.20198261200005,14.376358538000034],[100.16926855400004,14.38863907700005]]]}},{"type":"Feature","properties":{"code":"720114","name":"ตลิ่งชัน","parentCode":"7201"},"geometry":{"type":"Polygon","coordinates":[[[100.05947075000006,14.571940186000063],[99.99784501200008,14.574341219000075],[99.92884043600009,14.610632077000048],[99.91870657600003,14.594945880000068],[99.92547138900005,14.573292532000039],[99.97019013500005,14.546523045000072],[100.04593502100005,14.549813208000046],[100.05947075000006,14.571940186000063]]]}},{"type":"Feature","properties":{"code":"720101","name":"ท่าพี่เลี้ยง","parentCode":"7201"},"geometry":{"type":"Polygon","coordinates":[[[100.12443411500004,14.476341474000037],[100.12501326200004,14.490267509000034],[100.12098877200003,14.457725491000076],[100.12443411500004,14.476341474000037]]]}},{"type":"Feature","properties":{"code":"720104","name":"ท่าระหัด","parentCode":"7201"},"geometry":{"type":"Polygon","coordinates":[[[100.13747841800006,14.474055125000064],[100.12443411500004,14.476341474000037],[100.12098877200003,14.457725491000076],[100.11900619700003,14.446199378000074],[100.13671447400009,14.431030689000067],[100.13684471000005,14.429249123000034],[100.17288356600005,14.43560203900006],[100.16799741600005,14.445909262000043],[100.13747841800006,14.474055125000064]]]}},{"type":"Feature","properties":{"code":"720605","name":"ทะเลบก","parentCode":"7206"},"geometry":{"type":"Polygon","coordinates":[[[99.87327817700003,14.700739747000057],[99.78944300400008,14.736016902000074],[99.79835191800004,14.699549077000029],[99.87007644200008,14.661745942000039],[99.92156286100004,14.654363975000024],[99.98648329900004,14.651312802000064],[99.95271290900007,14.681578130000048],[99.87327817700003,14.700739747000057]]]}},{"type":"Feature","properties":{"code":"721006","name":"ทัพหลวง","parentCode":"7210"},"geometry":{"type":"Polygon","coordinates":[[[99.85565918300006,14.81505254800004],[99.79911939800007,14.793891716000076],[99.74598056600007,14.74927787300004],[99.78944300400008,14.736016902000074],[99.87327817700003,14.700739747000057],[99.88498544000004,14.718628270000067],[99.85298360500008,14.728537636000055],[99.85565918300006,14.81505254800004]]]}},{"type":"Feature","properties":{"code":"720103","name":"ทับตีเหล็ก","parentCode":"7201"},"geometry":{"type":"Polygon","coordinates":[[[100.11900619700003,14.446199378000074],[100.08283163900006,14.432197495000025],[100.07981021200004,14.423834530000022],[100.08212151100008,14.410304388000043],[100.13671447400009,14.431030689000067],[100.11900619700003,14.446199378000074]]]}},{"type":"Feature","properties":{"code":"720206","name":"ทุ่งคลี","parentCode":"7202"},"geometry":{"type":"Polygon","coordinates":[[[100.21542735900005,14.839860029000022],[100.20683522400009,14.896411749000038],[100.15645056300008,14.890381253000044],[100.18076360700007,14.828946985000073],[100.20934454000007,14.826097576000052],[100.21542735900005,14.839860029000022]]]}},{"type":"Feature","properties":{"code":"720712","name":"ทุ่งคอก","parentCode":"7207"},"geometry":{"type":"Polygon","coordinates":[[[99.99025722200008,14.198243147000028],[99.92683226100007,14.203707119000057],[99.84607687600004,14.177861549000056],[99.93229466800005,14.170949925000059],[99.92945605300008,14.125472056000035],[99.98499844400004,14.140034740000033],[99.99266226400005,14.192411678000042],[99.99025722200008,14.198243147000028]]]}},{"type":"Feature","properties":{"code":"720710","name":"ต้นตาล","parentCode":"7207"},"geometry":{"type":"Polygon","coordinates":[[[100.08044936900006,14.270279955000035],[100.04236343500008,14.231403030000024],[100.07192790000005,14.199677755000039],[100.08834223700006,14.207383227000037],[100.09690641000009,14.252689858000053],[100.08044936900006,14.270279955000035]]]}},{"type":"Feature","properties":{"code":"720901","name":"อู่ทอง","parentCode":"7209"},"geometry":{"type":"Polygon","coordinates":[[[99.91733616300007,14.387003939000067],[99.84549686700007,14.397749760000067],[99.84617817100008,14.35544797600005],[99.88681812900006,14.344426284000065],[99.90232472600007,14.354020880000064],[99.91733616300007,14.387003939000067]]]}},{"type":"Feature","properties":{"code":"720305","name":"วังคัน","parentCode":"7203"},"geometry":{"type":"Polygon","coordinates":[[[99.72377013800008,14.962032211000064],[99.63038067400004,14.988265037000076],[99.63131805200004,14.943277374000047],[99.63935262500007,14.86853972700004],[99.64223596100004,14.867725955000026],[99.66852204600008,14.876216397000064],[99.66359495800003,14.898016506000033],[99.73132010700004,14.947495177000064],[99.73173369100004,14.962623385000029],[99.72377013800008,14.962032211000064]]]}},{"type":"Feature","properties":{"code":"720802","name":"วังลึก","parentCode":"7208"},"geometry":{"type":"Polygon","coordinates":[[[100.14383395900006,14.795053753000047],[100.10593890700005,14.788148225000043],[100.11631183400004,14.752567902000067],[100.14743992100006,14.714490019000039],[100.19779201400007,14.767665686000043],[100.14383395900006,14.795053753000047]]]}},{"type":"Feature","properties":{"code":"720508","name":"วังน้ำซับ","parentCode":"7205"},"geometry":{"type":"Polygon","coordinates":[[[100.17152368400008,14.660246915000073],[100.13127507100006,14.697660976000066],[100.10592625500004,14.683560469000042],[100.11207916800004,14.668331834000071],[100.14918667400008,14.63134102600003],[100.16304727400006,14.640699832000053],[100.17152368400008,14.660246915000073]]]}},{"type":"Feature","properties":{"code":"720412","name":"วังน้ำเย็น","parentCode":"7204"},"geometry":{"type":"Polygon","coordinates":[[[100.04378360000004,14.403653060000067],[100.00527750500004,14.407566290000034],[99.98404669700005,14.336716616000047],[99.98978888600004,14.335523781000063],[100.01597850500008,14.351425122000023],[100.04378360000004,14.403653060000067]]]}},{"type":"Feature","properties":{"code":"720211","name":"วังศรีราช","parentCode":"7202"},"geometry":{"type":"Polygon","coordinates":[[[99.99695389200008,14.85497157900005],[99.97477019600007,14.85987583800005],[99.97195047300005,14.842262954000034],[99.98175999300008,14.840010643000028],[100.00075276800004,14.839245636000044],[100.00757908400004,14.845754559000056],[99.99695389200008,14.85497157900005]]]}},{"type":"Feature","properties":{"code":"720507","name":"วังหว้า","parentCode":"7205"},"geometry":{"type":"Polygon","coordinates":[[[100.10592625500004,14.683560469000042],[100.08103246900004,14.67801084100006],[100.08069901000005,14.676537006000046],[100.06186935100004,14.629216191000069],[100.06066686000008,14.610813768000071],[100.08667728800003,14.627842802000032],[100.11207916800004,14.668331834000071],[100.10592625500004,14.683560469000042]]]}},{"type":"Feature","properties":{"code":"720509","name":"วังยาง","parentCode":"7205"},"geometry":{"type":"Polygon","coordinates":[[[100.20685790700009,14.582482882000022],[100.14704693600004,14.581517236000025],[100.12393999100004,14.537987722000025],[100.17273070300007,14.531092260000037],[100.19711133600003,14.555511256000045],[100.20978521300003,14.57972327400006],[100.20685790700009,14.582482882000022]]]}},{"type":"Feature","properties":{"code":"720307","name":"วังยาว","parentCode":"7203"},"geometry":{"type":"Polygon","coordinates":[[[99.38542361600008,15.047827592000033],[99.31982244300008,15.080905266000059],[99.28280207500006,14.997616249000032],[99.32501374800006,14.941626950000057],[99.32102115600009,14.89509445300007],[99.39338190200004,14.870678045000034],[99.38095493600008,14.814436149000073],[99.41745959700006,14.822422326000037],[99.46248148800004,14.874794104000046],[99.46591863900005,14.891863968000052],[99.43125769700004,14.973005053000065],[99.45029454400009,14.989136293000058],[99.41586087000007,15.047345532000065],[99.38542361600008,15.047827592000033]]]}},{"type":"Feature","properties":{"code":"720413","name":"วัดโบสถ์","parentCode":"7204"},"geometry":{"type":"Polygon","coordinates":[[[100.07886877600004,14.351981114000068],[100.01597850500008,14.351425122000023],[99.98978888600004,14.335523781000063],[100.00718927900004,14.292713656000046],[100.06152221300005,14.297374943000023],[100.07005523200007,14.309815885000035],[100.07886877600004,14.351981114000068]]]}},{"type":"Feature","properties":{"code":"720414","name":"วัดดาว","parentCode":"7204"},"geometry":{"type":"Polygon","coordinates":[[[100.13764855700003,14.370707539000023],[100.08934247700006,14.359656034000068],[100.07886877600004,14.351981114000068],[100.07005523200007,14.309815885000035],[100.12881717700009,14.324499674000037],[100.13764855700003,14.370707539000023]]]}},{"type":"Feature","properties":{"code":"720801","name":"ย่านยาว","parentCode":"7208"},"geometry":{"type":"Polygon","coordinates":[[[100.11631183400004,14.752567902000067],[100.08133174600005,14.73124058600007],[100.08103246900004,14.67801084100006],[100.10592625500004,14.683560469000042],[100.13127507100006,14.697660976000066],[100.14743992100006,14.714490019000039],[100.11631183400004,14.752567902000067]]]}},{"type":"Feature","properties":{"code":"720213","name":"ยางนอน","parentCode":"7202"},"geometry":{"type":"Polygon","coordinates":[[[100.18076360700007,14.828946985000073],[100.15645056300008,14.890381253000044],[100.12001145800008,14.881286958000032],[100.12126060100007,14.837102911000045],[100.14993695200008,14.812846738000076],[100.18076360700007,14.828946985000073]]]}},{"type":"Feature","properties":{"code":"720905","name":"ยุ้งทะลาย","parentCode":"7209"},"geometry":{"type":"Polygon","coordinates":[[[99.95535239200007,14.349927551000064],[99.95011560200004,14.356238140000073],[99.90232472600007,14.354020880000064],[99.88681812900006,14.344426284000065],[99.88590160600006,14.308855213000072],[99.90731299600009,14.302918865000038],[99.95535239200007,14.349927551000064]]]}}]}