{"type":"FeatureCollection","features":[{"type":"Feature","properties":{"code":"730405","name":"บ้านหลวง","parentCode":"7304"},"geometry":{"type":"Polygon","coordinates":[[[100.17467889300008,13.924371916000041],[100.13388381100003,13.916117899000028],[100.12577423200008,13.908745650000071],[100.14212125400007,13.894332399000064],[100.15379021100006,13.899350906000052],[100.15968953000004,13.908644418000051],[100.17513656800008,13.92272207800005],[100.17467889300008,13.924371916000041]]]}},{"type":"Feature","properties":{"code":"730615","name":"บ้านใหม่","parentCode":"7306"},"geometry":{"type":"Polygon","coordinates":[[[100.25017912700008,13.705646500000057],[100.23049982800006,13.707915611000033],[100.22417243800004,13.681410784000036],[100.24183827900004,13.678008143000056],[100.26034716400005,13.684271397000032],[100.26016024000006,13.684682085000077],[100.25017912700008,13.705646500000057]]]}},{"type":"Feature","properties":{"code":"730125","name":"บ้านยาง","parentCode":"7301"},"geometry":{"type":"Polygon","coordinates":[[[99.94373451000007,13.889167633000056],[99.92398135000008,13.89983983600007],[99.90954473500005,13.876616979000062],[99.90357047400005,13.848385428000029],[99.91560267700004,13.844313556000031],[99.95687397300009,13.835619571000052],[99.94373451000007,13.889167633000056]]]}},{"type":"Feature","properties":{"code":"730607","name":"บางช้าง","parentCode":"7306"},"geometry":{"type":"Polygon","coordinates":[[[100.20706868300005,13.72082391400005],[100.17141207700007,13.72302171900003],[100.18173813000004,13.688987742000052],[100.19866709400009,13.67711302400005],[100.22417243800004,13.681410784000036],[100.23049982800006,13.707915611000033],[100.22796328800007,13.708753977000072],[100.20706868300005,13.72082391400005]]]}},{"type":"Feature","properties":{"code":"730305","name":"บางแก้ว","parentCode":"7303"},"geometry":{"type":"Polygon","coordinates":[[[100.17794937500008,13.747434586000054],[100.16788535700005,13.80678120500005],[100.16137086400005,13.80168597100004],[100.15749503700005,13.790020433000052],[100.16036952300004,13.740845410000077],[100.17848616100008,13.744571656000062],[100.17794937500008,13.747434586000054]]]}},{"type":"Feature","properties":{"code":"730321","name":"บางแก้วฟ้า","parentCode":"7303"},"geometry":{"type":"Polygon","coordinates":[[[100.25595105700006,13.905260413000065],[100.19934543800008,13.912407148000057],[100.22017301700004,13.885998658000062],[100.26325922400008,13.877892028000076],[100.25612202000008,13.904495505000057],[100.25595105700006,13.905260413000065]]]}},{"type":"Feature","properties":{"code":"730102","name":"บางแขม","parentCode":"7301"},"geometry":{"type":"Polygon","coordinates":[[[100.04835855000005,13.777283584000031],[100.03320662500005,13.804400245000068],[100.00924578800004,13.794711079000024],[100.02207288700004,13.750169551000056],[100.03332972800007,13.694684342000073],[100.05793017900004,13.756676798000058],[100.04835855000005,13.777283584000031]]]}},{"type":"Feature","properties":{"code":"730302","name":"บางกระเบา","parentCode":"7303"},"geometry":{"type":"Polygon","coordinates":[[[100.19102411700004,13.771060428000055],[100.18166644200005,13.80501964900003],[100.17461214100007,13.805914552000047],[100.19102411700004,13.771060428000055]]]}},{"type":"Feature","properties":{"code":"730604","name":"บางกระทึก","parentCode":"7306"},"geometry":{"type":"Polygon","coordinates":[[[100.31148223900004,13.788762414000075],[100.28288168000006,13.761576750000074],[100.30910898100007,13.746968508000066],[100.32728050900005,13.763092177000033],[100.31148223900004,13.788762414000075]]]}},{"type":"Feature","properties":{"code":"730501","name":"บางเลน","parentCode":"7305"},"geometry":{"type":"Polygon","coordinates":[[[100.20219793400008,14.005954917000054],[100.21778107200004,14.043911800000046],[100.16915311400004,14.023815417000037],[100.13293613800005,14.03562794800007],[100.14640113800004,13.999757674000023],[100.19124192600003,13.984298089000049],[100.20219793400008,14.005954917000054]]]}},{"type":"Feature","properties":{"code":"730503","name":"บางหลวง","parentCode":"7305"},"geometry":{"type":"Polygon","coordinates":[[[100.18989603600005,14.141171305000057],[100.17382084500008,14.157005759000072],[100.13125592900008,14.145805773000063],[100.06343058700008,14.145437848000029],[100.06275890900008,14.110609358000033],[100.06028709300006,14.089974766000068],[100.06404052800008,14.07222630700005],[100.10315971400007,14.09633655500005],[100.18989603600005,14.141171305000057]]]}},{"type":"Feature","properties":{"code":"730504","name":"บางภาษี","parentCode":"7305"},"geometry":{"type":"Polygon","coordinates":[[[100.27094645200003,14.066585660000044],[100.21821541700007,14.073306839000054],[100.21778107200004,14.043911800000046],[100.20219793400008,14.005954917000054],[100.25919721000008,13.995606101000021],[100.26242900800008,13.99812071100007],[100.26708626300007,14.045171824000022],[100.27094645200003,14.066585660000044]]]}},{"type":"Feature","properties":{"code":"730320","name":"บางพระ","parentCode":"7303"},"geometry":{"type":"Polygon","coordinates":[[[100.19934543800008,13.912407148000057],[100.17513656800008,13.92272207800005],[100.15968953000004,13.908644418000051],[100.21462412300008,13.881181793000053],[100.22017301700004,13.885998658000062],[100.19934543800008,13.912407148000057]]]}},{"type":"Feature","properties":{"code":"730502","name":"บางปลา","parentCode":"7305"},"geometry":{"type":"Polygon","coordinates":[[[100.19124192600003,13.984298089000049],[100.14640113800004,13.999757674000023],[100.12953735500008,13.957402706000039],[100.15816158600006,13.935248835000039],[100.17995310700007,13.962710263000076],[100.18051594400004,13.963470381000036],[100.19124192600003,13.984298089000049]]]}},{"type":"Feature","properties":{"code":"730310","name":"บางระกำ","parentCode":"7303"},"geometry":{"type":"Polygon","coordinates":[[[100.12062682100009,13.781754040000067],[100.10560905600005,13.783751893000044],[100.09844612300009,13.767839078000065],[100.10282924800003,13.735608928000033],[100.14510188800006,13.744102706000035],[100.14264262800003,13.759636254000043],[100.12062682100009,13.781754040000067]]]}},{"type":"Feature","properties":{"code":"730505","name":"บางระกำ","parentCode":"7305"},"geometry":{"type":"Polygon","coordinates":[[[100.22628062400008,13.941026935000025],[100.17995310700007,13.962710263000076],[100.15816158600006,13.935248835000039],[100.17467889300008,13.924371916000041],[100.17513656800008,13.92272207800005],[100.19934543800008,13.912407148000057],[100.25595105700006,13.905260413000065],[100.22628062400008,13.941026935000025]]]}},{"type":"Feature","properties":{"code":"730506","name":"บางไทรป่า","parentCode":"7305"},"geometry":{"type":"Polygon","coordinates":[[[100.21821541700007,14.073306839000054],[100.14224279300004,14.06678600600003],[100.13728062000007,14.070437490000074],[100.12584278500003,14.038581255000054],[100.13293613800005,14.03562794800007],[100.16915311400004,14.023815417000037],[100.21778107200004,14.043911800000046],[100.21821541700007,14.073306839000054]]]}},{"type":"Feature","properties":{"code":"730605","name":"บางเตย","parentCode":"7306"},"geometry":{"type":"Polygon","coordinates":[[[100.27955110000005,13.801993097000036],[100.27230635000006,13.801957117000029],[100.26599811400007,13.76093114400004],[100.28288168000006,13.761576750000074],[100.31148223900004,13.788762414000075],[100.27955110000005,13.801993097000036]]]}},{"type":"Feature","properties":{"code":"730110","name":"บ่อพลับ","parentCode":"7301"},"geometry":{"type":"Polygon","coordinates":[[[100.08099679700007,13.842579796000052],[100.06125110600004,13.851555761000043],[100.05679596600004,13.824618863000069],[100.08076122700004,13.82233321700005],[100.08594644000004,13.82441189900004],[100.09177680700009,13.829514379000045],[100.08099679700007,13.842579796000052]]]}},{"type":"Feature","properties":{"code":"730511","name":"บัวปากท่า","parentCode":"7305"},"geometry":{"type":"Polygon","coordinates":[[[100.21290035300007,14.179213636000043],[100.17382084500008,14.157005759000072],[100.18989603600005,14.141171305000057],[100.28196936200004,14.146766481000043],[100.28413889900008,14.16959119300003],[100.21290035300007,14.179213636000043]]]}},{"type":"Feature","properties":{"code":"730317","name":"ดอนแฝก","parentCode":"7303"},"geometry":{"type":"Polygon","coordinates":[[[100.22231987500004,13.843692678000025],[100.25543825000005,13.87435625300003],[100.20269589900005,13.865978466000058],[100.19640900200005,13.844706578000057],[100.19786686000003,13.84284552500003],[100.22231987500004,13.843692678000025]]]}},{"type":"Feature","properties":{"code":"730208","name":"ดอนข่อย","parentCode":"7302"},"geometry":{"type":"Polygon","coordinates":[[[100.05344267500004,14.046100203000037],[100.00069849000005,14.03020095100004],[100.01297066000006,14.007943002000047],[100.05320820800006,13.988436138000054],[100.06292676000004,14.013210942000057],[100.06428017600007,14.032634245000054],[100.05344267500004,14.046100203000037]]]}},{"type":"Feature","properties":{"code":"730404","name":"ดอนพุทรา","parentCode":"7304"},"geometry":{"type":"Polygon","coordinates":[[[100.12953735500008,13.957402706000039],[100.12281273200006,13.959537391000026],[100.11333553000009,13.951947232000066],[100.10932471300003,13.928163681000058],[100.13388381100003,13.916117899000028],[100.17467889300008,13.924371916000041],[100.15816158600006,13.935248835000039],[100.12953735500008,13.957402706000039]]]}},{"type":"Feature","properties":{"code":"730406","name":"ดอนรวก","parentCode":"7304"},"geometry":{"type":"Polygon","coordinates":[[[100.14212125400007,13.894332399000064],[100.12577423200008,13.908745650000071],[100.09632481000006,13.880247936000046],[100.09252715100007,13.87464701500005],[100.11650078200006,13.871844614000054],[100.14212125400007,13.894332399000064]]]}},{"type":"Feature","properties":{"code":"730509","name":"ดอนตูม","parentCode":"7305"},"geometry":{"type":"Polygon","coordinates":[[[100.14640113800004,13.999757674000023],[100.13293613800005,14.03562794800007],[100.12584278500003,14.038581255000054],[100.11406084400005,14.043139645000053],[100.09986103500006,13.981921830000033],[100.12281273200006,13.959537391000026],[100.12953735500008,13.957402706000039],[100.14640113800004,13.999757674000023]]]}},{"type":"Feature","properties":{"code":"730108","name":"ดอนยายหอม","parentCode":"7301"},"geometry":{"type":"Polygon","coordinates":[[[100.09844612300009,13.767839078000065],[100.05793017900004,13.756676798000058],[100.03332972800007,13.694684342000073],[100.06788866400007,13.69335264700004],[100.10741387700006,13.704790374000027],[100.10282924800003,13.735608928000033],[100.09844612300009,13.767839078000065]]]}},{"type":"Feature","properties":{"code":"730507","name":"หินมูล","parentCode":"7305"},"geometry":{"type":"Polygon","coordinates":[[[100.19446612500008,14.124047004000033],[100.18989603600005,14.141171305000057],[100.10315971400007,14.09633655500005],[100.13728062000007,14.070437490000074],[100.14224279300004,14.06678600600003],[100.19446612500008,14.124047004000033]]]}},{"type":"Feature","properties":{"code":"730603","name":"หอมเกร็ด","parentCode":"7306"},"geometry":{"type":"Polygon","coordinates":[[[100.26246351000003,13.802165757000068],[100.24788013000006,13.801656527000034],[100.22651604500004,13.788105262000045],[100.20603978500009,13.764068419000068],[100.21307589500003,13.757886694000035],[100.24882488100008,13.757289913000022],[100.26246351000003,13.802165757000068]]]}},{"type":"Feature","properties":{"code":"730122","name":"ห้วยจรเข้","parentCode":"7301"},"geometry":{"type":"Polygon","coordinates":[[[100.07780296700008,13.818504192000034],[100.05808049200004,13.815630072000033],[100.06364874400003,13.785825144000057],[100.07780910500009,13.801071058000048],[100.07780296700008,13.818504192000034]]]}},{"type":"Feature","properties":{"code":"730407","name":"ห้วยด้วน","parentCode":"7304"},"geometry":{"type":"Polygon","coordinates":[[[100.13388381100003,13.916117899000028],[100.10932471300003,13.928163681000058],[100.07612529000005,13.899623881000025],[100.09632481000006,13.880247936000046],[100.12577423200008,13.908745650000071],[100.13388381100003,13.916117899000028]]]}},{"type":"Feature","properties":{"code":"730204","name":"ห้วยขวาง","parentCode":"7302"},"geometry":{"type":"Polygon","coordinates":[[[100.00348700000006,13.943724382000028],[99.98349268700008,13.956604523000067],[99.97161623400007,13.945058437000057],[99.98336873500006,13.919306351000046],[100.03361939100006,13.88460152600004],[100.05739443800007,13.913663632000066],[100.05806093500007,13.929454548000024],[100.01716589800009,13.943175108000048],[100.00348700000006,13.943724382000028]]]}},{"type":"Feature","properties":{"code":"730210","name":"ห้วยหมอนทอง","parentCode":"7302"},"geometry":{"type":"Polygon","coordinates":[[[99.95499717400008,13.994081123000058],[99.90260050000006,13.988060067000049],[99.89754809800007,13.942385698000066],[99.92702629000007,13.933968390000075],[99.93915113100007,13.93795190700007],[99.95499717400008,13.994081123000058]]]}},{"type":"Feature","properties":{"code":"730211","name":"ห้วยม่วง","parentCode":"7302"},"geometry":{"type":"Polygon","coordinates":[[[100.06343058700008,14.145437848000029],[100.03676770700008,14.15300908200004],[99.98499844400004,14.140034740000033],[99.98722241500008,14.102938724000069],[100.06275890900008,14.110609358000033],[100.06343058700008,14.145437848000029]]]}},{"type":"Feature","properties":{"code":"730318","name":"ห้วยพลู","parentCode":"7303"},"geometry":{"type":"Polygon","coordinates":[[[100.26325922400008,13.877892028000076],[100.22017301700004,13.885998658000062],[100.21462412300008,13.881181793000053],[100.20269589900005,13.865978466000058],[100.25543825000005,13.87435625300003],[100.26387000200003,13.875837131000026],[100.26325922400008,13.877892028000076]]]}},{"type":"Feature","properties":{"code":"730402","name":"ห้วยพระ","parentCode":"7304"},"geometry":{"type":"Polygon","coordinates":[[[100.11333553000009,13.951947232000066],[100.07069976000008,13.952618166000036],[100.05806093500007,13.929454548000024],[100.05739443800007,13.913663632000066],[100.07088102300008,13.90073422200004],[100.07612529000005,13.899623881000025],[100.10932471300003,13.928163681000058],[100.11333553000009,13.951947232000066]]]}},{"type":"Feature","properties":{"code":"730212","name":"กำแพงแสน","parentCode":"7302"},"geometry":{"type":"Polygon","coordinates":[[[100.00069849000005,14.03020095100004],[99.96396329200007,14.050847413000042],[99.95622506100005,14.027648770000042],[99.97708421200008,13.997813585000074],[100.00242406600006,13.996496378000074],[100.01297066000006,14.007943002000047],[100.00069849000005,14.03020095100004]]]}},{"type":"Feature","properties":{"code":"730613","name":"คลองจินดา","parentCode":"7306"},"geometry":{"type":"Polygon","coordinates":[[[100.16026703300008,13.737366821000023],[100.15226748300006,13.737704276000045],[100.10741387700006,13.704790374000027],[100.12095923200008,13.679138797000064],[100.13587054700008,13.681967602000043],[100.17135058100007,13.680630305000022],[100.18173813000004,13.688987742000052],[100.17141207700007,13.72302171900003],[100.16026703300008,13.737366821000023]]]}},{"type":"Feature","properties":{"code":"730611","name":"คลองใหม่","parentCode":"7306"},"geometry":{"type":"Polygon","coordinates":[[[100.20937933200008,13.744063530000062],[100.21307589500003,13.757886694000035],[100.20603978500009,13.764068419000068],[100.17848616100008,13.744571656000062],[100.16036952300004,13.740845410000077],[100.16026703300008,13.737366821000023],[100.17141207700007,13.72302171900003],[100.20706868300005,13.72082391400005],[100.21657304400009,13.734555650000061],[100.20937933200008,13.744063530000062]]]}},{"type":"Feature","properties":{"code":"730512","name":"คลองนกกระทุง","parentCode":"7305"},"geometry":{"type":"Polygon","coordinates":[[[100.25919721000008,13.995606101000021],[100.20219793400008,14.005954917000054],[100.19124192600003,13.984298089000049],[100.18051594400004,13.963470381000036],[100.25120978400008,13.980191864000062],[100.25919721000008,13.995606101000021]]]}},{"type":"Feature","properties":{"code":"730702","name":"คลองโยง","parentCode":"7307"},"geometry":{"type":"Polygon","coordinates":[[[100.28597582100008,13.892333072000042],[100.25612202000008,13.904495505000057],[100.26325922400008,13.877892028000076],[100.26387000200003,13.875837131000026],[100.26438056700005,13.829320434000067],[100.28494867000006,13.831136572000048],[100.31334667200008,13.834801424000034],[100.29681910800008,13.869552457000054],[100.28597582100008,13.892333072000042]]]}},{"type":"Feature","properties":{"code":"730311","name":"โคกพระเจดีย์","parentCode":"7303"},"geometry":{"type":"Polygon","coordinates":[[[100.14510188800006,13.744102706000035],[100.10282924800003,13.735608928000033],[100.10741387700006,13.704790374000027],[100.15226748300006,13.737704276000045],[100.14510188800006,13.744102706000035]]]}},{"type":"Feature","properties":{"code":"730307","name":"ขุนแก้ว","parentCode":"7303"},"geometry":{"type":"Polygon","coordinates":[[[100.20603978500009,13.764068419000068],[100.22651604500004,13.788105262000045],[100.20148811400009,13.788127774000031],[100.19141035500007,13.765162127000053],[100.17794937500008,13.747434586000054],[100.17848616100008,13.744571656000062],[100.20603978500009,13.764068419000068]]]}},{"type":"Feature","properties":{"code":"730610","name":"กระทุ่มล้ม","parentCode":"7306"},"geometry":{"type":"Polygon","coordinates":[[[100.33745528100008,13.736036289000026],[100.33010398200008,13.76309221200006],[100.32728050900005,13.763092177000033],[100.30910898100007,13.746968508000066],[100.30152747900007,13.720228000000077],[100.33033285600004,13.719719976000022],[100.33745528100008,13.736036289000026]]]}},{"type":"Feature","properties":{"code":"730202","name":"กระตีบ","parentCode":"7302"},"geometry":{"type":"Polygon","coordinates":[[[99.98499844400004,14.140034740000033],[99.92945605300008,14.125472056000035],[99.89225007800007,14.090124739000032],[99.92657130200007,14.074563381000075],[99.95662266400007,14.082265868000036],[99.98722241500008,14.102938724000069],[99.98499844400004,14.140034740000033]]]}},{"type":"Feature","properties":{"code":"730313","name":"แหลมบัว","parentCode":"7303"},"geometry":{"type":"Polygon","coordinates":[[[100.17575412800005,13.825355179000042],[100.14212125400007,13.894332399000064],[100.11650078200006,13.871844614000054],[100.11650159100009,13.867481730000065],[100.12917765300006,13.838586150000026],[100.16210415000006,13.825613262000047],[100.17575412800005,13.825355179000042]]]}},{"type":"Feature","properties":{"code":"730403","name":"ลำเหย","parentCode":"7304"},"geometry":{"type":"Polygon","coordinates":[[[100.07069976000008,13.952618166000036],[100.05163005700007,13.986369199000023],[100.01716589800009,13.943175108000048],[100.05806093500007,13.929454548000024],[100.07069976000008,13.952618166000036]]]}},{"type":"Feature","properties":{"code":"730408","name":"ลำลูกบัว","parentCode":"7304"},"geometry":{"type":"Polygon","coordinates":[[[100.11406084400005,14.043139645000053],[100.06428017600007,14.032634245000054],[100.06292676000004,14.013210942000057],[100.09986103500006,13.981921830000033],[100.11406084400005,14.043139645000053]]]}},{"type":"Feature","properties":{"code":"730514","name":"ลำพญา","parentCode":"7305"},"geometry":{"type":"Polygon","coordinates":[[[100.22628062400008,13.941026935000025],[100.25120978400008,13.980191864000062],[100.18051594400004,13.963470381000036],[100.17995310700007,13.962710263000076],[100.22628062400008,13.941026935000025]]]}},{"type":"Feature","properties":{"code":"730119","name":"ลำพยา","parentCode":"7301"},"geometry":{"type":"Polygon","coordinates":[[[100.03320662500005,13.804400245000068],[100.03608121100007,13.828035208000074],[100.00411899900007,13.822690916000056],[99.99971799800005,13.80265356600006],[99.99871221400008,13.794470758000045],[100.00924578800004,13.794711079000024],[100.03320662500005,13.804400245000068]]]}},{"type":"Feature","properties":{"code":"730322","name":"ลานตากฟ้า","parentCode":"7303"},"geometry":{"type":"Polygon","coordinates":[[[100.26438056700005,13.829320434000067],[100.26387000200003,13.875837131000026],[100.25543825000005,13.87435625300003],[100.22231987500004,13.843692678000025],[100.22364751300006,13.811629781000022],[100.23675030900006,13.81048675900007],[100.26438056700005,13.829320434000067]]]}},{"type":"Feature","properties":{"code":"730703","name":"มหาสวัสดิ์","parentCode":"7307"},"geometry":{"type":"Polygon","coordinates":[[[100.27955110000005,13.801993097000036],[100.28494867000006,13.831136572000048],[100.26438056700005,13.829320434000067],[100.23675030900006,13.81048675900007],[100.23695852800006,13.805683204000047],[100.24788013000006,13.801656527000034],[100.26246351000003,13.802165757000068],[100.27230635000006,13.801957117000029],[100.27955110000005,13.801993097000036]]]}},{"type":"Feature","properties":{"code":"730106","name":"มาบแค","parentCode":"7301"},"geometry":{"type":"Polygon","coordinates":[[[100.07612529000005,13.899623881000025],[100.07088102300008,13.90073422200004],[100.05043929900006,13.87068501500005],[100.06125110600004,13.851555761000043],[100.08099679700007,13.842579796000052],[100.09252715100007,13.87464701500005],[100.09632481000006,13.880247936000046],[100.07612529000005,13.899623881000025]]]}},{"type":"Feature","properties":{"code":"730301","name":"นครชัยศรี","parentCode":"7303"},"geometry":{"type":"Polygon","coordinates":[[[100.20148811400009,13.788127774000031],[100.18645588900006,13.804573076000054],[100.18166644200005,13.80501964900003],[100.19102411700004,13.771060428000055],[100.19141035500007,13.765162127000053],[100.20148811400009,13.788127774000031]]]}},{"type":"Feature","properties":{"code":"730111","name":"นครปฐม","parentCode":"7301"},"geometry":{"type":"Polygon","coordinates":[[[100.06125110600004,13.851555761000043],[100.05043929900006,13.87068501500005],[100.03307057900008,13.869895471000063],[100.02957315900005,13.866554840000049],[100.02756197800005,13.839331436000066],[100.03608640600004,13.834636963000037],[100.04591481600005,13.824235088000023],[100.05679596600004,13.824618863000069],[100.06125110600004,13.851555761000043]]]}},{"type":"Feature","properties":{"code":"730513","name":"นราภิรมย์","parentCode":"7305"},"geometry":{"type":"Polygon","coordinates":[[[100.27492145800005,13.934871507000025],[100.29821991900008,13.963371049000045],[100.26242900800008,13.99812071100007],[100.25919721000008,13.995606101000021],[100.25120978400008,13.980191864000062],[100.22628062400008,13.941026935000025],[100.25595105700006,13.905260413000065],[100.25612202000008,13.904495505000057],[100.28597582100008,13.892333072000042],[100.27492145800005,13.934871507000025]]]}},{"type":"Feature","properties":{"code":"730323","name":"งิ้วราย","parentCode":"7303"},"geometry":{"type":"Polygon","coordinates":[[[100.21348380800003,13.810324686000058],[100.18634841100004,13.81155833400004],[100.18606531500006,13.806235703000027],[100.23695852800006,13.805683204000047],[100.23675030900006,13.81048675900007],[100.22364751300006,13.811629781000022],[100.21348380800003,13.810324686000058]]]}},{"type":"Feature","properties":{"code":"730510","name":"นิลเพชร","parentCode":"7305"},"geometry":{"type":"Polygon","coordinates":[[[100.28196936200004,14.146766481000043],[100.18989603600005,14.141171305000057],[100.19446612500008,14.124047004000033],[100.21400010000008,14.092101073000038],[100.27710665600006,14.101211371000034],[100.28179029100005,14.126881928000046],[100.28196936200004,14.146766481000043]]]}},{"type":"Feature","properties":{"code":"730116","name":"หนองดินแดง","parentCode":"7301"},"geometry":{"type":"Polygon","coordinates":[[[99.99971799800005,13.80265356600006],[99.96330364700003,13.821373984000047],[99.96904313000005,13.806259710000063],[99.97077486600006,13.801217118000068],[99.99342694000006,13.75661629800004],[99.99871221400008,13.794470758000045],[99.99971799800005,13.80265356600006]]]}},{"type":"Feature","properties":{"code":"730214","name":"หนองกระทุ่ม","parentCode":"7302"},"geometry":{"type":"Polygon","coordinates":[[[99.86933692200006,14.074412649000067],[99.81410249700008,14.064243240000053],[99.84758474100005,14.052695705000076],[99.83404248900007,14.008752163000054],[99.85987710100005,14.017006890000062],[99.86933692200006,14.074412649000067]]]}},{"type":"Feature","properties":{"code":"730124","name":"หนองงูเหลือม","parentCode":"7301"},"geometry":{"type":"Polygon","coordinates":[[[99.97161623400007,13.945058437000057],[99.93915113100007,13.93795190700007],[99.92702629000007,13.933968390000075],[99.92398135000008,13.89983983600007],[99.94373451000007,13.889167633000056],[99.98087539300008,13.885665743000061],[99.98336873500006,13.919306351000046],[99.97161623400007,13.945058437000057]]]}},{"type":"Feature","properties":{"code":"730113","name":"หนองปากโลง","parentCode":"7301"},"geometry":{"type":"Polygon","coordinates":[[[99.99581066000007,13.874587715000075],[99.97997383800003,13.881828304000067],[100.00411899900007,13.822690916000056],[100.03608121100007,13.828035208000074],[100.03608640600004,13.834636963000037],[100.02756197800005,13.839331436000066],[99.99581066000007,13.874587715000075]]]}},{"type":"Feature","properties":{"code":"730616","name":"อ้อมใหญ่","parentCode":"7306"},"geometry":{"type":"Polygon","coordinates":[[[100.28354208500008,13.71180497000006],[100.26423386600004,13.717939328000057],[100.25017912700008,13.705646500000057],[100.26016024000006,13.684682085000077],[100.28354208500008,13.71180497000006]]]}},{"type":"Feature","properties":{"code":"730515","name":"ไผ่หูช้าง","parentCode":"7305"},"geometry":{"type":"Polygon","coordinates":[[[100.13728062000007,14.070437490000074],[100.10315971400007,14.09633655500005],[100.06404052800008,14.07222630700005],[100.05344267500004,14.046100203000037],[100.06428017600007,14.032634245000054],[100.11406084400005,14.043139645000053],[100.12584278500003,14.038581255000054],[100.13728062000007,14.070437490000074]]]}},{"type":"Feature","properties":{"code":"730309","name":"พะเนียด","parentCode":"7303"},"geometry":{"type":"Polygon","coordinates":[[[100.14020847100005,13.796117938000066],[100.12391727000005,13.808384462000049],[100.10973806600003,13.78992639200004],[100.10560905600005,13.783751893000044],[100.12062682100009,13.781754040000067],[100.14020847100005,13.796117938000066]]]}},{"type":"Feature","properties":{"code":"730101","name":"พระปฐมเจดีย์","parentCode":"7301"},"geometry":{"type":"Polygon","coordinates":[[[100.08076122700004,13.82233321700005],[100.05679596600004,13.824618863000069],[100.04591481600005,13.824235088000023],[100.05808049200004,13.815630072000033],[100.07780296700008,13.818504192000034],[100.08076122700004,13.82233321700005]]]}},{"type":"Feature","properties":{"code":"730103","name":"พระประโทน","parentCode":"7301"},"geometry":{"type":"Polygon","coordinates":[[[100.09430536400004,13.794240818000048],[100.08594644000004,13.82441189900004],[100.08076122700004,13.82233321700005],[100.07780296700008,13.818504192000034],[100.07780910500009,13.801071058000048],[100.09430536400004,13.794240818000048]]]}},{"type":"Feature","properties":{"code":"730118","name":"โพรงมะเดื่อ","parentCode":"7301"},"geometry":{"type":"Polygon","coordinates":[[[99.98087539300008,13.885665743000061],[99.94373451000007,13.889167633000056],[99.95687397300009,13.835619571000052],[99.96330364700003,13.821373984000047],[99.99971799800005,13.80265356600006],[100.00411899900007,13.822690916000056],[99.97997383800003,13.881828304000067],[99.98087539300008,13.885665743000061]]]}},{"type":"Feature","properties":{"code":"730608","name":"ไร่ขิง","parentCode":"7306"},"geometry":{"type":"Polygon","coordinates":[[[100.30910898100007,13.746968508000066],[100.28288168000006,13.761576750000074],[100.26599811400007,13.76093114400004],[100.25888634400008,13.757092601000068],[100.25293864900004,13.732311288000062],[100.25871445800004,13.723812657000053],[100.26423386600004,13.717939328000057],[100.28354208500008,13.71180497000006],[100.30152747900007,13.720228000000077],[100.30910898100007,13.746968508000066]]]}},{"type":"Feature","properties":{"code":"730213","name":"รางพิกุล","parentCode":"7302"},"geometry":{"type":"Polygon","coordinates":[[[99.95622506100005,14.027648770000042],[99.90659556800006,14.02099667400006],[99.90260050000006,13.988060067000049],[99.95499717400008,13.994081123000058],[99.97708421200008,13.997813585000074],[99.95622506100005,14.027648770000042]]]}},{"type":"Feature","properties":{"code":"730120","name":"สระกะเทียม","parentCode":"7301"},"geometry":{"type":"Polygon","coordinates":[[[99.99342694000006,13.75661629800004],[99.97077486600006,13.801217118000068],[99.95385965900005,13.781729318000032],[99.97354880100005,13.728837548000058],[99.98257701000006,13.733333019000042],[99.99682354500004,13.742642492000073],[99.99342694000006,13.75661629800004]]]}},{"type":"Feature","properties":{"code":"730209","name":"สระพัฒนา","parentCode":"7302"},"geometry":{"type":"Polygon","coordinates":[[[100.06275890900008,14.110609358000033],[99.98722241500008,14.102938724000069],[99.95662266400007,14.082265868000036],[100.02262321000006,14.07460581500004],[100.06028709300006,14.089974766000068],[100.06275890900008,14.110609358000033]]]}},{"type":"Feature","properties":{"code":"730206","name":"สระสี่มุม","parentCode":"7302"},"geometry":{"type":"Polygon","coordinates":[[[100.06028709300006,14.089974766000068],[100.02262321000006,14.07460581500004],[99.95662266400007,14.082265868000036],[99.92657130200007,14.074563381000075],[99.92853596800006,14.071220528000026],[99.96396329200007,14.050847413000042],[100.00069849000005,14.03020095100004],[100.05344267500004,14.046100203000037],[100.06404052800008,14.07222630700005],[100.06028709300006,14.089974766000068]]]}},{"type":"Feature","properties":{"code":"730508","name":"ไทรงาม","parentCode":"7305"},"geometry":{"type":"Polygon","coordinates":[[[100.27710665600006,14.101211371000034],[100.21400010000008,14.092101073000038],[100.19446612500008,14.124047004000033],[100.14224279300004,14.06678600600003],[100.21821541700007,14.073306839000054],[100.27094645200003,14.066585660000044],[100.27710665600006,14.101211371000034]]]}},{"type":"Feature","properties":{"code":"730701","name":"ศาลายา","parentCode":"7307"},"geometry":{"type":"Polygon","coordinates":[[[100.31920486400008,13.822555284000032],[100.31334667200008,13.834801424000034],[100.28494867000006,13.831136572000048],[100.27955110000005,13.801993097000036],[100.31148223900004,13.788762414000075],[100.32728050900005,13.763092177000033],[100.33010398200008,13.76309221200006],[100.33061965300004,13.773215153000024],[100.32791238700008,13.80412552100006],[100.31920486400008,13.822555284000032]]]}},{"type":"Feature","properties":{"code":"730114","name":"สามควายเผือก","parentCode":"7301"},"geometry":{"type":"Polygon","coordinates":[[[100.12917765300006,13.838586150000026],[100.11650159100009,13.867481730000065],[100.09385179700007,13.829892340000072],[100.12549586100005,13.813002191000066],[100.12917765300006,13.838586150000026]]]}},{"type":"Feature","properties":{"code":"730401","name":"สามง่าม","parentCode":"7304"},"geometry":{"type":"Polygon","coordinates":[[[100.09986103500006,13.981921830000033],[100.06292676000004,14.013210942000057],[100.05320820800006,13.988436138000054],[100.05163005700007,13.986369199000023],[100.07069976000008,13.952618166000036],[100.11333553000009,13.951947232000066],[100.12281273200006,13.959537391000026],[100.09986103500006,13.981921830000033]]]}},{"type":"Feature","properties":{"code":"730606","name":"สามพราน","parentCode":"7306"},"geometry":{"type":"Polygon","coordinates":[[[100.23527766500007,13.720548301000065],[100.21657304400009,13.734555650000061],[100.20706868300005,13.72082391400005],[100.22796328800007,13.708753977000072],[100.23527766500007,13.720548301000065]]]}},{"type":"Feature","properties":{"code":"730315","name":"สัมปทวน","parentCode":"7303"},"geometry":{"type":"Polygon","coordinates":[[[100.19786686000003,13.84284552500003],[100.19640900200005,13.844706578000057],[100.19152583500005,13.841587935000064],[100.17614625100003,13.825212898000075],[100.18634841100004,13.81155833400004],[100.21348380800003,13.810324686000058],[100.19786686000003,13.84284552500003]]]}},{"type":"Feature","properties":{"code":"730107","name":"สนามจันทร์","parentCode":"7301"},"geometry":{"type":"Polygon","coordinates":[[[100.04591481600005,13.824235088000023],[100.03608640600004,13.834636963000037],[100.03608121100007,13.828035208000074],[100.03320662500005,13.804400245000068],[100.04835855000005,13.777283584000031],[100.06364874400003,13.785825144000057],[100.05808049200004,13.815630072000033],[100.04591481600005,13.824235088000023]]]}},{"type":"Feature","properties":{"code":"730314","name":"ศรีมหาโพธิ์","parentCode":"7303"},"geometry":{"type":"Polygon","coordinates":[[[100.19152583500005,13.841587935000064],[100.15379021100006,13.899350906000052],[100.14212125400007,13.894332399000064],[100.17575412800005,13.825355179000042],[100.17614625100003,13.825212898000075],[100.19152583500005,13.841587935000064]]]}},{"type":"Feature","properties":{"code":"730312","name":"ศรีษะทอง","parentCode":"7303"},"geometry":{"type":"Polygon","coordinates":[[[100.16210415000006,13.825613262000047],[100.12917765300006,13.838586150000026],[100.12549586100005,13.813002191000066],[100.12391727000005,13.808384462000049],[100.14020847100005,13.796117938000066],[100.16137086400005,13.80168597100004],[100.16788535700005,13.80678120500005],[100.16210415000006,13.825613262000047]]]}},{"type":"Feature","properties":{"code":"730602","name":"ทรงคนอง","parentCode":"7306"},"geometry":{"type":"Polygon","coordinates":[[[100.27230635000006,13.801957117000029],[100.26246351000003,13.802165757000068],[100.24882488100008,13.757289913000022],[100.25888634400008,13.757092601000068],[100.26599811400007,13.76093114400004],[100.27230635000006,13.801957117000029]]]}},{"type":"Feature","properties":{"code":"730121","name":"สวนป่าน","parentCode":"7301"},"geometry":{"type":"Polygon","coordinates":[[[99.97354880100005,13.728837548000058],[99.95385965900005,13.781729318000032],[99.94916623100005,13.772764488000064],[99.93792437800005,13.769773061000024],[99.94821213300008,13.737627470000064],[99.96017556000004,13.72185182100003],[99.97354880100005,13.728837548000058]]]}},{"type":"Feature","properties":{"code":"730105","name":"ตาก้อง","parentCode":"7301"},"geometry":{"type":"Polygon","coordinates":[[[100.07088102300008,13.90073422200004],[100.05739443800007,13.913663632000066],[100.03361939100006,13.88460152600004],[100.03307057900008,13.869895471000063],[100.05043929900006,13.87068501500005],[100.07088102300008,13.90073422200004]]]}},{"type":"Feature","properties":{"code":"730612","name":"ตลาดจินดา","parentCode":"7306"},"geometry":{"type":"Polygon","coordinates":[[[100.06026825100008,13.660286144000054],[100.07689472100009,13.65744012500005],[100.10360644400004,13.649568934000058],[100.11416141300003,13.652327888000059],[100.12095923200008,13.679138797000064],[100.10741387700006,13.704790374000027],[100.06788866400007,13.69335264700004],[100.06026825100008,13.660286144000054]]]}},{"type":"Feature","properties":{"code":"730601","name":"ท่าข้าม","parentCode":"7306"},"geometry":{"type":"Polygon","coordinates":[[[100.25871445800004,13.723812657000053],[100.23527766500007,13.720548301000065],[100.22796328800007,13.708753977000072],[100.23049982800006,13.707915611000033],[100.25017912700008,13.705646500000057],[100.26423386600004,13.717939328000057],[100.25871445800004,13.723812657000053]]]}},{"type":"Feature","properties":{"code":"730306","name":"ท่ากระชับ","parentCode":"7303"},"geometry":{"type":"Polygon","coordinates":[[[100.16036952300004,13.740845410000077],[100.15749503700005,13.790020433000052],[100.14264262800003,13.759636254000043],[100.14510188800006,13.744102706000035],[100.15226748300006,13.737704276000045],[100.16026703300008,13.737366821000023],[100.16036952300004,13.740845410000077]]]}},{"type":"Feature","properties":{"code":"730308","name":"ท่าพระยา","parentCode":"7303"},"geometry":{"type":"Polygon","coordinates":[[[100.16137086400005,13.80168597100004],[100.14020847100005,13.796117938000066],[100.12062682100009,13.781754040000067],[100.14264262800003,13.759636254000043],[100.15749503700005,13.790020433000052],[100.16137086400005,13.80168597100004]]]}},{"type":"Feature","properties":{"code":"730609","name":"ท่าตลาด","parentCode":"7306"},"geometry":{"type":"Polygon","coordinates":[[[100.24882488100008,13.757289913000022],[100.21307589500003,13.757886694000035],[100.20937933200008,13.744063530000062],[100.25293864900004,13.732311288000062],[100.25888634400008,13.757092601000068],[100.24882488100008,13.757289913000022]]]}},{"type":"Feature","properties":{"code":"730304","name":"ท่าตำหนัก","parentCode":"7303"},"geometry":{"type":"Polygon","coordinates":[[[100.19102411700004,13.771060428000055],[100.17461214100007,13.805914552000047],[100.16788535700005,13.80678120500005],[100.17794937500008,13.747434586000054],[100.19141035500007,13.765162127000053],[100.19102411700004,13.771060428000055]]]}},{"type":"Feature","properties":{"code":"730324","name":"ไทยาวาส","parentCode":"7303"},"geometry":{"type":"Polygon","coordinates":[[[100.23695852800006,13.805683204000047],[100.18606531500006,13.806235703000027],[100.18645588900006,13.804573076000054],[100.20148811400009,13.788127774000031],[100.22651604500004,13.788105262000045],[100.24788013000006,13.801656527000034],[100.23695852800006,13.805683204000047]]]}},{"type":"Feature","properties":{"code":"730104","name":"ธรรมศาลา","parentCode":"7301"},"geometry":{"type":"Polygon","coordinates":[[[100.12549586100005,13.813002191000066],[100.09385179700007,13.829892340000072],[100.09177680700009,13.829514379000045],[100.08594644000004,13.82441189900004],[100.09430536400004,13.794240818000048],[100.10973806600003,13.78992639200004],[100.12391727000005,13.808384462000049],[100.12549586100005,13.813002191000066]]]}},{"type":"Feature","properties":{"code":"730109","name":"ถนนขาด","parentCode":"7301"},"geometry":{"type":"Polygon","coordinates":[[[100.09430536400004,13.794240818000048],[100.07780910500009,13.801071058000048],[100.06364874400003,13.785825144000057],[100.04835855000005,13.777283584000031],[100.05793017900004,13.756676798000058],[100.09844612300009,13.767839078000065],[100.10560905600005,13.783751893000044],[100.10973806600003,13.78992639200004],[100.09430536400004,13.794240818000048]]]}},{"type":"Feature","properties":{"code":"730123","name":"ทัพหลวง","parentCode":"7301"},"geometry":{"type":"Polygon","coordinates":[[[99.98336873500006,13.919306351000046],[99.98087539300008,13.885665743000061],[99.97997383800003,13.881828304000067],[99.99581066000007,13.874587715000075],[100.02957315900005,13.866554840000049],[100.03307057900008,13.869895471000063],[100.03361939100006,13.88460152600004],[99.98336873500006,13.919306351000046]]]}},{"type":"Feature","properties":{"code":"730207","name":"ทุ่งบัว","parentCode":"7302"},"geometry":{"type":"Polygon","coordinates":[[[99.96396329200007,14.050847413000042],[99.92853596800006,14.071220528000026],[99.90659556800006,14.02099667400006],[99.95622506100005,14.027648770000042],[99.96396329200007,14.050847413000042]]]}},{"type":"Feature","properties":{"code":"730205","name":"ทุ่งขวาง","parentCode":"7302"},"geometry":{"type":"Polygon","coordinates":[[[99.98349268700008,13.956604523000067],[99.97708421200008,13.997813585000074],[99.95499717400008,13.994081123000058],[99.93915113100007,13.93795190700007],[99.97161623400007,13.945058437000057],[99.98349268700008,13.956604523000067]]]}},{"type":"Feature","properties":{"code":"730201","name":"ทุ่งกระพังโหม","parentCode":"7302"},"geometry":{"type":"Polygon","coordinates":[[[100.00348700000006,13.943724382000028],[100.00242406600006,13.996496378000074],[99.97708421200008,13.997813585000074],[99.98349268700008,13.956604523000067],[100.00348700000006,13.943724382000028]]]}},{"type":"Feature","properties":{"code":"730203","name":"ทุ่งลูกนก","parentCode":"7302"},"geometry":{"type":"Polygon","coordinates":[[[99.92657130200007,14.074563381000075],[99.89225007800007,14.090124739000032],[99.86933692200006,14.074412649000067],[99.85987710100005,14.017006890000062],[99.83404248900007,14.008752163000054],[99.83218393400006,14.002537546000042],[99.82919218100005,13.998384678000036],[99.83954097100008,13.98325370200007],[99.87586105300005,13.961235181000063],[99.89754809800007,13.942385698000066],[99.90260050000006,13.988060067000049],[99.90659556800006,14.02099667400006],[99.92853596800006,14.071220528000026],[99.92657130200007,14.074563381000075]]]}},{"type":"Feature","properties":{"code":"730115","name":"ทุ่งน้อย","parentCode":"7301"},"geometry":{"type":"Polygon","coordinates":[[[100.09252715100007,13.87464701500005],[100.08099679700007,13.842579796000052],[100.09177680700009,13.829514379000045],[100.09385179700007,13.829892340000072],[100.11650159100009,13.867481730000065],[100.11650078200006,13.871844614000054],[100.09252715100007,13.87464701500005]]]}},{"type":"Feature","properties":{"code":"730215","name":"วังน้ำเขียว","parentCode":"7302"},"geometry":{"type":"Polygon","coordinates":[[[100.05320820800006,13.988436138000054],[100.01297066000006,14.007943002000047],[100.00242406600006,13.996496378000074],[100.00348700000006,13.943724382000028],[100.01716589800009,13.943175108000048],[100.05163005700007,13.986369199000023],[100.05320820800006,13.988436138000054]]]}},{"type":"Feature","properties":{"code":"730112","name":"วังตะกู","parentCode":"7301"},"geometry":{"type":"Polygon","coordinates":[[[100.02957315900005,13.866554840000049],[99.99581066000007,13.874587715000075],[100.02756197800005,13.839331436000066],[100.02957315900005,13.866554840000049]]]}},{"type":"Feature","properties":{"code":"730117","name":"วังเย็น","parentCode":"7301"},"geometry":{"type":"Polygon","coordinates":[[[100.00924578800004,13.794711079000024],[99.99871221400008,13.794470758000045],[99.99342694000006,13.75661629800004],[99.99682354500004,13.742642492000073],[100.02207288700004,13.750169551000056],[100.00924578800004,13.794711079000024]]]}},{"type":"Feature","properties":{"code":"730303","name":"วัดแค","parentCode":"7303"},"geometry":{"type":"Polygon","coordinates":[[[100.17575412800005,13.825355179000042],[100.16210415000006,13.825613262000047],[100.16788535700005,13.80678120500005],[100.17461214100007,13.805914552000047],[100.18166644200005,13.80501964900003],[100.18645588900006,13.804573076000054],[100.18606531500006,13.806235703000027],[100.18634841100004,13.81155833400004],[100.17614625100003,13.825212898000075],[100.17575412800005,13.825355179000042]]]}},{"type":"Feature","properties":{"code":"730319","name":"วัดละมุด","parentCode":"7303"},"geometry":{"type":"Polygon","coordinates":[[[100.21462412300008,13.881181793000053],[100.15968953000004,13.908644418000051],[100.15379021100006,13.899350906000052],[100.19152583500005,13.841587935000064],[100.19640900200005,13.844706578000057],[100.20269589900005,13.865978466000058],[100.21462412300008,13.881181793000053]]]}},{"type":"Feature","properties":{"code":"730316","name":"วัดสำโรง","parentCode":"7303"},"geometry":{"type":"Polygon","coordinates":[[[100.22231987500004,13.843692678000025],[100.19786686000003,13.84284552500003],[100.21348380800003,13.810324686000058],[100.22364751300006,13.811629781000022],[100.22231987500004,13.843692678000025]]]}},{"type":"Feature","properties":{"code":"730614","name":"ยายชา","parentCode":"7306"},"geometry":{"type":"Polygon","coordinates":[[[100.25293864900004,13.732311288000062],[100.20937933200008,13.744063530000062],[100.21657304400009,13.734555650000061],[100.23527766500007,13.720548301000065],[100.25871445800004,13.723812657000053],[100.25293864900004,13.732311288000062]]]}}]}