{"type":"FeatureCollection","features":[{"type":"Feature","properties":{"code":"740310","name":"อำแพง","parentCode":"7403"},"geometry":{"type":"Polygon","coordinates":[[[100.22790413200005,13.604494406000072],[100.21319242000004,13.625346863000061],[100.15180342000008,13.59614464300006],[100.17571509700008,13.581938601000047],[100.22790413200005,13.604494406000072]]]}},{"type":"Feature","properties":{"code":"740104","name":"บ้านบ่อ","parentCode":"7401"},"geometry":{"type":"Polygon","coordinates":[[[100.21508404600007,13.465315409000027],[100.18749558200005,13.525495071000023],[100.17062774200008,13.51981799400005],[100.18719887000003,13.458442723000076],[100.21508404600007,13.465315409000027]]]}},{"type":"Feature","properties":{"code":"740115","name":"บ้านเกาะ","parentCode":"7401"},"geometry":{"type":"Polygon","coordinates":[[[100.27064137300005,13.604954074000034],[100.26248424500005,13.608272052000075],[100.22790413200005,13.604494406000072],[100.17571509700008,13.581938601000047],[100.18594918900004,13.575649171000066],[100.19423227600004,13.547042667000028],[100.19868872500007,13.548654051000028],[100.27197838700005,13.591029845000037],[100.27064137300005,13.604954074000034]]]}},{"type":"Feature","properties":{"code":"740301","name":"บ้านแพ้ว","parentCode":"7403"},"geometry":{"type":"Polygon","coordinates":[[[100.10360644400004,13.649568934000058],[100.07689472100009,13.65744012500005],[100.09688247800005,13.584567838000055],[100.13097734200005,13.602043087000027],[100.10360644400004,13.649568934000058]]]}},{"type":"Feature","properties":{"code":"740116","name":"บางกระเจ้า","parentCode":"7401"},"geometry":{"type":"Polygon","coordinates":[[[100.23172623300007,13.54423689400005],[100.19868872500007,13.548654051000028],[100.19423227600004,13.547042667000028],[100.18749558200005,13.525495071000023],[100.21508404600007,13.465315409000027],[100.23583706400007,13.47338714500006],[100.24286343300008,13.525477955000042],[100.23172623300007,13.54423689400005]]]}},{"type":"Feature","properties":{"code":"740112","name":"บางน้ำจืด","parentCode":"7401"},"geometry":{"type":"Polygon","coordinates":[[[100.37648208400009,13.619703151000067],[100.35024229000004,13.640497348000054],[100.31747048200003,13.624968009000042],[100.31250855800005,13.619587187000036],[100.31136608400004,13.613332384000046],[100.35272827600005,13.622148952000032],[100.33806895600009,13.585163710000074],[100.33953671700004,13.583794932000046],[100.37835236900008,13.601359228000035],[100.37648208400009,13.619703151000067]]]}},{"type":"Feature","properties":{"code":"740105","name":"บางโทรัด","parentCode":"7401"},"geometry":{"type":"Polygon","coordinates":[[[100.15895195100006,13.538451424000073],[100.14873373600005,13.533606398000074],[100.12002571300008,13.513391863000038],[100.15087913200006,13.44844271200003],[100.18719887000003,13.458442723000076],[100.17062774200008,13.51981799400005],[100.15895195100006,13.538451424000073]]]}},{"type":"Feature","properties":{"code":"740117","name":"บางหญ้าแพรก","parentCode":"7401"},"geometry":{"type":"Polygon","coordinates":[[[100.29203829700003,13.500617100000056],[100.29537920300004,13.55107898700004],[100.28020321600007,13.542164571000058],[100.26561620600006,13.52829575900006],[100.26182736700008,13.530695048000041],[100.24286343300008,13.525477955000042],[100.23583706400007,13.47338714500006],[100.29203829700003,13.500617100000056]]]}},{"type":"Feature","properties":{"code":"740205","name":"บางยาง","parentCode":"7402"},"geometry":{"type":"Polygon","coordinates":[[[100.22417243800004,13.681410784000036],[100.19866709400009,13.67711302400005],[100.20145385000006,13.651267253000071],[100.20593006000007,13.64341851100005],[100.20714739200008,13.642533204000074],[100.23083478400008,13.644305638000048],[100.24946198000004,13.657801282000037],[100.24183827900004,13.678008143000056],[100.22417243800004,13.681410784000036]]]}},{"type":"Feature","properties":{"code":"740118","name":"ชัยมงคล","parentCode":"7401"},"geometry":{"type":"Polygon","coordinates":[[[100.18594918900004,13.575649171000066],[100.15895195100006,13.538451424000073],[100.17062774200008,13.51981799400005],[100.18749558200005,13.525495071000023],[100.19423227600004,13.547042667000028],[100.18594918900004,13.575649171000066]]]}},{"type":"Feature","properties":{"code":"740308","name":"เจ็ดริ้ว","parentCode":"7403"},"geometry":{"type":"Polygon","coordinates":[[[100.13587054700008,13.681967602000043],[100.12095923200008,13.679138797000064],[100.11416141300003,13.652327888000059],[100.16297836600006,13.627295429000071],[100.15230207600007,13.649203723000028],[100.13587054700008,13.681967602000043]]]}},{"type":"Feature","properties":{"code":"740208","name":"ดอนไก่ดี","parentCode":"7402"},"geometry":{"type":"Polygon","coordinates":[[[100.26691761000006,13.652358972000059],[100.24624459800003,13.647353929000076],[100.26248424500005,13.608272052000075],[100.27064137300005,13.604954074000034],[100.28151500800004,13.619195902000058],[100.26691761000006,13.652358972000059]]]}},{"type":"Feature","properties":{"code":"740106","name":"กาหลง","parentCode":"7401"},"geometry":{"type":"Polygon","coordinates":[[[100.12002571300008,13.513391863000038],[100.10447267500007,13.50272041900007],[100.13289451000009,13.44263126900006],[100.15087913200006,13.44844271200003],[100.12002571300008,13.513391863000038]]]}},{"type":"Feature","properties":{"code":"740312","name":"เกษตรพัฒนา","parentCode":"7403"},"geometry":{"type":"Polygon","coordinates":[[[100.17135058100007,13.680630305000022],[100.13587054700008,13.681967602000043],[100.15230207600007,13.649203723000028],[100.20593006000007,13.64341851100005],[100.20145385000006,13.651267253000071],[100.17135058100007,13.680630305000022]]]}},{"type":"Feature","properties":{"code":"740209","name":"แคราย","parentCode":"7402"},"geometry":{"type":"Polygon","coordinates":[[[100.35024229000004,13.640497348000054],[100.34683704300005,13.655339513000058],[100.33938354700007,13.654990333000057],[100.30649052000007,13.65431043600006],[100.31747048200003,13.624968009000042],[100.35024229000004,13.640497348000054]]]}},{"type":"Feature","properties":{"code":"740206","name":"คลองมะเดื่อ","parentCode":"7402"},"geometry":{"type":"Polygon","coordinates":[[[100.30649052000007,13.65431043600006],[100.27250727900008,13.656745072000035],[100.26691761000006,13.652358972000059],[100.28151500800004,13.619195902000058],[100.31250855800005,13.619587187000036],[100.31747048200003,13.624968009000042],[100.30649052000007,13.65431043600006]]]}},{"type":"Feature","properties":{"code":"740309","name":"คลองตัน","parentCode":"7403"},"geometry":{"type":"Polygon","coordinates":[[[100.20593006000007,13.64341851100005],[100.15230207600007,13.649203723000028],[100.16297836600006,13.627295429000071],[100.16975280600008,13.62247665700005],[100.20714739200008,13.642533204000074],[100.20593006000007,13.64341851100005]]]}},{"type":"Feature","properties":{"code":"740114","name":"โคกขาม","parentCode":"7401"},"geometry":{"type":"Polygon","coordinates":[[[100.33953671700004,13.583794932000046],[100.33806895600009,13.585163710000074],[100.31942830500009,13.579498803000035],[100.28834302400008,13.564484567000022],[100.28538128100007,13.558494544000041],[100.29537920300004,13.55107898700004],[100.29203829700003,13.500617100000056],[100.35849605500005,13.487782465000066],[100.33953671700004,13.583794932000046]]]}},{"type":"Feature","properties":{"code":"740111","name":"คอกกระบือ","parentCode":"7401"},"geometry":{"type":"Polygon","coordinates":[[[100.33806895600009,13.585163710000074],[100.35272827600005,13.622148952000032],[100.31136608400004,13.613332384000046],[100.31942830500009,13.579498803000035],[100.33806895600009,13.585163710000074]]]}},{"type":"Feature","properties":{"code":"740103","name":"โกรกกราก","parentCode":"7401"},"geometry":{"type":"Polygon","coordinates":[[[100.26561620600006,13.52829575900006],[100.28020321600007,13.542164571000058],[100.27768028600008,13.539977369000042],[100.26561620600006,13.52829575900006]]]}},{"type":"Feature","properties":{"code":"740302","name":"หลักสาม","parentCode":"7403"},"geometry":{"type":"Polygon","coordinates":[[[100.09688247800005,13.584567838000055],[100.14873373600005,13.533606398000074],[100.15895195100006,13.538451424000073],[100.18594918900004,13.575649171000066],[100.17571509700008,13.581938601000047],[100.15180342000008,13.59614464300006],[100.14695132600008,13.610349643000063],[100.13097734200005,13.602043087000027],[100.09688247800005,13.584567838000055]]]}},{"type":"Feature","properties":{"code":"740307","name":"หลักสอง","parentCode":"7403"},"geometry":{"type":"Polygon","coordinates":[[[100.16297836600006,13.627295429000071],[100.11416141300003,13.652327888000059],[100.10360644400004,13.649568934000058],[100.13097734200005,13.602043087000027],[100.14695132600008,13.610349643000063],[100.16975280600008,13.62247665700005],[100.16297836600006,13.627295429000071]]]}},{"type":"Feature","properties":{"code":"740101","name":"มหาชัย","parentCode":"7401"},"geometry":{"type":"Polygon","coordinates":[[[100.28020321600007,13.542164571000058],[100.29537920300004,13.55107898700004],[100.28538128100007,13.558494544000041],[100.27212106900004,13.560112871000058],[100.26100601400003,13.531925665000074],[100.27768028600008,13.539977369000042],[100.28020321600007,13.542164571000058]]]}},{"type":"Feature","properties":{"code":"740109","name":"นาดี","parentCode":"7401"},"geometry":{"type":"Polygon","coordinates":[[[100.31250855800005,13.619587187000036],[100.28151500800004,13.619195902000058],[100.27064137300005,13.604954074000034],[100.27197838700005,13.591029845000037],[100.28834302400008,13.564484567000022],[100.31942830500009,13.579498803000035],[100.31136608400004,13.613332384000046],[100.31250855800005,13.619587187000036]]]}},{"type":"Feature","properties":{"code":"740107","name":"นาโคก","parentCode":"7401"},"geometry":{"type":"Polygon","coordinates":[[[100.13289451000009,13.44263126900006],[100.10447267500007,13.50272041900007],[100.05315896400003,13.485801796000032],[100.07328788800004,13.455807414000049],[100.07878223200004,13.425330343000041],[100.13289451000009,13.44263126900006]]]}},{"type":"Feature","properties":{"code":"740306","name":"หนองบัว","parentCode":"7403"},"geometry":{"type":"Polygon","coordinates":[[[100.07689472100009,13.65744012500005],[100.06026825100008,13.660286144000054],[100.06034109300003,13.659446503000026],[100.05447544300006,13.62922270200005],[100.07590014300007,13.57409980600005],[100.09688247800005,13.584567838000055],[100.07689472100009,13.65744012500005]]]}},{"type":"Feature","properties":{"code":"740207","name":"หนองนกไข่","parentCode":"7402"},"geometry":{"type":"Polygon","coordinates":[[[100.20145385000006,13.651267253000071],[100.19866709400009,13.67711302400005],[100.18173813000004,13.688987742000052],[100.17135058100007,13.680630305000022],[100.20145385000006,13.651267253000071]]]}},{"type":"Feature","properties":{"code":"740305","name":"หนองสองห้อง","parentCode":"7403"},"geometry":{"type":"Polygon","coordinates":[[[100.07590014300007,13.57409980600005],[100.05447544300006,13.62922270200005],[100.03110954200008,13.612613751000026],[100.03722203700005,13.582497471000067],[100.04599703500008,13.55931398100006],[100.06668539300006,13.569174743000076],[100.07590014300007,13.57409980600005]]]}},{"type":"Feature","properties":{"code":"740202","name":"อ้อมน้อย","parentCode":"7402"},"geometry":{"type":"Polygon","coordinates":[[[100.33033285600004,13.719719976000022],[100.30152747900007,13.720228000000077],[100.28354208500008,13.71180497000006],[100.26016024000006,13.684682085000077],[100.26034716400005,13.684271397000032],[100.29600046400009,13.682479428000022],[100.33203031600004,13.691406311000037],[100.33033285600004,13.719719976000022]]]}},{"type":"Feature","properties":{"code":"740113","name":"พันท้ายนรสิงห์","parentCode":"7401"},"geometry":{"type":"Polygon","coordinates":[[[100.38889180600006,13.571666105000077],[100.37835236900008,13.601359228000035],[100.33953671700004,13.583794932000046],[100.35849605500005,13.487782465000066],[100.40883825200007,13.493389571000023],[100.41521388500007,13.557151797000074],[100.38889180600006,13.571666105000077]]]}},{"type":"Feature","properties":{"code":"740304","name":"โรงเข้","parentCode":"7403"},"geometry":{"type":"Polygon","coordinates":[[[100.12002571300008,13.513391863000038],[100.06668539300006,13.569174743000076],[100.04599703500008,13.55931398100006],[100.03601509600009,13.534032277000051],[100.02897323700006,13.528822260000027],[100.02951576800007,13.507781799000043],[100.05315896400003,13.485801796000032],[100.10447267500007,13.50272041900007],[100.12002571300008,13.513391863000038]]]}},{"type":"Feature","properties":{"code":"740204","name":"สวนหลวง","parentCode":"7402"},"geometry":{"type":"Polygon","coordinates":[[[100.33203031600004,13.691406311000037],[100.29600046400009,13.682479428000022],[100.26820156700006,13.658432223000034],[100.27250727900008,13.656745072000035],[100.30649052000007,13.65431043600006],[100.33938354700007,13.654990333000057],[100.33216188300008,13.69036576800005],[100.33203031600004,13.691406311000037]]]}},{"type":"Feature","properties":{"code":"740311","name":"สวนส้ม","parentCode":"7403"},"geometry":{"type":"Polygon","coordinates":[[[100.21319242000004,13.625346863000061],[100.23245345000004,13.642903615000023],[100.23083478400008,13.644305638000048],[100.20714739200008,13.642533204000074],[100.16975280600008,13.62247665700005],[100.14695132600008,13.610349643000063],[100.15180342000008,13.59614464300006],[100.21319242000004,13.625346863000061]]]}},{"type":"Feature","properties":{"code":"740201","name":"ตลาดกระทุ่มแบน","parentCode":"7402"},"geometry":{"type":"Polygon","coordinates":[[[100.26820156700006,13.658432223000034],[100.24946198000004,13.657801282000037],[100.23083478400008,13.644305638000048],[100.23245345000004,13.642903615000023],[100.24624459800003,13.647353929000076],[100.26691761000006,13.652358972000059],[100.27250727900008,13.656745072000035],[100.26820156700006,13.658432223000034]]]}},{"type":"Feature","properties":{"code":"740102","name":"ท่าฉลอม","parentCode":"7401"},"geometry":{"type":"Polygon","coordinates":[[[100.26561620600006,13.52829575900006],[100.27768028600008,13.539977369000042],[100.26100601400003,13.531925665000074],[100.26182736700008,13.530695048000041],[100.26561620600006,13.52829575900006]]]}},{"type":"Feature","properties":{"code":"740108","name":"ท่าจีน","parentCode":"7401"},"geometry":{"type":"Polygon","coordinates":[[[100.27212106900004,13.560112871000058],[100.23172623300007,13.54423689400005],[100.24286343300008,13.525477955000042],[100.26182736700008,13.530695048000041],[100.26100601400003,13.531925665000074],[100.27212106900004,13.560112871000058]]]}},{"type":"Feature","properties":{"code":"740203","name":"ท่าไม้","parentCode":"7402"},"geometry":{"type":"Polygon","coordinates":[[[100.29600046400009,13.682479428000022],[100.26034716400005,13.684271397000032],[100.24183827900004,13.678008143000056],[100.24946198000004,13.657801282000037],[100.26820156700006,13.658432223000034],[100.29600046400009,13.682479428000022]]]}},{"type":"Feature","properties":{"code":"740110","name":"ท่าทราย","parentCode":"7401"},"geometry":{"type":"Polygon","coordinates":[[[100.28834302400008,13.564484567000022],[100.27197838700005,13.591029845000037],[100.19868872500007,13.548654051000028],[100.23172623300007,13.54423689400005],[100.27212106900004,13.560112871000058],[100.28538128100007,13.558494544000041],[100.28834302400008,13.564484567000022]]]}},{"type":"Feature","properties":{"code":"740210","name":"ท่าเสา","parentCode":"7402"},"geometry":{"type":"Polygon","coordinates":[[[100.26248424500005,13.608272052000075],[100.24624459800003,13.647353929000076],[100.23245345000004,13.642903615000023],[100.21319242000004,13.625346863000061],[100.22790413200005,13.604494406000072],[100.26248424500005,13.608272052000075]]]}},{"type":"Feature","properties":{"code":"740303","name":"ยกกระบัตร","parentCode":"7403"},"geometry":{"type":"Polygon","coordinates":[[[100.14873373600005,13.533606398000074],[100.09688247800005,13.584567838000055],[100.07590014300007,13.57409980600005],[100.06668539300006,13.569174743000076],[100.12002571300008,13.513391863000038],[100.14873373600005,13.533606398000074]]]}}]}