{"type":"FeatureCollection","features":[{"type":"Feature","properties":{"code":"750301","name":"อัมพวา","parentCode":"7503"},"geometry":{"type":"Polygon","coordinates":[[[99.96957689000004,13.424977733000048],[99.94927403800006,13.433104008000043],[99.94959664700008,13.429347278000023],[99.95797033600007,13.410750834000055],[99.96556233100006,13.40871971000007],[99.96957689000004,13.424977733000048]]]}},{"type":"Feature","properties":{"code":"750213","name":"บ้านปราโมทย์","parentCode":"7502"},"geometry":{"type":"Polygon","coordinates":[[[99.91209986400008,13.462772070000028],[99.89443315300008,13.474438085000031],[99.88916384500004,13.470097473000067],[99.89093776700008,13.467083641000045],[99.89091936900007,13.449203085000022],[99.90184814300005,13.448563095000054],[99.91209986400008,13.462772070000028]]]}},{"type":"Feature","properties":{"code":"750104","name":"บ้านปรก","parentCode":"7501"},"geometry":{"type":"Polygon","coordinates":[[[100.00092235400007,13.430263590000038],[99.97518784700009,13.433497224000064],[99.96957689000004,13.424977733000048],[99.96556233100006,13.40871971000007],[99.97230939700006,13.410581698000044],[99.98883883900004,13.41841607300006],[99.99090173000008,13.424123059000067],[100.00092235400007,13.430263590000038]]]}},{"type":"Feature","properties":{"code":"750111","name":"บางจะเกร็ง","parentCode":"7501"},"geometry":{"type":"Polygon","coordinates":[[[100.02915289900005,13.367713852000065],[100.00048744300005,13.388466256000072],[99.98997958200005,13.380047471000069],[99.99904104600006,13.367993416000047],[100.02915289900005,13.367713852000065]]]}},{"type":"Feature","properties":{"code":"750306","name":"บางช้าง","parentCode":"7503"},"geometry":{"type":"Polygon","coordinates":[[[99.96616506900006,13.448868378000043],[99.94360777000009,13.447180151000055],[99.94566728100006,13.440781822000076],[99.94927403800006,13.433104008000043],[99.96957689000004,13.424977733000048],[99.97518784700009,13.433497224000064],[99.97043878600005,13.441686920000052],[99.96616506900006,13.448868378000043]]]}},{"type":"Feature","properties":{"code":"750105","name":"บางแก้ว","parentCode":"7501"},"geometry":{"type":"Polygon","coordinates":[[[100.07878223200004,13.425330343000041],[100.07328788800004,13.455807414000049],[100.00757454400008,13.416034899000067],[100.00048744300005,13.388466256000072],[100.02915289900005,13.367713852000065],[100.07878223200004,13.425330343000041]]]}},{"type":"Feature","properties":{"code":"750309","name":"บางแค","parentCode":"7503"},"geometry":{"type":"Polygon","coordinates":[[[99.94153291300006,13.423047029000031],[99.92933076800006,13.425467533000074],[99.89996921100004,13.408792516000062],[99.90274529400006,13.39558074200005],[99.90404719700007,13.397233654000047],[99.94153291300006,13.423047029000031]]]}},{"type":"Feature","properties":{"code":"750102","name":"บางขันแตก","parentCode":"7501"},"geometry":{"type":"Polygon","coordinates":[[[99.96556233100006,13.40871971000007],[99.95797033600007,13.410750834000055],[99.94708948500005,13.403617197000074],[99.93753273800007,13.367729197000074],[99.93707025400005,13.366263459000038],[99.95536595500005,13.362859472000025],[99.96763317300008,13.386551440000062],[99.97230939700006,13.410581698000044],[99.96556233100006,13.40871971000007]]]}},{"type":"Feature","properties":{"code":"750205","name":"บางคนที","parentCode":"7502"},"geometry":{"type":"Polygon","coordinates":[[[99.95186595200005,13.498896635000051],[99.93292032300008,13.505116117000057],[99.93223515200003,13.504341199000066],[99.92343445900008,13.492200426000068],[99.93006482300007,13.483899031000021],[99.93776238400005,13.471533630000067],[99.94997587900008,13.488362628000061],[99.95186595200005,13.498896635000051]]]}},{"type":"Feature","properties":{"code":"750212","name":"บางกระบือ","parentCode":"7502"},"geometry":{"type":"Polygon","coordinates":[[[99.97800596600007,13.470580191000067],[99.96770750400003,13.471826428000043],[99.95895503900005,13.462208307000026],[99.96553748300005,13.452078769000025],[99.97800596600007,13.470580191000067]]]}},{"type":"Feature","properties":{"code":"750208","name":"บางกุ้ง","parentCode":"7502"},"geometry":{"type":"Polygon","coordinates":[[[99.94419158200009,13.459898486000043],[99.92793980500005,13.46022451400006],[99.93158146200005,13.442504758000041],[99.93212068700007,13.442372265000074],[99.94566728100006,13.440781822000076],[99.94360777000009,13.447180151000055],[99.94457291100008,13.456340504000025],[99.94419158200009,13.459898486000043]]]}},{"type":"Feature","properties":{"code":"750312","name":"บางนางลี่","parentCode":"7503"},"geometry":{"type":"Polygon","coordinates":[[[99.92798236700008,13.399913685000058],[99.94153291300006,13.423047029000031],[99.90404719700007,13.397233654000047],[99.92798236700008,13.399913685000058]]]}},{"type":"Feature","properties":{"code":"750210","name":"บางนกแขวก","parentCode":"7502"},"geometry":{"type":"Polygon","coordinates":[[[99.93223515200003,13.504341199000066],[99.91345807800008,13.51048323200007],[99.91903807800009,13.500701426000035],[99.92343445900008,13.492200426000068],[99.93223515200003,13.504341199000066]]]}},{"type":"Feature","properties":{"code":"750207","name":"บางพรม","parentCode":"7502"},"geometry":{"type":"Polygon","coordinates":[[[99.96553748300005,13.452078769000025],[99.95895503900005,13.462208307000026],[99.94457291100008,13.456340504000025],[99.94360777000009,13.447180151000055],[99.96616506900006,13.448868378000043],[99.96553748300005,13.452078769000025]]]}},{"type":"Feature","properties":{"code":"750202","name":"บางสะแก","parentCode":"7502"},"geometry":{"type":"Polygon","coordinates":[[[99.92793980500005,13.46022451400006],[99.92391848700004,13.465412053000023],[99.91209986400008,13.462772070000028],[99.90184814300005,13.448563095000054],[99.93158146200005,13.442504758000041],[99.92793980500005,13.46022451400006]]]}},{"type":"Feature","properties":{"code":"750203","name":"บางยี่รงค์","parentCode":"7502"},"geometry":{"type":"Polygon","coordinates":[[[99.92343445900008,13.492200426000068],[99.91903807800009,13.500701426000035],[99.89542286400007,13.481574049000074],[99.89443315300008,13.474438085000031],[99.91209986400008,13.462772070000028],[99.92391848700004,13.465412053000023],[99.93006482300007,13.483899031000021],[99.92343445900008,13.492200426000068]]]}},{"type":"Feature","properties":{"code":"750209","name":"จอมปลวก","parentCode":"7502"},"geometry":{"type":"Polygon","coordinates":[[[99.99314248400003,13.482355178000034],[99.99483117300008,13.493891142000052],[99.96855884500008,13.490567158000033],[99.96657392200007,13.485499190000041],[99.96221082300008,13.480614450000076],[99.96770750400003,13.471826428000043],[99.97800596600007,13.470580191000067],[99.99314248400003,13.482355178000034]]]}},{"type":"Feature","properties":{"code":"750206","name":"ดอนมะโนรา","parentCode":"7502"},"geometry":{"type":"Polygon","coordinates":[[[100.02627364800009,13.504561636000062],[99.99483117300008,13.493891142000052],[99.99314248400003,13.482355178000034],[100.01435767500004,13.477550037000071],[100.02627364800009,13.504561636000062]]]}},{"type":"Feature","properties":{"code":"750108","name":"คลองเขิน","parentCode":"7501"},"geometry":{"type":"Polygon","coordinates":[[[100.00083592000004,13.456093661000068],[99.97043878600005,13.441686920000052],[99.97518784700009,13.433497224000064],[100.00092235400007,13.430263590000038],[100.00665431800007,13.433716940000068],[100.00083592000004,13.456093661000068]]]}},{"type":"Feature","properties":{"code":"750109","name":"คลองโคน","parentCode":"7501"},"geometry":{"type":"Polygon","coordinates":[[[99.95536595500005,13.362859472000025],[99.93707025400005,13.366263459000038],[99.93119533600009,13.283808055000065],[99.95250447900008,13.296620133000033],[99.98951980600003,13.327054582000073],[99.95536595500005,13.362859472000025]]]}},{"type":"Feature","properties":{"code":"750307","name":"แควอ้อม","parentCode":"7503"},"geometry":{"type":"Polygon","coordinates":[[[99.94566728100006,13.440781822000076],[99.93212068700007,13.442372265000074],[99.92933076800006,13.425467533000074],[99.94153291300006,13.423047029000031],[99.94959664700008,13.429347278000023],[99.94927403800006,13.433104008000043],[99.94566728100006,13.440781822000076]]]}},{"type":"Feature","properties":{"code":"750201","name":"กระดังงา","parentCode":"7502"},"geometry":{"type":"Polygon","coordinates":[[[99.94997587900008,13.488362628000061],[99.93776238400005,13.471533630000067],[99.94419158200009,13.459898486000043],[99.94457291100008,13.456340504000025],[99.95895503900005,13.462208307000026],[99.96770750400003,13.471826428000043],[99.96221082300008,13.480614450000076],[99.94997587900008,13.488362628000061]]]}},{"type":"Feature","properties":{"code":"750107","name":"แหลมใหญ่","parentCode":"7501"},"geometry":{"type":"Polygon","coordinates":[[[99.98242682500006,13.393969114000072],[99.96763317300008,13.386551440000062],[99.95536595500005,13.362859472000025],[99.98951980600003,13.327054582000073],[99.99904104600006,13.367993416000047],[99.98997958200005,13.380047471000069],[99.98242682500006,13.393969114000072]]]}},{"type":"Feature","properties":{"code":"750103","name":"ลาดใหญ่","parentCode":"7501"},"geometry":{"type":"Polygon","coordinates":[[[100.07328788800004,13.455807414000049],[100.05315896400003,13.485801796000032],[100.00665431800007,13.433716940000068],[100.00092235400007,13.430263590000038],[99.99090173000008,13.424123059000067],[100.00757454400008,13.416034899000067],[100.07328788800004,13.455807414000049]]]}},{"type":"Feature","properties":{"code":"750101","name":"แม่กลอง","parentCode":"7501"},"geometry":{"type":"Polygon","coordinates":[[[99.99090173000008,13.424123059000067],[99.98883883900004,13.41841607300006],[99.98242682500006,13.393969114000072],[99.98997958200005,13.380047471000069],[100.00048744300005,13.388466256000072],[100.00757454400008,13.416034899000067],[99.99090173000008,13.424123059000067]]]}},{"type":"Feature","properties":{"code":"750305","name":"เหมืองใหม่","parentCode":"7503"},"geometry":{"type":"Polygon","coordinates":[[[99.93158146200005,13.442504758000041],[99.90184814300005,13.448563095000054],[99.89091936900007,13.449203085000022],[99.89114946800004,13.438259617000028],[99.89037029100007,13.429953157000057],[99.89996921100004,13.408792516000062],[99.92933076800006,13.425467533000074],[99.93212068700007,13.442372265000074],[99.93158146200005,13.442504758000041]]]}},{"type":"Feature","properties":{"code":"750110","name":"นางตะเคียน","parentCode":"7501"},"geometry":{"type":"Polygon","coordinates":[[[100.05315896400003,13.485801796000032],[100.02951576800007,13.507781799000043],[100.02627364800009,13.504561636000062],[100.01435767500004,13.477550037000071],[100.00083592000004,13.456093661000068],[100.00665431800007,13.433716940000068],[100.05315896400003,13.485801796000032]]]}},{"type":"Feature","properties":{"code":"750310","name":"แพรกหนามแดง","parentCode":"7503"},"geometry":{"type":"Polygon","coordinates":[[[99.91917573800004,13.372316425000065],[99.89300096200009,13.378892994000068],[99.86620376800005,13.367648320000058],[99.85595101000007,13.329181510000069],[99.85307817500006,13.300822278000055],[99.89234049100008,13.322880798000028],[99.91917573800004,13.372316425000065]]]}},{"type":"Feature","properties":{"code":"750308","name":"ปลายโพงพาง","parentCode":"7503"},"geometry":{"type":"Polygon","coordinates":[[[99.93753273800007,13.367729197000074],[99.94708948500005,13.403617197000074],[99.92798236700008,13.399913685000058],[99.90404719700007,13.397233654000047],[99.90274529400006,13.39558074200005],[99.89300096200009,13.378892994000068],[99.91917573800004,13.372316425000065],[99.93753273800007,13.367729197000074]]]}},{"type":"Feature","properties":{"code":"750204","name":"โรงหีบ","parentCode":"7502"},"geometry":{"type":"Polygon","coordinates":[[[99.93776238400005,13.471533630000067],[99.93006482300007,13.483899031000021],[99.92391848700004,13.465412053000023],[99.92793980500005,13.46022451400006],[99.94419158200009,13.459898486000043],[99.93776238400005,13.471533630000067]]]}},{"type":"Feature","properties":{"code":"750302","name":"สวนหลวง","parentCode":"7503"},"geometry":{"type":"Polygon","coordinates":[[[99.94959664700008,13.429347278000023],[99.94153291300006,13.423047029000031],[99.92798236700008,13.399913685000058],[99.94708948500005,13.403617197000074],[99.95797033600007,13.410750834000055],[99.94959664700008,13.429347278000023]]]}},{"type":"Feature","properties":{"code":"750303","name":"ท่าคา","parentCode":"7503"},"geometry":{"type":"Polygon","coordinates":[[[100.01435767500004,13.477550037000071],[99.99314248400003,13.482355178000034],[99.97800596600007,13.470580191000067],[99.96553748300005,13.452078769000025],[99.96616506900006,13.448868378000043],[99.97043878600005,13.441686920000052],[100.00083592000004,13.456093661000068],[100.01435767500004,13.477550037000071]]]}},{"type":"Feature","properties":{"code":"750106","name":"ท้ายหาด","parentCode":"7501"},"geometry":{"type":"Polygon","coordinates":[[[99.98883883900004,13.41841607300006],[99.97230939700006,13.410581698000044],[99.96763317300008,13.386551440000062],[99.98242682500006,13.393969114000072],[99.98883883900004,13.41841607300006]]]}},{"type":"Feature","properties":{"code":"750304","name":"วัดประดู่","parentCode":"7503"},"geometry":{"type":"Polygon","coordinates":[[[99.89996921100004,13.408792516000062],[99.89037029100007,13.429953157000057],[99.88368261600004,13.416274197000064],[99.86796827000006,13.375827546000039],[99.86620376800005,13.367648320000058],[99.89300096200009,13.378892994000068],[99.90274529400006,13.39558074200005],[99.89996921100004,13.408792516000062]]]}},{"type":"Feature","properties":{"code":"750211","name":"ยายแพง","parentCode":"7502"},"geometry":{"type":"Polygon","coordinates":[[[99.96657392200007,13.485499190000041],[99.95186595200005,13.498896635000051],[99.94997587900008,13.488362628000061],[99.96221082300008,13.480614450000076],[99.96657392200007,13.485499190000041]]]}},{"type":"Feature","properties":{"code":"750311","name":"ยี่สาร","parentCode":"7503"},"geometry":{"type":"Polygon","coordinates":[[[99.93753273800007,13.367729197000074],[99.91917573800004,13.372316425000065],[99.89234049100008,13.322880798000028],[99.85307817500006,13.300822278000055],[99.85347921600004,13.297821417000023],[99.85651644400008,13.274082447000069],[99.86030882900008,13.244605060000026],[99.88375008100007,13.246462721000057],[99.93119533600009,13.283808055000065],[99.93707025400005,13.366263459000038],[99.93753273800007,13.367729197000074]]]}}]}