{"type":"FeatureCollection","features":[{"type":"Feature","properties":{"code":"760602","name":"บ้านหาด","parentCode":"7606"},"geometry":{"type":"Polygon","coordinates":[[[99.93193779900008,13.072140922000074],[99.91050083100004,13.097633450000046],[99.89938237600006,13.085151229000076],[99.90279029500005,13.07540477200007],[99.91717034600003,13.05937782500007],[99.93193779900008,13.072140922000074]]]}},{"type":"Feature","properties":{"code":"760106","name":"บ้านกุ่ม","parentCode":"7601"},"geometry":{"type":"Polygon","coordinates":[[[99.94975312500009,13.15959485600007],[99.92846177300004,13.186376823000046],[99.94503070600007,13.120612206000033],[99.95272336000005,13.115200038000069],[99.95101394500006,13.132726010000056],[99.94975312500009,13.15959485600007]]]}},{"type":"Feature","properties":{"code":"760701","name":"บ้านแหลม","parentCode":"7607"},"geometry":{"type":"Polygon","coordinates":[[[100.01292947200005,13.191518986000062],[99.96515129500006,13.244960928000069],[99.95256512900005,13.225733389000027],[99.96804635500007,13.173751781000021],[100.00351269200007,13.178198225000074],[100.01292947200005,13.191518986000062]]]}},{"type":"Feature","properties":{"code":"760601","name":"บ้านลาด","parentCode":"7606"},"geometry":{"type":"Polygon","coordinates":[[[99.94551720100009,13.07063149000004],[99.93193779900008,13.072140922000074],[99.91717034600003,13.05937782500007],[99.91304590300007,13.042213961000073],[99.91586061400005,13.040970669000046],[99.93684112300008,13.064287764000028],[99.94551720100009,13.07063149000004]]]}},{"type":"Feature","properties":{"code":"760111","name":"บ้านหม้อ","parentCode":"7601"},"geometry":{"type":"Polygon","coordinates":[[[99.93434323600007,13.111244670000076],[99.91050083100004,13.097633450000046],[99.93193779900008,13.072140922000074],[99.94551720100009,13.07063149000004],[99.94529903200004,13.072313398000063],[99.94370485500008,13.085542025000052],[99.94106636400005,13.101003194000043],[99.93434323600007,13.111244670000076]]]}},{"type":"Feature","properties":{"code":"760515","name":"บ้านในดง","parentCode":"7605"},"geometry":{"type":"Polygon","coordinates":[[[99.92279982600007,12.928406745000075],[99.96248400800005,12.937027353000076],[99.95727029300008,12.968385838000074],[99.92643645400005,12.962536145000058],[99.92279982600007,12.928406745000075]]]}},{"type":"Feature","properties":{"code":"760603","name":"บ้านทาน","parentCode":"7606"},"geometry":{"type":"Polygon","coordinates":[[[99.84674650300008,13.097509123000066],[99.79083158600008,13.095390724000026],[99.76223768400007,13.072227805000068],[99.85602712800005,13.077811061000034],[99.86940636400004,13.093589927000039],[99.86602476900003,13.096055378000074],[99.84674650300008,13.097509123000066]]]}},{"type":"Feature","properties":{"code":"760110","name":"บางจาก","parentCode":"7601"},"geometry":{"type":"Polygon","coordinates":[[[99.89819795800008,13.141283956000052],[99.90401128600007,13.17717540800004],[99.87546673400004,13.16240483300004],[99.87965777100004,13.145821072000047],[99.89819795800008,13.141283956000052]]]}},{"type":"Feature","properties":{"code":"760103","name":"บางจาน","parentCode":"7601"},"geometry":{"type":"Polygon","coordinates":[[[100.04591279500005,13.131446821000054],[100.02990771000003,13.143768830000056],[99.99437430300009,13.136443416000077],[99.98078115700008,13.12791624600004],[100.02210872700005,13.121949566000069],[100.04591279500005,13.131446821000054]]]}},{"type":"Feature","properties":{"code":"760704","name":"บางแก้ว","parentCode":"7607"},"geometry":{"type":"Polygon","coordinates":[[[100.06299703400003,13.130841968000027],[100.04591279500005,13.131446821000054],[100.02210872700005,13.121949566000069],[100.02541523200006,13.103691077000065],[100.05134535100007,13.077645897000025],[100.05524437000008,13.067280288000063],[100.07298042500008,13.071847192000064],[100.06299703400003,13.130841968000027]]]}},{"type":"Feature","properties":{"code":"760402","name":"บางเก่า","parentCode":"7604"},"geometry":{"type":"Polygon","coordinates":[[[100.00099998100006,12.839571613000032],[100.02634311300005,12.909285777000036],[99.97294033400004,12.872954051000022],[99.97428809200005,12.843689882000035],[100.00099998100006,12.839571613000032]]]}},{"type":"Feature","properties":{"code":"760203","name":"บางเค็ม","parentCode":"7602"},"geometry":{"type":"Polygon","coordinates":[[[99.85347921600004,13.297821417000023],[99.82399000400005,13.301198905000035],[99.81943332200007,13.274053171000048],[99.85651644400008,13.274082447000069],[99.85347921600004,13.297821417000023]]]}},{"type":"Feature","properties":{"code":"760708","name":"บางครก","parentCode":"7607"},"geometry":{"type":"Polygon","coordinates":[[[99.95256512900005,13.225733389000027],[99.90735720900005,13.227408363000052],[99.90756169700006,13.222709980000047],[99.90239606700004,13.180658899000036],[99.92846177300004,13.186376823000046],[99.94975312500009,13.15959485600007],[99.96804635500007,13.173751781000021],[99.95256512900005,13.225733389000027]]]}},{"type":"Feature","properties":{"code":"760702","name":"บางขุนไทร","parentCode":"7607"},"geometry":{"type":"Polygon","coordinates":[[[100.03842941700003,13.176223117000063],[100.01292947200005,13.191518986000062],[100.00351269200007,13.178198225000074],[99.99681153800003,13.169635312000025],[99.99221260700006,13.145590023000068],[99.99437430300009,13.136443416000077],[100.02990771000003,13.143768830000056],[100.03842941700003,13.176223117000063]]]}},{"type":"Feature","properties":{"code":"760706","name":"บางตะบูน","parentCode":"7607"},"geometry":{"type":"Polygon","coordinates":[[[99.94188691300008,13.265570359000037],[99.95250447900008,13.296620133000033],[99.93119533600009,13.283808055000065],[99.88375008100007,13.246462721000057],[99.88336481100004,13.229996887000027],[99.90756169700006,13.222709980000047],[99.90735720900005,13.227408363000052],[99.94188691300008,13.265570359000037]]]}},{"type":"Feature","properties":{"code":"760707","name":"บางตะบูนออก","parentCode":"7607"},"geometry":{"type":"Polygon","coordinates":[[[99.94188691300008,13.265570359000037],[99.90735720900005,13.227408363000052],[99.95256512900005,13.225733389000027],[99.96515129500006,13.244960928000069],[99.94188691300008,13.265570359000037]]]}},{"type":"Feature","properties":{"code":"760401","name":"ชะอำ","parentCode":"7604"},"geometry":{"type":"Polygon","coordinates":[[[99.97428809200005,12.843689882000035],[99.94762197700004,12.849282001000063],[99.92623450300005,12.739414381000074],[99.91939453300006,12.624881266000045],[99.95611290700003,12.632498751000071],[99.96460351500008,12.728198657000064],[100.00099998100006,12.839571613000032],[99.97428809200005,12.843689882000035]]]}},{"type":"Feature","properties":{"code":"760113","name":"ช่องสะแก","parentCode":"7601"},"geometry":{"type":"Polygon","coordinates":[[[100.02210872700005,13.121949566000069],[99.98078115700008,13.12791624600004],[99.95744012800009,13.109682006000071],[99.95763454400009,13.097649231000048],[99.99572765800008,13.09339406500004],[100.00164806500004,13.090639030000034],[100.02541523200006,13.103691077000065],[100.02210872700005,13.121949566000069]]]}},{"type":"Feature","properties":{"code":"760409","name":"ดอนขุนห้วย","parentCode":"7604"},"geometry":{"type":"Polygon","coordinates":[[[99.91343026600003,12.90551283700006],[99.86213004400008,12.865886725000053],[99.85803614100007,12.831452970000043],[99.93040591900007,12.85886565100003],[99.91545972100005,12.886976529000037],[99.92034343600005,12.904923534000034],[99.91343026600003,12.90551283700006]]]}},{"type":"Feature","properties":{"code":"760122","name":"ดอนยาง","parentCode":"7601"},"geometry":{"type":"Polygon","coordinates":[[[100.00190092100007,13.02951200800004],[99.98857476400008,13.041509652000059],[99.95956545200005,13.041254379000065],[99.95985029400003,13.037679840000067],[99.96097699900008,13.023342710000065],[99.96413542600004,12.983794526000054],[99.98047284500007,12.979229195000073],[100.00190092100007,13.02951200800004]]]}},{"type":"Feature","properties":{"code":"760117","name":"หาดเจ้าสำราญ","parentCode":"7601"},"geometry":{"type":"Polygon","coordinates":[[[100.07932617500006,13.020380765000027],[100.05063139300006,13.030743784000038],[100.03170998700006,13.027797483000029],[100.02159869300004,13.01706150800004],[100.04453741000003,12.972963600000071],[100.07932617500006,13.020380765000027]]]}},{"type":"Feature","properties":{"code":"760118","name":"หัวสะพาน","parentCode":"7601"},"geometry":{"type":"Polygon","coordinates":[[[99.89260107600006,13.123365318000026],[99.87965777100004,13.145821072000047],[99.84571299000004,13.135924781000028],[99.84591246500008,13.130163982000056],[99.84674650300008,13.097509123000066],[99.86602476900003,13.096055378000074],[99.88535876000009,13.09942958800002],[99.89302873300005,13.114743780000026],[99.89260107600006,13.123365318000026]]]}},{"type":"Feature","properties":{"code":"760615","name":"ห้วยข้อง","parentCode":"7606"},"geometry":{"type":"Polygon","coordinates":[[[99.85492112400004,13.040048814000045],[99.75186044100008,13.054856397000037],[99.74584371600008,13.040751779000061],[99.78634443600004,13.044072409000023],[99.81580596500004,13.006611105000047],[99.84641017200005,13.026494790000072],[99.85492112400004,13.040048814000045]]]}},{"type":"Feature","properties":{"code":"760618","name":"ห้วยลึก","parentCode":"7606"},"geometry":{"type":"Polygon","coordinates":[[[99.84641017200005,13.026494790000072],[99.81580596500004,13.006611105000047],[99.78634443600004,13.044072409000023],[99.74584371600008,13.040751779000061],[99.73449969700005,13.029055808000066],[99.78302953600007,12.976151939000033],[99.85082412500009,13.00429861300006],[99.84641017200005,13.026494790000072]]]}},{"type":"Feature","properties":{"code":"760806","name":"ห้วยแม่เพรียง","parentCode":"7608"},"geometry":{"type":"Polygon","coordinates":[[[99.43043155700008,13.067670770000063],[99.33823960700005,13.143349927000031],[99.24086065600005,13.089896016000068],[99.27101831900006,13.034106587000053],[99.18753519000006,12.975581283000054],[99.16560067900008,12.92437850500005],[99.18495742500005,12.861330339000062],[99.21774819800004,12.828418709000061],[99.24772968700006,12.719174630000055],[99.29025046200007,12.714048027000047],[99.32561199600008,12.666913571000066],[99.35220115200008,12.699963877000073],[99.39480526800008,12.69068455100006],[99.48263718100009,12.710217498000077],[99.52800054000005,12.740191289000052],[99.60465388100005,12.739440786000046],[99.64910605200004,12.757447124000066],[99.64533239800005,12.787666494000064],[99.59209444100009,12.793134670000029],[99.56335772700004,12.832343695000077],[99.58206946600006,12.853500944000075],[99.54229518700004,12.898954457000059],[99.49533776400006,12.911316761000023],[99.48622367700005,12.948858373000064],[99.45573452200006,13.018076498000028],[99.43043155700008,13.067670770000063]]]}},{"type":"Feature","properties":{"code":"760208","name":"ห้วยโรง","parentCode":"7602"},"geometry":{"type":"Polygon","coordinates":[[[99.84928336400009,13.33031703100005],[99.83081768800008,13.338063827000042],[99.82399000400005,13.301198905000035],[99.85347921600004,13.297821417000023],[99.85307817500006,13.300822278000055],[99.85595101000007,13.329181510000069],[99.84928336400009,13.33031703100005]]]}},{"type":"Feature","properties":{"code":"760406","name":"ห้วยทรายเหนือ","parentCode":"7604"},"geometry":{"type":"Polygon","coordinates":[[[99.85025839100007,12.754582655000036],[99.77969701600006,12.688472426000033],[99.85978426700007,12.678279094000061],[99.88304674000005,12.747825767000052],[99.85025839100007,12.754582655000036]]]}},{"type":"Feature","properties":{"code":"760209","name":"ห้วยท่าช้าง","parentCode":"7602"},"geometry":{"type":"Polygon","coordinates":[[[99.84150925100005,13.152690305000021],[99.78748902500007,13.151026720000061],[99.79586194000007,13.117652110000051],[99.84591246500008,13.130163982000056],[99.84571299000004,13.135924781000028],[99.84150925100005,13.152690305000021]]]}},{"type":"Feature","properties":{"code":"760801","name":"แก่งกระจาน","parentCode":"7608"},"geometry":{"type":"Polygon","coordinates":[[[99.62474123800007,13.040223851000064],[99.60658661100007,13.065927370000054],[99.57342752400007,13.026913123000043],[99.55350277800005,13.063092836000067],[99.45573452200006,13.018076498000028],[99.48622367700005,12.948858373000064],[99.54425171600008,12.909305086000074],[99.65314876000008,12.87631097600007],[99.68018008300004,12.88600272800005],[99.71595169200003,12.818381946000045],[99.76205638500005,12.84179124700006],[99.73508818900007,12.877711874000056],[99.71667648600004,12.93091499600007],[99.66670968600005,12.987052726000059],[99.62474123800007,13.040223851000064]]]}},{"type":"Feature","properties":{"code":"760513","name":"เขากระปุก","parentCode":"7605"},"geometry":{"type":"Polygon","coordinates":[[[99.79810713900008,12.775321948000055],[99.73595833500008,12.77457328500003],[99.69741409600005,12.734958580000068],[99.61589477700005,12.692581025000038],[99.61623143500003,12.640737780000052],[99.68434974500008,12.635231579000049],[99.71881280400004,12.60116171900006],[99.75476142600007,12.618874598000048],[99.77969701600006,12.688472426000033],[99.85025839100007,12.754582655000036],[99.84296114600005,12.777382722000027],[99.79810713900008,12.775321948000055]]]}},{"type":"Feature","properties":{"code":"760404","name":"เขาใหญ่","parentCode":"7604"},"geometry":{"type":"Polygon","coordinates":[[[99.94762197700004,12.849282001000063],[99.91545972100005,12.886976529000037],[99.93040591900007,12.85886565100003],[99.85803614100007,12.831452970000043],[99.84296114600005,12.777382722000027],[99.85025839100007,12.754582655000036],[99.88304674000005,12.747825767000052],[99.92623450300005,12.739414381000074],[99.94762197700004,12.849282001000063]]]}},{"type":"Feature","properties":{"code":"760201","name":"เขาย้อย","parentCode":"7602"},"geometry":{"type":"Polygon","coordinates":[[[99.88375008100007,13.246462721000057],[99.86030882900008,13.244605060000026],[99.76229564600004,13.246231454000053],[99.74808692100004,13.234495177000042],[99.75007378500004,13.212128392000068],[99.86382089000006,13.217398801000058],[99.88336481100004,13.229996887000027],[99.88375008100007,13.246462721000057]]]}},{"type":"Feature","properties":{"code":"760102","name":"คลองกระแชง","parentCode":"7601"},"geometry":{"type":"Polygon","coordinates":[[[99.94503070600007,13.120612206000033],[99.93362687200005,13.118501605000063],[99.93434323600007,13.111244670000076],[99.94106636400005,13.101003194000043],[99.95392322100008,13.112151853000057],[99.95272336000005,13.115200038000069],[99.94503070600007,13.120612206000033]]]}},{"type":"Feature","properties":{"code":"760511","name":"กลัดหลวง","parentCode":"7605"},"geometry":{"type":"Polygon","coordinates":[[[99.79810713900008,12.775321948000055],[99.78943040500008,12.83232300800006],[99.76205638500005,12.84179124700006],[99.71595169200003,12.818381946000045],[99.64533239800005,12.787666494000064],[99.64910605200004,12.757447124000066],[99.60465388100005,12.739440786000046],[99.61589477700005,12.692581025000038],[99.69741409600005,12.734958580000068],[99.73595833500008,12.77457328500003],[99.79810713900008,12.775321948000055]]]}},{"type":"Feature","properties":{"code":"760705","name":"แหลมผักเบี้ย","parentCode":"7607"},"geometry":{"type":"Polygon","coordinates":[[[100.07932617500006,13.020380765000027],[100.10204069400004,13.056547610000052],[100.07298042500008,13.071847192000064],[100.05524437000008,13.067280288000063],[100.05063139300006,13.030743784000038],[100.07932617500006,13.020380765000027]]]}},{"type":"Feature","properties":{"code":"760610","name":"ลาดโพธิ์","parentCode":"7606"},"geometry":{"type":"Polygon","coordinates":[[[99.90373880200008,13.112508953000031],[99.89302873300005,13.114743780000026],[99.88535876000009,13.09942958800002],[99.89004590700006,13.093661183000052],[99.89752687700008,13.088643392000051],[99.90373880200008,13.112508953000031]]]}},{"type":"Feature","properties":{"code":"760505","name":"มาบปลาเค้า","parentCode":"7605"},"geometry":{"type":"Polygon","coordinates":[[[99.93756543700005,12.994978080000067],[99.91891550600008,12.996484761000033],[99.92643645400005,12.962536145000058],[99.95727029300008,12.968385838000074],[99.96436384000003,12.98087113500003],[99.93756543700005,12.994978080000067]]]}},{"type":"Feature","properties":{"code":"760104","name":"นาพันสาม","parentCode":"7601"},"geometry":{"type":"Polygon","coordinates":[[[100.05134535100007,13.077645897000025],[100.02407678100008,13.079447470000048],[100.00262028900005,13.06770754300004],[100.03170998700006,13.027797483000029],[100.05063139300006,13.030743784000038],[100.05524437000008,13.067280288000063],[100.05134535100007,13.077645897000025]]]}},{"type":"Feature","properties":{"code":"760114","name":"นาวุ้ง","parentCode":"7601"},"geometry":{"type":"Polygon","coordinates":[[[99.99572765800008,13.09339406500004],[99.95763454400009,13.097649231000048],[99.95633267800008,13.088168721000045],[99.97250758000007,13.072334571000056],[99.98380271800005,13.073317290000034],[99.99572765800008,13.09339406500004]]]}},{"type":"Feature","properties":{"code":"760403","name":"นายาง","parentCode":"7604"},"geometry":{"type":"Polygon","coordinates":[[[99.95305058400004,12.901029365000056],[99.92034343600005,12.904923534000034],[99.91545972100005,12.886976529000037],[99.94762197700004,12.849282001000063],[99.97428809200005,12.843689882000035],[99.97294033400004,12.872954051000022],[99.95305058400004,12.901029365000056]]]}},{"type":"Feature","properties":{"code":"760504","name":"หนองจอก","parentCode":"7605"},"geometry":{"type":"Polygon","coordinates":[[[99.98047284500007,12.979229195000073],[99.96413542600004,12.983794526000054],[99.96436384000003,12.98087113500003],[99.95727029300008,12.968385838000074],[99.96248400800005,12.937027353000076],[99.92279982600007,12.928406745000075],[99.92034343600005,12.904923534000034],[99.95305058400004,12.901029365000056],[99.99597982200004,12.922712893000039],[100.01744194300005,12.968036640000037],[99.98047284500007,12.979229195000073]]]}},{"type":"Feature","properties":{"code":"760207","name":"หนองชุมพล","parentCode":"7602"},"geometry":{"type":"Polygon","coordinates":[[[99.82399000400005,13.301198905000035],[99.77203909800005,13.31290434500005],[99.71620118300007,13.270310835000032],[99.74808692100004,13.234495177000042],[99.76229564600004,13.246231454000053],[99.81943332200007,13.274053171000048],[99.82399000400005,13.301198905000035]]]}},{"type":"Feature","properties":{"code":"760210","name":"หนองชุมพลเหนือ","parentCode":"7602"},"geometry":{"type":"Polygon","coordinates":[[[99.75798935400007,13.34334565000006],[99.69002401400007,13.301915001000054],[99.68824370900006,13.300372667000033],[99.71620118300007,13.270310835000032],[99.77203909800005,13.31290434500005],[99.82399000400005,13.301198905000035],[99.83081768800008,13.338063827000042],[99.75798935400007,13.34334565000006]]]}},{"type":"Feature","properties":{"code":"760609","name":"หนองกะปุ","parentCode":"7606"},"geometry":{"type":"Polygon","coordinates":[[[99.85602712800005,13.077811061000034],[99.76223768400007,13.072227805000068],[99.75186044100008,13.054856397000037],[99.85492112400004,13.040048814000045],[99.88270517900008,13.046001390000072],[99.88349378800007,13.056477174000065],[99.85602712800005,13.077811061000034]]]}},{"type":"Feature","properties":{"code":"760123","name":"หนองขนาน","parentCode":"7601"},"geometry":{"type":"Polygon","coordinates":[[[100.02159869300004,13.01706150800004],[100.00190092100007,13.02951200800004],[99.98047284500007,12.979229195000073],[100.01744194300005,12.968036640000037],[100.03753792700007,12.954191176000052],[100.04453741000003,12.972963600000071],[100.02159869300004,13.01706150800004]]]}},{"type":"Feature","properties":{"code":"760608","name":"หนองกระเจ็ด","parentCode":"7606"},"geometry":{"type":"Polygon","coordinates":[[[99.96097699900008,13.023342710000065],[99.93756543700005,12.994978080000067],[99.96436384000003,12.98087113500003],[99.96413542600004,12.983794526000054],[99.96097699900008,13.023342710000065]]]}},{"type":"Feature","properties":{"code":"760124","name":"หนองพลับ","parentCode":"7601"},"geometry":{"type":"Polygon","coordinates":[[[100.03170998700006,13.027797483000029],[100.00262028900005,13.06770754300004],[99.98741000300004,13.055821602000037],[99.98857476400008,13.041509652000059],[100.00190092100007,13.02951200800004],[100.02159869300004,13.01706150800004],[100.03170998700006,13.027797483000029]]]}},{"type":"Feature","properties":{"code":"760205","name":"หนองปลาไหล","parentCode":"7602"},"geometry":{"type":"Polygon","coordinates":[[[99.90756169700006,13.222709980000047],[99.88336481100004,13.229996887000027],[99.86382089000006,13.217398801000058],[99.84508861400008,13.190653805000068],[99.85541517000007,13.160090750000052],[99.87546673400004,13.16240483300004],[99.90401128600007,13.17717540800004],[99.90239606700004,13.180658899000036],[99.90756169700006,13.222709980000047]]]}},{"type":"Feature","properties":{"code":"760206","name":"หนองปรง","parentCode":"7602"},"geometry":{"type":"Polygon","coordinates":[[[99.85541517000007,13.160090750000052],[99.84508861400008,13.190653805000068],[99.79060260400007,13.180187749000027],[99.78387705300008,13.163115899000047],[99.78748902500007,13.151026720000061],[99.84150925100005,13.152690305000021],[99.85541517000007,13.160090750000052]]]}},{"type":"Feature","properties":{"code":"760405","name":"หนองศาลา","parentCode":"7604"},"geometry":{"type":"Polygon","coordinates":[[[100.02690628200008,12.917015787000025],[99.99597982200004,12.922712893000039],[99.95305058400004,12.901029365000056],[99.97294033400004,12.872954051000022],[100.02634311300005,12.909285777000036],[100.02690628200008,12.917015787000025]]]}},{"type":"Feature","properties":{"code":"760107","name":"หนองโสน","parentCode":"7601"},"geometry":{"type":"Polygon","coordinates":[[[99.99221260700006,13.145590023000068],[99.95549227900005,13.137853624000059],[99.95101394500006,13.132726010000056],[99.95272336000005,13.115200038000069],[99.95392322100008,13.112151853000057],[99.95744012800009,13.109682006000071],[99.98078115700008,13.12791624600004],[99.99437430300009,13.136443416000077],[99.99221260700006,13.145590023000068]]]}},{"type":"Feature","properties":{"code":"760301","name":"หนองหญ้าปล้อง","parentCode":"7603"},"geometry":{"type":"Polygon","coordinates":[[[99.71620118300007,13.270310835000032],[99.68824370900006,13.300372667000033],[99.66629749200007,13.28685680500007],[99.66162021600007,13.211477367000043],[99.68367083100009,13.13837611200006],[99.70200216900008,13.121537182000054],[99.78387705300008,13.163115899000047],[99.79060260400007,13.180187749000027],[99.75007378500004,13.212128392000068],[99.74808692100004,13.234495177000042],[99.71620118300007,13.270310835000032]]]}},{"type":"Feature","properties":{"code":"760804","name":"ป่าเด็ง","parentCode":"7608"},"geometry":{"type":"Polygon","coordinates":[[[99.60465388100005,12.739440786000046],[99.52800054000005,12.740191289000052],[99.48263718100009,12.710217498000077],[99.39480526800008,12.69068455100006],[99.35220115200008,12.699963877000073],[99.32561199600008,12.666913571000066],[99.34372858600005,12.642418613000075],[99.43858302600006,12.582979351000063],[99.49736277900007,12.591385891000073],[99.51472486700004,12.563694338000062],[99.58905786800005,12.570660929000042],[99.62822416500006,12.599673951000057],[99.61623143500003,12.640737780000052],[99.61589477700005,12.692581025000038],[99.60465388100005,12.739440786000046]]]}},{"type":"Feature","properties":{"code":"760703","name":"ปากทะเล","parentCode":"7607"},"geometry":{"type":"Polygon","coordinates":[[[100.06299703400003,13.130841968000027],[100.03842941700003,13.176223117000063],[100.02990771000003,13.143768830000056],[100.04591279500005,13.131446821000054],[100.06299703400003,13.130841968000027]]]}},{"type":"Feature","properties":{"code":"760116","name":"โพพระ","parentCode":"7601"},"geometry":{"type":"Polygon","coordinates":[[[100.02541523200006,13.103691077000065],[100.00164806500004,13.090639030000034],[100.02407678100008,13.079447470000048],[100.05134535100007,13.077645897000025],[100.02541523200006,13.103691077000065]]]}},{"type":"Feature","properties":{"code":"760121","name":"โพไร่หวาน","parentCode":"7601"},"geometry":{"type":"Polygon","coordinates":[[[99.98380271800005,13.073317290000034],[99.97250758000007,13.072334571000056],[99.96671397400007,13.066841170000032],[99.95892715800005,13.049387827000032],[99.95956545200005,13.041254379000065],[99.98857476400008,13.041509652000059],[99.98741000300004,13.055821602000037],[99.98380271800005,13.073317290000034]]]}},{"type":"Feature","properties":{"code":"760805","name":"พุสวรรค์","parentCode":"7608"},"geometry":{"type":"Polygon","coordinates":[[[99.72709981500009,13.031382135000058],[99.62474123800007,13.040223851000064],[99.66670968600005,12.987052726000059],[99.78302953600007,12.976151939000033],[99.73449969700005,13.029055808000066],[99.72709981500009,13.031382135000058]]]}},{"type":"Feature","properties":{"code":"760512","name":"ปึกเตียน","parentCode":"7605"},"geometry":{"type":"Polygon","coordinates":[[[100.01744194300005,12.968036640000037],[99.99597982200004,12.922712893000039],[100.02690628200008,12.917015787000025],[100.03753792700007,12.954191176000052],[100.01744194300005,12.968036640000037]]]}},{"type":"Feature","properties":{"code":"760612","name":"ไร่โคก","parentCode":"7606"},"geometry":{"type":"Polygon","coordinates":[[[99.84591246500008,13.130163982000056],[99.79586194000007,13.117652110000051],[99.79083158600008,13.095390724000026],[99.84674650300008,13.097509123000066],[99.84591246500008,13.130163982000056]]]}},{"type":"Feature","properties":{"code":"760407","name":"ไร่ใหม่พัฒนา","parentCode":"7604"},"geometry":{"type":"Polygon","coordinates":[[[99.85978426700007,12.678279094000061],[99.77969701600006,12.688472426000033],[99.75476142600007,12.618874598000048],[99.79238605900008,12.61564183400003],[99.83788976600005,12.629643986000076],[99.85978426700007,12.678279094000061]]]}},{"type":"Feature","properties":{"code":"760606","name":"ไร่มะขาม","parentCode":"7606"},"geometry":{"type":"Polygon","coordinates":[[[99.95985029400003,13.037679840000067],[99.92345062500004,13.033162176000076],[99.91891550600008,12.996484761000033],[99.93756543700005,12.994978080000067],[99.96097699900008,13.023342710000065],[99.95985029400003,13.037679840000067]]]}},{"type":"Feature","properties":{"code":"760614","name":"ไร่สะท้อน","parentCode":"7606"},"geometry":{"type":"Polygon","coordinates":[[[99.88270517900008,13.046001390000072],[99.85492112400004,13.040048814000045],[99.84641017200005,13.026494790000072],[99.85082412500009,13.00429861300006],[99.87154424800008,13.012840698000048],[99.88576902500006,13.044598583000038],[99.88270517900008,13.046001390000072]]]}},{"type":"Feature","properties":{"code":"760108","name":"ไร่ส้ม","parentCode":"7601"},"geometry":{"type":"Polygon","coordinates":[[[99.93362687200005,13.118501605000063],[99.90955947900005,13.121632098000077],[99.90373880200008,13.112508953000031],[99.89752687700008,13.088643392000051],[99.89938237600006,13.085151229000076],[99.91050083100004,13.097633450000046],[99.93434323600007,13.111244670000076],[99.93362687200005,13.118501605000063]]]}},{"type":"Feature","properties":{"code":"760613","name":"โรงเข้","parentCode":"7606"},"geometry":{"type":"Polygon","coordinates":[[[99.89004590700006,13.093661183000052],[99.86940636400004,13.093589927000039],[99.85602712800005,13.077811061000034],[99.88349378800007,13.056477174000065],[99.90279029500005,13.07540477200007],[99.89938237600006,13.085151229000076],[99.89752687700008,13.088643392000051],[99.89004590700006,13.093661183000052]]]}},{"type":"Feature","properties":{"code":"760202","name":"สระพัง","parentCode":"7602"},"geometry":{"type":"Polygon","coordinates":[[[99.81943332200007,13.274053171000048],[99.76229564600004,13.246231454000053],[99.86030882900008,13.244605060000026],[99.85651644400008,13.274082447000069],[99.81943332200007,13.274053171000048]]]}},{"type":"Feature","properties":{"code":"760115","name":"สำมะโรง","parentCode":"7601"},"geometry":{"type":"Polygon","coordinates":[[[100.00164806500004,13.090639030000034],[99.99572765800008,13.09339406500004],[99.98380271800005,13.073317290000034],[99.98741000300004,13.055821602000037],[100.00262028900005,13.06770754300004],[100.02407678100008,13.079447470000048],[100.00164806500004,13.090639030000034]]]}},{"type":"Feature","properties":{"code":"760408","name":"สามพระยา","parentCode":"7604"},"geometry":{"type":"Polygon","coordinates":[[[99.92623450300005,12.739414381000074],[99.88304674000005,12.747825767000052],[99.85978426700007,12.678279094000061],[99.83788976600005,12.629643986000076],[99.91939453300006,12.624881266000045],[99.92623450300005,12.739414381000074]]]}},{"type":"Feature","properties":{"code":"760605","name":"สมอพลือ","parentCode":"7606"},"geometry":{"type":"Polygon","coordinates":[[[99.96671397400007,13.066841170000032],[99.94529903200004,13.072313398000063],[99.94551720100009,13.07063149000004],[99.93684112300008,13.064287764000028],[99.95892715800005,13.049387827000032],[99.96671397400007,13.066841170000032]]]}},{"type":"Feature","properties":{"code":"760611","name":"สะพานไกร","parentCode":"7606"},"geometry":{"type":"Polygon","coordinates":[[[99.88535876000009,13.09942958800002],[99.86602476900003,13.096055378000074],[99.86940636400004,13.093589927000039],[99.89004590700006,13.093661183000052],[99.88535876000009,13.09942958800002]]]}},{"type":"Feature","properties":{"code":"760802","name":"สองพี่น้อง","parentCode":"7608"},"geometry":{"type":"Polygon","coordinates":[[[99.71595169200003,12.818381946000045],[99.68018008300004,12.88600272800005],[99.65314876000008,12.87631097600007],[99.54425171600008,12.909305086000074],[99.48622367700005,12.948858373000064],[99.49533776400006,12.911316761000023],[99.54229518700004,12.898954457000059],[99.58206946600006,12.853500944000075],[99.56335772700004,12.832343695000077],[99.59209444100009,12.793134670000029],[99.64533239800005,12.787666494000064],[99.71595169200003,12.818381946000045]]]}},{"type":"Feature","properties":{"code":"760604","name":"ตำหรุ","parentCode":"7606"},"geometry":{"type":"Polygon","coordinates":[[[99.91304590300007,13.042213961000073],[99.88576902500006,13.044598583000038],[99.87154424800008,13.012840698000048],[99.87534920700006,13.003671389000033],[99.89483066100007,13.009055003000071],[99.89360417000006,13.016027983000072],[99.91470999000006,13.039215113000068],[99.91586061400005,13.040970669000046],[99.91304590300007,13.042213961000073]]]}},{"type":"Feature","properties":{"code":"760616","name":"ท่าช้าง","parentCode":"7606"},"geometry":{"type":"Polygon","coordinates":[[[99.91717034600003,13.05937782500007],[99.90279029500005,13.07540477200007],[99.88349378800007,13.056477174000065],[99.88270517900008,13.046001390000072],[99.88576902500006,13.044598583000038],[99.91304590300007,13.042213961000073],[99.91717034600003,13.05937782500007]]]}},{"type":"Feature","properties":{"code":"760502","name":"ท่าคอย","parentCode":"7605"},"geometry":{"type":"Polygon","coordinates":[[[99.88668972500005,12.973525640000048],[99.86654192100008,12.975005208000027],[99.85521347000008,12.91519441500003],[99.86213004400008,12.865886725000053],[99.91343026600003,12.90551283700006],[99.87890870900009,12.920922274000077],[99.88668972500005,12.973525640000048]]]}},{"type":"Feature","properties":{"code":"760514","name":"ท่าแลง","parentCode":"7605"},"geometry":{"type":"Polygon","coordinates":[[[99.87534920700006,13.003671389000033],[99.87154424800008,13.012840698000048],[99.85082412500009,13.00429861300006],[99.78302953600007,12.976151939000033],[99.78997202900007,12.957945362000032],[99.84494745200004,12.910823852000021],[99.85521347000008,12.91519441500003],[99.86654192100008,12.975005208000027],[99.87534920700006,13.003671389000033]]]}},{"type":"Feature","properties":{"code":"760506","name":"ท่าไม้รวก","parentCode":"7605"},"geometry":{"type":"Polygon","coordinates":[[[99.85521347000008,12.91519441500003],[99.84494745200004,12.910823852000021],[99.73508818900007,12.877711874000056],[99.76205638500005,12.84179124700006],[99.78943040500008,12.83232300800006],[99.79810713900008,12.775321948000055],[99.84296114600005,12.777382722000027],[99.85803614100007,12.831452970000043],[99.86213004400008,12.865886725000053],[99.85521347000008,12.91519441500003]]]}},{"type":"Feature","properties":{"code":"760709","name":"ท่าแร้ง","parentCode":"7607"},"geometry":{"type":"Polygon","coordinates":[[[100.00351269200007,13.178198225000074],[99.96804635500007,13.173751781000021],[99.94975312500009,13.15959485600007],[99.95101394500006,13.132726010000056],[99.95549227900005,13.137853624000059],[99.99681153800003,13.169635312000025],[100.00351269200007,13.178198225000074]]]}},{"type":"Feature","properties":{"code":"760710","name":"ท่าแร้งออก","parentCode":"7607"},"geometry":{"type":"Polygon","coordinates":[[[99.99681153800003,13.169635312000025],[99.95549227900005,13.137853624000059],[99.99221260700006,13.145590023000068],[99.99681153800003,13.169635312000025]]]}},{"type":"Feature","properties":{"code":"760101","name":"ท่าราบ","parentCode":"7601"},"geometry":{"type":"Polygon","coordinates":[[[99.95763454400009,13.097649231000048],[99.95744012800009,13.109682006000071],[99.95392322100008,13.112151853000057],[99.94106636400005,13.101003194000043],[99.94370485500008,13.085542025000052],[99.95633267800008,13.088168721000045],[99.95763454400009,13.097649231000048]]]}},{"type":"Feature","properties":{"code":"760607","name":"ท่าเสน","parentCode":"7606"},"geometry":{"type":"Polygon","coordinates":[[[99.95892715800005,13.049387827000032],[99.93684112300008,13.064287764000028],[99.91586061400005,13.040970669000046],[99.91470999000006,13.039215113000068],[99.92345062500004,13.033162176000076],[99.95985029400003,13.037679840000067],[99.95956545200005,13.041254379000065],[99.95892715800005,13.049387827000032]]]}},{"type":"Feature","properties":{"code":"760304","name":"ท่าตะคร้อ","parentCode":"7603"},"geometry":{"type":"Polygon","coordinates":[[[99.78748902500007,13.151026720000061],[99.78387705300008,13.163115899000047],[99.70200216900008,13.121537182000054],[99.72709981500009,13.031382135000058],[99.73449969700005,13.029055808000066],[99.74584371600008,13.040751779000061],[99.75186044100008,13.054856397000037],[99.76223768400007,13.072227805000068],[99.79083158600008,13.095390724000026],[99.79586194000007,13.117652110000051],[99.78748902500007,13.151026720000061]]]}},{"type":"Feature","properties":{"code":"760501","name":"ท่ายาง","parentCode":"7605"},"geometry":{"type":"Polygon","coordinates":[[[99.91891550600008,12.996484761000033],[99.89360417000006,13.016027983000072],[99.89483066100007,13.009055003000071],[99.88668972500005,12.973525640000048],[99.87890870900009,12.920922274000077],[99.91343026600003,12.90551283700006],[99.92034343600005,12.904923534000034],[99.92279982600007,12.928406745000075],[99.92643645400005,12.962536145000058],[99.91891550600008,12.996484761000033]]]}},{"type":"Feature","properties":{"code":"760617","name":"ถ้ำรงค์","parentCode":"7606"},"geometry":{"type":"Polygon","coordinates":[[[99.92345062500004,13.033162176000076],[99.91470999000006,13.039215113000068],[99.89360417000006,13.016027983000072],[99.91891550600008,12.996484761000033],[99.92345062500004,13.033162176000076]]]}},{"type":"Feature","properties":{"code":"760204","name":"ทับคาง","parentCode":"7602"},"geometry":{"type":"Polygon","coordinates":[[[99.86382089000006,13.217398801000058],[99.75007378500004,13.212128392000068],[99.79060260400007,13.180187749000027],[99.84508861400008,13.190653805000068],[99.86382089000006,13.217398801000058]]]}},{"type":"Feature","properties":{"code":"760105","name":"ธงชัย","parentCode":"7601"},"geometry":{"type":"Polygon","coordinates":[[[99.92846177300004,13.186376823000046],[99.90239606700004,13.180658899000036],[99.90401128600007,13.17717540800004],[99.89819795800008,13.141283956000052],[99.91057996800004,13.126153604000024],[99.90955947900005,13.121632098000077],[99.93362687200005,13.118501605000063],[99.94503070600007,13.120612206000033],[99.92846177300004,13.186376823000046]]]}},{"type":"Feature","properties":{"code":"760112","name":"ต้นมะม่วง","parentCode":"7601"},"geometry":{"type":"Polygon","coordinates":[[[99.95633267800008,13.088168721000045],[99.94370485500008,13.085542025000052],[99.94529903200004,13.072313398000063],[99.96671397400007,13.066841170000032],[99.97250758000007,13.072334571000056],[99.95633267800008,13.088168721000045]]]}},{"type":"Feature","properties":{"code":"760119","name":"ต้นมะพร้าว","parentCode":"7601"},"geometry":{"type":"Polygon","coordinates":[[[99.87965777100004,13.145821072000047],[99.87546673400004,13.16240483300004],[99.85541517000007,13.160090750000052],[99.84150925100005,13.152690305000021],[99.84571299000004,13.135924781000028],[99.87965777100004,13.145821072000047]]]}},{"type":"Feature","properties":{"code":"760803","name":"วังจันทร์","parentCode":"7608"},"geometry":{"type":"Polygon","coordinates":[[[99.78302953600007,12.976151939000033],[99.66670968600005,12.987052726000059],[99.71667648600004,12.93091499600007],[99.73508818900007,12.877711874000056],[99.79126548300007,12.920757311000045],[99.78997202900007,12.957945362000032],[99.78302953600007,12.976151939000033]]]}},{"type":"Feature","properties":{"code":"760507","name":"วังไคร้","parentCode":"7605"},"geometry":{"type":"Polygon","coordinates":[[[99.84494745200004,12.910823852000021],[99.78997202900007,12.957945362000032],[99.79126548300007,12.920757311000045],[99.73508818900007,12.877711874000056],[99.84494745200004,12.910823852000021]]]}},{"type":"Feature","properties":{"code":"760120","name":"วังตะโก","parentCode":"7601"},"geometry":{"type":"Polygon","coordinates":[[[99.89819795800008,13.141283956000052],[99.87965777100004,13.145821072000047],[99.89260107600006,13.123365318000026],[99.91057996800004,13.126153604000024],[99.89819795800008,13.141283956000052]]]}},{"type":"Feature","properties":{"code":"760109","name":"เวียงคอย","parentCode":"7601"},"geometry":{"type":"Polygon","coordinates":[[[99.91057996800004,13.126153604000024],[99.89260107600006,13.123365318000026],[99.89302873300005,13.114743780000026],[99.90373880200008,13.112508953000031],[99.90955947900005,13.121632098000077],[99.91057996800004,13.126153604000024]]]}},{"type":"Feature","properties":{"code":"760302","name":"ยางน้ำกลัดเหนือ","parentCode":"7603"},"geometry":{"type":"Polygon","coordinates":[[[99.52929815300007,13.207145706000063],[99.50666288300005,13.180379064000022],[99.44248258900006,13.183454955000059],[99.35123799600007,13.243744185000025],[99.32331207500005,13.222852641000031],[99.32493894000004,13.178546079000057],[99.27191953800008,13.148793589000036],[99.21003922400007,13.208078904000047],[99.13917155600006,13.205648796000048],[99.12970038300006,13.095980490000045],[99.09952668500006,13.072752298000069],[99.18753519000006,12.975581283000054],[99.27101831900006,13.034106587000053],[99.24086065600005,13.089896016000068],[99.33823960700005,13.143349927000031],[99.43043155700008,13.067670770000063],[99.44603618400004,13.099577107000073],[99.55403564200009,13.12550132900003],[99.60436800200006,13.090077680000036],[99.66181474600006,13.107423278000056],[99.68367083100009,13.13837611200006],[99.66162021600007,13.211477367000043],[99.59292232700005,13.19825052400006],[99.52929815300007,13.207145706000063]]]}},{"type":"Feature","properties":{"code":"760303","name":"ยางน้ำกลัดใต้","parentCode":"7603"},"geometry":{"type":"Polygon","coordinates":[[[99.68367083100009,13.13837611200006],[99.66181474600006,13.107423278000056],[99.60436800200006,13.090077680000036],[99.55403564200009,13.12550132900003],[99.44603618400004,13.099577107000073],[99.43043155700008,13.067670770000063],[99.45573452200006,13.018076498000028],[99.55350277800005,13.063092836000067],[99.57342752400007,13.026913123000043],[99.60658661100007,13.065927370000054],[99.62474123800007,13.040223851000064],[99.72709981500009,13.031382135000058],[99.70200216900008,13.121537182000054],[99.68367083100009,13.13837611200006]]]}},{"type":"Feature","properties":{"code":"760503","name":"ยางหย่อง","parentCode":"7605"},"geometry":{"type":"Polygon","coordinates":[[[99.89483066100007,13.009055003000071],[99.87534920700006,13.003671389000033],[99.86654192100008,12.975005208000027],[99.88668972500005,12.973525640000048],[99.89483066100007,13.009055003000071]]]}}]}