{"type":"FeatureCollection","features":[{"type":"Feature","properties":{"code":"770302","name":"อ่างทอง","parentCode":"7703"},"geometry":{"type":"Polygon","coordinates":[[[99.60879926000007,11.435373495000022],[99.52994392400007,11.464502150000044],[99.45705322000003,11.512907704000042],[99.41956392700007,11.476039583000045],[99.43766935700006,11.445984621000036],[99.55141781200007,11.414869638000027],[99.59942404200007,11.405019768000045],[99.60879926000007,11.435373495000022]]]}},{"type":"Feature","properties":{"code":"770105","name":"อ่าวน้อย","parentCode":"7701"},"geometry":{"type":"Polygon","coordinates":[[[99.82795343900005,11.931263523000041],[99.77696971900008,11.942047535000029],[99.73821305100006,11.974715588000038],[99.65204623900007,11.978452281000045],[99.59307302500008,11.955972467000038],[99.58826940500006,11.872099630000037],[99.62481970500005,11.831554586000038],[99.66068691700008,11.827231894000022],[99.76528819300006,11.847913310000024],[99.79730656600003,11.839226212000028],[99.82439700800006,11.839799460000052],[99.81271656700005,11.88692880800005],[99.82795343900005,11.931263523000041]]]}},{"type":"Feature","properties":{"code":"770502","name":"บางสะพาน","parentCode":"7705"},"geometry":{"type":"Polygon","coordinates":[[[99.48625321100008,11.127905834000046],[99.41094684300003,11.140684854000028],[99.40146537200008,11.133884235000039],[99.38952449100003,11.097145546000036],[99.46544581100005,11.06352133200005],[99.49263719500004,11.086489146000076],[99.48625321100008,11.127905834000046]]]}},{"type":"Feature","properties":{"code":"770106","name":"บ่อนอก","parentCode":"7701"},"geometry":{"type":"Polygon","coordinates":[[[99.90951492600004,12.043408615000033],[99.87255678900004,12.061202527000034],[99.86598815400004,12.022474886000055],[99.82061509600004,12.04117959000007],[99.72628251300006,12.029700275000039],[99.59360866000009,11.97753328400006],[99.59307302500008,11.955972467000038],[99.65204623900007,11.978452281000045],[99.73821305100006,11.974715588000038],[99.77696971900008,11.942047535000029],[99.82795343900005,11.931263523000041],[99.90951492600004,12.043408615000033]]]}},{"type":"Feature","properties":{"code":"770707","name":"บึงนคร","parentCode":"7707"},"geometry":{"type":"Polygon","coordinates":[[[99.79793334600004,12.488751168000022],[99.76352770400007,12.508678816000042],[99.65011298800005,12.509060452000028],[99.62227699900006,12.538678742000059],[99.64883573700007,12.487245183000027],[99.60152676100006,12.418948525000076],[99.55789378800006,12.389484528000025],[99.61909498500006,12.344987619000051],[99.70010000500008,12.405776810000077],[99.71298757000005,12.38877599500006],[99.80446175700007,12.469781303000048],[99.79793334600004,12.488751168000022]]]}},{"type":"Feature","properties":{"code":"770405","name":"ชัยเกษม","parentCode":"7704"},"geometry":{"type":"Polygon","coordinates":[[[99.55141781200007,11.414869638000027],[99.43766935700006,11.445984621000036],[99.41956392700007,11.476039583000045],[99.39532785300008,11.382858093000038],[99.47454866600003,11.310458719000053],[99.50061829900005,11.309391319000042],[99.55302528900006,11.38657814000004],[99.55141781200007,11.414869638000027]]]}},{"type":"Feature","properties":{"code":"770505","name":"ไชยราช","parentCode":"7705"},"geometry":{"type":"Polygon","coordinates":[[[99.34038478200006,11.033130721000077],[99.30955760200004,11.020156860000043],[99.20175950600009,11.096470372000056],[99.15377956800006,11.033709260000023],[99.16873219000007,11.003546448000066],[99.25849291200007,10.96535085100004],[99.35882281000005,10.970250389000057],[99.34038478200006,11.033130721000077]]]}},{"type":"Feature","properties":{"code":"770504","name":"ช้างแรก","parentCode":"7705"},"geometry":{"type":"Polygon","coordinates":[[[99.40146537200008,11.133884235000039],[99.34115412700004,11.191748046000043],[99.31156047000007,11.174742810000055],[99.26698763600007,11.219202396000071],[99.22761309400005,11.112075743000048],[99.20175950600009,11.096470372000056],[99.30955760200004,11.020156860000043],[99.34038478200006,11.033130721000077],[99.40713076300005,11.045580242000028],[99.38952449100003,11.097145546000036],[99.40146537200008,11.133884235000039]]]}},{"type":"Feature","properties":{"code":"770204","name":"ดอนยายหนู","parentCode":"7702"},"geometry":{"type":"Polygon","coordinates":[[[99.95896154600007,12.174717731000044],[99.95198866300007,12.187007496000035],[99.89884363400006,12.14260627300007],[99.94157864300007,12.092302749000055],[99.95896154600007,12.174717731000044]]]}},{"type":"Feature","properties":{"code":"770207","name":"หาดขาม","parentCode":"7702"},"geometry":{"type":"Polygon","coordinates":[[[99.67870176100007,12.231585246000066],[99.59509598300008,12.238717026000074],[99.57049964900006,12.144876776000046],[99.53339991700005,12.06553880100006],[99.53619476900008,12.01596439900004],[99.59360866000009,11.97753328400006],[99.72628251300006,12.029700275000039],[99.75030844700007,12.06725666400007],[99.81687623300007,12.062315994000073],[99.83319285500005,12.083567041000038],[99.73450007900004,12.191666435000059],[99.67985654600005,12.197685302000025],[99.67870176100007,12.231585246000066]]]}},{"type":"Feature","properties":{"code":"770703","name":"หินเหล็กไฟ","parentCode":"7707"},"geometry":{"type":"Polygon","coordinates":[[[99.91939453300006,12.624881266000045],[99.83788976600005,12.629643986000076],[99.79238605900008,12.61564183400003],[99.79071301900007,12.590066335000074],[99.82198841500008,12.566891586000054],[99.92559639000007,12.569062454000061],[99.91939453300006,12.624881266000045]]]}},{"type":"Feature","properties":{"code":"770701","name":"หัวหิน","parentCode":"7707"},"geometry":{"type":"Polygon","coordinates":[[[99.95611290700003,12.632498751000071],[99.91939453300006,12.624881266000045],[99.92559639000007,12.569062454000061],[99.92961929200004,12.553668190000053],[99.96483042000006,12.55112379600007],[99.95611290700003,12.632498751000071]]]}},{"type":"Feature","properties":{"code":"770104","name":"ห้วยทราย","parentCode":"7701"},"geometry":{"type":"Polygon","coordinates":[[[99.74677712800008,11.706527271000027],[99.70786008300007,11.746020558000055],[99.64379280400004,11.769592690000025],[99.63623453300005,11.727320346000056],[99.58810730000005,11.688256160000037],[99.71539363300008,11.655577230000063],[99.74677712800008,11.706527271000027]]]}},{"type":"Feature","properties":{"code":"770706","name":"ห้วยสัตว์ใหญ่","parentCode":"7707"},"geometry":{"type":"Polygon","coordinates":[[[99.62227699900006,12.538678742000059],[99.62822416500006,12.599673951000057],[99.58905786800005,12.570660929000042],[99.51472486700004,12.563694338000062],[99.49736277900007,12.591385891000073],[99.43858302600006,12.582979351000063],[99.41780642700007,12.525594266000041],[99.42500661900004,12.448426752000046],[99.46052925000004,12.467351703000077],[99.55547642100004,12.451430362000053],[99.60152676100006,12.418948525000076],[99.64883573700007,12.487245183000027],[99.62227699900006,12.538678742000059]]]}},{"type":"Feature","properties":{"code":"770305","name":"ห้วยยาง","parentCode":"7703"},"geometry":{"type":"Polygon","coordinates":[[[99.71539363300008,11.655577230000063],[99.58810730000005,11.688256160000037],[99.56571565500008,11.626758063000068],[99.58833926100004,11.613097296000035],[99.67092044200007,11.581695745000047],[99.71539363300008,11.655577230000063]]]}},{"type":"Feature","properties":{"code":"770401","name":"กำเนิดนพคุณ","parentCode":"7704"},"geometry":{"type":"Polygon","coordinates":[[[99.50061829900005,11.309391319000042],[99.47454866600003,11.310458719000053],[99.47667453500009,11.236657907000051],[99.51066734900007,11.209051205000037],[99.53531775600004,11.275863209000022],[99.50285327400007,11.267699931000038],[99.50061829900005,11.309391319000042]]]}},{"type":"Feature","properties":{"code":"770609","name":"เขาจ้าว","parentCode":"7706"},"geometry":{"type":"Polygon","coordinates":[[[99.80466069400006,12.48785461600005],[99.79793334600004,12.488751168000022],[99.80446175700007,12.469781303000048],[99.71298757000005,12.38877599500006],[99.70010000500008,12.405776810000077],[99.61909498500006,12.344987619000051],[99.55789378800006,12.389484528000025],[99.60152676100006,12.418948525000076],[99.55547642100004,12.451430362000053],[99.46052925000004,12.467351703000077],[99.42500661900004,12.448426752000046],[99.44354432600005,12.351334080000072],[99.52409552900008,12.332883971000058],[99.68668468300007,12.324744937000048],[99.73143288300008,12.347965465000073],[99.79721172900008,12.41164529300005],[99.81351506100003,12.460750448000056],[99.80592094500008,12.486034806000077],[99.80466069400006,12.48785461600005]]]}},{"type":"Feature","properties":{"code":"770203","name":"เขาแดง","parentCode":"7702"},"geometry":{"type":"Polygon","coordinates":[[[99.94963382700007,12.08004611900003],[99.96951978300007,12.134294707000038],[100.01975007000004,12.190684375000046],[99.95896154600007,12.174717731000044],[99.94157864300007,12.092302749000055],[99.94963382700007,12.08004611900003]]]}},{"type":"Feature","properties":{"code":"770304","name":"เขาล้าน","parentCode":"7703"},"geometry":{"type":"Polygon","coordinates":[[[99.56571565500008,11.626758063000068],[99.51773456500007,11.636264571000027],[99.46291256800004,11.589249753000047],[99.54943583700003,11.557677021000075],[99.60038134600006,11.497139081000057],[99.62070161300005,11.529190583000059],[99.58932869800003,11.568005275000075],[99.58833926100004,11.613097296000035],[99.56571565500008,11.626758063000068]]]}},{"type":"Feature","properties":{"code":"770602","name":"เขาน้อย","parentCode":"7706"},"geometry":{"type":"Polygon","coordinates":[[[99.89189623500005,12.455951088000063],[99.81831761100005,12.468450956000027],[99.83196309500005,12.417524072000049],[99.90514379600006,12.360800427000072],[99.92085227900009,12.378223363000075],[99.92461500500008,12.417512609000028],[99.89189623500005,12.455951088000063]]]}},{"type":"Feature","properties":{"code":"770103","name":"คลองวาฬ","parentCode":"7701"},"geometry":{"type":"Polygon","coordinates":[[[99.80371450800004,11.761534027000039],[99.64723973800005,11.798185402000058],[99.64379280400004,11.769592690000025],[99.70786008300007,11.746020558000055],[99.74677712800008,11.706527271000027],[99.80371450800004,11.761534027000039]]]}},{"type":"Feature","properties":{"code":"770102","name":"เกาะหลัก","parentCode":"7701"},"geometry":{"type":"Polygon","coordinates":[[[99.79730656600003,11.839226212000028],[99.76528819300006,11.847913310000024],[99.66068691700008,11.827231894000022],[99.64723973800005,11.798185402000058],[99.80371450800004,11.761534027000039],[99.80262412700006,11.796582620000038],[99.77085221000004,11.783404043000075],[99.79730656600003,11.839226212000028]]]}},{"type":"Feature","properties":{"code":"770201","name":"กุยบุรี","parentCode":"7702"},"geometry":{"type":"Polygon","coordinates":[[[99.86703851500005,12.102882038000075],[99.83319285500005,12.083567041000038],[99.81687623300007,12.062315994000073],[99.75030844700007,12.06725666400007],[99.72628251300006,12.029700275000039],[99.82061509600004,12.04117959000007],[99.86598815400004,12.022474886000055],[99.87255678900004,12.061202527000034],[99.86703851500005,12.102882038000075]]]}},{"type":"Feature","properties":{"code":"770202","name":"กุยเหนือ","parentCode":"7702"},"geometry":{"type":"Polygon","coordinates":[[[99.89884363400006,12.14260627300007],[99.86703851500005,12.102882038000075],[99.87255678900004,12.061202527000034],[99.90951492600004,12.043408615000033],[99.94963382700007,12.08004611900003],[99.94157864300007,12.092302749000055],[99.89884363400006,12.14260627300007]]]}},{"type":"Feature","properties":{"code":"770407","name":"แม่รำพึง","parentCode":"7704"},"geometry":{"type":"Polygon","coordinates":[[[99.52577624100007,11.198816141000066],[99.57987789100008,11.212346362000062],[99.55000125800007,11.277680757000041],[99.53531775600004,11.275863209000022],[99.51066734900007,11.209051205000037],[99.52577624100007,11.198816141000066]]]}},{"type":"Feature","properties":{"code":"770303","name":"นาหูกวาง","parentCode":"7703"},"geometry":{"type":"Polygon","coordinates":[[[99.60038134600006,11.497139081000057],[99.54943583700003,11.557677021000075],[99.46291256800004,11.589249753000047],[99.45705322000003,11.512907704000042],[99.52994392400007,11.464502150000044],[99.60879926000007,11.435373495000022],[99.63090931900007,11.490955532000044],[99.60038134600006,11.497139081000057]]]}},{"type":"Feature","properties":{"code":"770702","name":"หนองแก","parentCode":"7707"},"geometry":{"type":"Polygon","coordinates":[[[99.96483042000006,12.55112379600007],[99.92961929200004,12.553668190000053],[99.93579888900007,12.455630430000042],[99.96460198900007,12.44727604700006],[99.98333366800006,12.449546819000034],[99.96483042000006,12.55112379600007]]]}},{"type":"Feature","properties":{"code":"770704","name":"หนองพลับ","parentCode":"7707"},"geometry":{"type":"Polygon","coordinates":[[[99.75476142600007,12.618874598000048],[99.71881280400004,12.60116171900006],[99.68434974500008,12.635231579000049],[99.61623143500003,12.640737780000052],[99.62822416500006,12.599673951000057],[99.62227699900006,12.538678742000059],[99.65011298800005,12.509060452000028],[99.76352770400007,12.508678816000042],[99.79793334600004,12.488751168000022],[99.80466069400006,12.48785461600005],[99.76877169300008,12.523724439000034],[99.79071301900007,12.590066335000074],[99.79238605900008,12.61564183400003],[99.75476142600007,12.618874598000048]]]}},{"type":"Feature","properties":{"code":"770607","name":"หนองตาแต้ม","parentCode":"7706"},"geometry":{"type":"Polygon","coordinates":[[[99.81831761100005,12.468450956000027],[99.80592094500008,12.486034806000077],[99.81351506100003,12.460750448000056],[99.79721172900008,12.41164529300005],[99.73143288300008,12.347965465000073],[99.68668468300007,12.324744937000048],[99.84811642600005,12.343948601000022],[99.89442475500005,12.338696041000048],[99.90514379600006,12.360800427000072],[99.83196309500005,12.417524072000049],[99.81831761100005,12.468450956000027]]]}},{"type":"Feature","properties":{"code":"770604","name":"ปากน้ำปราณ","parentCode":"7706"},"geometry":{"type":"Polygon","coordinates":[[[99.98333366800006,12.449546819000034],[99.96460198900007,12.44727604700006],[99.95726013400008,12.388504364000028],[99.95952959400006,12.33710770500005],[99.99419212800007,12.330985159000022],[99.98333366800006,12.449546819000034]]]}},{"type":"Feature","properties":{"code":"770501","name":"ปากแพรก","parentCode":"7705"},"geometry":{"type":"Polygon","coordinates":[[[99.49263719500004,11.086489146000076],[99.46544581100005,11.06352133200005],[99.38952449100003,11.097145546000036],[99.40713076300005,11.045580242000028],[99.47033187200003,11.034521400000074],[99.49450388300005,11.071334426000021],[99.49263719500004,11.086489146000076]]]}},{"type":"Feature","properties":{"code":"770402","name":"พงศ์ประศาสน์","parentCode":"7704"},"geometry":{"type":"Polygon","coordinates":[[[99.47667453500009,11.236657907000051],[99.44691312300006,11.232417560000044],[99.41094684300003,11.140684854000028],[99.48625321100008,11.127905834000046],[99.52577624100007,11.198816141000066],[99.51066734900007,11.209051205000037],[99.47667453500009,11.236657907000051]]]}},{"type":"Feature","properties":{"code":"770101","name":"ประจวบคีรีขันธ์","parentCode":"7701"},"geometry":{"type":"Polygon","coordinates":[[[99.82439700800006,11.839799460000052],[99.79730656600003,11.839226212000028],[99.77085221000004,11.783404043000075],[99.80262412700006,11.796582620000038],[99.82439700800006,11.839799460000052]]]}},{"type":"Feature","properties":{"code":"770601","name":"ปราณบุรี","parentCode":"7706"},"geometry":{"type":"Polygon","coordinates":[[[99.95726013400008,12.388504364000028],[99.92085227900009,12.378223363000075],[99.90514379600006,12.360800427000072],[99.89442475500005,12.338696041000048],[99.93921827600008,12.329455359000065],[99.95952959400006,12.33710770500005],[99.95726013400008,12.388504364000028]]]}},{"type":"Feature","properties":{"code":"770803","name":"ไร่เก่า","parentCode":"7708"},"geometry":{"type":"Polygon","coordinates":[[[99.93564433100005,12.239212270000053],[99.91086342600005,12.228102439000054],[99.76835611900003,12.268449511000028],[99.71867092300005,12.257310317000076],[99.69371501300009,12.281667412000047],[99.53570992900006,12.245022767000023],[99.48201873100004,12.257617346000075],[99.49632072200006,12.197317572000031],[99.47241441300008,12.135753797000064],[99.57049964900006,12.144876776000046],[99.59509598300008,12.238717026000074],[99.67870176100007,12.231585246000066],[99.73028715900006,12.245595976000061],[99.82538121300007,12.234261411000034],[99.89101384700007,12.206004565000057],[99.93963769100009,12.207925456000055],[99.93564433100005,12.239212270000053]]]}},{"type":"Feature","properties":{"code":"770805","name":"ไร่ใหม่","parentCode":"7708"},"geometry":{"type":"Polygon","coordinates":[[[99.93963769100009,12.207925456000055],[99.89101384700007,12.206004565000057],[99.82538121300007,12.234261411000034],[99.73028715900006,12.245595976000061],[99.67870176100007,12.231585246000066],[99.67985654600005,12.197685302000025],[99.73450007900004,12.191666435000059],[99.80824846500008,12.207984261000036],[99.87641849200008,12.177384261000043],[99.95198866300007,12.187007496000035],[99.93963769100009,12.207925456000055]]]}},{"type":"Feature","properties":{"code":"770403","name":"ร่อนทอง","parentCode":"7704"},"geometry":{"type":"Polygon","coordinates":[[[99.39532785300008,11.382858093000038],[99.31192143900006,11.317323948000023],[99.31072553200005,11.263822179000044],[99.36541073000006,11.238146955000047],[99.44691312300006,11.232417560000044],[99.47667453500009,11.236657907000051],[99.47454866600003,11.310458719000053],[99.39532785300008,11.382858093000038]]]}},{"type":"Feature","properties":{"code":"770306","name":"แสงอรุณ","parentCode":"7703"},"geometry":{"type":"Polygon","coordinates":[[[99.67092044200007,11.581695745000047],[99.58833926100004,11.613097296000035],[99.58932869800003,11.568005275000075],[99.62070161300005,11.529190583000059],[99.65776389000007,11.55716337900003],[99.67092044200007,11.581695745000047]]]}},{"type":"Feature","properties":{"code":"770503","name":"ทรายทอง","parentCode":"7705"},"geometry":{"type":"Polygon","coordinates":[[[99.50256046200008,10.991796295000029],[99.49450388300005,11.071334426000021],[99.47033187200003,11.034521400000074],[99.40713076300005,11.045580242000028],[99.34038478200006,11.033130721000077],[99.35882281000005,10.970250389000057],[99.40692531200006,10.954766665000022],[99.44819749600003,10.977409563000037],[99.50256046200008,10.991796295000029]]]}},{"type":"Feature","properties":{"code":"770804","name":"ศาลาลัย","parentCode":"7708"},"geometry":{"type":"Polygon","coordinates":[[[99.92328758500008,12.25575352900006],[99.82225522000005,12.276642540000068],[99.79047622200005,12.305559988000027],[99.71868451300008,12.288904390000027],[99.67925769200008,12.302016305000052],[99.60656909100004,12.27928828100005],[99.54633433000004,12.286853012000051],[99.48432810300005,12.273208359000023],[99.48201873100004,12.257617346000075],[99.53570992900006,12.245022767000023],[99.69371501300009,12.281667412000047],[99.71867092300005,12.257310317000076],[99.76835611900003,12.268449511000028],[99.91086342600005,12.228102439000054],[99.93564433100005,12.239212270000053],[99.92328758500008,12.25575352900006]]]}},{"type":"Feature","properties":{"code":"770206","name":"สามกระทาย","parentCode":"7702"},"geometry":{"type":"Polygon","coordinates":[[[99.95198866300007,12.187007496000035],[99.87641849200008,12.177384261000043],[99.80824846500008,12.207984261000036],[99.73450007900004,12.191666435000059],[99.83319285500005,12.083567041000038],[99.86703851500005,12.102882038000075],[99.89884363400006,12.14260627300007],[99.95198866300007,12.187007496000035]]]}},{"type":"Feature","properties":{"code":"770801","name":"สามร้อยยอด","parentCode":"7708"},"geometry":{"type":"Polygon","coordinates":[[[99.99419212800007,12.330985159000022],[99.95952959400006,12.33710770500005],[99.93921827600008,12.329455359000065],[99.92328758500008,12.25575352900006],[99.93564433100005,12.239212270000053],[99.93963769100009,12.207925456000055],[99.95198866300007,12.187007496000035],[99.95896154600007,12.174717731000044],[100.01975007000004,12.190684375000046],[99.97389364700007,12.268781615000023],[99.99419212800007,12.330985159000022]]]}},{"type":"Feature","properties":{"code":"770802","name":"ศิลาลอย","parentCode":"7708"},"geometry":{"type":"Polygon","coordinates":[[[99.68668468300007,12.324744937000048],[99.52409552900008,12.332883971000058],[99.44354432600005,12.351334080000072],[99.46150507200008,12.286306963000072],[99.48432810300005,12.273208359000023],[99.54633433000004,12.286853012000051],[99.60656909100004,12.27928828100005],[99.67925769200008,12.302016305000052],[99.71868451300008,12.288904390000027],[99.79047622200005,12.305559988000027],[99.82225522000005,12.276642540000068],[99.92328758500008,12.25575352900006],[99.93921827600008,12.329455359000065],[99.89442475500005,12.338696041000048],[99.84811642600005,12.343948601000022],[99.68668468300007,12.324744937000048]]]}},{"type":"Feature","properties":{"code":"770301","name":"ทับสะแก","parentCode":"7703"},"geometry":{"type":"Polygon","coordinates":[[[99.65776389000007,11.55716337900003],[99.62070161300005,11.529190583000059],[99.60038134600006,11.497139081000057],[99.63090931900007,11.490955532000044],[99.65776389000007,11.55716337900003]]]}},{"type":"Feature","properties":{"code":"770705","name":"ทับใต้","parentCode":"7707"},"geometry":{"type":"Polygon","coordinates":[[[99.92559639000007,12.569062454000061],[99.82198841500008,12.566891586000054],[99.79071301900007,12.590066335000074],[99.76877169300008,12.523724439000034],[99.80466069400006,12.48785461600005],[99.80592094500008,12.486034806000077],[99.81831761100005,12.468450956000027],[99.89189623500005,12.455951088000063],[99.93579888900007,12.455630430000042],[99.92961929200004,12.553668190000053],[99.92559639000007,12.569062454000061]]]}},{"type":"Feature","properties":{"code":"770404","name":"ธงชัย","parentCode":"7704"},"geometry":{"type":"Polygon","coordinates":[[[99.59942404200007,11.405019768000045],[99.55141781200007,11.414869638000027],[99.55302528900006,11.38657814000004],[99.50061829900005,11.309391319000042],[99.50285327400007,11.267699931000038],[99.53531775600004,11.275863209000022],[99.55000125800007,11.277680757000041],[99.59942404200007,11.405019768000045]]]}},{"type":"Feature","properties":{"code":"770406","name":"ทองมงคล","parentCode":"7704"},"geometry":{"type":"Polygon","coordinates":[[[99.44691312300006,11.232417560000044],[99.36541073000006,11.238146955000047],[99.31072553200005,11.263822179000044],[99.26698763600007,11.219202396000071],[99.31156047000007,11.174742810000055],[99.34115412700004,11.191748046000043],[99.40146537200008,11.133884235000039],[99.41094684300003,11.140684854000028],[99.44691312300006,11.232417560000044]]]}},{"type":"Feature","properties":{"code":"770608","name":"วังก์พง","parentCode":"7706"},"geometry":{"type":"Polygon","coordinates":[[[99.93579888900007,12.455630430000042],[99.89189623500005,12.455951088000063],[99.92461500500008,12.417512609000028],[99.92085227900009,12.378223363000075],[99.95726013400008,12.388504364000028],[99.96460198900007,12.44727604700006],[99.93579888900007,12.455630430000042]]]}}]}