{"type":"FeatureCollection","features":[{"type":"Feature","properties":{"code":"801902","name":"บ้านชะอวด","parentCode":"8019"},"geometry":{"type":"Polygon","coordinates":[[[99.95503783400005,8.072135782000032],[99.90900693800006,8.065130642000042],[99.91726589200005,8.043211249000024],[99.93807884800003,8.035487276000026],[99.95503783400005,8.072135782000032]]]}},{"type":"Feature","properties":{"code":"801901","name":"บ้านควนมุด","parentCode":"8019"},"geometry":{"type":"Polygon","coordinates":[[[99.91726589200005,8.043211249000024],[99.88961213800007,8.027249685000072],[99.93850376200004,8.029099651000024],[99.93807884800003,8.035487276000026],[99.91726589200005,8.043211249000024]]]}},{"type":"Feature","properties":{"code":"800604","name":"บ้านกลาง","parentCode":"8006"},"geometry":{"type":"Polygon","coordinates":[[[100.21439499900004,8.177756640000041],[100.18605604700008,8.151851090000036],[100.19136776900007,8.120496833000061],[100.21439499900004,8.177756640000041]]]}},{"type":"Feature","properties":{"code":"800202","name":"บ้านเกาะ","parentCode":"8002"},"geometry":{"type":"Polygon","coordinates":[[[99.89311363500008,8.536906213000066],[99.84835078600008,8.550319392000063],[99.73979686500007,8.533412081000051],[99.74491151100005,8.505186983000044],[99.79464503800006,8.530582060000029],[99.85347090200008,8.519892015000039],[99.89311363500008,8.536906213000066]]]}},{"type":"Feature","properties":{"code":"801702","name":"บ้านลำนาว","parentCode":"8017"},"geometry":{"type":"Polygon","coordinates":[[[99.54073797900008,8.053502017000028],[99.45483659100006,8.039853331000074],[99.41492290200006,7.999722251000037],[99.36980707200007,7.946576569000058],[99.36522460200007,7.944966600000043],[99.41985965100008,7.920485626000072],[99.43596893300008,7.87465885000006],[99.47219858400007,7.9042069000000765],[99.51834149000007,8.008590127000048],[99.54073797900008,8.053502017000028]]]}},{"type":"Feature","properties":{"code":"801207","name":"บ้านใหม่","parentCode":"8012"},"geometry":{"type":"Polygon","coordinates":[[[100.16447581800008,8.286747714000057],[100.11831648600008,8.306902341000068],[100.11890720600007,8.275415548000069],[100.16992091400004,8.26494989500003],[100.19589584100004,8.256051986000045],[100.19733600200004,8.279672617000074],[100.16447581800008,8.286747714000057]]]}},{"type":"Feature","properties":{"code":"801704","name":"บ้านนิคม","parentCode":"8017"},"geometry":{"type":"Polygon","coordinates":[[[99.54198529400009,7.908980290000045],[99.51834149000007,8.008590127000048],[99.47219858400007,7.9042069000000765],[99.53369371300005,7.877888207000069],[99.54198529400009,7.908980290000045]]]}},{"type":"Feature","properties":{"code":"800605","name":"บ้านเนิน","parentCode":"8006"},"geometry":{"type":"Polygon","coordinates":[[[100.22962725700006,8.197700632000021],[100.19888149400003,8.218447921000063],[100.15348055900006,8.17616386700007],[100.15055765800008,8.167005227000061],[100.18605604700008,8.151851090000036],[100.21439499900004,8.177756640000041],[100.23264479300008,8.197771164000073],[100.22962725700006,8.197700632000021]]]}},{"type":"Feature","properties":{"code":"801215","name":"บ้านเพิง","parentCode":"8012"},"geometry":{"type":"Polygon","coordinates":[[[100.26137638600005,8.310375384000054],[100.20987410900005,8.313799795000023],[100.20159885100009,8.30996560400007],[100.23282182600008,8.27043453400006],[100.26336204200004,8.30355815300004],[100.26137638600005,8.310375384000054]]]}},{"type":"Feature","properties":{"code":"801606","name":"บ้านราม","parentCode":"8016"},"geometry":{"type":"Polygon","coordinates":[[[100.26797109500006,8.092418339000062],[100.22412194200007,8.103617235000058],[100.21698409800007,8.07954681700005],[100.26349964900004,8.063751172000025],[100.26797109500006,8.092418339000062]]]}},{"type":"Feature","properties":{"code":"800706","name":"บ้านตูล","parentCode":"8007"},"geometry":{"type":"Polygon","coordinates":[[[100.02765194200003,8.126388604000056],[99.96106188000005,8.082881264000036],[99.95503783400005,8.072135782000032],[99.93807884800003,8.035487276000026],[99.93850376200004,8.029099651000024],[99.94592660600006,8.000637382000036],[99.96417483000005,8.00166861300005],[99.97040358600003,8.030301390000034],[100.01682122300008,8.023582172000033],[100.06307342000008,8.044577557000025],[100.05279155600005,8.053126657000064],[100.02765194200003,8.126388604000056]]]}},{"type":"Feature","properties":{"code":"800119","name":"บางจาก","parentCode":"8001"},"geometry":{"type":"Polygon","coordinates":[[[100.08897933000009,8.414544368000065],[100.08231901700003,8.421150862000047],[100.01820803000004,8.382435246000057],[100.05358538100006,8.336089048000076],[100.06550829700006,8.334866348000048],[100.08897933000009,8.414544368000065]]]}},{"type":"Feature","properties":{"code":"801701","name":"บางขัน","parentCode":"8017"},"geometry":{"type":"Polygon","coordinates":[[[99.52205995600008,8.123733686000037],[99.47510961800003,8.143146156000057],[99.43350570000007,8.122898145000022],[99.39166637100004,8.109850334000043],[99.38740973100005,8.063077928000041],[99.41492290200006,7.999722251000037],[99.45483659100006,8.039853331000074],[99.54073797900008,8.053502017000028],[99.54304805200007,8.060186882000039],[99.53765057100009,8.080060883000044],[99.52205995600008,8.123733686000037]]]}},{"type":"Feature","properties":{"code":"801607","name":"บางนบ","parentCode":"8016"},"geometry":{"type":"Polygon","coordinates":[[[100.26986286900006,8.112480107000067],[100.21868645100005,8.124108041000056],[100.21830625900009,8.113243386000022],[100.22412194200007,8.103617235000058],[100.26797109500006,8.092418339000062],[100.27441154900004,8.096916466000039],[100.26986286900006,8.112480107000067]]]}},{"type":"Feature","properties":{"code":"801212","name":"บางพระ","parentCode":"8012"},"geometry":{"type":"Polygon","coordinates":[[[100.24893452200007,8.348019727000064],[100.20448963600006,8.345127954000077],[100.19954637500007,8.333015921000026],[100.20987410900005,8.313799795000023],[100.26137638600005,8.310375384000054],[100.24893452200007,8.348019727000064]]]}},{"type":"Feature","properties":{"code":"801106","name":"บางรูป","parentCode":"8011"},"geometry":{"type":"Polygon","coordinates":[[[99.29343487000006,8.47073398200007],[99.23450359400005,8.385845276000055],[99.28864968700003,8.317242174000057],[99.29690869500007,8.344751287000065],[99.32210995300005,8.411587341000029],[99.32269016900005,8.418418591000034],[99.29343487000006,8.47073398200007]]]}},{"type":"Feature","properties":{"code":"801211","name":"บางศาลา","parentCode":"8012"},"geometry":{"type":"Polygon","coordinates":[[[100.19589584100004,8.256051986000045],[100.16992091400004,8.26494989500003],[100.16189594600007,8.25219179100003],[100.17575666300007,8.229087327000059],[100.18991497200005,8.223639351000031],[100.19589584100004,8.256051986000045]]]}},{"type":"Feature","properties":{"code":"801213","name":"บางตะพง","parentCode":"8012"},"geometry":{"type":"Polygon","coordinates":[[[100.17575666300007,8.229087327000059],[100.16189594600007,8.25219179100003],[100.11700856900006,8.214416335000067],[100.12703236400006,8.20696534800004],[100.17575666300007,8.229087327000059]]]}},{"type":"Feature","properties":{"code":"800701","name":"ชะอวด","parentCode":"8007"},"geometry":{"type":"Polygon","coordinates":[[[100.08462473700007,8.030990583000062],[100.06307342000008,8.044577557000025],[100.01682122300008,8.023582172000033],[99.97040358600003,8.030301390000034],[99.96417483000005,8.00166861300005],[99.99384937200006,7.966936487000055],[100.03266738300005,7.96066799700003],[100.05596704300007,8.020175583000025],[100.08462473700007,8.030990583000062]]]}},{"type":"Feature","properties":{"code":"800113","name":"ไชยมนตรี","parentCode":"8001"},"geometry":{"type":"Polygon","coordinates":[[[99.93140194000006,8.410146316000066],[99.89265536900007,8.416322776000072],[99.89160041100007,8.382162047000065],[99.93095808600003,8.396118308000041],[99.93140194000006,8.410146316000066]]]}},{"type":"Feature","properties":{"code":"801403","name":"ฉลอง","parentCode":"8014"},"geometry":{"type":"Polygon","coordinates":[[[99.85432949400007,8.914785807000044],[99.83571795100005,8.97122188800006],[99.82324405100007,8.935715240000036],[99.68504026800008,8.873830663000035],[99.68166376500005,8.855107360000034],[99.73149368500003,8.860244246000036],[99.82814822000006,8.909269668000036],[99.86521629600009,8.882025695000038],[99.85432949400007,8.914785807000044]]]}},{"type":"Feature","properties":{"code":"800902","name":"ชะมาย","parentCode":"8009"},"geometry":{"type":"Polygon","coordinates":[[[99.68085010700008,8.186976382000068],[99.66022313400003,8.205828452000048],[99.63952064900008,8.172446637000064],[99.66098555200006,8.138654880000047],[99.70332449200004,8.13064128000002],[99.69381124200004,8.148664310000072],[99.68085010700008,8.186976382000068]]]}},{"type":"Feature","properties":{"code":"801204","name":"ชะเมา","parentCode":"8012"},"geometry":{"type":"Polygon","coordinates":[[[100.06550829700006,8.334866348000048],[100.05358538100006,8.336089048000076],[100.01905207300007,8.248139490000028],[100.05707898400004,8.218733709000048],[100.07208009900006,8.234056601000077],[100.07770251000005,8.317474880000077],[100.06550829700006,8.334866348000048]]]}},{"type":"Feature","properties":{"code":"800416","name":"จันดี","parentCode":"8004"},"geometry":{"type":"Polygon","coordinates":[[[99.58492497600008,8.42095407100004],[99.56057082400008,8.415755607000051],[99.52279448400009,8.402072830000066],[99.52528910100006,8.378667606000022],[99.57445761800005,8.37763661300005],[99.58962292400008,8.37129877700005],[99.58492497600008,8.42095407100004]]]}},{"type":"Feature","properties":{"code":"802201","name":"ช้างกลาง","parentCode":"8022"},"geometry":{"type":"Polygon","coordinates":[[[99.70207290200005,8.428890484000021],[99.70058878300006,8.432562651000069],[99.62115063200008,8.371764760000076],[99.58962292400008,8.37129877700005],[99.57445761800005,8.37763661300005],[99.58384777600008,8.319531380000058],[99.55225056900008,8.308564099000023],[99.57217185800005,8.292740575000039],[99.63287979300009,8.271080294000058],[99.67456457900005,8.290136835000055],[99.72071171300007,8.301547801000027],[99.72027344900005,8.312912121000068],[99.70207290200005,8.428890484000021]]]}},{"type":"Feature","properties":{"code":"802004","name":"ช้างซ้าย","parentCode":"8020"},"geometry":{"type":"Polygon","coordinates":[[[99.97164326000006,8.378024726000035],[99.97044656900005,8.380476229000067],[99.94053454900006,8.36392920000003],[99.94200478000005,8.323092590000044],[99.94278101400005,8.268306602000052],[99.94211439400004,8.266651867000064],[100.00274267500004,8.253474649000054],[99.97164326000006,8.378024726000035]]]}},{"type":"Feature","properties":{"code":"800401","name":"ฉวาง","parentCode":"8004"},"geometry":{"type":"Polygon","coordinates":[[[99.51227165800003,8.431280013000048],[99.48963272900005,8.42706150500004],[99.47700168300008,8.392413546000057],[99.48019417500007,8.364710759000047],[99.51942362100004,8.348039361000076],[99.52528910100006,8.378667606000022],[99.52279448400009,8.402072830000066],[99.51227165800003,8.431280013000048]]]}},{"type":"Feature","properties":{"code":"802301","name":"เชียรเขา","parentCode":"8023"},"geometry":{"type":"Polygon","coordinates":[[[100.07678041600008,8.229303944000037],[100.07208009900006,8.234056601000077],[100.05707898400004,8.218733709000048],[100.04075571500005,8.180168383000023],[100.08175644200008,8.147916996000049],[100.12452110600003,8.17965926100004],[100.07753007000008,8.225283625000031],[100.07678041600008,8.229303944000037]]]}},{"type":"Feature","properties":{"code":"800601","name":"เชียรใหญ่","parentCode":"8006"},"geometry":{"type":"Polygon","coordinates":[[[100.11700856900006,8.214416335000067],[100.07753007000008,8.225283625000031],[100.12452110600003,8.17965926100004],[100.14390926900006,8.167596152000044],[100.15055765800008,8.167005227000061],[100.15348055900006,8.17616386700007],[100.12703236400006,8.20696534800004],[100.11700856900006,8.214416335000067]]]}},{"type":"Feature","properties":{"code":"800810","name":"ดอนตะโก","parentCode":"8008"},"geometry":{"type":"Polygon","coordinates":[[[99.90692977900005,8.573614728000052],[99.83336823900004,8.577931934000048],[99.85040141200005,8.556243391000066],[99.92630533000005,8.54342695300005],[99.92850739200009,8.555401825000047],[99.90692977900005,8.573614728000052]]]}},{"type":"Feature","properties":{"code":"802302","name":"ดอนตรอ","parentCode":"8023"},"geometry":{"type":"Polygon","coordinates":[[[100.01905207300007,8.248139490000028],[100.01388572600007,8.248420923000026],[100.03092284800005,8.197256755000069],[100.04075571500005,8.180168383000023],[100.05707898400004,8.218733709000048],[100.01905207300007,8.248139490000028]]]}},{"type":"Feature","properties":{"code":"801803","name":"ดุสิต","parentCode":"8018"},"geometry":{"type":"Polygon","coordinates":[[[99.38692937100006,8.515419799000028],[99.37802031700005,8.516194459000076],[99.29343487000006,8.47073398200007],[99.32269016900005,8.418418591000034],[99.38607292800003,8.435450435000064],[99.38515996300004,8.464925465000022],[99.38692937100006,8.515419799000028]]]}},{"type":"Feature","properties":{"code":"801302","name":"หินตก","parentCode":"8013"},"geometry":{"type":"Polygon","coordinates":[[[99.86009651900008,8.306248985000025],[99.82687835300004,8.30119585500006],[99.75730818000005,8.259605874000044],[99.75597291100007,8.249031347000027],[99.79244158600005,8.234058319000042],[99.82852140100005,8.237714131000075],[99.88644970400009,8.207211242000028],[99.91443778500008,8.225297044000058],[99.91063400200005,8.26283275000003],[99.86454383000006,8.297981906000075],[99.86009651900008,8.306248985000025]]]}},{"type":"Feature","properties":{"code":"801208","name":"หูล่อง","parentCode":"8012"},"geometry":{"type":"Polygon","coordinates":[[[100.19954637500007,8.333015921000026],[100.19625908800003,8.344732364000038],[100.16197826400008,8.33522879000003],[100.16447581800008,8.286747714000057],[100.19733600200004,8.279672617000074],[100.20159885100009,8.30996560400007],[100.20987410900005,8.313799795000023],[100.19954637500007,8.333015921000026]]]}},{"type":"Feature","properties":{"code":"801601","name":"หัวไทร","parentCode":"8016"},"geometry":{"type":"Polygon","coordinates":[[[100.27441154900004,8.096916466000039],[100.26797109500006,8.092418339000062],[100.26349964900004,8.063751172000025],[100.26015106100004,8.008145589000037],[100.30792061900007,7.992450306000023],[100.30036594000006,8.075886871000023],[100.28137172400005,8.091832563000025],[100.27441154900004,8.096916466000039]]]}},{"type":"Feature","properties":{"code":"800804","name":"หัวตะพาน","parentCode":"8008"},"geometry":{"type":"Polygon","coordinates":[[[99.90315929600007,8.643112143000053],[99.86124476200007,8.631318751000038],[99.83129266200007,8.620142248000036],[99.83610727600006,8.599150706000046],[99.90215147500004,8.607709881000062],[99.90315929600007,8.643112143000053]]]}},{"type":"Feature","properties":{"code":"800409","name":"ห้วยปริก","parentCode":"8004"},"geometry":{"type":"Polygon","coordinates":[[[99.47846005600007,8.646736486000066],[99.41939421000006,8.570528831000047],[99.41777895900003,8.552240394000023],[99.42801296400006,8.537864900000045],[99.49147581000005,8.545183249000047],[99.50575329400004,8.575571859000036],[99.47846005600007,8.646736486000066]]]}},{"type":"Feature","properties":{"code":"800203","name":"อินคีรี","parentCode":"8002"},"geometry":{"type":"Polygon","coordinates":[[[99.92630533000005,8.54342695300005],[99.85040141200005,8.556243391000066],[99.84835078600008,8.550319392000063],[99.89311363500008,8.536906213000066],[99.92907616100007,8.50842530500006],[99.94674247500006,8.507803786000068],[99.92630533000005,8.54342695300005]]]}},{"type":"Feature","properties":{"code":"801003","name":"แก้วแสน","parentCode":"8010"},"geometry":{"type":"Polygon","coordinates":[[[99.55225056900008,8.308564099000023],[99.52136400600006,8.339293324000039],[99.49747441700003,8.273678214000029],[99.49657511200007,8.218028177000065],[99.52825395600007,8.230893726000033],[99.53990987700007,8.244453952000072],[99.57217185800005,8.292740575000039],[99.55225056900008,8.308564099000023]]]}},{"type":"Feature","properties":{"code":"800304","name":"กำโลน","parentCode":"8003"},"geometry":{"type":"Polygon","coordinates":[[[99.73350140900004,8.49421594100005],[99.70189478100008,8.48316477700007],[99.69654724400004,8.45518374900007],[99.70058878300006,8.432562651000069],[99.70207290200005,8.428890484000021],[99.80898476000004,8.376311138000062],[99.78978292100004,8.469947095000066],[99.73350140900004,8.49421594100005]]]}},{"type":"Feature","properties":{"code":"800112","name":"กำแพงเซา","parentCode":"8001"},"geometry":{"type":"Polygon","coordinates":[[[99.88560196300006,8.435315307000053],[99.88492312300008,8.436178649000055],[99.84906337200005,8.419947272000059],[99.84576853000004,8.36772669800007],[99.86843915500003,8.371444190000034],[99.89160041100007,8.382162047000065],[99.89265536900007,8.416322776000072],[99.88560196300006,8.435315307000053]]]}},{"type":"Feature","properties":{"code":"800908","name":"กะปาง","parentCode":"8009"},"geometry":{"type":"Polygon","coordinates":[[[99.75062500400009,8.049588487000051],[99.64332202100007,8.05281270000006],[99.61146865300003,7.988359425000056],[99.61571817900005,7.987660443000038],[99.65467672200003,8.011412515000075],[99.71323485500005,7.990171082000074],[99.75308218200007,8.007832903000065],[99.75062500400009,8.049588487000051]]]}},{"type":"Feature","properties":{"code":"800406","name":"กะเปียด","parentCode":"8004"},"geometry":{"type":"Polygon","coordinates":[[[99.49147581000005,8.545183249000047],[99.42801296400006,8.537864900000045],[99.44414698400004,8.490828145000023],[99.48873104400008,8.480365863000031],[99.49147581000005,8.545183249000047]]]}},{"type":"Feature","properties":{"code":"800611","name":"การะเกด","parentCode":"8006"},"geometry":{"type":"Polygon","coordinates":[[[100.17535726900007,8.10830313100007],[100.14744917900003,8.133317995000027],[100.11609912600005,8.113919795000072],[100.13172349600006,8.103082683000025],[100.08931372500007,8.031051091000052],[100.15595703000008,8.01530834600004],[100.17535726900007,8.10830313100007]]]}},{"type":"Feature","properties":{"code":"802103","name":"กะหรอ","parentCode":"8021"},"geometry":{"type":"Polygon","coordinates":[[[99.85274954400006,8.687738097000022],[99.82870791400006,8.723170914000036],[99.81983506700004,8.706263701000069],[99.79251404100006,8.685819447000029],[99.81425457000006,8.623198124000055],[99.83129266200007,8.620142248000036],[99.86124476200007,8.631318751000038],[99.85274954400006,8.687738097000022]]]}},{"type":"Feature","properties":{"code":"800502","name":"กะทูน","parentCode":"8005"},"geometry":{"type":"Polygon","coordinates":[[[99.54390437900008,8.719522863000066],[99.52188097500004,8.719287520000023],[99.49203035200009,8.696907734000035],[99.47846005600007,8.646736486000066],[99.50575329400004,8.575571859000036],[99.51912437000004,8.547439289000067],[99.58089826900004,8.552022442000066],[99.55007850700008,8.612364969000055],[99.54390437900008,8.719522863000066]]]}},{"type":"Feature","properties":{"code":"801218","name":"ขนาบนาก","parentCode":"8012"},"geometry":{"type":"Polygon","coordinates":[[[100.29510186400006,8.171257859000036],[100.28002708900004,8.23977837700005],[100.23655669300007,8.238421249000055],[100.22962725700006,8.197700632000021],[100.23264479300008,8.197771164000073],[100.25775920200005,8.17780915700007],[100.25926636600008,8.17309698500003],[100.29510186400006,8.171257859000036]]]}},{"type":"Feature","properties":{"code":"801501","name":"ขนอม","parentCode":"8015"},"geometry":{"type":"Polygon","coordinates":[[[99.90944772800003,9.089935196000056],[99.87561888800008,9.140725535000058],[99.86558888400003,9.235915244000068],[99.84274634800005,9.218521242000065],[99.81490045500004,9.185619555000073],[99.83273187000003,9.124129388000028],[99.86165148900005,9.089346582000076],[99.90944772800003,9.089935196000056]]]}},{"type":"Feature","properties":{"code":"800301","name":"เขาแก้ว","parentCode":"8003"},"geometry":{"type":"Polygon","coordinates":[[[99.80898476000004,8.376311138000062],[99.70207290200005,8.428890484000021],[99.72027344900005,8.312912121000068],[99.79652671000008,8.349167226000077],[99.81115411200005,8.374127660000056],[99.80898476000004,8.376311138000062]]]}},{"type":"Feature","properties":{"code":"800913","name":"เขาขาว","parentCode":"8009"},"geometry":{"type":"Polygon","coordinates":[[[99.52825395600007,8.230893726000033],[99.49657511200007,8.218028177000065],[99.47274606800005,8.197358876000067],[99.44661664800009,8.187675823000063],[99.43350570000007,8.122898145000022],[99.47510961800003,8.143146156000057],[99.52205995600008,8.123733686000037],[99.54800776800005,8.140607966000061],[99.56757571200006,8.178598029000057],[99.52825395600007,8.230893726000033]]]}},{"type":"Feature","properties":{"code":"801408","name":"เขาน้อย","parentCode":"8014"},"geometry":{"type":"Polygon","coordinates":[[[99.82060496600008,8.980541965000043],[99.74271164300006,8.95314914000005],[99.72244166000007,8.97734798600004],[99.69641031900005,8.93580606200004],[99.64189235700007,8.927769940000076],[99.68504026800008,8.873830663000035],[99.82324405100007,8.935715240000036],[99.83571795100005,8.97122188800006],[99.82318346100004,8.975482070000055],[99.82060496600008,8.980541965000043]]]}},{"type":"Feature","properties":{"code":"801605","name":"เขาพังไกร","parentCode":"8016"},"geometry":{"type":"Polygon","coordinates":[[[100.26015106100004,8.008145589000037],[100.23817624800006,8.010934517000067],[100.24149610800004,7.947561085000075],[100.26079056300006,7.939489001000027],[100.30818724000005,7.978625794000038],[100.30792061900007,7.992450306000023],[100.26015106100004,8.008145589000037]]]}},{"type":"Feature","properties":{"code":"800503","name":"เขาพระ","parentCode":"8005"},"geometry":{"type":"Polygon","coordinates":[[[99.67046416000005,8.67828843500007],[99.54390437900008,8.719522863000066],[99.55007850700008,8.612364969000055],[99.58089826900004,8.552022442000066],[99.58689426300003,8.552052253000056],[99.59242721300006,8.55496144500006],[99.61696492000004,8.58209707800006],[99.70323368700008,8.57394658000004],[99.71736227600007,8.552468084000054],[99.70959269500008,8.597355812000046],[99.66939105200004,8.650049395000053],[99.67046416000005,8.67828843500007]]]}},{"type":"Feature","properties":{"code":"800710","name":"เขาพระทอง","parentCode":"8007"},"geometry":{"type":"Polygon","coordinates":[[[99.94246182200004,7.990948519000028],[99.79291013800008,7.998954745000049],[99.82908752400004,7.969393947000071],[99.93889011000005,7.952064112000073],[99.94246182200004,7.990948519000028]]]}},{"type":"Feature","properties":{"code":"800612","name":"เขาพระบาท","parentCode":"8006"},"geometry":{"type":"Polygon","coordinates":[[[100.21830625900009,8.113243386000022],[100.19136776900007,8.120496833000061],[100.17535726900007,8.10830313100007],[100.15595703000008,8.01530834600004],[100.17441118100004,8.010964771000033],[100.19385243900007,8.01011390800005],[100.21698409800007,8.07954681700005],[100.22412194200007,8.103617235000058],[100.21830625900009,8.113243386000022]]]}},{"type":"Feature","properties":{"code":"800907","name":"เขาโร","parentCode":"8009"},"geometry":{"type":"Polygon","coordinates":[[[99.63526570100004,8.086184442000047],[99.53765057100009,8.080060883000044],[99.54304805200007,8.060186882000039],[99.60284263800008,7.983427509000023],[99.61146865300003,7.988359425000056],[99.64332202100007,8.05281270000006],[99.63526570100004,8.086184442000047]]]}},{"type":"Feature","properties":{"code":"800103","name":"คลัง","parentCode":"8001"},"geometry":{"type":"Polygon","coordinates":[[[99.97444717300004,8.430522196000027],[99.97244128600005,8.441329736000057],[99.95826310200005,8.439436475000036],[99.96065349600008,8.427446711000073],[99.97444717300004,8.430522196000027]]]}},{"type":"Feature","properties":{"code":"801205","name":"คลองกระบือ","parentCode":"8012"},"geometry":{"type":"Polygon","coordinates":[[[100.16197826400008,8.33522879000003],[100.14172793700004,8.344889960000046],[100.11932674600007,8.309295331000044],[100.11831648600008,8.306902341000068],[100.16447581800008,8.286747714000057],[100.16197826400008,8.33522879000003]]]}},{"type":"Feature","properties":{"code":"801202","name":"คลองน้อย","parentCode":"8012"},"geometry":{"type":"Polygon","coordinates":[[[100.13838705100005,8.388275689000068],[100.08897933000009,8.414544368000065],[100.06550829700006,8.334866348000048],[100.07770251000005,8.317474880000077],[100.11932674600007,8.309295331000044],[100.14172793700004,8.344889960000046],[100.13838705100005,8.388275689000068]]]}},{"type":"Feature","properties":{"code":"801802","name":"คลองเส","parentCode":"8018"},"geometry":{"type":"Polygon","coordinates":[[[99.41777895900003,8.552240394000023],[99.38692937100006,8.515419799000028],[99.38515996300004,8.464925465000022],[99.43001800700006,8.428168712000058],[99.45457131800003,8.447644274000027],[99.44414698400004,8.490828145000023],[99.42801296400006,8.537864900000045],[99.41777895900003,8.552240394000023]]]}},{"type":"Feature","properties":{"code":"800707","name":"ขอนหาด","parentCode":"8007"},"geometry":{"type":"Polygon","coordinates":[[[100.08244181700007,7.857834450000041],[100.04882579100007,7.900262293000026],[99.97634646600005,7.871911135000062],[99.98509613100003,7.862672904000021],[100.05595702700003,7.838055458000042],[100.07959723100004,7.854725163000069],[100.08244181700007,7.857834450000041]]]}},{"type":"Feature","properties":{"code":"800704","name":"เคร็ง","parentCode":"8007"},"geometry":{"type":"Polygon","coordinates":[[[100.14405528700007,7.928211195000074],[100.14937741500006,7.992477902000076],[100.17441118100004,8.010964771000033],[100.15595703000008,8.01530834600004],[100.08931372500007,8.031051091000052],[100.08462473700007,8.030990583000062],[100.05596704300007,8.020175583000025],[100.03266738300005,7.96066799700003],[100.03261410500005,7.951187882000056],[100.08158379900004,7.924891140000057],[100.04882579100007,7.900262293000026],[100.08244181700007,7.857834450000041],[100.09793041900008,7.87572123800004],[100.17749518400007,7.876479127000039],[100.14405528700007,7.928211195000074]]]}},{"type":"Feature","properties":{"code":"801609","name":"ควนชะลิก","parentCode":"8016"},"geometry":{"type":"Polygon","coordinates":[[[100.24149610800004,7.947561085000075],[100.14405528700007,7.928211195000074],[100.17749518400007,7.876479127000039],[100.23550052700006,7.883047180000062],[100.26061293300006,7.902660405000063],[100.26598024600008,7.91466839800006],[100.26079056300006,7.939489001000027],[100.24149610800004,7.947561085000075]]]}},{"type":"Feature","properties":{"code":"801306","name":"ควนชุม","parentCode":"8013"},"geometry":{"type":"Polygon","coordinates":[[[99.93750254100007,8.219180263000055],[99.91443778500008,8.225297044000058],[99.88644970400009,8.207211242000028],[99.86508603900006,8.154599420000068],[99.92684337300005,8.144588782000028],[99.93750254100007,8.219180263000055]]]}},{"type":"Feature","properties":{"code":"800505","name":"ควนกลาง","parentCode":"8005"},"geometry":{"type":"Polygon","coordinates":[[[99.58089826900004,8.552022442000066],[99.51912437000004,8.547439289000067],[99.52546139700007,8.500116863000073],[99.55626450000005,8.504437427000028],[99.57341530800005,8.497797529000024],[99.58689426300003,8.552052253000056],[99.58089826900004,8.552022442000066]]]}},{"type":"Feature","properties":{"code":"801304","name":"ควนเกย","parentCode":"8013"},"geometry":{"type":"Polygon","coordinates":[[[99.92684337300005,8.144588782000028],[99.86508603900006,8.154599420000068],[99.86208135900006,8.15020706000007],[99.89154082100004,8.109674674000075],[99.91711726200003,8.113168434000045],[99.93552357300007,8.126949437000064],[99.92684337300005,8.144588782000028]]]}},{"type":"Feature","properties":{"code":"800904","name":"ควนกรด","parentCode":"8009"},"geometry":{"type":"Polygon","coordinates":[[[99.60514680400007,8.17079101400003],[99.56757571200006,8.178598029000057],[99.54800776800005,8.140607966000061],[99.58197722400007,8.15020178800006],[99.65788222600008,8.122944305000033],[99.66098555200006,8.138654880000047],[99.63952064900008,8.172446637000064],[99.60514680400007,8.17079101400003]]]}},{"type":"Feature","properties":{"code":"800709","name":"ควนหนองหงษ์","parentCode":"8007"},"geometry":{"type":"Polygon","coordinates":[[[99.94592660600006,8.000637382000036],[99.93850376200004,8.029099651000024],[99.88961213800007,8.027249685000072],[99.78889376000006,8.013212502000044],[99.79291013800008,7.998954745000049],[99.94246182200004,7.990948519000028],[99.94592660600006,8.000637382000036]]]}},{"type":"Feature","properties":{"code":"801903","name":"ควนหนองคว้า","parentCode":"8019"},"geometry":{"type":"Polygon","coordinates":[[[99.93552357300007,8.126949437000064],[99.91711726200003,8.113168434000045],[99.90744881300009,8.066297219000035],[99.90900693800006,8.065130642000042],[99.95503783400005,8.072135782000032],[99.96106188000005,8.082881264000036],[99.93552357300007,8.126949437000064]]]}},{"type":"Feature","properties":{"code":"801305","name":"ควนพัง","parentCode":"8013"},"geometry":{"type":"Polygon","coordinates":[[[100.01585317500007,8.18440677500007],[99.99276496100003,8.238826556000049],[99.94276115300005,8.232305360000055],[99.93750254100007,8.219180263000055],[99.92684337300005,8.144588782000028],[99.93552357300007,8.126949437000064],[99.96106188000005,8.082881264000036],[100.02765194200003,8.126388604000056],[100.01585317500007,8.18440677500007]]]}},{"type":"Feature","properties":{"code":"801502","name":"ควนทอง","parentCode":"8015"},"geometry":{"type":"Polygon","coordinates":[[[99.84274634800005,9.218521242000065],[99.79430336400009,9.270322588000056],[99.77159450300007,9.260889774000077],[99.72214681500009,9.15679827200006],[99.77176501800005,9.096430174000034],[99.80829430100005,9.081772368000031],[99.83273187000003,9.124129388000028],[99.81490045500004,9.185619555000073],[99.84274634800005,9.218521242000065]]]}},{"type":"Feature","properties":{"code":"800305","name":"ขุนทะเล","parentCode":"8003"},"geometry":{"type":"Polygon","coordinates":[[[99.84576853000004,8.36772669800007],[99.81115411200005,8.374127660000056],[99.79652671000008,8.349167226000077],[99.82687835300004,8.30119585500006],[99.86009651900008,8.306248985000025],[99.87396768100007,8.325175298000033],[99.89417924200006,8.345809147000068],[99.86843915500003,8.371444190000034],[99.84576853000004,8.36772669800007]]]}},{"type":"Feature","properties":{"code":"800802","name":"กลาย","parentCode":"8008"},"geometry":{"type":"Polygon","coordinates":[[[99.93330215700007,8.796779460000039],[99.92080628200006,8.870250901000077],[99.90891471100008,8.857793464000054],[99.86126331100007,8.819480632000023],[99.88447844400008,8.762339231000055],[99.93330215700007,8.796779460000039]]]}},{"type":"Feature","properties":{"code":"800708","name":"เกาะขันธ์","parentCode":"8007"},"geometry":{"type":"Polygon","coordinates":[[[99.97171530000008,7.948657825000055],[99.93805357800005,7.9502549610000415],[99.92430238900005,7.897525085000041],[99.88739427000007,7.889451885000028],[99.92315073000003,7.864939475000028],[99.96241242000008,7.905740901000058],[99.96602545800005,7.925324450000062],[99.97171530000008,7.948657825000055]]]}},{"type":"Feature","properties":{"code":"801611","name":"เกาะเพชร","parentCode":"8016"},"geometry":{"type":"Polygon","coordinates":[[[100.29510186400006,8.171257859000036],[100.25926636600008,8.17309698500003],[100.26986286900006,8.112480107000067],[100.27441154900004,8.096916466000039],[100.28137172400005,8.091832563000025],[100.30783919300006,8.098140028000046],[100.29510186400006,8.171257859000036]]]}},{"type":"Feature","properties":{"code":"801206","name":"เกาะทวด","parentCode":"8012"},"geometry":{"type":"Polygon","coordinates":[[[100.11932674600007,8.309295331000044],[100.07770251000005,8.317474880000077],[100.07208009900006,8.234056601000077],[100.07678041600008,8.229303944000037],[100.11890720600007,8.275415548000069],[100.11831648600008,8.306902341000068],[100.11932674600007,8.309295331000044]]]}},{"type":"Feature","properties":{"code":"802102","name":"กรุงชิง","parentCode":"8021"},"geometry":{"type":"Polygon","coordinates":[[[99.64189235700007,8.927769940000076],[99.57624489600005,8.911059304000048],[99.56860445600006,8.887059799000042],[99.55582926400007,8.877702145000057],[99.51760351700005,8.836135160000026],[99.52188097500004,8.719287520000023],[99.54390437900008,8.719522863000066],[99.67046416000005,8.67828843500007],[99.69580198100005,8.713146429000062],[99.69302957200006,8.761970103000067],[99.75254989300004,8.813624740000023],[99.68166376500005,8.855107360000034],[99.68504026800008,8.873830663000035],[99.64189235700007,8.927769940000076]]]}},{"type":"Feature","properties":{"code":"801107","name":"กรุงหยัน","parentCode":"8011"},"geometry":{"type":"Polygon","coordinates":[[[99.46466288800008,8.215790102000028],[99.38958473100007,8.260971772000062],[99.35755469500003,8.22316683300005],[99.36804386900008,8.137749477000057],[99.39166637100004,8.109850334000043],[99.43350570000007,8.122898145000022],[99.44661664800009,8.187675823000063],[99.47274606800005,8.197358876000067],[99.46466288800008,8.215790102000028]]]}},{"type":"Feature","properties":{"code":"801104","name":"กุแหระ","parentCode":"8011"},"geometry":{"type":"Polygon","coordinates":[[[99.38958473100007,8.260971772000062],[99.33363553700008,8.26161933700007],[99.31330084700005,8.238387011000043],[99.32219705700004,8.207578571000056],[99.28947851700008,8.16444057800004],[99.29643941900008,8.132072021000056],[99.32274900700008,8.13474210000004],[99.36804386900008,8.137749477000057],[99.35755469500003,8.22316683300005],[99.38958473100007,8.260971772000062]]]}},{"type":"Feature","properties":{"code":"800403","name":"ละอาย","parentCode":"8004"},"geometry":{"type":"Polygon","coordinates":[[[99.70189478100008,8.48316477700007],[99.64175834600007,8.518778078000025],[99.58712582900006,8.484116394000068],[99.56057082400008,8.415755607000051],[99.58492497600008,8.42095407100004],[99.69502494500006,8.443080575000067],[99.69654724400004,8.45518374900007],[99.70189478100008,8.48316477700007]]]}},{"type":"Feature","properties":{"code":"801604","name":"แหลม","parentCode":"8016"},"geometry":{"type":"Polygon","coordinates":[[[100.24149610800004,7.947561085000075],[100.23817624800006,8.010934517000067],[100.19385243900007,8.01011390800005],[100.17441118100004,8.010964771000033],[100.14937741500006,7.992477902000076],[100.14405528700007,7.928211195000074],[100.24149610800004,7.947561085000075]]]}},{"type":"Feature","properties":{"code":"801209","name":"แหลมตะลุมพุก","parentCode":"8012"},"geometry":{"type":"Polygon","coordinates":[[[100.21862882800008,8.432611751000024],[100.16796290900004,8.50379051300007],[100.15964006600007,8.477318672000024],[100.21862882800008,8.432611751000024]]]}},{"type":"Feature","properties":{"code":"802202","name":"หลักช้าง","parentCode":"8022"},"geometry":{"type":"Polygon","coordinates":[[[99.57445761800005,8.37763661300005],[99.52528910100006,8.378667606000022],[99.51942362100004,8.348039361000076],[99.52136400600006,8.339293324000039],[99.55225056900008,8.308564099000023],[99.58384777600008,8.319531380000058],[99.57445761800005,8.37763661300005]]]}},{"type":"Feature","properties":{"code":"800302","name":"ลานสกา","parentCode":"8003"},"geometry":{"type":"Polygon","coordinates":[[[99.79652671000008,8.349167226000077],[99.72027344900005,8.312912121000068],[99.72071171300007,8.301547801000027],[99.75730818000005,8.259605874000044],[99.82687835300004,8.30119585500006],[99.79652671000008,8.349167226000077]]]}},{"type":"Feature","properties":{"code":"800613","name":"แม่เจ้าอยู่หัว","parentCode":"8006"},"geometry":{"type":"Polygon","coordinates":[[[100.11609912600005,8.113919795000072],[100.10720165000004,8.119599114000039],[100.07772017000008,8.110209328000053],[100.05279155600005,8.053126657000064],[100.06307342000008,8.044577557000025],[100.08462473700007,8.030990583000062],[100.08931372500007,8.031051091000052],[100.13172349600006,8.103082683000025],[100.11609912600005,8.113919795000072]]]}},{"type":"Feature","properties":{"code":"800405","name":"ไม้เรียง","parentCode":"8004"},"geometry":{"type":"Polygon","coordinates":[[[99.48873104400008,8.480365863000031],[99.44414698400004,8.490828145000023],[99.45457131800003,8.447644274000027],[99.48963272900005,8.42706150500004],[99.51227165800003,8.431280013000048],[99.51084492400008,8.443670825000027],[99.49276037100003,8.480840014000023],[99.48873104400008,8.480365863000031]]]}},{"type":"Feature","properties":{"code":"800114","name":"มะม่วงสองต้น","parentCode":"8001"},"geometry":{"type":"Polygon","coordinates":[[[99.96963059800004,8.391604898000026],[99.96298533000004,8.413842812000041],[99.93140194000006,8.410146316000066],[99.93095808600003,8.396118308000041],[99.96963059800004,8.391604898000026]]]}},{"type":"Feature","properties":{"code":"800807","name":"โมคลาน","parentCode":"8008"},"geometry":{"type":"Polygon","coordinates":[[[99.90215147500004,8.607709881000062],[99.83610727600006,8.599150706000046],[99.83336823900004,8.577931934000048],[99.90692977900005,8.573614728000052],[99.90215147500004,8.607709881000062]]]}},{"type":"Feature","properties":{"code":"801001","name":"นาบอน","parentCode":"8010"},"geometry":{"type":"Polygon","coordinates":[[[99.67456457900005,8.290136835000055],[99.63287979300009,8.271080294000058],[99.57217185800005,8.292740575000039],[99.53990987700007,8.244453952000072],[99.57948863600006,8.242140246000076],[99.60258372200008,8.206187383000042],[99.65902569700006,8.219780784000022],[99.68132185900004,8.240388100000075],[99.67456457900005,8.290136835000055]]]}},{"type":"Feature","properties":{"code":"800407","name":"นากะชะ","parentCode":"8004"},"geometry":{"type":"Polygon","coordinates":[[[99.48963272900005,8.42706150500004],[99.45457131800003,8.447644274000027],[99.43001800700006,8.428168712000058],[99.42041013100004,8.412078463000057],[99.47700168300008,8.392413546000057],[99.48963272900005,8.42706150500004]]]}},{"type":"Feature","properties":{"code":"800115","name":"นาเคียน","parentCode":"8001"},"geometry":{"type":"Polygon","coordinates":[[[99.95565602400006,8.45662507700007],[99.95335144600006,8.468592448000038],[99.88632520500005,8.444159255000045],[99.95765571500004,8.442739455000037],[99.95565602400006,8.45662507700007]]]}},{"type":"Feature","properties":{"code":"800415","name":"นาเขลียง","parentCode":"8004"},"geometry":{"type":"Polygon","coordinates":[[[99.51912437000004,8.547439289000067],[99.50575329400004,8.575571859000036],[99.49147581000005,8.545183249000047],[99.48873104400008,8.480365863000031],[99.49276037100003,8.480840014000023],[99.51912437000004,8.547439289000067]]]}},{"type":"Feature","properties":{"code":"800906","name":"นาหลวงเสน","parentCode":"8009"},"geometry":{"type":"Polygon","coordinates":[[[99.72071171300007,8.301547801000027],[99.67456457900005,8.290136835000055],[99.68132185900004,8.240388100000075],[99.65902569700006,8.219780784000022],[99.66022313400003,8.205828452000048],[99.68085010700008,8.186976382000068],[99.69745917000006,8.176195557000028],[99.75597291100007,8.249031347000027],[99.75730818000005,8.259605874000044],[99.72071171300007,8.301547801000027]]]}},{"type":"Feature","properties":{"code":"800905","name":"นาไม้ไผ่","parentCode":"8009"},"geometry":{"type":"Polygon","coordinates":[[[99.65788222600008,8.122944305000033],[99.58197722400007,8.15020178800006],[99.54800776800005,8.140607966000061],[99.52205995600008,8.123733686000037],[99.53765057100009,8.080060883000044],[99.63526570100004,8.086184442000047],[99.65788222600008,8.122944305000033]]]}},{"type":"Feature","properties":{"code":"801905","name":"นาหมอบุญ","parentCode":"8019"},"geometry":{"type":"Polygon","coordinates":[[[99.90744881300009,8.066297219000035],[99.83324638200008,8.072369793000064],[99.77890213100005,8.039689218000035],[99.78889376000006,8.013212502000044],[99.88961213800007,8.027249685000072],[99.91726589200005,8.043211249000024],[99.90900693800006,8.065130642000042],[99.90744881300009,8.066297219000035]]]}},{"type":"Feature","properties":{"code":"800912","name":"นาโพธิ์","parentCode":"8009"},"geometry":{"type":"Polygon","coordinates":[[[99.60258372200008,8.206187383000042],[99.57948863600006,8.242140246000076],[99.53990987700007,8.244453952000072],[99.52825395600007,8.230893726000033],[99.56757571200006,8.178598029000057],[99.60514680400007,8.17079101400003],[99.60258372200008,8.206187383000042]]]}},{"type":"Feature","properties":{"code":"802001","name":"นาพรุ","parentCode":"8020"},"geometry":{"type":"Polygon","coordinates":[[[99.94200478000005,8.323092590000044],[99.94053454900006,8.36392920000003],[99.89417924200006,8.345809147000068],[99.87396768100007,8.325175298000033],[99.94200478000005,8.323092590000044]]]}},{"type":"Feature","properties":{"code":"802104","name":"นาเหรง","parentCode":"8021"},"geometry":{"type":"Polygon","coordinates":[[[99.79583486200005,8.714451563000068],[99.72161064400007,8.706188971000074],[99.70632857700008,8.642012586000021],[99.66939105200004,8.650049395000053],[99.70959269500008,8.597355812000046],[99.71653095300007,8.615099371000042],[99.81425457000006,8.623198124000055],[99.79251404100006,8.685819447000029],[99.81983506700004,8.706263701000069],[99.79583486200005,8.714451563000068]]]}},{"type":"Feature","properties":{"code":"800205","name":"นาเรียง","parentCode":"8002"},"geometry":{"type":"Polygon","coordinates":[[[99.92907616100007,8.50842530500006],[99.89311363500008,8.536906213000066],[99.85347090200008,8.519892015000039],[99.84954401300007,8.490884563000066],[99.92907616100007,8.50842530500006]]]}},{"type":"Feature","properties":{"code":"800108","name":"นาทราย","parentCode":"8001"},"geometry":{"type":"Polygon","coordinates":[[[99.95335144600006,8.468592448000038],[99.94600403400005,8.495439829000077],[99.88686662600009,8.481236016000025],[99.88492312300008,8.436178649000055],[99.88560196300006,8.435315307000053],[99.88632520500005,8.444159255000045],[99.95335144600006,8.468592448000038]]]}},{"type":"Feature","properties":{"code":"802002","name":"นาสาร","parentCode":"8020"},"geometry":{"type":"Polygon","coordinates":[[[99.96963059800004,8.391604898000026],[99.93095808600003,8.396118308000041],[99.89160041100007,8.382162047000065],[99.86843915500003,8.371444190000034],[99.89417924200006,8.345809147000068],[99.94053454900006,8.36392920000003],[99.97044656900005,8.380476229000067],[99.96963059800004,8.391604898000026]]]}},{"type":"Feature","properties":{"code":"801602","name":"หน้าสตน","parentCode":"8016"},"geometry":{"type":"Polygon","coordinates":[[[100.33657390400003,7.931797047000032],[100.30783919300006,8.098140028000046],[100.28137172400005,8.091832563000025],[100.30036594000006,8.075886871000023],[100.30792061900007,7.992450306000023],[100.30818724000005,7.978625794000038],[100.32127355100005,7.936832596000045],[100.33657390400003,7.931797047000032]]]}},{"type":"Feature","properties":{"code":"800404","name":"นาแว","parentCode":"8004"},"geometry":{"type":"Polygon","coordinates":[[[99.51912437000004,8.547439289000067],[99.49276037100003,8.480840014000023],[99.51084492400008,8.443670825000027],[99.56054284600003,8.478644893000023],[99.55626450000005,8.504437427000028],[99.52546139700007,8.500116863000073],[99.51912437000004,8.547439289000067]]]}},{"type":"Feature","properties":{"code":"800101","name":"ในเมือง","parentCode":"8001"},"geometry":{"type":"Polygon","coordinates":[[[99.98162691600004,8.386285312000041],[99.97444717300004,8.430522196000027],[99.96065349600008,8.427446711000073],[99.96298533000004,8.413842812000041],[99.96963059800004,8.391604898000026],[99.97044656900005,8.380476229000067],[99.97164326000006,8.378024726000035],[99.98162691600004,8.386285312000041]]]}},{"type":"Feature","properties":{"code":"800910","name":"น้ำตก","parentCode":"8009"},"geometry":{"type":"Polygon","coordinates":[[[99.77645360800005,8.047234385000024],[99.75062500400009,8.049588487000051],[99.75308218200007,8.007832903000065],[99.73048329100004,7.952916886000025],[99.74044621000007,7.926631396000062],[99.73789967700009,7.860885086000053],[99.79774270800004,7.9092683170000555],[99.82908752400004,7.969393947000071],[99.79291013800008,7.998954745000049],[99.78889376000006,8.013212502000044],[99.77890213100005,8.039689218000035],[99.77645360800005,8.047234385000024]]]}},{"type":"Feature","properties":{"code":"800711","name":"นางหลง","parentCode":"8007"},"geometry":{"type":"Polygon","coordinates":[[[100.04882579100007,7.900262293000026],[100.08158379900004,7.924891140000057],[100.03261410500005,7.951187882000056],[99.99410260800005,7.917856438000058],[99.96602545800005,7.925324450000062],[99.96241242000008,7.905740901000058],[99.97634646600005,7.871911135000062],[100.04882579100007,7.900262293000026]]]}},{"type":"Feature","properties":{"code":"800903","name":"หนองหงส์","parentCode":"8009"},"geometry":{"type":"Polygon","coordinates":[[[99.65902569700006,8.219780784000022],[99.60258372200008,8.206187383000042],[99.60514680400007,8.17079101400003],[99.63952064900008,8.172446637000064],[99.66022313400003,8.205828452000048],[99.65902569700006,8.219780784000022]]]}},{"type":"Feature","properties":{"code":"802101","name":"นบพิตำ","parentCode":"8021"},"geometry":{"type":"Polygon","coordinates":[[[99.75822480300008,8.81156621200006],[99.75254989300004,8.813624740000023],[99.69302957200006,8.761970103000067],[99.69580198100005,8.713146429000062],[99.67046416000005,8.67828843500007],[99.66939105200004,8.650049395000053],[99.70632857700008,8.642012586000021],[99.72161064400007,8.706188971000074],[99.79583486200005,8.714451563000068],[99.80734464600005,8.730556208000053],[99.75822480300008,8.81156621200006]]]}},{"type":"Feature","properties":{"code":"801203","name":"ป่าระกำ","parentCode":"8012"},"geometry":{"type":"Polygon","coordinates":[[[100.16992091400004,8.26494989500003],[100.11890720600007,8.275415548000069],[100.07678041600008,8.229303944000037],[100.07753007000008,8.225283625000031],[100.11700856900006,8.214416335000067],[100.16189594600007,8.25219179100003],[100.16992091400004,8.26494989500003]]]}},{"type":"Feature","properties":{"code":"800107","name":"ปากนคร","parentCode":"8001"},"geometry":{"type":"Polygon","coordinates":[[[100.06107708800005,8.474623615000041],[100.05166573700006,8.497436847000074],[99.97244128600005,8.441329736000057],[99.97444717300004,8.430522196000027],[99.98162691600004,8.386285312000041],[100.00142949800005,8.399577935000025],[100.06107708800005,8.474623615000041]]]}},{"type":"Feature","properties":{"code":"801201","name":"ปากพนัง","parentCode":"8012"},"geometry":{"type":"Polygon","coordinates":[[[100.20448963600006,8.345127954000077],[100.19295373000006,8.360671447000072],[100.19625908800003,8.344732364000038],[100.19954637500007,8.333015921000026],[100.20448963600006,8.345127954000077]]]}},{"type":"Feature","properties":{"code":"801214","name":"ปากพนังฝั่งตะวันออก","parentCode":"8012"},"geometry":{"type":"Polygon","coordinates":[[[100.21862882800008,8.432611751000024],[100.15964006600007,8.477318672000024],[100.14734292200006,8.442991318000054],[100.16603334500007,8.38734590000007],[100.19295373000006,8.360671447000072],[100.20448963600006,8.345127954000077],[100.24893452200007,8.348019727000064],[100.21862882800008,8.432611751000024]]]}},{"type":"Feature","properties":{"code":"801210","name":"ปากพนังฝั่งตะวันตก","parentCode":"8012"},"geometry":{"type":"Polygon","coordinates":[[[100.16603334500007,8.38734590000007],[100.13838705100005,8.388275689000068],[100.14172793700004,8.344889960000046],[100.16197826400008,8.33522879000003],[100.19625908800003,8.344732364000038],[100.19295373000006,8.360671447000072],[100.16603334500007,8.38734590000007]]]}},{"type":"Feature","properties":{"code":"800901","name":"ปากแพรก","parentCode":"8009"},"geometry":{"type":"Polygon","coordinates":[[[99.69745917000006,8.176195557000028],[99.68085010700008,8.186976382000068],[99.69381124200004,8.148664310000072],[99.69745917000006,8.176195557000028]]]}},{"type":"Feature","properties":{"code":"801217","name":"ปากแพรก","parentCode":"8012"},"geometry":{"type":"Polygon","coordinates":[[[100.23282182600008,8.27043453400006],[100.20159885100009,8.30996560400007],[100.19733600200004,8.279672617000074],[100.19589584100004,8.256051986000045],[100.18991497200005,8.223639351000031],[100.19888149400003,8.218447921000063],[100.22962725700006,8.197700632000021],[100.23655669300007,8.238421249000055],[100.23282182600008,8.27043453400006]]]}},{"type":"Feature","properties":{"code":"800120","name":"ปากพูน","parentCode":"8001"},"geometry":{"type":"Polygon","coordinates":[[[99.94419532400008,8.599399654000024],[99.92850739200009,8.555401825000047],[99.92630533000005,8.54342695300005],[99.94674247500006,8.507803786000068],[99.94600403400005,8.495439829000077],[99.95335144600006,8.468592448000038],[99.95565602400006,8.45662507700007],[99.96866808000004,8.458415604000038],[100.02399848500005,8.524708213000054],[100.01740223600007,8.558500264000031],[99.97809568100007,8.586916098000074],[99.94419532400008,8.599399654000024]]]}},{"type":"Feature","properties":{"code":"800501","name":"พิปูน","parentCode":"8005"},"geometry":{"type":"Polygon","coordinates":[[[99.71736227600007,8.552468084000054],[99.70323368700008,8.57394658000004],[99.61696492000004,8.58209707800006],[99.59242721300006,8.55496144500006],[99.64125293200004,8.526608267000029],[99.71700625500006,8.547896492000064],[99.71736227600007,8.552468084000054]]]}},{"type":"Feature","properties":{"code":"800118","name":"โพธิ์เสด็จ","parentCode":"8001"},"geometry":{"type":"Polygon","coordinates":[[[99.95765571500004,8.442739455000037],[99.88632520500005,8.444159255000045],[99.88560196300006,8.435315307000053],[99.89265536900007,8.416322776000072],[99.93140194000006,8.410146316000066],[99.96298533000004,8.413842812000041],[99.96065349600008,8.427446711000073],[99.95826310200005,8.439436475000036],[99.95765571500004,8.442739455000037]]]}},{"type":"Feature","properties":{"code":"800813","name":"โพธิ์ทอง","parentCode":"8008"},"geometry":{"type":"Polygon","coordinates":[[[99.91068089300006,8.652479458000073],[99.90315929600007,8.643112143000053],[99.90215147500004,8.607709881000062],[99.90692977900005,8.573614728000052],[99.92850739200009,8.555401825000047],[99.94419532400008,8.599399654000024],[99.91068089300006,8.652479458000073]]]}},{"type":"Feature","properties":{"code":"800201","name":"พรหมโลก","parentCode":"8002"},"geometry":{"type":"Polygon","coordinates":[[[99.85347090200008,8.519892015000039],[99.79464503800006,8.530582060000029],[99.74491151100005,8.505186983000044],[99.73350140900004,8.49421594100005],[99.78978292100004,8.469947095000066],[99.79821249400004,8.469651885000076],[99.84954401300007,8.490884563000066],[99.85347090200008,8.519892015000039]]]}},{"type":"Feature","properties":{"code":"801405","name":"เปลี่ยน","parentCode":"8014"},"geometry":{"type":"Polygon","coordinates":[[[99.88981682600007,8.85301327600007],[99.84654025900005,8.866497347000063],[99.75254989300004,8.813624740000023],[99.75822480300008,8.81156621200006],[99.86126331100007,8.819480632000023],[99.90891471100008,8.857793464000054],[99.88981682600007,8.85301327600007]]]}},{"type":"Feature","properties":{"code":"801105","name":"ปริก","parentCode":"8011"},"geometry":{"type":"Polygon","coordinates":[[[99.46466288800008,8.215790102000028],[99.48655549000006,8.347509990000049],[99.45051458800003,8.328172271000028],[99.38854405100005,8.331940530000054],[99.38958473100007,8.260971772000062],[99.46466288800008,8.215790102000028]]]}},{"type":"Feature","properties":{"code":"801610","name":"รามแก้ว","parentCode":"8016"},"geometry":{"type":"Polygon","coordinates":[[[100.32127355100005,7.936832596000045],[100.30818724000005,7.978625794000038],[100.26079056300006,7.939489001000027],[100.26598024600008,7.91466839800006],[100.28873542600007,7.914861044000077],[100.32127355100005,7.936832596000045]]]}},{"type":"Feature","properties":{"code":"801301","name":"ร่อนพิบูลย์","parentCode":"8013"},"geometry":{"type":"Polygon","coordinates":[[[99.88644970400009,8.207211242000028],[99.82852140100005,8.237714131000075],[99.79244158600005,8.234058319000042],[99.80129466200003,8.200271091000047],[99.77118139300006,8.11313366500002],[99.77117335600008,8.068411165000043],[99.80994041900004,8.137576521000028],[99.86208135900006,8.15020706000007],[99.86508603900006,8.154599420000068],[99.88644970400009,8.207211242000028]]]}},{"type":"Feature","properties":{"code":"800806","name":"สระแก้ว","parentCode":"8008"},"geometry":{"type":"Polygon","coordinates":[[[99.93789786300005,8.747710436000034],[99.93330215700007,8.796779460000039],[99.88447844400008,8.762339231000055],[99.84959643500008,8.765986843000064],[99.80734464600005,8.730556208000053],[99.79583486200005,8.714451563000068],[99.81983506700004,8.706263701000069],[99.82870791400006,8.723170914000036],[99.87767002300006,8.748668197000029],[99.93789786300005,8.747710436000034]]]}},{"type":"Feature","properties":{"code":"801603","name":"ทรายขาว","parentCode":"8016"},"geometry":{"type":"Polygon","coordinates":[[[100.21698409800007,8.07954681700005],[100.19385243900007,8.01011390800005],[100.23817624800006,8.010934517000067],[100.26015106100004,8.008145589000037],[100.26349964900004,8.063751172000025],[100.21698409800007,8.07954681700005]]]}},{"type":"Feature","properties":{"code":"800606","name":"ไสหมาก","parentCode":"8006"},"geometry":{"type":"Polygon","coordinates":[[[100.18991497200005,8.223639351000031],[100.17575666300007,8.229087327000059],[100.12703236400006,8.20696534800004],[100.15348055900006,8.17616386700007],[100.19888149400003,8.218447921000063],[100.18991497200005,8.223639351000031]]]}},{"type":"Feature","properties":{"code":"800410","name":"ไสหร้า","parentCode":"8004"},"geometry":{"type":"Polygon","coordinates":[[[99.57341530800005,8.497797529000024],[99.55626450000005,8.504437427000028],[99.56054284600003,8.478644893000023],[99.51084492400008,8.443670825000027],[99.51227165800003,8.431280013000048],[99.52279448400009,8.402072830000066],[99.56057082400008,8.415755607000051],[99.58712582900006,8.484116394000068],[99.57341530800005,8.497797529000024]]]}},{"type":"Feature","properties":{"code":"801906","name":"สามตำบล","parentCode":"8019"},"geometry":{"type":"Polygon","coordinates":[[[99.91711726200003,8.113168434000045],[99.89154082100004,8.109674674000075],[99.88958911700007,8.094132830000035],[99.77244589000009,8.066816116000041],[99.77645360800005,8.047234385000024],[99.77890213100005,8.039689218000035],[99.83324638200008,8.072369793000064],[99.90744881300009,8.066297219000035],[99.91711726200003,8.113168434000045]]]}},{"type":"Feature","properties":{"code":"801404","name":"เสาเภา","parentCode":"8014"},"geometry":{"type":"Polygon","coordinates":[[[99.91562348700006,8.910846612000057],[99.85432949400007,8.914785807000044],[99.86521629600009,8.882025695000038],[99.88981682600007,8.85301327600007],[99.90891471100008,8.857793464000054],[99.92080628200006,8.870250901000077],[99.91562348700006,8.910846612000057]]]}},{"type":"Feature","properties":{"code":"801303","name":"เสาธง","parentCode":"8013"},"geometry":{"type":"Polygon","coordinates":[[[99.94278101400005,8.268306602000052],[99.86454383000006,8.297981906000075],[99.91063400200005,8.26283275000003],[99.91443778500008,8.225297044000058],[99.93750254100007,8.219180263000055],[99.94276115300005,8.232305360000055],[99.94211439400004,8.266651867000064],[99.94278101400005,8.268306602000052]]]}},{"type":"Feature","properties":{"code":"801406","name":"สี่ขีด","parentCode":"8014"},"geometry":{"type":"Polygon","coordinates":[[[99.80829430100005,9.081772368000031],[99.77176501800005,9.096430174000034],[99.74209333500005,9.029715931000055],[99.72558777500006,8.988289265000049],[99.72244166000007,8.97734798600004],[99.74271164300006,8.95314914000005],[99.82060496600008,8.980541965000043],[99.86911906800003,9.01047016800004],[99.83420200500007,9.042270556000062],[99.80829430100005,9.081772368000031]]]}},{"type":"Feature","properties":{"code":"801401","name":"สิชล","parentCode":"8014"},"geometry":{"type":"Polygon","coordinates":[[[99.91720212400008,9.01555195900005],[99.84553580100004,9.056540824000024],[99.83420200500007,9.042270556000062],[99.86911906800003,9.01047016800004],[99.82060496600008,8.980541965000043],[99.82318346100004,8.975482070000055],[99.88092586800008,8.998003174000075],[99.91411707400005,8.972812759000021],[99.91720212400008,9.01555195900005]]]}},{"type":"Feature","properties":{"code":"802203","name":"สวนขัน","parentCode":"8022"},"geometry":{"type":"Polygon","coordinates":[[[99.70058878300006,8.432562651000069],[99.69654724400004,8.45518374900007],[99.69502494500006,8.443080575000067],[99.58492497600008,8.42095407100004],[99.58962292400008,8.37129877700005],[99.62115063200008,8.371764760000076],[99.70058878300006,8.432562651000069]]]}},{"type":"Feature","properties":{"code":"802303","name":"สวนหลวง","parentCode":"8023"},"geometry":{"type":"Polygon","coordinates":[[[100.04075571500005,8.180168383000023],[100.03092284800005,8.197256755000069],[100.01585317500007,8.18440677500007],[100.02765194200003,8.126388604000056],[100.05279155600005,8.053126657000064],[100.07772017000008,8.110209328000053],[100.10720165000004,8.119599114000039],[100.08175644200008,8.147916996000049],[100.04075571500005,8.180168383000023]]]}},{"type":"Feature","properties":{"code":"800610","name":"เสือหึง","parentCode":"8006"},"geometry":{"type":"Polygon","coordinates":[[[100.25775920200005,8.17780915700007],[100.23264479300008,8.197771164000073],[100.21439499900004,8.177756640000041],[100.19136776900007,8.120496833000061],[100.21830625900009,8.113243386000022],[100.21868645100005,8.124108041000056],[100.25775920200005,8.17780915700007]]]}},{"type":"Feature","properties":{"code":"800811","name":"ตลิ่งชัน","parentCode":"8008"},"geometry":{"type":"Polygon","coordinates":[[[99.86126331100007,8.819480632000023],[99.75822480300008,8.81156621200006],[99.80734464600005,8.730556208000053],[99.84959643500008,8.765986843000064],[99.88447844400008,8.762339231000055],[99.86126331100007,8.819480632000023]]]}},{"type":"Feature","properties":{"code":"800303","name":"ท่าดี","parentCode":"8003"},"geometry":{"type":"Polygon","coordinates":[[[99.79821249400004,8.469651885000076],[99.78978292100004,8.469947095000066],[99.80898476000004,8.376311138000062],[99.81115411200005,8.374127660000056],[99.84576853000004,8.36772669800007],[99.84906337200005,8.419947272000059],[99.79821249400004,8.469651885000076]]]}},{"type":"Feature","properties":{"code":"800603","name":"ท่าขนาน","parentCode":"8006"},"geometry":{"type":"Polygon","coordinates":[[[100.15055765800008,8.167005227000061],[100.14390926900006,8.167596152000044],[100.14744917900003,8.133317995000027],[100.17535726900007,8.10830313100007],[100.19136776900007,8.120496833000061],[100.18605604700008,8.151851090000036],[100.15055765800008,8.167005227000061]]]}},{"type":"Feature","properties":{"code":"800803","name":"ท่าขึ้น","parentCode":"8008"},"geometry":{"type":"Polygon","coordinates":[[[99.93789786300005,8.747710436000034],[99.87767002300006,8.748668197000029],[99.82870791400006,8.723170914000036],[99.85274954400006,8.687738097000022],[99.91675799700005,8.681715521000058],[99.94505816900005,8.692893554000023],[99.93789786300005,8.747710436000034]]]}},{"type":"Feature","properties":{"code":"800116","name":"ท่างิ้ว","parentCode":"8001"},"geometry":{"type":"Polygon","coordinates":[[[99.94674247500006,8.507803786000068],[99.92907616100007,8.50842530500006],[99.84954401300007,8.490884563000066],[99.79821249400004,8.469651885000076],[99.84906337200005,8.419947272000059],[99.88492312300008,8.436178649000055],[99.88686662600009,8.481236016000025],[99.94600403400005,8.495439829000077],[99.94674247500006,8.507803786000068]]]}},{"type":"Feature","properties":{"code":"801216","name":"ท่าพยา","parentCode":"8012"},"geometry":{"type":"Polygon","coordinates":[[[100.28002708900004,8.23977837700005],[100.26336204200004,8.30355815300004],[100.23282182600008,8.27043453400006],[100.23655669300007,8.238421249000055],[100.28002708900004,8.23977837700005]]]}},{"type":"Feature","properties":{"code":"800703","name":"ท่าประจะ","parentCode":"8007"},"geometry":{"type":"Polygon","coordinates":[[[99.99384937200006,7.966936487000055],[99.96417483000005,8.00166861300005],[99.94592660600006,8.000637382000036],[99.94246182200004,7.990948519000028],[99.93889011000005,7.952064112000073],[99.93805357800005,7.9502549610000415],[99.97171530000008,7.948657825000055],[99.99384937200006,7.966936487000055]]]}},{"type":"Feature","properties":{"code":"800106","name":"ท่าไร่","parentCode":"8001"},"geometry":{"type":"Polygon","coordinates":[[[100.08231901700003,8.421150862000047],[100.06107708800005,8.474623615000041],[100.00142949800005,8.399577935000025],[100.01820803000004,8.382435246000057],[100.08231901700003,8.421150862000047]]]}},{"type":"Feature","properties":{"code":"800122","name":"ท่าเรือ","parentCode":"8001"},"geometry":{"type":"Polygon","coordinates":[[[100.01820803000004,8.382435246000057],[100.00142949800005,8.399577935000025],[99.98162691600004,8.386285312000041],[99.97164326000006,8.378024726000035],[100.00274267500004,8.253474649000054],[100.01388572600007,8.248420923000026],[100.01905207300007,8.248139490000028],[100.05358538100006,8.336089048000076],[100.01820803000004,8.382435246000057]]]}},{"type":"Feature","properties":{"code":"800121","name":"ท่าซัก","parentCode":"8001"},"geometry":{"type":"Polygon","coordinates":[[[100.05166573700006,8.497436847000074],[100.01740223600007,8.558500264000031],[100.02399848500005,8.524708213000054],[99.96866808000004,8.458415604000038],[99.97244128600005,8.441329736000057],[100.05166573700006,8.497436847000074]]]}},{"type":"Feature","properties":{"code":"800801","name":"ท่าศาลา","parentCode":"8008"},"geometry":{"type":"Polygon","coordinates":[[[99.94505816900005,8.692893554000023],[99.91675799700005,8.681715521000058],[99.91068089300006,8.652479458000073],[99.94419532400008,8.599399654000024],[99.97809568100007,8.586916098000074],[99.95219634500006,8.633109036000064],[99.94505816900005,8.692893554000023]]]}},{"type":"Feature","properties":{"code":"800702","name":"ท่าเสม็ด","parentCode":"8007"},"geometry":{"type":"Polygon","coordinates":[[[99.99384937200006,7.966936487000055],[99.97171530000008,7.948657825000055],[99.96602545800005,7.925324450000062],[99.99410260800005,7.917856438000058],[100.03261410500005,7.951187882000056],[100.03266738300005,7.96066799700003],[99.99384937200006,7.966936487000055]]]}},{"type":"Feature","properties":{"code":"801608","name":"ท่าซอม","parentCode":"8016"},"geometry":{"type":"Polygon","coordinates":[[[100.25775920200005,8.17780915700007],[100.21868645100005,8.124108041000056],[100.26986286900006,8.112480107000067],[100.25926636600008,8.17309698500003],[100.25775920200005,8.17780915700007]]]}},{"type":"Feature","properties":{"code":"800102","name":"ท่าวัง","parentCode":"8001"},"geometry":{"type":"Polygon","coordinates":[[[99.97244128600005,8.441329736000057],[99.96866808000004,8.458415604000038],[99.95565602400006,8.45662507700007],[99.95765571500004,8.442739455000037],[99.95826310200005,8.439436475000036],[99.97244128600005,8.441329736000057]]]}},{"type":"Feature","properties":{"code":"801101","name":"ท่ายาง","parentCode":"8011"},"geometry":{"type":"Polygon","coordinates":[[[99.38395954100008,8.337763118000055],[99.29690869500007,8.344751287000065],[99.28864968700003,8.317242174000057],[99.29035990300008,8.312564330000043],[99.33363553700008,8.26161933700007],[99.38958473100007,8.260971772000062],[99.38854405100005,8.331940530000054],[99.38395954100008,8.337763118000055]]]}},{"type":"Feature","properties":{"code":"800809","name":"ไทยบุรี","parentCode":"8008"},"geometry":{"type":"Polygon","coordinates":[[[99.91675799700005,8.681715521000058],[99.85274954400006,8.687738097000022],[99.86124476200007,8.631318751000038],[99.90315929600007,8.643112143000053],[99.91068089300006,8.652479458000073],[99.91675799700005,8.681715521000058]]]}},{"type":"Feature","properties":{"code":"802003","name":"ท้ายสำเภา","parentCode":"8020"},"geometry":{"type":"Polygon","coordinates":[[[99.94200478000005,8.323092590000044],[99.87396768100007,8.325175298000033],[99.86009651900008,8.306248985000025],[99.86454383000006,8.297981906000075],[99.94278101400005,8.268306602000052],[99.94200478000005,8.323092590000044]]]}},{"type":"Feature","properties":{"code":"801801","name":"ถ้ำพรรณรา","parentCode":"8018"},"geometry":{"type":"Polygon","coordinates":[[[99.43001800700006,8.428168712000058],[99.38515996300004,8.464925465000022],[99.38607292800003,8.435450435000064],[99.32269016900005,8.418418591000034],[99.32210995300005,8.411587341000029],[99.37389541500005,8.389341030000026],[99.42041013100004,8.412078463000057],[99.43001800700006,8.428168712000058]]]}},{"type":"Feature","properties":{"code":"800911","name":"ถ้ำใหญ่","parentCode":"8009"},"geometry":{"type":"Polygon","coordinates":[[[99.79244158600005,8.234058319000042],[99.75597291100007,8.249031347000027],[99.69745917000006,8.176195557000028],[99.69381124200004,8.148664310000072],[99.70332449200004,8.13064128000002],[99.70623998600007,8.087066347000075],[99.77118139300006,8.11313366500002],[99.80129466200003,8.200271091000047],[99.79244158600005,8.234058319000042]]]}},{"type":"Feature","properties":{"code":"802304","name":"ทางพูน","parentCode":"8023"},"geometry":{"type":"Polygon","coordinates":[[[100.00274267500004,8.253474649000054],[99.94211439400004,8.266651867000064],[99.94276115300005,8.232305360000055],[99.99276496100003,8.238826556000049],[100.01585317500007,8.18440677500007],[100.03092284800005,8.197256755000069],[100.01388572600007,8.248420923000026],[100.00274267500004,8.253474649000054]]]}},{"type":"Feature","properties":{"code":"801407","name":"เทพราช","parentCode":"8014"},"geometry":{"type":"Polygon","coordinates":[[[99.86521629600009,8.882025695000038],[99.82814822000006,8.909269668000036],[99.73149368500003,8.860244246000036],[99.68166376500005,8.855107360000034],[99.75254989300004,8.813624740000023],[99.84654025900005,8.866497347000063],[99.88981682600007,8.85301327600007],[99.86521629600009,8.882025695000038]]]}},{"type":"Feature","properties":{"code":"800909","name":"ที่วัง","parentCode":"8009"},"geometry":{"type":"Polygon","coordinates":[[[99.70332449200004,8.13064128000002],[99.66098555200006,8.138654880000047],[99.65788222600008,8.122944305000033],[99.63526570100004,8.086184442000047],[99.64332202100007,8.05281270000006],[99.75062500400009,8.049588487000051],[99.77645360800005,8.047234385000024],[99.77244589000009,8.066816116000041],[99.77117335600008,8.068411165000043],[99.77118139300006,8.11313366500002],[99.70623998600007,8.087066347000075],[99.70332449200004,8.13064128000002]]]}},{"type":"Feature","properties":{"code":"800204","name":"ทอนหงส์","parentCode":"8002"},"geometry":{"type":"Polygon","coordinates":[[[99.81425457000006,8.623198124000055],[99.71653095300007,8.615099371000042],[99.70959269500008,8.597355812000046],[99.71736227600007,8.552468084000054],[99.71700625500006,8.547896492000064],[99.73979686500007,8.533412081000051],[99.84835078600008,8.550319392000063],[99.85040141200005,8.556243391000066],[99.83336823900004,8.577931934000048],[99.83610727600006,8.599150706000046],[99.83129266200007,8.620142248000036],[99.81425457000006,8.623198124000055]]]}},{"type":"Feature","properties":{"code":"800607","name":"ท้องลำเจียก","parentCode":"8006"},"geometry":{"type":"Polygon","coordinates":[[[100.14390926900006,8.167596152000044],[100.12452110600003,8.17965926100004],[100.08175644200008,8.147916996000049],[100.10720165000004,8.119599114000039],[100.11609912600005,8.113919795000072],[100.14744917900003,8.133317995000027],[100.14390926900006,8.167596152000044]]]}},{"type":"Feature","properties":{"code":"801503","name":"ท้องเนียน","parentCode":"8015"},"geometry":{"type":"Polygon","coordinates":[[[99.86558888400003,9.235915244000068],[99.84350328800008,9.293580915000064],[99.76912757800005,9.322795434000057],[99.77159450300007,9.260889774000077],[99.79430336400009,9.270322588000056],[99.84274634800005,9.218521242000065],[99.86558888400003,9.235915244000068]]]}},{"type":"Feature","properties":{"code":"801904","name":"ทุ่งโพธิ์","parentCode":"8019"},"geometry":{"type":"Polygon","coordinates":[[[99.89154082100004,8.109674674000075],[99.86208135900006,8.15020706000007],[99.80994041900004,8.137576521000028],[99.77117335600008,8.068411165000043],[99.77244589000009,8.066816116000041],[99.88958911700007,8.094132830000035],[99.89154082100004,8.109674674000075]]]}},{"type":"Feature","properties":{"code":"801402","name":"ทุ่งปรัง","parentCode":"8014"},"geometry":{"type":"Polygon","coordinates":[[[99.91411707400005,8.972812759000021],[99.88092586800008,8.998003174000075],[99.82318346100004,8.975482070000055],[99.83571795100005,8.97122188800006],[99.85432949400007,8.914785807000044],[99.91562348700006,8.910846612000057],[99.91411707400005,8.972812759000021]]]}},{"type":"Feature","properties":{"code":"801409","name":"ทุ่งใส","parentCode":"8014"},"geometry":{"type":"Polygon","coordinates":[[[99.90944772800003,9.089935196000056],[99.86165148900005,9.089346582000076],[99.83273187000003,9.124129388000028],[99.80829430100005,9.081772368000031],[99.83420200500007,9.042270556000062],[99.84553580100004,9.056540824000024],[99.91720212400008,9.01555195900005],[99.90944772800003,9.089935196000056]]]}},{"type":"Feature","properties":{"code":"801102","name":"ทุ่งสัง","parentCode":"8011"},"geometry":{"type":"Polygon","coordinates":[[[99.37389541500005,8.389341030000026],[99.32210995300005,8.411587341000029],[99.29690869500007,8.344751287000065],[99.38395954100008,8.337763118000055],[99.37389541500005,8.389341030000026]]]}},{"type":"Feature","properties":{"code":"801002","name":"ทุ่งสง","parentCode":"8010"},"geometry":{"type":"Polygon","coordinates":[[[99.51942362100004,8.348039361000076],[99.48019417500007,8.364710759000047],[99.48655549000006,8.347509990000049],[99.46466288800008,8.215790102000028],[99.47274606800005,8.197358876000067],[99.49657511200007,8.218028177000065],[99.49747441700003,8.273678214000029],[99.52136400600006,8.339293324000039],[99.51942362100004,8.348039361000076]]]}},{"type":"Feature","properties":{"code":"801103","name":"ทุ่งใหญ่","parentCode":"8011"},"geometry":{"type":"Polygon","coordinates":[[[99.42041013100004,8.412078463000057],[99.37389541500005,8.389341030000026],[99.38395954100008,8.337763118000055],[99.38854405100005,8.331940530000054],[99.45051458800003,8.328172271000028],[99.48655549000006,8.347509990000049],[99.48019417500007,8.364710759000047],[99.47700168300008,8.392413546000057],[99.42041013100004,8.412078463000057]]]}},{"type":"Feature","properties":{"code":"800705","name":"วังอ่าง","parentCode":"8007"},"geometry":{"type":"Polygon","coordinates":[[[99.93889011000005,7.952064112000073],[99.82908752400004,7.969393947000071],[99.79774270800004,7.9092683170000555],[99.73789967700009,7.860885086000053],[99.73824742400006,7.858896272000038],[99.80837798800007,7.892876596000065],[99.88739427000007,7.889451885000028],[99.92430238900005,7.897525085000041],[99.93805357800005,7.9502549610000415],[99.93889011000005,7.952064112000073]]]}},{"type":"Feature","properties":{"code":"801703","name":"วังหิน","parentCode":"8017"},"geometry":{"type":"Polygon","coordinates":[[[99.54304805200007,8.060186882000039],[99.54073797900008,8.053502017000028],[99.51834149000007,8.008590127000048],[99.54198529400009,7.908980290000045],[99.56258753800006,7.9250660440000615],[99.60284263800008,7.983427509000023],[99.54304805200007,8.060186882000039]]]}},{"type":"Feature","properties":{"code":"800504","name":"ยางค้อม","parentCode":"8005"},"geometry":{"type":"Polygon","coordinates":[[[99.71700625500006,8.547896492000064],[99.64125293200004,8.526608267000029],[99.59242721300006,8.55496144500006],[99.58689426300003,8.552052253000056],[99.57341530800005,8.497797529000024],[99.58712582900006,8.484116394000068],[99.64175834600007,8.518778078000025],[99.70189478100008,8.48316477700007],[99.73350140900004,8.49421594100005],[99.74491151100005,8.505186983000044],[99.73979686500007,8.533412081000051],[99.71700625500006,8.547896492000064]]]}}]}