{"type":"FeatureCollection","features":[{"type":"Feature","properties":{"code":"810505","name":"อ่าวลึกน้อย","parentCode":"8105"},"geometry":{"type":"Polygon","coordinates":[[[98.74704427900008,8.347817993000035],[98.73100792900004,8.347348913000076],[98.71028717200005,8.311452317000033],[98.72577965800008,8.246734493000076],[98.76610503600006,8.261260153000023],[98.77060951300007,8.308877715000051],[98.74704427900008,8.347817993000035]]]}},{"type":"Feature","properties":{"code":"810506","name":"อ่าวลึกเหนือ","parentCode":"8105"},"geometry":{"type":"Polygon","coordinates":[[[98.83756115600005,8.368986309000036],[98.86131271100004,8.417844452000054],[98.78638451100005,8.450486177000073],[98.77686122800009,8.43376617000007],[98.74014409900008,8.39485361100003],[98.73100792900004,8.347348913000076],[98.74704427900008,8.347817993000035],[98.77747330300008,8.383192864000023],[98.83756115600005,8.368986309000036]]]}},{"type":"Feature","properties":{"code":"810501","name":"อ่าวลึกใต้","parentCode":"8105"},"geometry":{"type":"Polygon","coordinates":[[[98.77377221700004,8.433641472000033],[98.69138656500007,8.417866252000067],[98.66538228600007,8.430896763000021],[98.66240474600005,8.384786450000036],[98.70919213100007,8.316521180000052],[98.71028717200005,8.311452317000033],[98.73100792900004,8.347348913000076],[98.74014409900008,8.39485361100003],[98.77686122800009,8.43376617000007],[98.77377221700004,8.433641472000033]]]}},{"type":"Feature","properties":{"code":"810116","name":"อ่าวนาง","parentCode":"8101"},"geometry":{"type":"Polygon","coordinates":[[[98.85653679600006,8.021496316000025],[98.84444604900006,8.08856008500004],[98.80906097300004,8.088385678000066],[98.79811268700007,8.047650029000067],[98.85653679600006,8.021496316000025]]]}},{"type":"Feature","properties":{"code":"810509","name":"บ้านกลาง","parentCode":"8105"},"geometry":{"type":"Polygon","coordinates":[[[98.83756115600005,8.368986309000036],[98.77747330300008,8.383192864000023],[98.74704427900008,8.347817993000035],[98.77060951300007,8.308877715000051],[98.83769406400006,8.362368311000068],[98.83756115600005,8.368986309000036]]]}},{"type":"Feature","properties":{"code":"810704","name":"ดินแดง","parentCode":"8107"},"geometry":{"type":"Polygon","coordinates":[[[99.38740973100005,8.063077928000041],[99.33318602800006,8.062462739000068],[99.34036578100006,7.996156486000075],[99.36980707200007,7.946576569000058],[99.41492290200006,7.999722251000037],[99.38740973100005,8.063077928000041]]]}},{"type":"Feature","properties":{"code":"810702","name":"ดินอุดม","parentCode":"8107"},"geometry":{"type":"Polygon","coordinates":[[[99.39166637100004,8.109850334000043],[99.36804386900008,8.137749477000057],[99.32274900700008,8.13474210000004],[99.33318602800006,8.062462739000068],[99.38740973100005,8.063077928000041],[99.39166637100004,8.109850334000043]]]}},{"type":"Feature","properties":{"code":"810405","name":"ห้วยน้ำขาว","parentCode":"8104"},"geometry":{"type":"Polygon","coordinates":[[[99.19070849900004,7.88404291300003],[99.14499988900008,7.894765843000073],[99.11183566600005,7.9327838710000265],[99.08162209200003,7.9198253000000705],[99.06777500300007,7.875512984000068],[99.06385040500004,7.854255712000054],[99.12912653400008,7.816705915000057],[99.13168146100008,7.776422289000038],[99.18844031300006,7.848750145000054],[99.19070849900004,7.88404291300003]]]}},{"type":"Feature","properties":{"code":"810808","name":"ห้วยยูง","parentCode":"8108"},"geometry":{"type":"Polygon","coordinates":[[[99.15918855100006,8.178410972000052],[99.09762362000004,8.23089451800007],[99.08015196000008,8.177349538000044],[99.03151591100004,8.153591060000053],[99.01596015600006,8.183733504000031],[98.98142435800008,8.131437766000033],[99.02037904800005,8.082209849000037],[99.04920261800004,8.081173119000027],[99.07590561100005,8.12488170000006],[99.13016999500007,8.165437642000029],[99.15918855100006,8.178410972000052]]]}},{"type":"Feature","properties":{"code":"810202","name":"เขาดิน","parentCode":"8102"},"geometry":{"type":"Polygon","coordinates":[[[99.20502622800007,8.36604924300002],[99.03611636600004,8.36228092600004],[99.01106726800003,8.38169104700006],[99.02871514500004,8.292272598000068],[99.06862944900007,8.284507461000032],[99.06733165500003,8.32368432000004],[99.17345210800005,8.318537984000045],[99.22418805800004,8.323290156000041],[99.20502622800007,8.36604924300002]]]}},{"type":"Feature","properties":{"code":"810602","name":"เขาเขน","parentCode":"8106"},"geometry":{"type":"Polygon","coordinates":[[[98.81356979400005,8.480275423000023],[98.83757434700004,8.556024729000058],[98.83313606800004,8.674144005000073],[98.79535754600005,8.651056628000049],[98.79057887200008,8.57032892500007],[98.76662455600007,8.538584575000073],[98.75259926700005,8.495778749000067],[98.77185726200008,8.486039153000036],[98.81356979400005,8.480275423000023]]]}},{"type":"Feature","properties":{"code":"810105","name":"เขาคราม","parentCode":"8101"},"geometry":{"type":"Polygon","coordinates":[[[98.86467032700006,8.269585800000073],[98.83374304900008,8.288465101000043],[98.76610503600006,8.261260153000023],[98.72577965800008,8.246734493000076],[98.74856016300004,8.203334143000063],[98.79244668100006,8.174972038000021],[98.82080835900007,8.19841083800003],[98.85478983200005,8.208570346000045],[98.86467032700006,8.269585800000073]]]}},{"type":"Feature","properties":{"code":"810201","name":"เขาพนม","parentCode":"8102"},"geometry":{"type":"Polygon","coordinates":[[[99.06862944900007,8.284507461000032],[99.02871514500004,8.292272598000068],[99.01799455500009,8.272592423000049],[98.93387122100006,8.279348603000074],[99.01375421300008,8.22899656800007],[99.01596015600006,8.183733504000031],[99.03151591100004,8.153591060000053],[99.08015196000008,8.177349538000044],[99.06862944900007,8.284507461000032]]]}},{"type":"Feature","properties":{"code":"810106","name":"เขาทอง","parentCode":"8101"},"geometry":{"type":"Polygon","coordinates":[[[98.82080835900007,8.19841083800003],[98.79244668100006,8.174972038000021],[98.74856016300004,8.203334143000063],[98.74985559000004,8.114366241000027],[98.82253533200009,8.129099151000048],[98.85371477500007,8.120317339000053],[98.82080835900007,8.19841083800003]]]}},{"type":"Feature","properties":{"code":"810603","name":"เขาต่อ","parentCode":"8106"},"geometry":{"type":"Polygon","coordinates":[[[98.79535754600005,8.651056628000049],[98.74764297200005,8.67510965200006],[98.70343810700007,8.631978692000075],[98.68730064100004,8.565774328000032],[98.68224796700008,8.550857716000053],[98.70299914500004,8.562917063000043],[98.76662455600007,8.538584575000073],[98.79057887200008,8.57032892500007],[98.79535754600005,8.651056628000049]]]}},{"type":"Feature","properties":{"code":"810507","name":"เขาใหญ่","parentCode":"8105"},"geometry":{"type":"Polygon","coordinates":[[[98.75259926700005,8.495778749000067],[98.69945630700005,8.495498435000059],[98.67018403200007,8.460693124000045],[98.66538228600007,8.430896763000021],[98.69138656500007,8.417866252000067],[98.77377221700004,8.433641472000033],[98.77185726200008,8.486039153000036],[98.75259926700005,8.495778749000067]]]}},{"type":"Feature","properties":{"code":"810604","name":"คีรีวง","parentCode":"8106"},"geometry":{"type":"Polygon","coordinates":[[[98.81356979400005,8.480275423000023],[98.77185726200008,8.486039153000036],[98.77377221700004,8.433641472000033],[98.77686122800009,8.43376617000007],[98.78638451100005,8.450486177000073],[98.86131271100004,8.417844452000054],[98.92647770100007,8.448157007000077],[98.81356979400005,8.480275423000023]]]}},{"type":"Feature","properties":{"code":"810504","name":"คลองหิน","parentCode":"8105"},"geometry":{"type":"Polygon","coordinates":[[[98.91134680800008,8.320547798000064],[98.83769406400006,8.362368311000068],[98.77060951300007,8.308877715000051],[98.76610503600006,8.261260153000023],[98.83374304900008,8.288465101000043],[98.86467032700006,8.269585800000073],[98.90758195400008,8.293604791000064],[98.91134680800008,8.320547798000064]]]}},{"type":"Feature","properties":{"code":"810804","name":"คลองเขม้า","parentCode":"8108"},"geometry":{"type":"Polygon","coordinates":[[[99.01794541200007,8.033658031000073],[98.95861436800004,8.070390534000069],[98.95781581600005,8.01869510900002],[98.98475976200007,8.005507557000044],[99.01781142000004,8.030987151000033],[99.01794541200007,8.033658031000073]]]}},{"type":"Feature","properties":{"code":"810803","name":"คลองขนาน","parentCode":"8108"},"geometry":{"type":"Polygon","coordinates":[[[99.01781142000004,8.030987151000033],[98.98475976200007,8.005507557000044],[99.00255652600003,7.934327746000065],[99.02645089300006,7.889871067000058],[99.06777500300007,7.875512984000068],[99.08162209200003,7.9198253000000705],[99.07990659500007,7.9424411080000255],[99.07511369800005,7.978316150000069],[99.01781142000004,8.030987151000033]]]}},{"type":"Feature","properties":{"code":"810403","name":"คลองพน","parentCode":"8104"},"geometry":{"type":"Polygon","coordinates":[[[99.28751684400004,7.859115741000039],[99.23455408700005,7.865114971000025],[99.20448544500005,7.898772847000032],[99.19070849900004,7.88404291300003],[99.18844031300006,7.848750145000054],[99.13168146100008,7.776422289000038],[99.13719257100007,7.752327583000067],[99.18712324100005,7.70217569700003],[99.23792395900006,7.797164678000058],[99.28714729400008,7.810054884000067],[99.29420194100004,7.825097650000032],[99.28751684400004,7.859115741000039]]]}},{"type":"Feature","properties":{"code":"810118","name":"คลองประสงค์","parentCode":"8101"},"geometry":{"type":"Polygon","coordinates":[[[98.96125404900005,8.083713979000038],[98.92241809300003,8.085911367000051],[98.92156488700005,8.081450683000071],[98.92136604300003,8.049889953000047],[98.91643796400007,8.038940958000069],[98.95469751200005,8.002700602000061],[98.95781581600005,8.01869510900002],[98.95861436800004,8.070390534000069],[98.96125404900005,8.083713979000038]]]}},{"type":"Feature","properties":{"code":"810402","name":"คลองท่อมเหนือ","parentCode":"8104"},"geometry":{"type":"Polygon","coordinates":[[[99.28636734300005,7.993661876000033],[99.22483776900003,8.000250566000034],[99.19184412400006,7.96354586700005],[99.20448544500005,7.898772847000032],[99.23455408700005,7.865114971000025],[99.28751684400004,7.859115741000039],[99.33204413800007,7.883030832000031],[99.33377463700003,7.9287921000000665],[99.31291447200005,7.962350036000032],[99.28636734300005,7.993661876000033]]]}},{"type":"Feature","properties":{"code":"810401","name":"คลองท่อมใต้","parentCode":"8104"},"geometry":{"type":"Polygon","coordinates":[[[99.19184412400006,7.96354586700005],[99.19903040500009,8.002092043000061],[99.15316703900004,7.9931292180000355],[99.10231885900004,7.9677657180000665],[99.07990659500007,7.9424411080000255],[99.08162209200003,7.9198253000000705],[99.11183566600005,7.9327838710000265],[99.14499988900008,7.894765843000073],[99.19070849900004,7.88404291300003],[99.20448544500005,7.898772847000032],[99.19184412400006,7.96354586700005]]]}},{"type":"Feature","properties":{"code":"810508","name":"คลองยา","parentCode":"8105"},"geometry":{"type":"Polygon","coordinates":[[[98.91134680800008,8.320547798000064],[98.92585009200008,8.356907928000055],[98.92647770100007,8.448157007000077],[98.86131271100004,8.417844452000054],[98.83756115600005,8.368986309000036],[98.83769406400006,8.362368311000068],[98.91134680800008,8.320547798000064]]]}},{"type":"Feature","properties":{"code":"810304","name":"คลองยาง","parentCode":"8103"},"geometry":{"type":"Polygon","coordinates":[[[99.13168146100008,7.776422289000038],[99.12912653400008,7.816705915000057],[99.06385040500004,7.854255712000054],[99.03045725500004,7.829725698000061],[99.07620556600006,7.775021238000022],[99.11533921500006,7.758009032000075],[99.13719257100007,7.752327583000067],[99.13168146100008,7.776422289000038]]]}},{"type":"Feature","properties":{"code":"810206","name":"โคกหาร","parentCode":"8102"},"geometry":{"type":"Polygon","coordinates":[[[99.31330084700005,8.238387011000043],[99.27901130200007,8.244127133000063],[99.18793558700008,8.223537538000073],[99.17985453100005,8.158504570000048],[99.20792620300006,8.166916705000062],[99.23771172500005,8.113083126000049],[99.29693635300004,8.128678740000055],[99.29643941900008,8.132072021000056],[99.28947851700008,8.16444057800004],[99.32219705700004,8.207578571000056],[99.31330084700005,8.238387011000043]]]}},{"type":"Feature","properties":{"code":"810805","name":"โคกยาง","parentCode":"8108"},"geometry":{"type":"Polygon","coordinates":[[[99.13016999500007,8.165437642000029],[99.07590561100005,8.12488170000006],[99.04920261800004,8.081173119000027],[99.09656560100007,8.007779587000073],[99.09918516300007,8.10266938500007],[99.13016999500007,8.165437642000029]]]}},{"type":"Feature","properties":{"code":"810303","name":"เกาะกลาง","parentCode":"8103"},"geometry":{"type":"Polygon","coordinates":[[[99.03045725500004,7.829725698000061],[99.02485938100006,7.746241870000063],[99.04141601400005,7.7029293500000335],[99.10758496700004,7.7068081490000395],[99.11533921500006,7.758009032000075],[99.07620556600006,7.775021238000022],[99.03045725500004,7.829725698000061]]]}},{"type":"Feature","properties":{"code":"810302","name":"เกาะลันตาน้อย","parentCode":"8103"},"geometry":{"type":"Polygon","coordinates":[[[99.09122854500004,7.602795988000025],[99.12351890300005,7.592302337000035],[99.12934868800005,7.654207453000026],[99.11013811000004,7.686009778000027],[99.04016075700008,7.684788939000043],[99.03687798300007,7.652719484000045],[99.09122854500004,7.602795988000025]]]}},{"type":"Feature","properties":{"code":"810301","name":"เกาะลันตาใหญ่","parentCode":"8103"},"geometry":{"type":"Polygon","coordinates":[[[99.07569276900006,7.572416768000039],[99.03511912600004,7.564163818000054],[99.06970168800007,7.4965589520000435],[99.11001394000004,7.498149979000061],[99.07569276900006,7.572416768000039]]]}},{"type":"Feature","properties":{"code":"810802","name":"เกาะศรีบอยา","parentCode":"8108"},"geometry":{"type":"MultiPolygon","coordinates":[[[[98.95655532000006,7.857743226000025],[98.93520955300005,7.844599994000021],[98.98535330100003,7.78296632200005],[98.95655532000006,7.857743226000025]]],[[[98.98782854200005,7.926698018000025],[98.97012863100008,7.925606271000049],[98.98887422600006,7.850837752000075],[98.98782854200005,7.926698018000025]]]]}},{"type":"Feature","properties":{"code":"810103","name":"กระบี่น้อย","parentCode":"8101"},"geometry":{"type":"Polygon","coordinates":[[[99.01596015600006,8.183733504000031],[99.01375421300008,8.22899656800007],[98.93387122100006,8.279348603000074],[98.93942475200004,8.232918970000071],[98.90987998900005,8.110688671000048],[98.92241809300003,8.085911367000051],[98.96125404900005,8.083713979000038],[98.98142435800008,8.131437766000033],[99.01596015600006,8.183733504000031]]]}},{"type":"Feature","properties":{"code":"810102","name":"กระบี่ใหญ่","parentCode":"8101"},"geometry":{"type":"Polygon","coordinates":[[[98.92241809300003,8.085911367000051],[98.90987998900005,8.110688671000048],[98.88322750500004,8.105157870000028],[98.88612964100008,8.09388943700003],[98.92156488700005,8.081450683000071],[98.92241809300003,8.085911367000051]]]}},{"type":"Feature","properties":{"code":"810502","name":"แหลมสัก","parentCode":"8105"},"geometry":{"type":"Polygon","coordinates":[[[98.70919213100007,8.316521180000052],[98.66240474600005,8.384786450000036],[98.63543150500004,8.375372567000056],[98.62753469100005,8.283224851000057],[98.65013206300006,8.273166332000073],[98.70919213100007,8.316521180000052]]]}},{"type":"Feature","properties":{"code":"810701","name":"ลำทับ","parentCode":"8107"},"geometry":{"type":"Polygon","coordinates":[[[99.32274900700008,8.13474210000004],[99.29643941900008,8.132072021000056],[99.29693635300004,8.128678740000055],[99.27940772300008,8.087925970000072],[99.33700253800004,7.989603883000029],[99.31291447200005,7.962350036000032],[99.33377463700003,7.9287921000000665],[99.36522460200007,7.944966600000043],[99.36980707200007,7.946576569000058],[99.34036578100006,7.996156486000075],[99.33318602800006,8.062462739000068],[99.32274900700008,8.13474210000004]]]}},{"type":"Feature","properties":{"code":"810205","name":"หน้าเขา","parentCode":"8102"},"geometry":{"type":"Polygon","coordinates":[[[99.01106726800003,8.38169104700006],[98.94086239200004,8.448825990000046],[98.94102709500004,8.457184595000058],[98.92647770100007,8.448157007000077],[98.92585009200008,8.356907928000055],[98.91134680800008,8.320547798000064],[98.90758195400008,8.293604791000064],[98.93387122100006,8.279348603000074],[99.01799455500009,8.272592423000049],[99.02871514500004,8.292272598000068],[99.01106726800003,8.38169104700006]]]}},{"type":"Feature","properties":{"code":"810503","name":"นาเหนือ","parentCode":"8105"},"geometry":{"type":"Polygon","coordinates":[[[98.76662455600007,8.538584575000073],[98.70299914500004,8.562917063000043],[98.68224796700008,8.550857716000053],[98.67425766000008,8.521357221000073],[98.64935136200006,8.482977637000033],[98.67018403200007,8.460693124000045],[98.69945630700005,8.495498435000059],[98.75259926700005,8.495778749000067],[98.76662455600007,8.538584575000073]]]}},{"type":"Feature","properties":{"code":"810117","name":"หนองทะเล","parentCode":"8101"},"geometry":{"type":"Polygon","coordinates":[[[98.82253533200009,8.129099151000048],[98.74985559000004,8.114366241000027],[98.73996466200003,8.077967009000076],[98.77368418100008,8.023875135000026],[98.79811268700007,8.047650029000067],[98.80906097300004,8.088385678000066],[98.84444604900006,8.08856008500004],[98.82253533200009,8.129099151000048]]]}},{"type":"Feature","properties":{"code":"810801","name":"เหนือคลอง","parentCode":"8108"},"geometry":{"type":"Polygon","coordinates":[[[98.98142435800008,8.131437766000033],[98.96125404900005,8.083713979000038],[98.95861436800004,8.070390534000069],[99.01794541200007,8.033658031000073],[99.02037904800005,8.082209849000037],[98.98142435800008,8.131437766000033]]]}},{"type":"Feature","properties":{"code":"810101","name":"ปากน้ำ","parentCode":"8101"},"geometry":{"type":"Polygon","coordinates":[[[98.92156488700005,8.081450683000071],[98.88612964100008,8.09388943700003],[98.92136604300003,8.049889953000047],[98.92156488700005,8.081450683000071]]]}},{"type":"Feature","properties":{"code":"810807","name":"ปกาสัย","parentCode":"8108"},"geometry":{"type":"Polygon","coordinates":[[[99.04920261800004,8.081173119000027],[99.02037904800005,8.082209849000037],[99.01794541200007,8.033658031000073],[99.01781142000004,8.030987151000033],[99.07511369800005,7.978316150000069],[99.07990659500007,7.9424411080000255],[99.10231885900004,7.9677657180000665],[99.09656560100007,8.007779587000073],[99.04920261800004,8.081173119000027]]]}},{"type":"Feature","properties":{"code":"810407","name":"เพหลา","parentCode":"8104"},"geometry":{"type":"Polygon","coordinates":[[[99.17985453100005,8.158504570000048],[99.15918855100006,8.178410972000052],[99.13016999500007,8.165437642000029],[99.09918516300007,8.10266938500007],[99.09656560100007,8.007779587000073],[99.10231885900004,7.9677657180000665],[99.15316703900004,7.9931292180000355],[99.17589203600005,8.129628327000034],[99.20792620300006,8.166916705000062],[99.17985453100005,8.158504570000048]]]}},{"type":"Feature","properties":{"code":"810406","name":"พรุดินนา","parentCode":"8104"},"geometry":{"type":"Polygon","coordinates":[[[99.23771172500005,8.113083126000049],[99.20792620300006,8.166916705000062],[99.17589203600005,8.129628327000034],[99.15316703900004,7.9931292180000355],[99.19903040500009,8.002092043000061],[99.19184412400006,7.96354586700005],[99.22483776900003,8.000250566000034],[99.28636734300005,7.993661876000033],[99.23771172500005,8.113083126000049]]]}},{"type":"Feature","properties":{"code":"810204","name":"พรุเตียว","parentCode":"8102"},"geometry":{"type":"Polygon","coordinates":[[[99.17345210800005,8.318537984000045],[99.06733165500003,8.32368432000004],[99.06862944900007,8.284507461000032],[99.08015196000008,8.177349538000044],[99.09762362000004,8.23089451800007],[99.15918855100006,8.178410972000052],[99.17985453100005,8.158504570000048],[99.18793558700008,8.223537538000073],[99.17345210800005,8.318537984000045]]]}},{"type":"Feature","properties":{"code":"810601","name":"ปลายพระยา","parentCode":"8106"},"geometry":{"type":"Polygon","coordinates":[[[98.93463044700007,8.557891432000076],[98.88797645400007,8.681336976000068],[98.83313606800004,8.674144005000073],[98.83757434700004,8.556024729000058],[98.81356979400005,8.480275423000023],[98.92647770100007,8.448157007000077],[98.94102709500004,8.457184595000058],[98.94852269200004,8.472062519000076],[98.93463044700007,8.557891432000076]]]}},{"type":"Feature","properties":{"code":"810404","name":"ทรายขาว","parentCode":"8104"},"geometry":{"type":"Polygon","coordinates":[[[99.29627246700005,7.688757623000072],[99.30553006900004,7.755999513000063],[99.28714729400008,7.810054884000067],[99.23792395900006,7.797164678000058],[99.18712324100005,7.70217569700003],[99.19655252100006,7.6709980640000595],[99.25947516700006,7.657362437000074],[99.29627246700005,7.688757623000072]]]}},{"type":"Feature","properties":{"code":"810115","name":"ไสไทย","parentCode":"8101"},"geometry":{"type":"Polygon","coordinates":[[[98.85371477500007,8.120317339000053],[98.82253533200009,8.129099151000048],[98.84444604900006,8.08856008500004],[98.85653679600006,8.021496316000025],[98.91643796400007,8.038940958000069],[98.92136604300003,8.049889953000047],[98.88612964100008,8.09388943700003],[98.88322750500004,8.105157870000028],[98.85371477500007,8.120317339000053]]]}},{"type":"Feature","properties":{"code":"810305","name":"ศาลาด่าน","parentCode":"8103"},"geometry":{"type":"Polygon","coordinates":[[[99.09122854500004,7.602795988000025],[99.03687798300007,7.652719484000045],[99.03511912600004,7.564163818000054],[99.07569276900006,7.572416768000039],[99.09122854500004,7.602795988000025]]]}},{"type":"Feature","properties":{"code":"810203","name":"สินปุน","parentCode":"8102"},"geometry":{"type":"Polygon","coordinates":[[[99.29035990300008,8.312564330000043],[99.22418805800004,8.323290156000041],[99.17345210800005,8.318537984000045],[99.18793558700008,8.223537538000073],[99.27901130200007,8.244127133000063],[99.31330084700005,8.238387011000043],[99.33363553700008,8.26161933700007],[99.29035990300008,8.312564330000043]]]}},{"type":"Feature","properties":{"code":"810806","name":"ตลิ่งชัน","parentCode":"8108"},"geometry":{"type":"Polygon","coordinates":[[[98.98475976200007,8.005507557000044],[98.95781581600005,8.01869510900002],[98.95469751200005,8.002700602000061],[98.97250401600007,7.932522626000036],[99.00255652600003,7.934327746000065],[98.98475976200007,8.005507557000044]]]}},{"type":"Feature","properties":{"code":"810111","name":"ทับปริก","parentCode":"8101"},"geometry":{"type":"Polygon","coordinates":[[[98.93387122100006,8.279348603000074],[98.90758195400008,8.293604791000064],[98.86467032700006,8.269585800000073],[98.85478983200005,8.208570346000045],[98.82080835900007,8.19841083800003],[98.85371477500007,8.120317339000053],[98.88322750500004,8.105157870000028],[98.90987998900005,8.110688671000048],[98.93942475200004,8.232918970000071],[98.93387122100006,8.279348603000074]]]}},{"type":"Feature","properties":{"code":"810703","name":"ทุ่งไทรทอง","parentCode":"8107"},"geometry":{"type":"Polygon","coordinates":[[[99.31291447200005,7.962350036000032],[99.33700253800004,7.989603883000029],[99.27940772300008,8.087925970000072],[99.29693635300004,8.128678740000055],[99.23771172500005,8.113083126000049],[99.28636734300005,7.993661876000033],[99.31291447200005,7.962350036000032]]]}}]}