{"type":"FeatureCollection","features":[{"type":"Feature","properties":{"code":"820504","name":"บางม่วง","parentCode":"8205"},"geometry":{"type":"Polygon","coordinates":[[[98.31772949000003,8.846221451000076],[98.27953625500004,8.873481452000021],[98.25285536100006,8.809634617000029],[98.26160810100004,8.762897942000052],[98.29060584600006,8.770762776000026],[98.32623787000006,8.799201671000048],[98.31772949000003,8.846221451000076]]]}},{"type":"Feature","properties":{"code":"820502","name":"บางนายสี","parentCode":"8205"},"geometry":{"type":"Polygon","coordinates":[[[98.44309888900005,8.945222037000065],[98.36040784400006,8.994389885000032],[98.32210105900003,8.97083654200003],[98.27953625500004,8.873481452000021],[98.31772949000003,8.846221451000076],[98.35290117900007,8.851022018000037],[98.35402817000005,8.85295943500006],[98.36624406900006,8.88064057300005],[98.42701737400006,8.867031475000033],[98.44599597900003,8.89525517800007],[98.44309888900005,8.945222037000065]]]}},{"type":"Feature","properties":{"code":"820706","name":"บางเหรียง","parentCode":"8207"},"geometry":{"type":"Polygon","coordinates":[[[98.70343810700007,8.631978692000075],[98.64807140800008,8.659165255000062],[98.60431786100008,8.625686161000033],[98.58701909100006,8.595981701000028],[98.59157659900006,8.58332346700007],[98.68730064100004,8.565774328000032],[98.70343810700007,8.631978692000075]]]}},{"type":"Feature","properties":{"code":"820503","name":"บางไทร","parentCode":"8205"},"geometry":{"type":"Polygon","coordinates":[[[98.36909819000005,8.828314955000053],[98.35290117900007,8.851022018000037],[98.31772949000003,8.846221451000076],[98.32623787000006,8.799201671000048],[98.29060584600006,8.770762776000026],[98.33019376000004,8.731345816000044],[98.36297374600008,8.758718834000035],[98.34325059500009,8.78440792200007],[98.37637097300006,8.817260807000025],[98.36909819000005,8.828314955000053]]]}},{"type":"Feature","properties":{"code":"820803","name":"บางทอง","parentCode":"8208"},"geometry":{"type":"Polygon","coordinates":[[[98.36835471300009,8.484732260000044],[98.32814176400007,8.45374363700006],[98.30682524500008,8.399875807000058],[98.35138028900008,8.338996455000029],[98.38080729000006,8.38697731600007],[98.39686962600007,8.455596270000058],[98.36835471300009,8.484732260000044]]]}},{"type":"Feature","properties":{"code":"820104","name":"บางเตย","parentCode":"8201"},"geometry":{"type":"Polygon","coordinates":[[[98.58305183000004,8.503517886000054],[98.54866190700005,8.518061998000064],[98.53972481400007,8.49917509900007],[98.55230625100006,8.471484185000065],[98.53126643000007,8.411775098000021],[98.55498951500005,8.349762906000024],[98.61564618500006,8.382002845000045],[98.60924707300006,8.417790079000042],[98.57955411700004,8.464095907000058],[98.58305183000004,8.503517886000054]]]}},{"type":"Feature","properties":{"code":"820602","name":"บางวัน","parentCode":"8206"},"geometry":{"type":"Polygon","coordinates":[[[98.48057750900006,9.123883222000075],[98.38013188100007,9.131946364000044],[98.36687208100005,9.100550708000071],[98.36679237100009,9.069483913000056],[98.31925631800004,9.030855505000034],[98.36040784400006,8.994389885000032],[98.44309888900005,8.945222037000065],[98.50576182000003,8.983124392000036],[98.47516258000007,9.044499916000063],[98.49444208300008,9.080646041000023],[98.48057750900006,9.123883222000075]]]}},{"type":"Feature","properties":{"code":"820703","name":"บ่อแสน","parentCode":"8207"},"geometry":{"type":"Polygon","coordinates":[[[98.63314809000008,8.485093283000026],[98.58735858300008,8.515582627000072],[98.58305183000004,8.503517886000054],[98.57955411700004,8.464095907000058],[98.60924707300006,8.417790079000042],[98.63314809000008,8.485093283000026]]]}},{"type":"Feature","properties":{"code":"820403","name":"กะไหล","parentCode":"8204"},"geometry":{"type":"Polygon","coordinates":[[[98.47153379100007,8.312419688000034],[98.40870884500004,8.353964504000032],[98.38080729000006,8.38697731600007],[98.35138028900008,8.338996455000029],[98.34735821600003,8.32117549700007],[98.35499987100008,8.309714892000045],[98.45633265200007,8.265000008000072],[98.47153379100007,8.312419688000034]]]}},{"type":"Feature","properties":{"code":"820301","name":"กะปง","parentCode":"8203"},"geometry":{"type":"Polygon","coordinates":[[[98.48920412200005,8.674728062000042],[98.43517357100006,8.69977835100002],[98.40066968400004,8.66005635700003],[98.39133216200008,8.634965817000023],[98.41108145600003,8.62872083600007],[98.50374624900007,8.61177845700007],[98.52714266800007,8.661984664000045],[98.48920412200005,8.674728062000042]]]}},{"type":"Feature","properties":{"code":"820407","name":"คลองเคียน","parentCode":"8204"},"geometry":{"type":"Polygon","coordinates":[[[98.38976006100006,8.128405655000051],[98.44340335200008,8.151042981000046],[98.46905497000006,8.20297984900003],[98.46158096600004,8.250509495000074],[98.40330065100005,8.224739133000071],[98.38565108800003,8.198785631000021],[98.38976006100006,8.128405655000051]]]}},{"type":"Feature","properties":{"code":"820705","name":"โคกเจริญ","parentCode":"8207"},"geometry":{"type":"Polygon","coordinates":[[[98.68730064100004,8.565774328000032],[98.59157659900006,8.58332346700007],[98.61341526300004,8.555306168000072],[98.67425766000008,8.521357221000073],[98.68224796700008,8.550857716000053],[98.68730064100004,8.565774328000032]]]}},{"type":"Feature","properties":{"code":"820506","name":"โคกเคียน","parentCode":"8205"},"geometry":{"type":"Polygon","coordinates":[[[98.42701737400006,8.867031475000033],[98.36624406900006,8.88064057300005],[98.35402817000005,8.85295943500006],[98.36909819000005,8.828314955000053],[98.37637097300006,8.817260807000025],[98.40425296900008,8.809406544000069],[98.42701737400006,8.867031475000033]]]}},{"type":"Feature","properties":{"code":"820406","name":"โคกกลอย","parentCode":"8204"},"geometry":{"type":"Polygon","coordinates":[[[98.34271373900003,8.320539367000038],[98.26907470800006,8.30808845000007],[98.28201901900007,8.205907566000064],[98.32092834800005,8.197952518000022],[98.34271373900003,8.320539367000038]]]}},{"type":"Feature","properties":{"code":"820507","name":"คึกคัก","parentCode":"8205"},"geometry":{"type":"Polygon","coordinates":[[[98.33019376000004,8.731345816000044],[98.29060584600006,8.770762776000026],[98.26160810100004,8.762897942000052],[98.23436879500008,8.72125737600004],[98.24693662700008,8.65376344200007],[98.23578111700004,8.616559988000063],[98.32677797900004,8.652776063000033],[98.31107438600009,8.67341409100004],[98.33019376000004,8.731345816000044]]]}},{"type":"Feature","properties":{"code":"820601","name":"คุระ","parentCode":"8206"},"geometry":{"type":"Polygon","coordinates":[[[98.50606009400008,9.308902024000076],[98.40250650400009,9.347603033000041],[98.39046793200004,9.332189766000056],[98.34700106700006,9.235611517000052],[98.36676108800003,9.20594096700006],[98.38639897500008,9.180917142000055],[98.44696568500007,9.200278733000061],[98.49328330300006,9.188202250000074],[98.52499958200008,9.235326385000064],[98.52738587600004,9.296866860000023],[98.50606009400008,9.308902024000076]]]}},{"type":"Feature","properties":{"code":"820508","name":"เกาะคอเขา","parentCode":"8205"},"geometry":{"type":"Polygon","coordinates":[[[98.26469533300008,9.015104478000069],[98.24846063500007,8.915807595000047],[98.26643099200004,8.864103130000046],[98.32384191800008,8.984122981000041],[98.26469533300008,9.015104478000069]]]}},{"type":"Feature","properties":{"code":"820108","name":"เกาะปันหยี","parentCode":"8201"},"geometry":{"type":"Polygon","coordinates":[[[98.53126643000007,8.411775098000021],[98.51187544300006,8.406872039000064],[98.47014687900008,8.369893464000029],[98.49356220800007,8.339777566000066],[98.55498951500005,8.349762906000024],[98.53126643000007,8.411775098000021]]]}},{"type":"Feature","properties":{"code":"820603","name":"เกาะพระทอง","parentCode":"8206"},"geometry":{"type":"MultiPolygon","coordinates":[[[[98.28935407500006,9.167469965000066],[98.25008612700003,9.127515751000033],[98.24698939800004,9.031612111000072],[98.30387044200006,9.038384593000046],[98.33432044900007,9.080073038000023],[98.28935407500006,9.167469965000066]]],[[[98.31704807500006,9.251750246000029],[98.30615183400005,9.264452360000064],[98.25963902600006,9.16851071900004],[98.28365932000008,9.179059290000055],[98.31704807500006,9.251750246000029]]],[[[97.88627433700003,9.462369919000025],[97.85213661400007,9.445871354000076],[97.88050270100007,9.414075852000053],[97.88627433700003,9.462369919000025]]]]}},{"type":"Feature","properties":{"code":"820201","name":"เกาะยาวน้อย","parentCode":"8202"},"geometry":{"type":"Polygon","coordinates":[[[98.63566938000008,8.186325194000062],[98.57853065800003,8.102295887000025],[98.61764920600007,8.080378341000028],[98.63566938000008,8.186325194000062]]]}},{"type":"Feature","properties":{"code":"820202","name":"เกาะยาวใหญ่","parentCode":"8202"},"geometry":{"type":"Polygon","coordinates":[[[98.60148991900007,8.03437911900005],[98.59343659200005,8.07296896400004],[98.53333023400006,8.108656364000069],[98.53079717500003,8.07099670100007],[98.57260060700008,8.023372106000068],[98.60148991900007,8.03437911900005]]]}},{"type":"Feature","properties":{"code":"820402","name":"กระโสม","parentCode":"8204"},"geometry":{"type":"Polygon","coordinates":[[[98.47014687900008,8.369893464000029],[98.47461992700005,8.452383845000043],[98.44002870400004,8.455737303000035],[98.43154832900007,8.37203413100002],[98.40870884500004,8.353964504000032],[98.47153379100007,8.312419688000034],[98.49356220800007,8.339777566000066],[98.47014687900008,8.369893464000029]]]}},{"type":"Feature","properties":{"code":"820806","name":"ลำแก่น","parentCode":"8208"},"geometry":{"type":"Polygon","coordinates":[[[98.33643654000008,8.64232120500003],[98.32677797900004,8.652776063000033],[98.23578111700004,8.616559988000063],[98.20518825200008,8.552651516000026],[98.23129626900004,8.457406344000049],[98.25827408100008,8.503379897000059],[98.24960607800006,8.540127088000077],[98.29559607600004,8.579008865000048],[98.33643654000008,8.64232120500003]]]}},{"type":"Feature","properties":{"code":"820805","name":"ลำภี","parentCode":"8208"},"geometry":{"type":"Polygon","coordinates":[[[98.39133216200008,8.634965817000023],[98.33643654000008,8.64232120500003],[98.29559607600004,8.579008865000048],[98.38946577100006,8.531132496000055],[98.42303980800006,8.569757265000021],[98.41108145600003,8.62872083600007],[98.39133216200008,8.634965817000023]]]}},{"type":"Feature","properties":{"code":"820304","name":"เหล","parentCode":"8203"},"geometry":{"type":"Polygon","coordinates":[[[98.59642957600005,8.753102463000062],[98.55523858100008,8.737848066000026],[98.49449827700005,8.787554021000062],[98.43275883700005,8.785066458000074],[98.40425296900008,8.809406544000069],[98.40561832700007,8.77569612800005],[98.46678701000008,8.73975507800003],[98.48920412200005,8.674728062000042],[98.52714266800007,8.661984664000045],[98.53694575400004,8.660817648000034],[98.59479828200006,8.71261695100003],[98.59642957600005,8.753102463000062]]]}},{"type":"Feature","properties":{"code":"820405","name":"หล่อยูง","parentCode":"8204"},"geometry":{"type":"Polygon","coordinates":[[[98.34735821600003,8.32117549700007],[98.34271373900003,8.320539367000038],[98.32092834800005,8.197952518000022],[98.35333019100005,8.190755190000061],[98.38976006100006,8.128405655000051],[98.38565108800003,8.198785631000021],[98.40330065100005,8.224739133000071],[98.35859618200004,8.24161722100007],[98.35499987100008,8.309714892000045],[98.34735821600003,8.32117549700007]]]}},{"type":"Feature","properties":{"code":"820605","name":"แม่นางขาว","parentCode":"8206"},"geometry":{"type":"Polygon","coordinates":[[[98.36676108800003,9.20594096700006],[98.32916490000008,9.223047622000024],[98.31628922800007,9.19331777800005],[98.35182546100003,9.095542841000054],[98.36687208100005,9.100550708000071],[98.38013188100007,9.131946364000044],[98.48057750900006,9.123883222000075],[98.49328330300006,9.188202250000074],[98.44696568500007,9.200278733000061],[98.38639897500008,9.180917142000055],[98.36676108800003,9.20594096700006]]]}},{"type":"Feature","properties":{"code":"820702","name":"มะรุ่ย","parentCode":"8207"},"geometry":{"type":"Polygon","coordinates":[[[98.64935136200006,8.482977637000033],[98.63314809000008,8.485093283000026],[98.60924707300006,8.417790079000042],[98.61564618500006,8.382002845000045],[98.63543150500004,8.375372567000056],[98.66240474600005,8.384786450000036],[98.66538228600007,8.430896763000021],[98.67018403200007,8.460693124000045],[98.64935136200006,8.482977637000033]]]}},{"type":"Feature","properties":{"code":"820303","name":"เหมาะ","parentCode":"8203"},"geometry":{"type":"Polygon","coordinates":[[[98.40040046200005,8.767260140000076],[98.36297374600008,8.758718834000035],[98.33019376000004,8.731345816000044],[98.31107438600009,8.67341409100004],[98.32677797900004,8.652776063000033],[98.33643654000008,8.64232120500003],[98.39133216200008,8.634965817000023],[98.40066968400004,8.66005635700003],[98.40040046200005,8.767260140000076]]]}},{"type":"Feature","properties":{"code":"820802","name":"นาเตย","parentCode":"8208"},"geometry":{"type":"Polygon","coordinates":[[[98.35138028900008,8.338996455000029],[98.30682524500008,8.399875807000058],[98.25692156700006,8.357239869000068],[98.26907470800006,8.30808845000007],[98.34271373900003,8.320539367000038],[98.34735821600003,8.32117549700007],[98.35138028900008,8.338996455000029]]]}},{"type":"Feature","properties":{"code":"820102","name":"นบปริง","parentCode":"8201"},"geometry":{"type":"Polygon","coordinates":[[[98.51355856800006,8.586267933000045],[98.46621229500005,8.525380323000036],[98.51742635300008,8.48380848000005],[98.53972481400007,8.49917509900007],[98.54866190700005,8.518061998000064],[98.56251781800006,8.552926358000036],[98.51355856800006,8.586267933000045]]]}},{"type":"Feature","properties":{"code":"820109","name":"ป่ากอ","parentCode":"8201"},"geometry":{"type":"Polygon","coordinates":[[[98.51742635300008,8.48380848000005],[98.46621229500005,8.525380323000036],[98.41714813000004,8.470661637000035],[98.50830038400005,8.467376391000073],[98.51742635300008,8.48380848000005]]]}},{"type":"Feature","properties":{"code":"820203","name":"พรุใน","parentCode":"8202"},"geometry":{"type":"Polygon","coordinates":[[[98.57260060700008,8.023372106000068],[98.56469921500008,7.960093941000025],[98.59702911700003,7.8884367880000354],[98.61157010200009,7.945187505000035],[98.60148991900007,8.03437911900005],[98.57260060700008,8.023372106000068]]]}},{"type":"Feature","properties":{"code":"820305","name":"รมณีย์","parentCode":"8203"},"geometry":{"type":"Polygon","coordinates":[[[98.59642957600005,8.753102463000062],[98.59870699100009,8.796834490000037],[98.56447257000008,8.807271798000045],[98.50694317600005,8.878978482000036],[98.44599597900003,8.89525517800007],[98.42701737400006,8.867031475000033],[98.40425296900008,8.809406544000069],[98.43275883700005,8.785066458000074],[98.49449827700005,8.787554021000062],[98.55523858100008,8.737848066000026],[98.59642957600005,8.753102463000062]]]}},{"type":"Feature","properties":{"code":"820106","name":"สองแพรก","parentCode":"8201"},"geometry":{"type":"Polygon","coordinates":[[[98.53694575400004,8.660817648000034],[98.52714266800007,8.661984664000045],[98.50374624900007,8.61177845700007],[98.51355856800006,8.586267933000045],[98.56251781800006,8.552926358000036],[98.58701909100006,8.595981701000028],[98.60431786100008,8.625686161000033],[98.58993589200009,8.62951778300004],[98.53694575400004,8.660817648000034]]]}},{"type":"Feature","properties":{"code":"820105","name":"ตากแดด","parentCode":"8201"},"geometry":{"type":"Polygon","coordinates":[[[98.50830038400005,8.467376391000073],[98.41714813000004,8.470661637000035],[98.41655532900006,8.464797493000049],[98.44002870400004,8.455737303000035],[98.47461992700005,8.452383845000043],[98.47014687900008,8.369893464000029],[98.51187544300006,8.406872039000064],[98.50830038400005,8.467376391000073]]]}},{"type":"Feature","properties":{"code":"820501","name":"ตะกั่วป่า","parentCode":"8205"},"geometry":{"type":"Polygon","coordinates":[[[98.35402817000005,8.85295943500006],[98.35290117900007,8.851022018000037],[98.36909819000005,8.828314955000053],[98.35402817000005,8.85295943500006]]]}},{"type":"Feature","properties":{"code":"820505","name":"ตำตัว","parentCode":"8205"},"geometry":{"type":"Polygon","coordinates":[[[98.40425296900008,8.809406544000069],[98.37637097300006,8.817260807000025],[98.34325059500009,8.78440792200007],[98.36297374600008,8.758718834000035],[98.40040046200005,8.767260140000076],[98.40561832700007,8.77569612800005],[98.40425296900008,8.809406544000069]]]}},{"type":"Feature","properties":{"code":"820302","name":"ท่านา","parentCode":"8203"},"geometry":{"type":"Polygon","coordinates":[[[98.40561832700007,8.77569612800005],[98.40040046200005,8.767260140000076],[98.40066968400004,8.66005635700003],[98.43517357100006,8.69977835100002],[98.48920412200005,8.674728062000042],[98.46678701000008,8.73975507800003],[98.40561832700007,8.77569612800005]]]}},{"type":"Feature","properties":{"code":"820404","name":"ท่าอยู่","parentCode":"8204"},"geometry":{"type":"Polygon","coordinates":[[[98.45633265200007,8.265000008000072],[98.35499987100008,8.309714892000045],[98.35859618200004,8.24161722100007],[98.40330065100005,8.224739133000071],[98.46158096600004,8.250509495000074],[98.45633265200007,8.265000008000072]]]}},{"type":"Feature","properties":{"code":"820101","name":"ท้ายช้าง","parentCode":"8201"},"geometry":{"type":"Polygon","coordinates":[[[98.51437403000006,8.431952011000021],[98.53585493000008,8.446091070000023],[98.53403525600004,8.470601222000028],[98.51437403000006,8.431952011000021]]]}},{"type":"Feature","properties":{"code":"820801","name":"ท้ายเหมือง","parentCode":"8208"},"geometry":{"type":"Polygon","coordinates":[[[98.32814176400007,8.45374363700006],[98.30136551300006,8.495018229000038],[98.25827408100008,8.503379897000059],[98.23129626900004,8.457406344000049],[98.25692156700006,8.357239869000068],[98.30682524500008,8.399875807000058],[98.32814176400007,8.45374363700006]]]}},{"type":"Feature","properties":{"code":"820401","name":"ถ้ำ","parentCode":"8204"},"geometry":{"type":"Polygon","coordinates":[[[98.44002870400004,8.455737303000035],[98.41655532900006,8.464797493000049],[98.39686962600007,8.455596270000058],[98.38080729000006,8.38697731600007],[98.40870884500004,8.353964504000032],[98.43154832900007,8.37203413100002],[98.44002870400004,8.455737303000035]]]}},{"type":"Feature","properties":{"code":"820103","name":"ถ้ำน้ำผุด","parentCode":"8201"},"geometry":{"type":"Polygon","coordinates":[[[98.53126643000007,8.411775098000021],[98.55230625100006,8.471484185000065],[98.53972481400007,8.49917509900007],[98.51742635300008,8.48380848000005],[98.50830038400005,8.467376391000073],[98.51187544300006,8.406872039000064],[98.53126643000007,8.411775098000021]],[[98.51437403000006,8.431952011000021],[98.53403525600004,8.470601222000028],[98.53585493000008,8.446091070000023],[98.51437403000006,8.431952011000021]]]}},{"type":"Feature","properties":{"code":"820704","name":"ถ้ำทองหลาง","parentCode":"8207"},"geometry":{"type":"Polygon","coordinates":[[[98.59157659900006,8.58332346700007],[98.58701909100006,8.595981701000028],[98.56251781800006,8.552926358000036],[98.54866190700005,8.518061998000064],[98.58305183000004,8.503517886000054],[98.58735858300008,8.515582627000072],[98.61341526300004,8.555306168000072],[98.59157659900006,8.58332346700007]]]}},{"type":"Feature","properties":{"code":"820701","name":"ทับปุด","parentCode":"8207"},"geometry":{"type":"Polygon","coordinates":[[[98.67425766000008,8.521357221000073],[98.61341526300004,8.555306168000072],[98.58735858300008,8.515582627000072],[98.63314809000008,8.485093283000026],[98.64935136200006,8.482977637000033],[98.67425766000008,8.521357221000073]]]}},{"type":"Feature","properties":{"code":"820107","name":"ทุ่งคาโงก","parentCode":"8201"},"geometry":{"type":"Polygon","coordinates":[[[98.50374624900007,8.61177845700007],[98.41108145600003,8.62872083600007],[98.42303980800006,8.569757265000021],[98.38946577100006,8.531132496000055],[98.36835471300009,8.484732260000044],[98.39686962600007,8.455596270000058],[98.41655532900006,8.464797493000049],[98.41714813000004,8.470661637000035],[98.46621229500005,8.525380323000036],[98.51355856800006,8.586267933000045],[98.50374624900007,8.61177845700007]]]}},{"type":"Feature","properties":{"code":"820804","name":"ทุ่งมะพร้าว","parentCode":"8208"},"geometry":{"type":"Polygon","coordinates":[[[98.38946577100006,8.531132496000055],[98.29559607600004,8.579008865000048],[98.24960607800006,8.540127088000077],[98.25827408100008,8.503379897000059],[98.30136551300006,8.495018229000038],[98.32814176400007,8.45374363700006],[98.36835471300009,8.484732260000044],[98.38946577100006,8.531132496000055]]]}}]}