{"type":"FeatureCollection","features":[{"type":"Feature","properties":{"code":"830106","name":"ฉลอง","parentCode":"8301"},"geometry":{"type":"Polygon","coordinates":[[[98.32414978900005,7.872063178000076],[98.30689987400007,7.874232078000034],[98.32079607600008,7.821179955000048],[98.34462653800006,7.8202188810000735],[98.37583151100006,7.840461204000064],[98.33168598500004,7.873150432000045],[98.32414978900005,7.872063178000076]]]}},{"type":"Feature","properties":{"code":"830303","name":"เชิงทะเล","parentCode":"8303"},"geometry":{"type":"Polygon","coordinates":[[[98.31744660400005,8.013831689000028],[98.30297025800007,8.053432213000065],[98.27624360200008,8.051070752000044],[98.29248230700006,8.00227200300003],[98.27634422100004,7.970316088000061],[98.31080792900008,7.961022380000031],[98.31744660400005,8.013831689000028]]]}},{"type":"Feature","properties":{"code":"830203","name":"กมลา","parentCode":"8302"},"geometry":{"type":"Polygon","coordinates":[[[98.31080792900008,7.961022380000031],[98.27634422100004,7.970316088000061],[98.27898098300005,7.921609123000053],[98.30917734300004,7.93440861800002],[98.31697235700005,7.941933152000047],[98.31080792900008,7.961022380000031]]]}},{"type":"Feature","properties":{"code":"830108","name":"กะรน","parentCode":"8301"},"geometry":{"type":"Polygon","coordinates":[[[98.30689987400007,7.874232078000034],[98.27513864200006,7.874329931000034],[98.29841426300004,7.809087233000071],[98.29093667500007,7.776036443000066],[98.32079607600008,7.821179955000048],[98.30689987400007,7.874232078000034]]]}},{"type":"Feature","properties":{"code":"830201","name":"กะทู้","parentCode":"8302"},"geometry":{"type":"Polygon","coordinates":[[[98.35033361600006,7.9440683740000395],[98.31697235700005,7.941933152000047],[98.30917734300004,7.93440861800002],[98.32414978900005,7.872063178000076],[98.33168598500004,7.873150432000045],[98.36823934400007,7.901138092000053],[98.36633222300009,7.935404044000052],[98.35033361600006,7.9440683740000395]]]}},{"type":"Feature","properties":{"code":"830103","name":"เกาะแก้ว","parentCode":"8301"},"geometry":{"type":"Polygon","coordinates":[[[98.39546966400007,7.965591471000039],[98.35033361600006,7.9440683740000395],[98.36633222300009,7.935404044000052],[98.41224948400009,7.92845660100005],[98.39546966400007,7.965591471000039]]]}},{"type":"Feature","properties":{"code":"830305","name":"ไม้ขาว","parentCode":"8303"},"geometry":{"type":"Polygon","coordinates":[[[98.35054230100008,8.114450093000073],[98.33702115900007,8.172892835000027],[98.28600930500005,8.199949698000069],[98.29983460500006,8.102525987000035],[98.32127265100007,8.098974149000071],[98.35054230100008,8.114450093000073]]]}},{"type":"Feature","properties":{"code":"830304","name":"ป่าคลอก","parentCode":"8303"},"geometry":{"type":"Polygon","coordinates":[[[98.39657836300006,7.980943142000058],[98.42810712700003,8.09699722800002],[98.38280826900007,8.091046481000035],[98.37453666300007,8.028063660000043],[98.39657836300006,7.980943142000058]]]}},{"type":"Feature","properties":{"code":"830202","name":"ป่าตอง","parentCode":"8302"},"geometry":{"type":"Polygon","coordinates":[[[98.32414978900005,7.872063178000076],[98.30917734300004,7.93440861800002],[98.27898098300005,7.921609123000053],[98.27513864200006,7.874329931000034],[98.30689987400007,7.874232078000034],[98.32414978900005,7.872063178000076]]]}},{"type":"Feature","properties":{"code":"830104","name":"รัษฎา","parentCode":"8301"},"geometry":{"type":"Polygon","coordinates":[[[98.41224948400009,7.92845660100005],[98.36633222300009,7.935404044000052],[98.36823934400007,7.901138092000053],[98.37512695400005,7.894439132000059],[98.38219882800007,7.889541305000023],[98.41072364200005,7.877815781000038],[98.44070159300009,7.88231292100005],[98.41224948400009,7.92845660100005]]]}},{"type":"Feature","properties":{"code":"830107","name":"ราไวย์","parentCode":"8301"},"geometry":{"type":"Polygon","coordinates":[[[98.34462653800006,7.8202188810000735],[98.32079607600008,7.821179955000048],[98.29093667500007,7.776036443000066],[98.33863121900004,7.780951877000064],[98.34462653800006,7.8202188810000735]]]}},{"type":"Feature","properties":{"code":"830306","name":"สาคู","parentCode":"8303"},"geometry":{"type":"Polygon","coordinates":[[[98.32127265100007,8.098974149000071],[98.29983460500006,8.102525987000035],[98.27624360200008,8.051070752000044],[98.30297025800007,8.053432213000065],[98.32127265100007,8.098974149000071]]]}},{"type":"Feature","properties":{"code":"830302","name":"ศรีสุนทร","parentCode":"8303"},"geometry":{"type":"Polygon","coordinates":[[[98.39657836300006,7.980943142000058],[98.37453666300007,8.028063660000043],[98.31744660400005,8.013831689000028],[98.31080792900008,7.961022380000031],[98.31697235700005,7.941933152000047],[98.35033361600006,7.9440683740000395],[98.39546966400007,7.965591471000039],[98.39657836300006,7.980943142000058]]]}},{"type":"Feature","properties":{"code":"830102","name":"ตลาดเหนือ","parentCode":"8301"},"geometry":{"type":"Polygon","coordinates":[[[98.38219882800007,7.889541305000023],[98.37512695400005,7.894439132000059],[98.39177810700005,7.869096009000032],[98.38219882800007,7.889541305000023]]]}},{"type":"Feature","properties":{"code":"830101","name":"ตลาดใหญ่","parentCode":"8301"},"geometry":{"type":"Polygon","coordinates":[[[98.41072364200005,7.877815781000038],[98.38219882800007,7.889541305000023],[98.39177810700005,7.869096009000032],[98.39915265700006,7.861970791000033],[98.41072364200005,7.877815781000038]]]}},{"type":"Feature","properties":{"code":"830301","name":"เทพกระษัตรี","parentCode":"8303"},"geometry":{"type":"Polygon","coordinates":[[[98.38280826900007,8.091046481000035],[98.35054230100008,8.114450093000073],[98.32127265100007,8.098974149000071],[98.30297025800007,8.053432213000065],[98.31744660400005,8.013831689000028],[98.37453666300007,8.028063660000043],[98.38280826900007,8.091046481000035]]]}},{"type":"Feature","properties":{"code":"830105","name":"วิชิต","parentCode":"8301"},"geometry":{"type":"Polygon","coordinates":[[[98.37512695400005,7.894439132000059],[98.36823934400007,7.901138092000053],[98.33168598500004,7.873150432000045],[98.37583151100006,7.840461204000064],[98.40229457200007,7.812037117000045],[98.39915265700006,7.861970791000033],[98.39177810700005,7.869096009000032],[98.37512695400005,7.894439132000059]]]}}]}