{"type":"FeatureCollection","features":[{"type":"Feature","properties":{"code":"840401","name":"อ่างทอง","parentCode":"8404"},"geometry":{"type":"MultiPolygon","coordinates":[[[[99.69397138700003,9.549549785000067],[99.66100102100006,9.514604131000056],[99.69981907800008,9.510030053000037],[99.69397138700003,9.549549785000067]]],[[[99.98705151600007,9.518111361000024],[99.96867563700005,9.559669978000045],[99.91605477000007,9.573496914000032],[99.93248568600006,9.516740385000048],[99.98705151600007,9.518111361000024]]]]}},{"type":"Feature","properties":{"code":"841404","name":"อรัญคามวารี","parentCode":"8414"},"geometry":{"type":"Polygon","coordinates":[[[99.24596631400004,8.774507449000055],[99.21720255200006,8.791967858000021],[99.17891093500003,8.762657500000046],[99.13625998700007,8.778348853000068],[99.10469711500008,8.726519892000056],[99.03125959700009,8.722840895000047],[99.06659640800007,8.706085597000026],[99.19211918100007,8.715888893000056],[99.23576898000005,8.70441192800007],[99.25404544300005,8.727540300000044],[99.24596631400004,8.774507449000055]]]}},{"type":"Feature","properties":{"code":"841301","name":"บ้านนา","parentCode":"8413"},"geometry":{"type":"Polygon","coordinates":[[[99.34003253500003,8.88670032300007],[99.26790837300007,8.908092487000033],[99.24519392000008,8.852111721000028],[99.22912137000009,8.820707476000052],[99.28391797100005,8.828213560000052],[99.32518922900005,8.825964729000077],[99.33071315000007,8.863542877000043],[99.34003253500003,8.88670032300007]]]}},{"type":"Feature","properties":{"code":"841405","name":"บ้านเสด็จ","parentCode":"8414"},"geometry":{"type":"Polygon","coordinates":[[[99.08639119800006,8.814190264000047],[99.06722796000008,8.840163220000022],[99.01645435600005,8.803497310000068],[98.92404671000008,8.805231340000034],[98.91055923100004,8.784373612000024],[98.89852133600004,8.75739130900007],[98.89751559800004,8.717670568000074],[98.93364333100004,8.68628338000002],[98.98448815900008,8.694957159000069],[99.03583830100007,8.67190826600006],[99.03125959700009,8.722840895000047],[99.10469711500008,8.726519892000056],[99.13625998700007,8.778348853000068],[99.08639119800006,8.814190264000047]]]}},{"type":"Feature","properties":{"code":"841502","name":"บ้านส้อง","parentCode":"8415"},"geometry":{"type":"Polygon","coordinates":[[[99.47375681600005,8.705787005000047],[99.42424298100008,8.668606683000064],[99.35596837100007,8.67262945300007],[99.34894209500004,8.626882582000064],[99.35271623200003,8.612235545000033],[99.41939421000006,8.570528831000047],[99.47846005600007,8.646736486000066],[99.49203035200009,8.696907734000035],[99.47375681600005,8.705787005000047]]]}},{"type":"Feature","properties":{"code":"840502","name":"บ้านใต้","parentCode":"8405"},"geometry":{"type":"Polygon","coordinates":[[[100.00192895400005,9.705757439000024],[100.07013285700003,9.666376016000072],[100.07266667100004,9.766519103000064],[100.04879303600006,9.792703304000042],[100.00192895400005,9.705757439000024]]]}},{"type":"Feature","properties":{"code":"840810","name":"บ้านทำเนียบ","parentCode":"8408"},"geometry":{"type":"Polygon","coordinates":[[[99.01518850200006,8.967229148000058],[99.00425406300008,9.001051758000074],[98.94665799400008,8.980927450000024],[98.93959392900007,8.956408262000025],[98.94967215000008,8.909267188000058],[98.92024257800006,8.871982641000045],[98.88601284600009,8.840486105000025],[98.91055923100004,8.784373612000024],[98.92404671000008,8.805231340000034],[99.01645435600005,8.803497310000068],[99.04367430700006,8.855277158000035],[99.00956967000008,8.895314179000025],[99.01518850200006,8.967229148000058]]]}},{"type":"Feature","properties":{"code":"840802","name":"บ้านยาง","parentCode":"8408"},"geometry":{"type":"Polygon","coordinates":[[[99.00756596500008,9.03514393200004],[99.00680742100008,9.107378580000045],[98.96829975300005,9.093224347000046],[98.97585983200008,9.031922245000032],[99.00756596500008,9.03514393200004]]]}},{"type":"Feature","properties":{"code":"840105","name":"บางใบไม้","parentCode":"8401"},"geometry":{"type":"Polygon","coordinates":[[[99.32216923100003,9.148262755000076],[99.30829007700004,9.169112471000062],[99.28208152200006,9.166989821000072],[99.27349339300008,9.135916778000023],[99.31158372900006,9.135089304000076],[99.32363830800006,9.147812980000026],[99.32216923100003,9.148262755000076]]]}},{"type":"Feature","properties":{"code":"840106","name":"บางชนะ","parentCode":"8401"},"geometry":{"type":"Polygon","coordinates":[[[99.34440736100004,9.219938483000021],[99.32192808700006,9.24396950800002],[99.30276601200006,9.220190036000076],[99.30829007700004,9.169112471000062],[99.32216923100003,9.148262755000076],[99.34440736100004,9.219938483000021]]]}},{"type":"Feature","properties":{"code":"841705","name":"บางเดือน","parentCode":"8417"},"geometry":{"type":"Polygon","coordinates":[[[99.09146985000007,9.067235380000056],[99.06786093500006,9.073944391000055],[99.06957964700007,8.964501874000064],[99.08020051700004,8.962232882000023],[99.09694305800008,9.054685710000058],[99.09146985000007,9.067235380000056]]]}},{"type":"Feature","properties":{"code":"840110","name":"บางกุ้ง","parentCode":"8401"},"geometry":{"type":"Polygon","coordinates":[[[99.39098300500007,9.141415252000058],[99.37191620300007,9.185754949000057],[99.32819657100003,9.155949268000029],[99.33706806200007,9.138712898000051],[99.36790874100006,9.145533227000044],[99.39098300500007,9.141415252000058]]]}},{"type":"Feature","properties":{"code":"841704","name":"บางมะเดื่อ","parentCode":"8417"},"geometry":{"type":"Polygon","coordinates":[[[99.14433411300007,9.05632631100002],[99.13743718200004,9.062783914000022],[99.09694305800008,9.054685710000058],[99.08020051700004,8.962232882000023],[99.12898467000008,8.972643815000026],[99.14433411300007,9.05632631100002]]]}},{"type":"Feature","properties":{"code":"841709","name":"บางงอน","parentCode":"8417"},"geometry":{"type":"Polygon","coordinates":[[[99.10022818400006,9.139071751000074],[99.06693595800004,9.163059131000068],[99.02064767200005,9.157684026000027],[99.02655700100007,9.12842751200003],[99.02538654300008,9.09607537100004],[99.04740698000006,9.073173446000055],[99.06786093500006,9.073944391000055],[99.09146985000007,9.067235380000056],[99.10022818400006,9.139071751000074]]]}},{"type":"Feature","properties":{"code":"840109","name":"บางโพธิ์","parentCode":"8401"},"geometry":{"type":"Polygon","coordinates":[[[99.28114531500006,9.17205288200006],[99.29873941000005,9.210447832000057],[99.23655792000005,9.164715809000029],[99.22472970600006,9.13981894400007],[99.22987514000005,9.138081803000034],[99.28114531500006,9.17205288200006]]]}},{"type":"Feature","properties":{"code":"840108","name":"บางไทร","parentCode":"8401"},"geometry":{"type":"Polygon","coordinates":[[[99.30829007700004,9.169112471000062],[99.30276601200006,9.220190036000076],[99.29873941000005,9.210447832000057],[99.28114531500006,9.17205288200006],[99.28208152200006,9.166989821000072],[99.30829007700004,9.169112471000062]]]}},{"type":"Feature","properties":{"code":"841603","name":"บางสวรรค์","parentCode":"8416"},"geometry":{"type":"Polygon","coordinates":[[[99.03583830100007,8.67190826600006],[98.98448815900008,8.694957159000069],[98.93364333100004,8.68628338000002],[98.89751559800004,8.717670568000074],[98.88797645400007,8.681336976000068],[98.93463044700007,8.557891432000076],[99.01763133700007,8.552907926000046],[99.04953476100007,8.575675701000023],[99.03567366400006,8.583402896000052],[99.06476588500004,8.665972617000023],[99.03583830100007,8.67190826600006]]]}},{"type":"Feature","properties":{"code":"840406","name":"บ่อผุด","parentCode":"8404"},"geometry":{"type":"Polygon","coordinates":[[[100.06693179800004,9.480286019000062],[100.06249257200005,9.528916810000055],[100.09059191200004,9.569997755000031],[100.01943353000007,9.56585203700007],[99.98705151600007,9.518111361000024],[99.99849143500006,9.50763184300007],[100.02368981000006,9.497627848000036],[100.06693179800004,9.480286019000062]]]}},{"type":"Feature","properties":{"code":"841802","name":"ชัยบุรี","parentCode":"8418"},"geometry":{"type":"Polygon","coordinates":[[[99.07203356000008,8.451995259000057],[98.96644570100005,8.458503664000034],[98.94852269200004,8.472062519000076],[98.94102709500004,8.457184595000058],[98.94086239200004,8.448825990000046],[99.03889420400009,8.414140210000028],[99.19685544700008,8.41628565000002],[99.20225520300005,8.443362747000037],[99.07203356000008,8.451995259000057]]]}},{"type":"Feature","properties":{"code":"840303","name":"ไชยคราม","parentCode":"8403"},"geometry":{"type":"Polygon","coordinates":[[[99.64594791500008,9.221712517000071],[99.64201015400005,9.30110376700003],[99.62328069500006,9.282608155000048],[99.62440358900005,9.205987488000062],[99.65626189800008,9.160411410000052],[99.64594791500008,9.221712517000071]]]}},{"type":"Feature","properties":{"code":"840210","name":"ช้างขวา","parentCode":"8402"},"geometry":{"type":"Polygon","coordinates":[[[99.47498575000009,9.126244198000052],[99.44597332700005,9.158463403000042],[99.43287739100003,9.136512371000038],[99.42350073700004,9.082751994000034],[99.43108942200007,9.016555470000071],[99.44057630300006,9.084770625000033],[99.46736713200005,9.07961848900004],[99.47498575000009,9.126244198000052]]]}},{"type":"Feature","properties":{"code":"840206","name":"ช้างซ้าย","parentCode":"8402"},"geometry":{"type":"Polygon","coordinates":[[[99.53267558800007,9.067290458000059],[99.48518544500007,9.130693113000063],[99.47498575000009,9.126244198000052],[99.46736713200005,9.07961848900004],[99.44057630300006,9.084770625000033],[99.43108942200007,9.016555470000071],[99.43703881900007,8.982221526000046],[99.47602276200007,8.917973559000075],[99.48808380700007,8.908960706000073],[99.51391267100007,8.91066212800007],[99.48098004100007,8.946702044000062],[99.53267558800007,9.067290458000059]]]}},{"type":"Feature","properties":{"code":"840302","name":"ชลคราม","parentCode":"8403"},"geometry":{"type":"Polygon","coordinates":[[[99.62440358900005,9.205987488000062],[99.62328069500006,9.282608155000048],[99.57410294300007,9.271461532000046],[99.57578908300007,9.242775165000069],[99.62440358900005,9.205987488000062]]]}},{"type":"Feature","properties":{"code":"840301","name":"ดอนสัก","parentCode":"8403"},"geometry":{"type":"Polygon","coordinates":[[[99.76912757800005,9.322795434000057],[99.73098287600004,9.312353462000033],[99.68543178100003,9.332538212000031],[99.64201015400005,9.30110376700003],[99.64594791500008,9.221712517000071],[99.71127135500006,9.225365370000077],[99.72214681500009,9.15679827200006],[99.77159450300007,9.260889774000077],[99.76912757800005,9.322795434000057]]]}},{"type":"Feature","properties":{"code":"841713","name":"หัวเตย","parentCode":"8417"},"geometry":{"type":"Polygon","coordinates":[[[99.19422884900007,9.14346030400003],[99.13170976800006,9.133620804000032],[99.18177853100008,9.118305683000074],[99.19417956100006,9.143346275000056],[99.19422884900007,9.14346030400003]]]}},{"type":"Feature","properties":{"code":"841601","name":"อิปัน","parentCode":"8416"},"geometry":{"type":"Polygon","coordinates":[[[99.27959070700007,8.646407340000053],[99.20963084900006,8.635814842000059],[99.22105879100008,8.584166448000076],[99.19747898500003,8.541265520000024],[99.18313392300007,8.489777901000025],[99.20386287500008,8.47432906900002],[99.22428706400007,8.471392803000072],[99.20980485800004,8.541584744000033],[99.25361552100009,8.561054840000054],[99.27959070700007,8.646407340000053]]]}},{"type":"Feature","properties":{"code":"840203","name":"กะแดะ","parentCode":"8402"},"geometry":{"type":"Polygon","coordinates":[[[99.48587922600007,9.143600569000057],[99.47839780000004,9.21043761900006],[99.44949827300007,9.199400418000039],[99.44597332700005,9.158463403000042],[99.47498575000009,9.126244198000052],[99.48518544500007,9.130693113000063],[99.48587922600007,9.143600569000057]]]}},{"type":"Feature","properties":{"code":"840806","name":"กะเปา","parentCode":"8408"},"geometry":{"type":"Polygon","coordinates":[[[98.93162587700004,9.001261145000058],[98.87197138000005,9.068592289000037],[98.82078331700006,9.07061716800007],[98.81935057400005,9.001101899000048],[98.84323735500004,8.995366129000047],[98.90139002900008,8.979248071000029],[98.93162587700004,9.001261145000058]]]}},{"type":"Feature","properties":{"code":"840704","name":"คันธุลี","parentCode":"8407"},"geometry":{"type":"Polygon","coordinates":[[[99.15931372200004,9.70209692000003],[99.02940192700004,9.694897840000067],[98.98241406400007,9.67157338900006],[99.00991224100005,9.63735476200003],[99.11846962600004,9.597392288000037],[99.15929636600004,9.61695671900003],[99.18385080300004,9.634629907000033],[99.15931372200004,9.70209692000003]]]}},{"type":"Feature","properties":{"code":"841715","name":"เขาหัวควาย","parentCode":"8417"},"geometry":{"type":"Polygon","coordinates":[[[99.29148978600006,9.035545121000041],[99.26882161700007,9.098589658000037],[99.21220400600004,9.078653306000035],[99.23555563200006,9.04820608600005],[99.29148978600006,9.035545121000041]]]}},{"type":"Feature","properties":{"code":"841505","name":"เขานิพันธ์","parentCode":"8415"},"geometry":{"type":"Polygon","coordinates":[[[99.41939421000006,8.570528831000047],[99.35271623200003,8.612235545000033],[99.33399150300005,8.56458410700003],[99.37802031700005,8.516194459000076],[99.38692937100006,8.515419799000028],[99.41777895900003,8.552240394000023],[99.41939421000006,8.570528831000047]]]}},{"type":"Feature","properties":{"code":"840904","name":"เขาพัง","parentCode":"8409"},"geometry":{"type":"Polygon","coordinates":[[[98.65609745700004,9.347673159000067],[98.59008076600009,9.36477386100006],[98.53074868700008,9.34530232800006],[98.50606009400008,9.308902024000076],[98.52738587600004,9.296866860000023],[98.52499958200008,9.235326385000064],[98.49328330300006,9.188202250000074],[98.48057750900006,9.123883222000075],[98.49444208300008,9.080646041000023],[98.47516258000007,9.044499916000063],[98.50576182000003,8.983124392000036],[98.61399473100005,8.933674995000047],[98.66990566500004,8.958490893000032],[98.76954073500008,8.899145392000037],[98.78796017300004,8.897686777000047],[98.85425202500005,8.967690875000073],[98.84323735500004,8.995366129000047],[98.81935057400005,9.001101899000048],[98.82078331700006,9.07061716800007],[98.80126160800006,9.133966267000062],[98.77099222800007,9.204723021000063],[98.73056997600008,9.236065422000024],[98.72829448200008,9.26271207000002],[98.66123928100006,9.30179294900006],[98.65609745700004,9.347673159000067]]]}},{"type":"Feature","properties":{"code":"841104","name":"เขาถ่าน","parentCode":"8411"},"geometry":{"type":"Polygon","coordinates":[[[99.21977080300007,9.338076655000066],[99.16307231500008,9.343755792000024],[99.15015557500004,9.275040667000042],[99.22625366600005,9.278019905000065],[99.21977080300007,9.338076655000066]]]}},{"type":"Feature","properties":{"code":"841403","name":"เขาตอก","parentCode":"8414"},"geometry":{"type":"Polygon","coordinates":[[[99.24519392000008,8.852111721000028],[99.19322737000005,8.886058404000039],[99.17829911600006,8.875388287000021],[99.21755956000004,8.841467943000055],[99.21720255200006,8.791967858000021],[99.24596631400004,8.774507449000055],[99.22912137000009,8.820707476000052],[99.24519392000008,8.852111721000028]]]}},{"type":"Feature","properties":{"code":"840901","name":"เขาวง","parentCode":"8409"},"geometry":{"type":"Polygon","coordinates":[[[98.93959392900007,8.956408262000025],[98.89258622100004,8.975014220000048],[98.89294779300008,8.928253642000072],[98.87097758600004,8.899099595000052],[98.92024257800006,8.871982641000045],[98.94967215000008,8.909267188000058],[98.93959392900007,8.956408262000025]]]}},{"type":"Feature","properties":{"code":"841401","name":"เคียนซา","parentCode":"8414"},"geometry":{"type":"Polygon","coordinates":[[[99.21720255200006,8.791967858000021],[99.21755956000004,8.841467943000055],[99.17829911600006,8.875388287000021],[99.08639119800006,8.814190264000047],[99.13625998700007,8.778348853000068],[99.17891093500003,8.762657500000046],[99.21720255200006,8.791967858000021]]]}},{"type":"Feature","properties":{"code":"841006","name":"คลองชะอุ่น","parentCode":"8410"},"geometry":{"type":"Polygon","coordinates":[[[98.89852133600004,8.75739130900007],[98.84034646900005,8.840479412000036],[98.83019878900006,8.818895883000039],[98.78572060100004,8.754517085000032],[98.74764297200005,8.67510965200006],[98.79535754600005,8.651056628000049],[98.83313606800004,8.674144005000073],[98.88797645400007,8.681336976000068],[98.89751559800004,8.717670568000074],[98.89852133600004,8.75739130900007]]]}},{"type":"Feature","properties":{"code":"840111","name":"คลองฉนาก","parentCode":"8401"},"geometry":{"type":"Polygon","coordinates":[[[99.34440736100004,9.219938483000021],[99.32216923100003,9.148262755000076],[99.32363830800006,9.147812980000026],[99.32819657100003,9.155949268000029],[99.37191620300007,9.185754949000057],[99.38102742100006,9.193885778000038],[99.34440736100004,9.219938483000021]]]}},{"type":"Feature","properties":{"code":"841503","name":"คลองฉนวน","parentCode":"8415"},"geometry":{"type":"Polygon","coordinates":[[[99.37802031700005,8.516194459000076],[99.33399150300005,8.56458410700003],[99.27966128800006,8.552527887000053],[99.27677230000006,8.491885661000026],[99.29343487000006,8.47073398200007],[99.37802031700005,8.516194459000076]]]}},{"type":"Feature","properties":{"code":"840107","name":"คลองน้อย","parentCode":"8401"},"geometry":{"type":"Polygon","coordinates":[[[99.28114531500006,9.17205288200006],[99.22987514000005,9.138081803000034],[99.26652383400005,9.13645301300005],[99.27349339300008,9.135916778000023],[99.28208152200006,9.166989821000072],[99.28114531500006,9.17205288200006]]]}},{"type":"Feature","properties":{"code":"841803","name":"คลองน้อย","parentCode":"8418"},"geometry":{"type":"Polygon","coordinates":[[[99.01763133700007,8.552907926000046],[98.93463044700007,8.557891432000076],[98.94852269200004,8.472062519000076],[98.96644570100005,8.458503664000034],[99.07203356000008,8.451995259000057],[99.06953637600009,8.515549993000036],[99.02444303400006,8.515507789000026],[99.01763133700007,8.552907926000046]]]}},{"type":"Feature","properties":{"code":"840706","name":"คลองพา","parentCode":"8407"},"geometry":{"type":"Polygon","coordinates":[[[98.98241406400007,9.67157338900006],[98.93930299900006,9.681440785000063],[98.88084765900004,9.729186302000073],[98.77900260500007,9.691022194000027],[98.76808885500009,9.666160219000062],[98.80524018200003,9.650587396000049],[98.93004146600003,9.633210794000036],[98.95502402500006,9.608521856000038],[99.00730783300008,9.622361315000035],[99.11930798700007,9.573763177000046],[99.16359285100003,9.578712547000066],[99.15929636600004,9.61695671900003],[99.11846962600004,9.597392288000037],[99.00991224100005,9.63735476200003],[98.98241406400007,9.67157338900006]]]}},{"type":"Feature","properties":{"code":"841208","name":"คลองปราบ","parentCode":"8412"},"geometry":{"type":"Polygon","coordinates":[[[99.39564230500008,8.77759966900004],[99.32916873100004,8.771562114000062],[99.33182387900007,8.748953108000023],[99.33313368900008,8.730799231000049],[99.40435122900004,8.750569744000074],[99.39564230500008,8.77759966900004]]]}},{"type":"Feature","properties":{"code":"840213","name":"คลองสระ","parentCode":"8402"},"geometry":{"type":"Polygon","coordinates":[[[99.72558777500006,8.988289265000049],[99.62466890200005,9.046736295000073],[99.62758402500003,9.084898573000032],[99.61577676700006,9.040089618000025],[99.58012882300005,9.04167155600004],[99.55124549200008,8.952016087000061],[99.56860445600006,8.887059799000042],[99.57624489600005,8.911059304000048],[99.64189235700007,8.927769940000076],[99.69641031900005,8.93580606200004],[99.72244166000007,8.97734798600004],[99.72558777500006,8.988289265000049]]]}},{"type":"Feature","properties":{"code":"841103","name":"คลองไทร","parentCode":"8411"},"geometry":{"type":"Polygon","coordinates":[[[99.21827865800003,9.206566513000041],[99.04961666500009,9.249023754000063],[99.00832999600004,9.246305379000034],[99.01226733700008,9.202730458000076],[99.01928868200008,9.201066242000024],[99.09008501300008,9.183690066000054],[99.19755956600005,9.187522903000058],[99.22051908300006,9.192270681000025],[99.21827865800003,9.206566513000041]]]}},{"type":"Feature","properties":{"code":"841003","name":"คลองศก","parentCode":"8410"},"geometry":{"type":"Polygon","coordinates":[[[98.50576182000003,8.983124392000036],[98.44309888900005,8.945222037000065],[98.44599597900003,8.89525517800007],[98.50694317600005,8.878978482000036],[98.56447257000008,8.807271798000045],[98.59870699100009,8.796834490000037],[98.59642957600005,8.753102463000062],[98.59479828200006,8.71261695100003],[98.53694575400004,8.660817648000034],[98.58993589200009,8.62951778300004],[98.64756836700008,8.746385954000061],[98.71739645300005,8.792946973000028],[98.73019542900005,8.82661127700004],[98.76954073500008,8.899145392000037],[98.66990566500004,8.958490893000032],[98.61399473100005,8.933674995000047],[98.50576182000003,8.983124392000036]]]}},{"type":"Feature","properties":{"code":"841206","name":"ควนศรี","parentCode":"8412"},"geometry":{"type":"Polygon","coordinates":[[[99.33313368900008,8.730799231000049],[99.33182387900007,8.748953108000023],[99.29233744400005,8.746386418000043],[99.27157356600009,8.720589994000022],[99.27607205600003,8.69057053900002],[99.32958850600005,8.678493475000039],[99.33313368900008,8.730799231000049]]]}},{"type":"Feature","properties":{"code":"841207","name":"ควนสุบรรณ","parentCode":"8412"},"geometry":{"type":"Polygon","coordinates":[[[99.41319028800007,8.89397926600003],[99.34322525300007,8.902223673000037],[99.34003253500003,8.88670032300007],[99.33071315000007,8.863542877000043],[99.38640237500005,8.850117970000042],[99.41319028800007,8.89397926600003]]]}},{"type":"Feature","properties":{"code":"840104","name":"ขุนทะเล","parentCode":"8401"},"geometry":{"type":"Polygon","coordinates":[[[99.39156874200006,9.07090574600005],[99.36257549000004,9.095062434000056],[99.32792014700004,9.068855978000045],[99.32307884300008,8.962977360000025],[99.32113614800005,8.960327585000073],[99.35517141800005,8.965913625000042],[99.38907258900008,8.996797043000072],[99.39156874200006,9.07090574600005]]]}},{"type":"Feature","properties":{"code":"840501","name":"เกาะพะงัน","parentCode":"8405"},"geometry":{"type":"Polygon","coordinates":[[[100.04879303600006,9.792703304000042],[99.99008004200005,9.80293316500007],[99.96712226500006,9.785665649000066],[99.98134237700003,9.713225215000023],[100.00192895400005,9.705757439000024],[100.04879303600006,9.792703304000042]]]}},{"type":"Feature","properties":{"code":"840503","name":"เกาะเต่า","parentCode":"8405"},"geometry":{"type":"Polygon","coordinates":[[[99.82797818300008,10.124511470000073],[99.82158731500004,10.064734668000028],[99.85589496300008,10.091169636000075],[99.82797818300008,10.124511470000073]]]}},{"type":"Feature","properties":{"code":"840205","name":"กรูด","parentCode":"8402"},"geometry":{"type":"Polygon","coordinates":[[[99.55980191100008,9.135761763000062],[99.48587922600007,9.143600569000057],[99.48518544500007,9.130693113000063],[99.53267558800007,9.067290458000059],[99.59681590100007,9.066479432000051],[99.60236304900008,9.085458986000049],[99.59687566300005,9.12508513900002],[99.55980191100008,9.135761763000062]]]}},{"type":"Feature","properties":{"code":"841707","name":"กรูด","parentCode":"8417"},"geometry":{"type":"Polygon","coordinates":[[[99.19560918300004,8.970975131000046],[99.12898467000008,8.972643815000026],[99.08020051700004,8.962232882000023],[99.06957964700007,8.964501874000064],[99.08202693600003,8.92607883200003],[99.05225911100007,8.907549921000054],[99.10751633800004,8.922894129000042],[99.19093794600008,8.914051064000034],[99.21851782300007,8.961201365000022],[99.21730257100006,8.963216210000041],[99.19560918300004,8.970975131000046]]]}},{"type":"Feature","properties":{"code":"840603","name":"เลม็ด","parentCode":"8406"},"geometry":{"type":"Polygon","coordinates":[[[99.23396260600003,9.38756647200006],[99.20872635300003,9.387590784000054],[99.18788227400006,9.382327623000037],[99.14714554100004,9.339689333000024],[99.16307231500008,9.343755792000024],[99.21977080300007,9.338076655000066],[99.23621265100007,9.346722740000075],[99.23396260600003,9.38756647200006]]]}},{"type":"Feature","properties":{"code":"841204","name":"ลำพูน","parentCode":"8412"},"geometry":{"type":"Polygon","coordinates":[[[99.51391267100007,8.91066212800007],[99.48808380700007,8.908960706000073],[99.44598124300006,8.878572075000022],[99.41319028800007,8.89397926600003],[99.38640237500005,8.850117970000042],[99.37068268700006,8.805999988000053],[99.39259688600004,8.789188500000023],[99.47778785800006,8.772695060000046],[99.51760351700005,8.836135160000026],[99.55582926400007,8.877702145000057],[99.51391267100007,8.91066212800007]]]}},{"type":"Feature","properties":{"code":"841703","name":"ลีเล็ด","parentCode":"8417"},"geometry":{"type":"Polygon","coordinates":[[[99.32192808700006,9.24396950800002],[99.27635100900005,9.22167304900006],[99.23961792300008,9.235178093000059],[99.21827865800003,9.206566513000041],[99.22051908300006,9.192270681000025],[99.23655792000005,9.164715809000029],[99.29873941000005,9.210447832000057],[99.30276601200006,9.220190036000076],[99.32192808700006,9.24396950800002]]]}},{"type":"Feature","properties":{"code":"840402","name":"ลิปะน้อย","parentCode":"8404"},"geometry":{"type":"Polygon","coordinates":[[[99.98705151600007,9.518111361000024],[99.93248568600006,9.516740385000048],[99.92644350200004,9.481970983000053],[99.98581277300008,9.488439025000048],[99.99849143500006,9.50763184300007],[99.98705151600007,9.518111361000024]]]}},{"type":"Feature","properties":{"code":"840407","name":"แม่น้ำ","parentCode":"8404"},"geometry":{"type":"Polygon","coordinates":[[[100.01943353000007,9.56585203700007],[99.98279067400006,9.587365157000022],[99.91605477000007,9.573496914000032],[99.96867563700005,9.559669978000045],[99.98705151600007,9.518111361000024],[100.01943353000007,9.56585203700007]]]}},{"type":"Feature","properties":{"code":"840102","name":"มะขามเตี้ย","parentCode":"8401"},"geometry":{"type":"Polygon","coordinates":[[[99.36790874100006,9.145533227000044],[99.33706806200007,9.138712898000051],[99.30350617300007,9.122629854000024],[99.32792014700004,9.068855978000045],[99.36257549000004,9.095062434000056],[99.39156874200006,9.07090574600005],[99.39239578200005,9.101652669000032],[99.36790874100006,9.145533227000044]]]}},{"type":"Feature","properties":{"code":"841712","name":"มะลวน","parentCode":"8417"},"geometry":{"type":"Polygon","coordinates":[[[99.19755956600005,9.187522903000058],[99.09008501300008,9.183690066000054],[99.01928868200008,9.201066242000024],[99.02064767200005,9.157684026000027],[99.06693595800004,9.163059131000068],[99.10022818400006,9.139071751000074],[99.12465931100007,9.132045713000025],[99.13170976800006,9.133620804000032],[99.19422884900007,9.14346030400003],[99.19755956600005,9.187522903000058]]]}},{"type":"Feature","properties":{"code":"840405","name":"มะเร็ต","parentCode":"8404"},"geometry":{"type":"Polygon","coordinates":[[[100.06693179800004,9.480286019000062],[100.02368981000006,9.497627848000036],[100.00864393300009,9.419948972000043],[100.06693179800004,9.480286019000062]]]}},{"type":"Feature","properties":{"code":"840608","name":"โมถ่าย","parentCode":"8406"},"geometry":{"type":"Polygon","coordinates":[[[99.09312500200008,9.452819633000047],[99.05259106700004,9.443625877000045],[99.04735049000004,9.368589298000074],[99.06881041000008,9.345845991000033],[99.14714554100004,9.339689333000024],[99.11105250300005,9.354305694000061],[99.11073572000004,9.420266746000038],[99.09312500200008,9.452819633000047]]]}},{"type":"Feature","properties":{"code":"840404","name":"หน้าเมือง","parentCode":"8404"},"geometry":{"type":"Polygon","coordinates":[[[100.02368981000006,9.497627848000036],[99.99849143500006,9.50763184300007],[99.98581277300008,9.488439025000048],[99.95778656500005,9.436071262000041],[99.96918368400009,9.41174267100007],[100.00864393300009,9.419948972000043],[100.02368981000006,9.497627848000036]]]}},{"type":"Feature","properties":{"code":"841201","name":"นาสาร","parentCode":"8412"},"geometry":{"type":"Polygon","coordinates":[[[99.38640237500005,8.850117970000042],[99.33071315000007,8.863542877000043],[99.32518922900005,8.825964729000077],[99.32916873100004,8.771562114000062],[99.39564230500008,8.77759966900004],[99.39259688600004,8.789188500000023],[99.37068268700006,8.805999988000053],[99.38640237500005,8.850117970000042]]]}},{"type":"Feature","properties":{"code":"841304","name":"นาใต้","parentCode":"8413"},"geometry":{"type":"Polygon","coordinates":[[[99.35517141800005,8.965913625000042],[99.32113614800005,8.960327585000073],[99.30844361900006,8.959676793000028],[99.30291933900008,8.919507250000038],[99.26856456100006,8.915092896000033],[99.26790837300007,8.908092487000033],[99.34003253500003,8.88670032300007],[99.34322525300007,8.902223673000037],[99.35055945900007,8.935471808000045],[99.35517141800005,8.965913625000042]]]}},{"type":"Feature","properties":{"code":"840803","name":"น้ำหัก","parentCode":"8408"},"geometry":{"type":"Polygon","coordinates":[[[99.02655700100007,9.12842751200003],[98.96484294700008,9.125785977000021],[98.95028504300006,9.153098550000038],[98.85351010600004,9.17101013000007],[98.77099222800007,9.204723021000063],[98.80126160800006,9.133966267000062],[98.91124527300008,9.09342244100003],[98.96829975300005,9.093224347000046],[99.00680742100008,9.107378580000045],[99.02538654300008,9.09607537100004],[99.02655700100007,9.12842751200003]]]}},{"type":"Feature","properties":{"code":"841711","name":"น้ำรอบ","parentCode":"8417"},"geometry":{"type":"Polygon","coordinates":[[[99.12465931100007,9.132045713000025],[99.10022818400006,9.139071751000074],[99.09146985000007,9.067235380000056],[99.09694305800008,9.054685710000058],[99.13743718200004,9.062783914000022],[99.12465931100007,9.132045713000025]]]}},{"type":"Feature","properties":{"code":"841209","name":"น้ำพุ","parentCode":"8412"},"geometry":{"type":"Polygon","coordinates":[[[99.32518922900005,8.825964729000077],[99.28391797100005,8.828213560000052],[99.29233744400005,8.746386418000043],[99.33182387900007,8.748953108000023],[99.32916873100004,8.771562114000062],[99.32518922900005,8.825964729000077]]]}},{"type":"Feature","properties":{"code":"841714","name":"หนองไทร","parentCode":"8417"},"geometry":{"type":"Polygon","coordinates":[[[99.18177853100008,9.118305683000074],[99.13170976800006,9.133620804000032],[99.12465931100007,9.132045713000025],[99.13743718200004,9.062783914000022],[99.14433411300007,9.05632631100002],[99.20135998500007,9.074210245000074],[99.18575675500006,9.110868123000046],[99.18177853100008,9.118305683000074]]]}},{"type":"Feature","properties":{"code":"840208","name":"ป่าร่อน","parentCode":"8402"},"geometry":{"type":"Polygon","coordinates":[[[99.62758402500003,9.084898573000032],[99.60236304900008,9.085458986000049],[99.59681590100007,9.066479432000051],[99.53267558800007,9.067290458000059],[99.48098004100007,8.946702044000062],[99.51391267100007,8.91066212800007],[99.55582926400007,8.877702145000057],[99.56860445600006,8.887059799000042],[99.55124549200008,8.952016087000061],[99.58012882300005,9.04167155600004],[99.61577676700006,9.040089618000025],[99.62758402500003,9.084898573000032]]]}},{"type":"Feature","properties":{"code":"840606","name":"ป่าเว","parentCode":"8406"},"geometry":{"type":"Polygon","coordinates":[[[99.18343435600008,9.444421430000034],[99.18030669800004,9.464321774000041],[99.17636291100007,9.489820415000054],[99.09220365200008,9.463113124000074],[99.09312500200008,9.452819633000047],[99.11073572000004,9.420266746000038],[99.17813992800006,9.402084709000064],[99.18343435600008,9.444421430000034]]]}},{"type":"Feature","properties":{"code":"841106","name":"ปากฉลุย","parentCode":"8411"},"geometry":{"type":"Polygon","coordinates":[[[98.80919344000006,9.512424818000056],[98.76360561100006,9.536744944000077],[98.69446616300007,9.46989892800002],[98.66887741900007,9.466922728000043],[98.66812620900004,9.448691782000026],[98.64785331300004,9.427253501000052],[98.66944663000004,9.36069879400003],[98.70062476600003,9.364349970000035],[98.70246360400006,9.317550398000037],[98.78539467500008,9.35299683900007],[98.79172074700006,9.31688527600005],[98.91236807300004,9.302596403000052],[98.98544665000009,9.240455755000028],[98.99640962300003,9.209751374000064],[99.01226733700008,9.202730458000076],[99.00832999600004,9.246305379000034],[99.03518785100005,9.274346102000038],[99.03191533300009,9.303366623000045],[99.06881041000008,9.345845991000033],[99.04735049000004,9.368589298000074],[99.00650545200006,9.413364973000057],[98.94836969600004,9.433454693000044],[98.89678065300006,9.40011654600005],[98.86389924600007,9.46607830000005],[98.80919344000006,9.512424818000056]]]}},{"type":"Feature","properties":{"code":"840609","name":"ปากหมาก","parentCode":"8406"},"geometry":{"type":"Polygon","coordinates":[[[99.09220365200008,9.463113124000074],[99.06606612100006,9.533409253000059],[99.01026740000003,9.528852161000032],[98.94528236900004,9.55511946300004],[98.91979707900003,9.533741641000063],[98.86840288600007,9.546822392000024],[98.80919344000006,9.512424818000056],[98.86389924600007,9.46607830000005],[98.89678065300006,9.40011654600005],[98.94836969600004,9.433454693000044],[99.00650545200006,9.413364973000057],[99.04735049000004,9.368589298000074],[99.05259106700004,9.443625877000045],[99.09312500200008,9.452819633000047],[99.09220365200008,9.463113124000074]]]}},{"type":"Feature","properties":{"code":"840304","name":"ปากแพรก","parentCode":"8403"},"geometry":{"type":"Polygon","coordinates":[[[99.72214681500009,9.15679827200006],[99.71127135500006,9.225365370000077],[99.64594791500008,9.221712517000071],[99.65626189800008,9.160411410000052],[99.67083895100006,9.07019890500004],[99.74209333500005,9.029715931000055],[99.77176501800005,9.096430174000034],[99.72214681500009,9.15679827200006]]]}},{"type":"Feature","properties":{"code":"841005","name":"พังกาญจน์","parentCode":"8410"},"geometry":{"type":"Polygon","coordinates":[[[98.85566775800004,8.900203366000028],[98.79827632900003,8.896357055000067],[98.78483119200007,8.846753253000031],[98.81987890000005,8.865291011000068],[98.83019878900006,8.818895883000039],[98.84034646900005,8.840479412000036],[98.85566775800004,8.900203366000028]]]}},{"type":"Feature","properties":{"code":"841001","name":"พนม","parentCode":"8410"},"geometry":{"type":"Polygon","coordinates":[[[98.78796017300004,8.897686777000047],[98.76954073500008,8.899145392000037],[98.73019542900005,8.82661127700004],[98.78572060100004,8.754517085000032],[98.83019878900006,8.818895883000039],[98.81987890000005,8.865291011000068],[98.78483119200007,8.846753253000031],[98.79827632900003,8.896357055000067],[98.78796017300004,8.897686777000047]]]}},{"type":"Feature","properties":{"code":"840902","name":"พะแสง","parentCode":"8409"},"geometry":{"type":"Polygon","coordinates":[[[98.89294779300008,8.928253642000072],[98.85425202500005,8.967690875000073],[98.78796017300004,8.897686777000047],[98.79827632900003,8.896357055000067],[98.85566775800004,8.900203366000028],[98.87097758600004,8.899099595000052],[98.89294779300008,8.928253642000072]]]}},{"type":"Feature","properties":{"code":"840207","name":"พลายวาส","parentCode":"8402"},"geometry":{"type":"Polygon","coordinates":[[[99.56786351200009,9.16389552000004],[99.54687785400006,9.16260458100004],[99.53780041400006,9.231066506000047],[99.49918952500008,9.221449093000047],[99.47839780000004,9.21043761900006],[99.48587922600007,9.143600569000057],[99.55980191100008,9.135761763000062],[99.56786351200009,9.16389552000004]]]}},{"type":"Feature","properties":{"code":"841004","name":"พลูเถื่อน","parentCode":"8410"},"geometry":{"type":"Polygon","coordinates":[[[98.78572060100004,8.754517085000032],[98.73019542900005,8.82661127700004],[98.71739645300005,8.792946973000028],[98.64756836700008,8.746385954000061],[98.58993589200009,8.62951778300004],[98.60431786100008,8.625686161000033],[98.64807140800008,8.659165255000062],[98.70343810700007,8.631978692000075],[98.74764297200005,8.67510965200006],[98.78572060100004,8.754517085000032]]]}},{"type":"Feature","properties":{"code":"841211","name":"เพิ่มพูนทรัพย์","parentCode":"8412"},"geometry":{"type":"Polygon","coordinates":[[[99.52188097500004,8.719287520000023],[99.51760351700005,8.836135160000026],[99.47778785800006,8.772695060000046],[99.39259688600004,8.789188500000023],[99.39564230500008,8.77759966900004],[99.40435122900004,8.750569744000074],[99.47375681600005,8.705787005000047],[99.49203035200009,8.696907734000035],[99.52188097500004,8.719287520000023]]]}},{"type":"Feature","properties":{"code":"841202","name":"พรุพี","parentCode":"8412"},"geometry":{"type":"Polygon","coordinates":[[[99.47375681600005,8.705787005000047],[99.40435122900004,8.750569744000074],[99.33313368900008,8.730799231000049],[99.32958850600005,8.678493475000039],[99.35596837100007,8.67262945300007],[99.42424298100008,8.668606683000064],[99.47375681600005,8.705787005000047]]]}},{"type":"Feature","properties":{"code":"840903","name":"พรุไทย","parentCode":"8409"},"geometry":{"type":"Polygon","coordinates":[[[98.90139002900008,8.979248071000029],[98.84323735500004,8.995366129000047],[98.85425202500005,8.967690875000073],[98.89294779300008,8.928253642000072],[98.89258622100004,8.975014220000048],[98.90139002900008,8.979248071000029]]]}},{"type":"Feature","properties":{"code":"841402","name":"พ่วงพรมคร","parentCode":"8414"},"geometry":{"type":"Polygon","coordinates":[[[99.27157356600009,8.720589994000022],[99.25404544300005,8.727540300000044],[99.23576898000005,8.70441192800007],[99.19211918100007,8.715888893000056],[99.06659640800007,8.706085597000026],[99.03125959700009,8.722840895000047],[99.03583830100007,8.67190826600006],[99.06476588500004,8.665972617000023],[99.12222904200007,8.643143688000066],[99.14513877700006,8.634489219000045],[99.20963084900006,8.635814842000059],[99.27959070700007,8.646407340000053],[99.28375400500005,8.643326907000073],[99.27607205600003,8.69057053900002],[99.27157356600009,8.720589994000022]]]}},{"type":"Feature","properties":{"code":"840602","name":"พุมเรียง","parentCode":"8406"},"geometry":{"type":"Polygon","coordinates":[[[99.23621265100007,9.346722740000075],[99.30159241700005,9.409563070000047],[99.27975486200006,9.429661299000031],[99.26741312100006,9.418309023000063],[99.23396260600003,9.38756647200006],[99.23621265100007,9.346722740000075]]]}},{"type":"Feature","properties":{"code":"841708","name":"พุนพิน","parentCode":"8417"},"geometry":{"type":"Polygon","coordinates":[[[99.21141239000008,9.136581683000031],[99.19417956100006,9.143346275000056],[99.18177853100008,9.118305683000074],[99.18575675500006,9.110868123000046],[99.21141239000008,9.136581683000031]]]}},{"type":"Feature","properties":{"code":"840703","name":"ประสงค์","parentCode":"8407"},"geometry":{"type":"Polygon","coordinates":[[[98.95502402500006,9.608521856000038],[98.93004146600003,9.633210794000036],[98.80524018200003,9.650587396000049],[98.76808885500009,9.666160219000062],[98.73963607700006,9.600876690000064],[98.76360561100006,9.536744944000077],[98.80919344000006,9.512424818000056],[98.86840288600007,9.546822392000024],[98.91979707900003,9.533741641000063],[98.94528236900004,9.55511946300004],[99.01026740000003,9.528852161000032],[99.06606612100006,9.533409253000059],[99.09220365200008,9.463113124000074],[99.17636291100007,9.489820415000054],[99.17406899500008,9.551284334000059],[99.16658773500006,9.553903171000059],[98.99241991900004,9.562174900000059],[98.95502402500006,9.608521856000038]]]}},{"type":"Feature","properties":{"code":"841604","name":"ไทรขึง","parentCode":"8416"},"geometry":{"type":"Polygon","coordinates":[[[99.14513877700006,8.634489219000045],[99.12222904200007,8.643143688000066],[99.09926037600007,8.569327000000044],[99.04953476100007,8.575675701000023],[99.01763133700007,8.552907926000046],[99.02444303400006,8.515507789000026],[99.06953637600009,8.515549993000036],[99.11464845200004,8.529805810000028],[99.18313392300007,8.489777901000025],[99.19747898500003,8.541265520000024],[99.16449061300005,8.543626112000027],[99.14513877700006,8.634489219000045]]]}},{"type":"Feature","properties":{"code":"841606","name":"ไทรโสภา","parentCode":"8416"},"geometry":{"type":"Polygon","coordinates":[[[99.12222904200007,8.643143688000066],[99.06476588500004,8.665972617000023],[99.03567366400006,8.583402896000052],[99.04953476100007,8.575675701000023],[99.09926037600007,8.569327000000044],[99.12222904200007,8.643143688000066]]]}},{"type":"Feature","properties":{"code":"841804","name":"ไทรทอง","parentCode":"8418"},"geometry":{"type":"Polygon","coordinates":[[[99.19685544700008,8.41628565000002],[99.03889420400009,8.414140210000028],[98.94086239200004,8.448825990000046],[99.01106726800003,8.38169104700006],[99.03611636600004,8.36228092600004],[99.20502622800007,8.36604924300002],[99.19685544700008,8.41628565000002]]]}},{"type":"Feature","properties":{"code":"841607","name":"สาคู","parentCode":"8416"},"geometry":{"type":"Polygon","coordinates":[[[99.20963084900006,8.635814842000059],[99.14513877700006,8.634489219000045],[99.16449061300005,8.543626112000027],[99.19747898500003,8.541265520000024],[99.22105879100008,8.584166448000076],[99.20963084900006,8.635814842000059]]]}},{"type":"Feature","properties":{"code":"840702","name":"สมอทอง","parentCode":"8407"},"geometry":{"type":"Polygon","coordinates":[[[99.16359285100003,9.578712547000066],[99.11930798700007,9.573763177000046],[99.00730783300008,9.622361315000035],[98.95502402500006,9.608521856000038],[98.99241991900004,9.562174900000059],[99.16658773500006,9.553903171000059],[99.16359285100003,9.578712547000066]]]}},{"type":"Feature","properties":{"code":"841303","name":"ทรัพย์ทวี","parentCode":"8413"},"geometry":{"type":"Polygon","coordinates":[[[99.24513049000007,8.956173285000034],[99.21851782300007,8.961201365000022],[99.19093794600008,8.914051064000034],[99.19322737000005,8.886058404000039],[99.24519392000008,8.852111721000028],[99.26790837300007,8.908092487000033],[99.26856456100006,8.915092896000033],[99.24513049000007,8.956173285000034]]]}},{"type":"Feature","properties":{"code":"841105","name":"เสวียด","parentCode":"8411"},"geometry":{"type":"Polygon","coordinates":[[[99.14714554100004,9.339689333000024],[99.06881041000008,9.345845991000033],[99.03191533300009,9.303366623000045],[99.03518785100005,9.274346102000038],[99.07660418500006,9.290450857000053],[99.12102790700004,9.261377028000027],[99.15015557500004,9.275040667000042],[99.16307231500008,9.343755792000024],[99.14714554100004,9.339689333000024]]]}},{"type":"Feature","properties":{"code":"841710","name":"ศรีวิชัย","parentCode":"8417"},"geometry":{"type":"Polygon","coordinates":[[[99.23655792000005,9.164715809000029],[99.22051908300006,9.192270681000025],[99.19755956600005,9.187522903000058],[99.19422884900007,9.14346030400003],[99.19417956100006,9.143346275000056],[99.21141239000008,9.136581683000031],[99.22472970600006,9.13981894400007],[99.23655792000005,9.164715809000029]]]}},{"type":"Feature","properties":{"code":"841605","name":"สินเจริญ","parentCode":"8416"},"geometry":{"type":"Polygon","coordinates":[[[99.29343487000006,8.47073398200007],[99.27677230000006,8.491885661000026],[99.22428706400007,8.471392803000072],[99.20386287500008,8.47432906900002],[99.20225520300005,8.443362747000037],[99.19685544700008,8.41628565000002],[99.20502622800007,8.36604924300002],[99.22418805800004,8.323290156000041],[99.29035990300008,8.312564330000043],[99.28864968700003,8.317242174000057],[99.23450359400005,8.385845276000055],[99.29343487000006,8.47073398200007]]]}},{"type":"Feature","properties":{"code":"841602","name":"สินปุน","parentCode":"8416"},"geometry":{"type":"Polygon","coordinates":[[[99.27966128800006,8.552527887000053],[99.25361552100009,8.561054840000054],[99.20980485800004,8.541584744000033],[99.22428706400007,8.471392803000072],[99.27677230000006,8.491885661000026],[99.27966128800006,8.552527887000053]]]}},{"type":"Feature","properties":{"code":"841801","name":"สองแพรก","parentCode":"8418"},"geometry":{"type":"Polygon","coordinates":[[[99.18313392300007,8.489777901000025],[99.11464845200004,8.529805810000028],[99.06953637600009,8.515549993000036],[99.07203356000008,8.451995259000057],[99.20225520300005,8.443362747000037],[99.20386287500008,8.47432906900002],[99.18313392300007,8.489777901000025]]]}},{"type":"Feature","properties":{"code":"840209","name":"ตะเคียนทอง","parentCode":"8402"},"geometry":{"type":"Polygon","coordinates":[[[99.44949827300007,9.199400418000039],[99.41155926700009,9.203701719000037],[99.41324025000006,9.165506642000025],[99.43287739100003,9.136512371000038],[99.44597332700005,9.158463403000042],[99.44949827300007,9.199400418000039]]]}},{"type":"Feature","properties":{"code":"840607","name":"ตะกรบ","parentCode":"8406"},"geometry":{"type":"Polygon","coordinates":[[[99.23459113700005,9.506205408000028],[99.18030669800004,9.464321774000041],[99.18343435600008,9.444421430000034],[99.22748982600007,9.458161706000055],[99.26741312100006,9.418309023000063],[99.27975486200006,9.429661299000031],[99.23459113700005,9.506205408000028]]]}},{"type":"Feature","properties":{"code":"841902","name":"ตะกุกเหนือ","parentCode":"8419"},"geometry":{"type":"Polygon","coordinates":[[[98.99640962300003,9.209751374000064],[98.98544665000009,9.240455755000028],[98.91236807300004,9.302596403000052],[98.79172074700006,9.31688527600005],[98.78539467500008,9.35299683900007],[98.70246360400006,9.317550398000037],[98.70062476600003,9.364349970000035],[98.66944663000004,9.36069879400003],[98.65609745700004,9.347673159000067],[98.66123928100006,9.30179294900006],[98.72829448200008,9.26271207000002],[98.73056997600008,9.236065422000024],[98.74787769100004,9.28840033800003],[98.81192332500007,9.262419334000072],[98.86116799400008,9.217129535000026],[98.92490960000003,9.193272042000046],[98.99640962300003,9.209751374000064]]]}},{"type":"Feature","properties":{"code":"841901","name":"ตะกุกใต้","parentCode":"8419"},"geometry":{"type":"Polygon","coordinates":[[[98.99640962300003,9.209751374000064],[98.92490960000003,9.193272042000046],[98.86116799400008,9.217129535000026],[98.81192332500007,9.262419334000072],[98.74787769100004,9.28840033800003],[98.73056997600008,9.236065422000024],[98.77099222800007,9.204723021000063],[98.85351010600004,9.17101013000007],[98.95028504300006,9.153098550000038],[98.96484294700008,9.125785977000021],[99.02655700100007,9.12842751200003],[99.02064767200005,9.157684026000027],[99.01928868200008,9.201066242000024],[99.01226733700008,9.202730458000076],[98.99640962300003,9.209751374000064]]]}},{"type":"Feature","properties":{"code":"840101","name":"ตลาด","parentCode":"8401"},"geometry":{"type":"Polygon","coordinates":[[[99.33706806200007,9.138712898000051],[99.32819657100003,9.155949268000029],[99.32363830800006,9.147812980000026],[99.31158372900006,9.135089304000076],[99.30350617300007,9.122629854000024],[99.33706806200007,9.138712898000051]]]}},{"type":"Feature","properties":{"code":"840601","name":"ตลาดไชยา","parentCode":"8406"},"geometry":{"type":"Polygon","coordinates":[[[99.18343435600008,9.444421430000034],[99.17813992800006,9.402084709000064],[99.18788227400006,9.382327623000037],[99.20872635300003,9.387590784000054],[99.18343435600008,9.444421430000034]]]}},{"type":"Feature","properties":{"code":"840403","name":"ตลิ่งงาม","parentCode":"8404"},"geometry":{"type":"Polygon","coordinates":[[[99.96918368400009,9.41174267100007],[99.95778656500005,9.436071262000041],[99.98581277300008,9.488439025000048],[99.92644350200004,9.481970983000053],[99.93518395900008,9.425616648000073],[99.96918368400009,9.41174267100007]]]}},{"type":"Feature","properties":{"code":"841716","name":"ตะปาน","parentCode":"8417"},"geometry":{"type":"Polygon","coordinates":[[[99.19093794600008,8.914051064000034],[99.10751633800004,8.922894129000042],[99.05225911100007,8.907549921000054],[99.00956967000008,8.895314179000025],[99.04367430700006,8.855277158000035],[99.01645435600005,8.803497310000068],[99.06722796000008,8.840163220000022],[99.08639119800006,8.814190264000047],[99.17829911600006,8.875388287000021],[99.19322737000005,8.886058404000039],[99.19093794600008,8.914051064000034]]]}},{"type":"Feature","properties":{"code":"840701","name":"ท่าชนะ","parentCode":"8407"},"geometry":{"type":"Polygon","coordinates":[[[99.18385080300004,9.634629907000033],[99.15929636600004,9.61695671900003],[99.16359285100003,9.578712547000066],[99.16658773500006,9.553903171000059],[99.17406899500008,9.551284334000059],[99.21372110200008,9.55425282400006],[99.18385080300004,9.634629907000033]]]}},{"type":"Feature","properties":{"code":"841101","name":"ท่าฉาง","parentCode":"8411"},"geometry":{"type":"Polygon","coordinates":[[[99.22381203300006,9.257600074000038],[99.22625366600005,9.278019905000065],[99.15015557500004,9.275040667000042],[99.12102790700004,9.261377028000027],[99.20269780400008,9.239154619000033],[99.22381203300006,9.257600074000038]]]}},{"type":"Feature","properties":{"code":"841205","name":"ท่าชี","parentCode":"8412"},"geometry":{"type":"Polygon","coordinates":[[[99.28391797100005,8.828213560000052],[99.22912137000009,8.820707476000052],[99.24596631400004,8.774507449000055],[99.25404544300005,8.727540300000044],[99.27157356600009,8.720589994000022],[99.29233744400005,8.746386418000043],[99.28391797100005,8.828213560000052]]]}},{"type":"Feature","properties":{"code":"841701","name":"ท่าข้าม","parentCode":"8417"},"geometry":{"type":"Polygon","coordinates":[[[99.22987514000005,9.138081803000034],[99.22472970600006,9.13981894400007],[99.21141239000008,9.136581683000031],[99.18575675500006,9.110868123000046],[99.20135998500007,9.074210245000074],[99.19560918300004,8.970975131000046],[99.21730257100006,8.963216210000041],[99.23555563200006,9.04820608600005],[99.21220400600004,9.078653306000035],[99.26882161700007,9.098589658000037],[99.26652383400005,9.13645301300005],[99.22987514000005,9.138081803000034]]]}},{"type":"Feature","properties":{"code":"840801","name":"ท่าขนอน","parentCode":"8408"},"geometry":{"type":"Polygon","coordinates":[[[98.96829975300005,9.093224347000046],[98.91124527300008,9.09342244100003],[98.80126160800006,9.133966267000062],[98.82078331700006,9.07061716800007],[98.87197138000005,9.068592289000037],[98.93162587700004,9.001261145000058],[98.97585983200008,9.031922245000032],[98.96829975300005,9.093224347000046]]]}},{"type":"Feature","properties":{"code":"841102","name":"ท่าเคย","parentCode":"8411"},"geometry":{"type":"Polygon","coordinates":[[[99.12102790700004,9.261377028000027],[99.07660418500006,9.290450857000053],[99.03518785100005,9.274346102000038],[99.00832999600004,9.246305379000034],[99.04961666500009,9.249023754000063],[99.21827865800003,9.206566513000041],[99.23961792300008,9.235178093000059],[99.22381203300006,9.257600074000038],[99.20269780400008,9.239154619000033],[99.12102790700004,9.261377028000027]]]}},{"type":"Feature","properties":{"code":"840807","name":"ท่ากระดาน","parentCode":"8408"},"geometry":{"type":"Polygon","coordinates":[[[99.04740698000006,9.073173446000055],[99.02538654300008,9.09607537100004],[99.00680742100008,9.107378580000045],[99.00756596500008,9.03514393200004],[99.01151533700005,9.029944985000043],[99.04740698000006,9.073173446000055]]]}},{"type":"Feature","properties":{"code":"841706","name":"ท่าโรงช้าง","parentCode":"8417"},"geometry":{"type":"Polygon","coordinates":[[[99.20135998500007,9.074210245000074],[99.14433411300007,9.05632631100002],[99.12898467000008,8.972643815000026],[99.19560918300004,8.970975131000046],[99.20135998500007,9.074210245000074]]]}},{"type":"Feature","properties":{"code":"841302","name":"ท่าเรือ","parentCode":"8413"},"geometry":{"type":"Polygon","coordinates":[[[99.30844361900006,8.959676793000028],[99.24513049000007,8.956173285000034],[99.26856456100006,8.915092896000033],[99.30291933900008,8.919507250000038],[99.30844361900006,8.959676793000028]]]}},{"type":"Feature","properties":{"code":"841702","name":"ท่าสะท้อน","parentCode":"8417"},"geometry":{"type":"Polygon","coordinates":[[[99.29148978600006,9.035545121000041],[99.23555563200006,9.04820608600005],[99.21730257100006,8.963216210000041],[99.21851782300007,8.961201365000022],[99.24513049000007,8.956173285000034],[99.30844361900006,8.959676793000028],[99.32113614800005,8.960327585000073],[99.32307884300008,8.962977360000025],[99.29988134600006,8.976790437000034],[99.29148978600006,9.035545121000041]]]}},{"type":"Feature","properties":{"code":"840202","name":"ท่าทอง","parentCode":"8402"},"geometry":{"type":"Polygon","coordinates":[[[99.57410294300007,9.271461532000046],[99.51959610700004,9.275750070000072],[99.49918952500008,9.221449093000047],[99.53780041400006,9.231066506000047],[99.54687785400006,9.16260458100004],[99.56786351200009,9.16389552000004],[99.57578908300007,9.242775165000069],[99.57410294300007,9.271461532000046]]]}},{"type":"Feature","properties":{"code":"840201","name":"ท่าทองใหม่","parentCode":"8402"},"geometry":{"type":"Polygon","coordinates":[[[99.41155926700009,9.203701719000037],[99.38102742100006,9.193885778000038],[99.37191620300007,9.185754949000057],[99.39098300500007,9.141415252000058],[99.41324025000006,9.165506642000025],[99.41155926700009,9.203701719000037]]]}},{"type":"Feature","properties":{"code":"840211","name":"ท่าอุแท","parentCode":"8402"},"geometry":{"type":"Polygon","coordinates":[[[99.62440358900005,9.205987488000062],[99.57578908300007,9.242775165000069],[99.56786351200009,9.16389552000004],[99.55980191100008,9.135761763000062],[99.59687566300005,9.12508513900002],[99.60236304900008,9.085458986000049],[99.62758402500003,9.084898573000032],[99.62466890200005,9.046736295000073],[99.72558777500006,8.988289265000049],[99.74209333500005,9.029715931000055],[99.67083895100006,9.07019890500004],[99.65626189800008,9.160411410000052],[99.62440358900005,9.205987488000062]]]}},{"type":"Feature","properties":{"code":"840809","name":"ถ้ำสิงขร","parentCode":"8408"},"geometry":{"type":"Polygon","coordinates":[[[99.06786093500006,9.073944391000055],[99.04740698000006,9.073173446000055],[99.01151533700005,9.029944985000043],[99.01518850200006,8.967229148000058],[99.00956967000008,8.895314179000025],[99.05225911100007,8.907549921000054],[99.08202693600003,8.92607883200003],[99.06957964700007,8.964501874000064],[99.06786093500006,9.073944391000055]]]}},{"type":"Feature","properties":{"code":"840605","name":"ทุ่ง","parentCode":"8406"},"geometry":{"type":"Polygon","coordinates":[[[99.26741312100006,9.418309023000063],[99.22748982600007,9.458161706000055],[99.18343435600008,9.444421430000034],[99.20872635300003,9.387590784000054],[99.23396260600003,9.38756647200006],[99.26741312100006,9.418309023000063]]]}},{"type":"Feature","properties":{"code":"840204","name":"ทุ่งกง","parentCode":"8402"},"geometry":{"type":"Polygon","coordinates":[[[99.43287739100003,9.136512371000038],[99.41324025000006,9.165506642000025],[99.39098300500007,9.141415252000058],[99.36790874100006,9.145533227000044],[99.39239578200005,9.101652669000032],[99.42350073700004,9.082751994000034],[99.43287739100003,9.136512371000038]]]}},{"type":"Feature","properties":{"code":"841504","name":"ทุ่งหลวง","parentCode":"8415"},"geometry":{"type":"Polygon","coordinates":[[[99.28375400500005,8.643326907000073],[99.27959070700007,8.646407340000053],[99.25361552100009,8.561054840000054],[99.27966128800006,8.552527887000053],[99.33399150300005,8.56458410700003],[99.35271623200003,8.612235545000033],[99.34894209500004,8.626882582000064],[99.28375400500005,8.643326907000073]]]}},{"type":"Feature","properties":{"code":"840212","name":"ทุ่งรัง","parentCode":"8402"},"geometry":{"type":"Polygon","coordinates":[[[99.42350073700004,9.082751994000034],[99.39239578200005,9.101652669000032],[99.39156874200006,9.07090574600005],[99.38907258900008,8.996797043000072],[99.43703881900007,8.982221526000046],[99.43108942200007,9.016555470000071],[99.42350073700004,9.082751994000034]]]}},{"type":"Feature","properties":{"code":"841203","name":"ทุ่งเตา","parentCode":"8412"},"geometry":{"type":"Polygon","coordinates":[[[99.47602276200007,8.917973559000075],[99.35055945900007,8.935471808000045],[99.34322525300007,8.902223673000037],[99.41319028800007,8.89397926600003],[99.44598124300006,8.878572075000022],[99.48808380700007,8.908960706000073],[99.47602276200007,8.917973559000075]]]}},{"type":"Feature","properties":{"code":"841210","name":"ทุ่งเตาใหม่","parentCode":"8412"},"geometry":{"type":"Polygon","coordinates":[[[99.43703881900007,8.982221526000046],[99.38907258900008,8.996797043000072],[99.35517141800005,8.965913625000042],[99.35055945900007,8.935471808000045],[99.47602276200007,8.917973559000075],[99.43703881900007,8.982221526000046]]]}},{"type":"Feature","properties":{"code":"841002","name":"ต้นยวน","parentCode":"8410"},"geometry":{"type":"Polygon","coordinates":[[[98.87097758600004,8.899099595000052],[98.85566775800004,8.900203366000028],[98.84034646900005,8.840479412000036],[98.89852133600004,8.75739130900007],[98.91055923100004,8.784373612000024],[98.88601284600009,8.840486105000025],[98.92024257800006,8.871982641000045],[98.87097758600004,8.899099595000052]]]}},{"type":"Feature","properties":{"code":"840705","name":"วัง","parentCode":"8407"},"geometry":{"type":"Polygon","coordinates":[[[99.21372110200008,9.55425282400006],[99.17406899500008,9.551284334000059],[99.17636291100007,9.489820415000054],[99.18030669800004,9.464321774000041],[99.23459113700005,9.506205408000028],[99.21372110200008,9.55425282400006]]]}},{"type":"Feature","properties":{"code":"840103","name":"วัดประดู่","parentCode":"8401"},"geometry":{"type":"Polygon","coordinates":[[[99.30350617300007,9.122629854000024],[99.31158372900006,9.135089304000076],[99.27349339300008,9.135916778000023],[99.26652383400005,9.13645301300005],[99.26882161700007,9.098589658000037],[99.29148978600006,9.035545121000041],[99.29988134600006,8.976790437000034],[99.32307884300008,8.962977360000025],[99.32792014700004,9.068855978000045],[99.30350617300007,9.122629854000024]]]}},{"type":"Feature","properties":{"code":"840604","name":"เวียง","parentCode":"8406"},"geometry":{"type":"Polygon","coordinates":[[[99.17813992800006,9.402084709000064],[99.11073572000004,9.420266746000038],[99.11105250300005,9.354305694000061],[99.14714554100004,9.339689333000024],[99.18788227400006,9.382327623000037],[99.17813992800006,9.402084709000064]]]}},{"type":"Feature","properties":{"code":"841501","name":"เวียงสระ","parentCode":"8415"},"geometry":{"type":"Polygon","coordinates":[[[99.32958850600005,8.678493475000039],[99.27607205600003,8.69057053900002],[99.28375400500005,8.643326907000073],[99.34894209500004,8.626882582000064],[99.35596837100007,8.67262945300007],[99.32958850600005,8.678493475000039]]]}},{"type":"Feature","properties":{"code":"840808","name":"ย่านยาว","parentCode":"8408"},"geometry":{"type":"Polygon","coordinates":[[[99.01518850200006,8.967229148000058],[99.01151533700005,9.029944985000043],[99.00756596500008,9.03514393200004],[98.97585983200008,9.031922245000032],[98.93162587700004,9.001261145000058],[98.90139002900008,8.979248071000029],[98.89258622100004,8.975014220000048],[98.93959392900007,8.956408262000025],[98.94665799400008,8.980927450000024],[99.00425406300008,9.001051758000074],[99.01518850200006,8.967229148000058]]]}}]}