{"type":"FeatureCollection","features":[{"type":"Feature","properties":{"code":"850304","name":"บ้านนา","parentCode":"8503"},"geometry":{"type":"Polygon","coordinates":[[[98.73963607700006,9.600876690000064],[98.68442084400004,9.647336557000074],[98.70256406200008,9.58946824000003],[98.67868797500006,9.524933825000062],[98.66887741900007,9.466922728000043],[98.69446616300007,9.46989892800002],[98.76360561100006,9.536744944000077],[98.73963607700006,9.600876690000064]]]}},{"type":"Feature","properties":{"code":"850305","name":"บางหิน","parentCode":"8503"},"geometry":{"type":"Polygon","coordinates":[[[98.54448127200004,9.569488536000051],[98.53416340100006,9.57195411500004],[98.49144292100004,9.548105288000045],[98.50174700800005,9.48486615400003],[98.56657558900008,9.485951936000049],[98.66812620900004,9.448691782000026],[98.66887741900007,9.466922728000043],[98.67868797500006,9.524933825000062],[98.63609676100003,9.552476454000043],[98.54448127200004,9.569488536000051]]]}},{"type":"Feature","properties":{"code":"850205","name":"บางแก้ว","parentCode":"8502"},"geometry":{"type":"Polygon","coordinates":[[[98.78298540300005,10.219929850000028],[98.70614203700006,10.229022998000062],[98.67369042500007,10.178670914000065],[98.75662693400005,10.157764217000022],[98.80347692000004,10.13414848800005],[98.86956172700008,10.153864379000026],[98.87517524400005,10.204372397000043],[98.78298540300005,10.219929850000028]]]}},{"type":"Feature","properties":{"code":"850106","name":"บางนอน","parentCode":"8501"},"geometry":{"type":"Polygon","coordinates":[[[98.66685658800009,10.075541444000066],[98.59729674400006,9.956921011000077],[98.61193073000004,9.959404857000038],[98.65209552500005,9.958986044000028],[98.69518390600007,9.988666838000029],[98.68484282400004,10.060610258000054],[98.66685658800009,10.075541444000066]]]}},{"type":"Feature","properties":{"code":"850204","name":"บางพระเหนือ","parentCode":"8502"},"geometry":{"type":"Polygon","coordinates":[[[98.74297692500005,10.092781281000043],[98.70264004600006,10.105506742000046],[98.68484282400004,10.060610258000054],[98.69518390600007,9.988666838000029],[98.74470896600008,9.915959372000032],[98.76737910300005,9.93983042900004],[98.76003110400006,9.97067099800006],[98.78267386400006,10.047658350000063],[98.74297692500005,10.092781281000043]]]}},{"type":"Feature","properties":{"code":"850203","name":"บางพระใต้","parentCode":"8502"},"geometry":{"type":"Polygon","coordinates":[[[98.75662693400005,10.157764217000022],[98.73208929400005,10.161518872000045],[98.70264004600006,10.105506742000046],[98.74297692500005,10.092781281000043],[98.75662693400005,10.157764217000022]]]}},{"type":"Feature","properties":{"code":"850104","name":"บางริ้น","parentCode":"8501"},"geometry":{"type":"Polygon","coordinates":[[[98.65228035300004,9.958324567000034],[98.61193073000004,9.959404857000038],[98.59729674400006,9.956921011000077],[98.58656723400009,9.932141903000058],[98.57657343900007,9.907359623000048],[98.60953646300004,9.90105939600005],[98.65544410000007,9.843786120000061],[98.66843636000004,9.877423709000027],[98.65228035300004,9.958324567000034]]]}},{"type":"Feature","properties":{"code":"850407","name":"บางใหญ่","parentCode":"8504"},"geometry":{"type":"Polygon","coordinates":[[[98.78298540300005,10.219929850000028],[98.79920128400005,10.276001859000075],[98.78242833000007,10.321199138000054],[98.74039471800006,10.320872271000042],[98.70614203700006,10.229022998000062],[98.78298540300005,10.219929850000028]]]}},{"type":"Feature","properties":{"code":"850303","name":"เชี่ยวเหลียง","parentCode":"8503"},"geometry":{"type":"Polygon","coordinates":[[[98.68442084400004,9.647336557000074],[98.64845841600004,9.661571180000067],[98.64032035700006,9.712211978000028],[98.63609676100003,9.552476454000043],[98.67868797500006,9.524933825000062],[98.70256406200008,9.58946824000003],[98.68442084400004,9.647336557000074]]]}},{"type":"Feature","properties":{"code":"850406","name":"จ.ป.ร.","parentCode":"8504"},"geometry":{"type":"Polygon","coordinates":[[[98.88538062100008,10.784155464000037],[98.83834387300004,10.752175244000057],[98.80248205900006,10.699920791000068],[98.85075505900005,10.574856049000061],[98.90640310000003,10.489276706000055],[98.96260108900003,10.539589496000076],[98.94109953800006,10.569862127000022],[98.96487011500005,10.605230603000052],[98.92970294700007,10.672696902000041],[98.89433404200008,10.681598525000027],[98.91061177400007,10.735663247000048],[98.88538062100008,10.784155464000037]]]}},{"type":"Feature","properties":{"code":"850107","name":"หาดส้มแป้น","parentCode":"8501"},"geometry":{"type":"Polygon","coordinates":[[[98.74470896600008,9.915959372000032],[98.69518390600007,9.988666838000029],[98.65209552500005,9.958986044000028],[98.65228035300004,9.958324567000034],[98.66843636000004,9.877423709000027],[98.65544410000007,9.843786120000061],[98.66272584200004,9.808202479000045],[98.71452478200007,9.86016231900004],[98.74470896600008,9.915959372000032]]]}},{"type":"Feature","properties":{"code":"850502","name":"กำพวน","parentCode":"8505"},"geometry":{"type":"Polygon","coordinates":[[[98.53074868700008,9.34530232800006],[98.46480334200004,9.355505707000077],[98.41903987300003,9.392192589000047],[98.44819212500005,9.457089024000027],[98.43403462400005,9.493986180000036],[98.41662660500003,9.407182490000025],[98.39803443600005,9.403535732000023],[98.39046793200004,9.332189766000056],[98.40250650400009,9.347603033000041],[98.50606009400008,9.308902024000076],[98.53074868700008,9.34530232800006]]]}},{"type":"Feature","properties":{"code":"850302","name":"กะเปอร์","parentCode":"8503"},"geometry":{"type":"Polygon","coordinates":[[[98.64032035700006,9.712211978000028],[98.63937656800005,9.713562482000043],[98.55687996700004,9.615709069000047],[98.54448127200004,9.569488536000051],[98.63609676100003,9.552476454000043],[98.64032035700006,9.712211978000028]]]}},{"type":"Feature","properties":{"code":"850101","name":"เขานิเวศน์","parentCode":"8501"},"geometry":{"type":"Polygon","coordinates":[[[98.65209552500005,9.958986044000028],[98.61193073000004,9.959404857000038],[98.65228035300004,9.958324567000034],[98.65209552500005,9.958986044000028]]]}},{"type":"Feature","properties":{"code":"850109","name":"เกาะพยาม","parentCode":"8501"},"geometry":{"type":"MultiPolygon","coordinates":[[[[98.41504496500005,9.770419850000053],[98.38566423700007,9.731413316000044],[98.42726566900006,9.73385025500005],[98.41504496500005,9.770419850000053]]],[[[98.45807584300007,9.863025406000077],[98.43307740600005,9.804130018000023],[98.45484656400004,9.79119372100007],[98.45807584300007,9.863025406000077]]]]}},{"type":"Feature","properties":{"code":"850202","name":"ละอุ่นเหนือ","parentCode":"8502"},"geometry":{"type":"Polygon","coordinates":[[[98.86956172700008,10.153864379000026],[98.80347692000004,10.13414848800005],[98.80539421000003,10.11367825000002],[98.74297692500005,10.092781281000043],[98.78267386400006,10.047658350000063],[98.76003110400006,9.97067099800006],[98.76737910300005,9.93983042900004],[98.81396141800008,9.93614941800007],[98.82931327900008,9.970661043000064],[98.83587434300006,9.98446326100003],[98.84643926400008,10.062386250000031],[98.86956172700008,10.153864379000026]]]}},{"type":"Feature","properties":{"code":"850201","name":"ละอุ่นใต้","parentCode":"8502"},"geometry":{"type":"Polygon","coordinates":[[[98.75662693400005,10.157764217000022],[98.74297692500005,10.092781281000043],[98.80539421000003,10.11367825000002],[98.80347692000004,10.13414848800005],[98.75662693400005,10.157764217000022]]]}},{"type":"Feature","properties":{"code":"850405","name":"ลำเลียง","parentCode":"8504"},"geometry":{"type":"Polygon","coordinates":[[[98.93072305900006,10.364847645000054],[98.74567650400007,10.353524399000037],[98.74039471800006,10.320872271000042],[98.78242833000007,10.321199138000054],[98.79920128400005,10.276001859000075],[98.78298540300005,10.219929850000028],[98.87517524400005,10.204372397000043],[98.90798591400005,10.264647642000057],[98.90430644800006,10.297005528000057],[98.94024457400008,10.341393339000035],[98.93072305900006,10.364847645000054]]]}},{"type":"Feature","properties":{"code":"850403","name":"มะมุ","parentCode":"8504"},"geometry":{"type":"Polygon","coordinates":[[[98.89040218000008,10.469704515000046],[98.81743619000008,10.50124468000007],[98.79930843500006,10.446797994000065],[98.81622544500004,10.419281461000026],[98.89578983600006,10.435538006000058],[98.89127800500006,10.446581052000056],[98.89040218000008,10.469704515000046]]]}},{"type":"Feature","properties":{"code":"850301","name":"ม่วงกลวง","parentCode":"8503"},"geometry":{"type":"Polygon","coordinates":[[[98.55687996700004,9.615709069000047],[98.50314200200006,9.626768751000043],[98.46509665000008,9.60192840600007],[98.53416340100006,9.57195411500004],[98.54448127200004,9.569488536000051],[98.55687996700004,9.615709069000047]]]}},{"type":"Feature","properties":{"code":"850501","name":"นาคา","parentCode":"8505"},"geometry":{"type":"Polygon","coordinates":[[[98.49144292100004,9.548105288000045],[98.45578122700005,9.563342540000065],[98.43403462400005,9.493986180000036],[98.44819212500005,9.457089024000027],[98.41903987300003,9.392192589000047],[98.46480334200004,9.355505707000077],[98.53074868700008,9.34530232800006],[98.59008076600009,9.36477386100006],[98.65609745700004,9.347673159000067],[98.66944663000004,9.36069879400003],[98.64785331300004,9.427253501000052],[98.66812620900004,9.448691782000026],[98.56657558900008,9.485951936000049],[98.50174700800005,9.48486615400003],[98.49144292100004,9.548105288000045]]]}},{"type":"Feature","properties":{"code":"850206","name":"ในวงเหนือ","parentCode":"8502"},"geometry":{"type":"Polygon","coordinates":[[[98.88575166900006,10.062753650000047],[98.84643926400008,10.062386250000031],[98.83587434300006,9.98446326100003],[98.85754513800003,9.997463112000048],[98.88575166900006,10.062753650000047]]]}},{"type":"Feature","properties":{"code":"850207","name":"ในวงใต้","parentCode":"8502"},"geometry":{"type":"Polygon","coordinates":[[[98.90296881300009,10.054639031000022],[98.88575166900006,10.062753650000047],[98.85754513800003,9.997463112000048],[98.88194655500007,10.004830626000057],[98.90296881300009,10.054639031000022]]]}},{"type":"Feature","properties":{"code":"850401","name":"น้ำจืด","parentCode":"8504"},"geometry":{"type":"Polygon","coordinates":[[[98.93712688900007,10.383918848000064],[98.90147195300005,10.397998771000061],[98.89578983600006,10.435538006000058],[98.81622544500004,10.419281461000026],[98.77020600900005,10.417649766000068],[98.74567650400007,10.353524399000037],[98.93072305900006,10.364847645000054],[98.93712688900007,10.383918848000064]]]}},{"type":"Feature","properties":{"code":"850402","name":"น้ำจืดน้อย","parentCode":"8504"},"geometry":{"type":"Polygon","coordinates":[[[98.81622544500004,10.419281461000026],[98.79930843500006,10.446797994000065],[98.77020600900005,10.417649766000068],[98.81622544500004,10.419281461000026]]]}},{"type":"Feature","properties":{"code":"850103","name":"หงาว","parentCode":"8501"},"geometry":{"type":"Polygon","coordinates":[[[98.65544410000007,9.843786120000061],[98.60953646300004,9.90105939600005],[98.57657343900007,9.907359623000048],[98.51579492500008,9.853278359000058],[98.53789412700007,9.805673082000055],[98.51239636600008,9.753314355000043],[98.55301270600006,9.749335028000075],[98.54764354500008,9.79813970300006],[98.61223786100004,9.825807394000037],[98.63304352400007,9.788482217000023],[98.66272584200004,9.808202479000045],[98.65544410000007,9.843786120000061]]]}},{"type":"Feature","properties":{"code":"850404","name":"ปากจั่น","parentCode":"8504"},"geometry":{"type":"Polygon","coordinates":[[[98.90640310000003,10.489276706000055],[98.85075505900005,10.574856049000061],[98.80248205900006,10.699920791000068],[98.77311460500005,10.616920034000032],[98.79919949600009,10.604892966000023],[98.81743619000008,10.50124468000007],[98.89040218000008,10.469704515000046],[98.90640310000003,10.489276706000055]]]}},{"type":"Feature","properties":{"code":"850105","name":"ปากน้ำ","parentCode":"8501"},"geometry":{"type":"Polygon","coordinates":[[[98.66685658800009,10.075541444000066],[98.63280756900008,10.088630660000035],[98.56704080000009,9.956372112000054],[98.58656723400009,9.932141903000058],[98.59729674400006,9.956921011000077],[98.66685658800009,10.075541444000066]]]}},{"type":"Feature","properties":{"code":"850102","name":"ราชกรูด","parentCode":"8501"},"geometry":{"type":"Polygon","coordinates":[[[98.63304352400007,9.788482217000023],[98.61223786100004,9.825807394000037],[98.54764354500008,9.79813970300006],[98.55301270600006,9.749335028000075],[98.54093585100009,9.695174265000048],[98.48500413300007,9.686313659000064],[98.50314200200006,9.626768751000043],[98.55687996700004,9.615709069000047],[98.63937656800005,9.713562482000043],[98.63304352400007,9.788482217000023]]]}},{"type":"Feature","properties":{"code":"850108","name":"ทรายแดง","parentCode":"8501"},"geometry":{"type":"Polygon","coordinates":[[[98.75662693400005,10.157764217000022],[98.67369042500007,10.178670914000065],[98.65445373600005,10.166262037000024],[98.63280756900008,10.088630660000035],[98.66685658800009,10.075541444000066],[98.68484282400004,10.060610258000054],[98.70264004600006,10.105506742000046],[98.73208929400005,10.161518872000045],[98.75662693400005,10.157764217000022]]]}}]}