{"type":"FeatureCollection","features":[{"type":"Feature","properties":{"code":"860406","name":"บ้านควน","parentCode":"8604"},"geometry":{"type":"Polygon","coordinates":[[[99.08057949200008,9.921484074000034],[99.05717096800004,9.912732640000058],[99.02997467900008,9.89719173900005],[98.97790473400005,9.862869749000026],[98.95804685400003,9.82327341100006],[98.94639381800005,9.823231767000038],[98.95426414700006,9.807497101000024],[99.02673833400007,9.798031110000068],[99.08839547300005,9.845382591000032],[99.08118840300006,9.91638570400005],[99.08057949200008,9.921484074000034]]]}},{"type":"Feature","properties":{"code":"860112","name":"บ้านนา","parentCode":"8601"},"geometry":{"type":"Polygon","coordinates":[[[99.12833622000005,10.502743677000069],[99.11025614900007,10.507078711000077],[99.08195079900008,10.494327892000058],[99.01267371100005,10.508257100000037],[98.91409049000004,10.479147022000063],[98.89127800500006,10.446581052000056],[98.89578983600006,10.435538006000058],[98.90147195300005,10.397998771000061],[98.93712688900007,10.383918848000064],[98.96026962900004,10.378973840000072],[98.98517846600004,10.434100852000029],[99.00617395600005,10.429381722000073],[99.03640126900007,10.432187459000033],[99.09240069200007,10.443307967000067],[99.12833622000005,10.502743677000069]]]}},{"type":"Feature","properties":{"code":"860108","name":"บางลึก","parentCode":"8601"},"geometry":{"type":"Polygon","coordinates":[[[99.20326760200004,10.57874365400005],[99.16549831400005,10.587115590000053],[99.14734628700006,10.536459059000038],[99.16606199400007,10.502952705000041],[99.16981848500006,10.498845438000046],[99.18538116400003,10.518208530000038],[99.23385834800007,10.568317290000039],[99.20326760200004,10.57874365400005]]]}},{"type":"Feature","properties":{"code":"860104","name":"บางหมาก","parentCode":"8601"},"geometry":{"type":"Polygon","coordinates":[[[99.20699680700005,10.491331867000042],[99.18521918900007,10.490617783000062],[99.17926838600005,10.489986415000033],[99.15832821000004,10.437270574000024],[99.19406022600003,10.391625046000058],[99.21280534200008,10.41680771700004],[99.20699680700005,10.491331867000042]]]}},{"type":"Feature","properties":{"code":"860407","name":"บางมะพร้าว","parentCode":"8604"},"geometry":{"type":"Polygon","coordinates":[[[99.12967791700004,9.955718726000043],[99.12014115700003,9.950698556000077],[99.10495691600005,9.912182362000067],[99.15734737200006,9.893301398000062],[99.16023804200006,9.94710823400004],[99.12967791700004,9.955718726000043]]]}},{"type":"Feature","properties":{"code":"860408","name":"บางน้ำจืด","parentCode":"8604"},"geometry":{"type":"Polygon","coordinates":[[[99.15445901000004,10.064886533000049],[99.13156847900007,10.07419199800006],[99.12229365200005,10.018744174000062],[99.13259419000008,9.977457162000064],[99.13308511600007,9.968398121000064],[99.15277135000008,9.968876397000031],[99.18195826200008,10.043132853000031],[99.15445901000004,10.064886533000049]]]}},{"type":"Feature","properties":{"code":"860301","name":"บางสน","parentCode":"8603"},"geometry":{"type":"Polygon","coordinates":[[[99.34757506700004,10.683318883000027],[99.31715022000009,10.712923127000067],[99.29473130300005,10.682622251000055],[99.24081356600004,10.671447448000038],[99.23707691200008,10.660130557000059],[99.24001198000008,10.65071608200003],[99.29687580200005,10.624351713000067],[99.34757506700004,10.683318883000027]]]}},{"type":"Feature","properties":{"code":"860804","name":"ช่องไม้แก้ว","parentCode":"8608"},"geometry":{"type":"Polygon","coordinates":[[[99.06088615200008,10.150173315000075],[98.93129773400005,10.117674123000029],[98.92180868000008,10.083485919000054],[99.01285174400005,10.075067469000032],[99.10102767300003,10.084858181000072],[99.06088615200008,10.150173315000075]]]}},{"type":"Feature","properties":{"code":"860304","name":"ชุมโค","parentCode":"8603"},"geometry":{"type":"Polygon","coordinates":[[[99.25028870000006,10.831060901000058],[99.22629557200008,10.797065891000045],[99.23211314300005,10.777058487000033],[99.30004452900005,10.747451604000048],[99.31715022000009,10.712923127000067],[99.34757506700004,10.683318883000027],[99.37956164600007,10.707880164000073],[99.42371827200009,10.80131887400006],[99.41214915200004,10.810308225000028],[99.33266970400007,10.812013507000074],[99.25028870000006,10.831060901000058]]]}},{"type":"Feature","properties":{"code":"860706","name":"ด่านสวี","parentCode":"8607"},"geometry":{"type":"Polygon","coordinates":[[[99.19084538300007,10.201231922000034],[99.22408982100006,10.225677107000024],[99.16432842000006,10.279827167000064],[99.15247133800005,10.271973296000056],[99.19084538300007,10.201231922000034]]]}},{"type":"Feature","properties":{"code":"860305","name":"ดอนยาง","parentCode":"8603"},"geometry":{"type":"Polygon","coordinates":[[[99.43119809600006,10.909135769000045],[99.34288930200006,10.90330608000005],[99.32597272300006,10.930673854000077],[99.27581733000005,10.852427275000025],[99.25028870000006,10.831060901000058],[99.33266970400007,10.812013507000074],[99.41214915200004,10.810308225000028],[99.43119809600006,10.909135769000045]]]}},{"type":"Feature","properties":{"code":"860109","name":"หาดพันไกร","parentCode":"8601"},"geometry":{"type":"Polygon","coordinates":[[[99.16549831400005,10.587115590000053],[99.12629769600005,10.579825699000025],[99.10028350000005,10.569523107000066],[99.06377440000006,10.551421186000027],[99.07979114600005,10.543948828000055],[99.14734628700006,10.536459059000038],[99.16549831400005,10.587115590000053]]]}},{"type":"Feature","properties":{"code":"860116","name":"หาดทรายรี","parentCode":"8601"},"geometry":{"type":"Polygon","coordinates":[[[99.21498496100008,10.367059993000055],[99.23881775400008,10.34387497800003],[99.28561071300004,10.367715876000034],[99.26550564400009,10.426467069000068],[99.22992072000005,10.388504686000033],[99.21498496100008,10.367059993000055]]]}},{"type":"Feature","properties":{"code":"860413","name":"หาดยาย","parentCode":"8604"},"geometry":{"type":"Polygon","coordinates":[[[98.93697126600006,10.042573772000026],[98.92263888400004,10.068939674000035],[98.90296881300009,10.054639031000022],[98.88194655500007,10.004830626000057],[98.93168635500007,9.967634051000061],[98.97834268500009,9.896407907000025],[98.97790473400005,9.862869749000026],[99.02997467900008,9.89719173900005],[99.02893265200004,9.93275813400004],[99.00509899400004,9.933768190000023],[98.95097756100006,10.002460117000055],[98.92669462400005,10.01693121300002],[98.93697126600006,10.042573772000026]]]}},{"type":"Feature","properties":{"code":"860208","name":"หินแก้ว","parentCode":"8602"},"geometry":{"type":"Polygon","coordinates":[[[99.09750146100004,10.605603679000069],[99.04704170400004,10.637106626000048],[98.95876804000005,10.655992602000026],[98.94411279700006,10.69726544200006],[98.96701161900006,10.729154511000047],[98.91061177400007,10.735663247000048],[98.89433404200008,10.681598525000027],[98.92970294700007,10.672696902000041],[98.96487011500005,10.605230603000052],[98.94109953800006,10.569862127000022],[98.96260108900003,10.539589496000076],[99.06377440000006,10.551421186000027],[99.10028350000005,10.569523107000066],[99.09750146100004,10.605603679000069]]]}},{"type":"Feature","properties":{"code":"860207","name":"หงษ์เจริญ","parentCode":"8602"},"geometry":{"type":"Polygon","coordinates":[[[99.22629557200008,10.797065891000045],[99.18802178700008,10.837560047000068],[99.12236701800003,10.865053161000048],[99.13658186800006,10.88808883200005],[99.05628531300005,10.947309406000045],[99.03622833100007,10.924303750000036],[99.08016439400006,10.865616868000075],[99.06158728000008,10.805361033000054],[99.07696332600005,10.805626176000033],[99.17770457700004,10.716135588000043],[99.22944336700004,10.734096960000045],[99.23211314300005,10.777058487000033],[99.22629557200008,10.797065891000045]]]}},{"type":"Feature","properties":{"code":"860402","name":"ขันเงิน","parentCode":"8604"},"geometry":{"type":"Polygon","coordinates":[[[99.07538284700007,9.95438370100004],[99.05525501500006,9.952008188000036],[99.05717096800004,9.912732640000058],[99.08057949200008,9.921484074000034],[99.09405591600006,9.947509987000046],[99.07538284700007,9.95438370100004]]]}},{"type":"Feature","properties":{"code":"860307","name":"เขาไชยราช","parentCode":"8603"},"geometry":{"type":"Polygon","coordinates":[[[99.43119809600006,10.909135769000045],[99.44819749600003,10.977409563000037],[99.40692531200006,10.954766665000022],[99.35882281000005,10.970250389000057],[99.25849291200007,10.96535085100004],[99.26767455700008,10.87041036000005],[99.27581733000005,10.852427275000025],[99.32597272300006,10.930673854000077],[99.34288930200006,10.90330608000005],[99.43119809600006,10.909135769000045]]]}},{"type":"Feature","properties":{"code":"860711","name":"เขาค่าย","parentCode":"8607"},"geometry":{"type":"Polygon","coordinates":[[[98.94952029300003,10.182036168000025],[98.87517524400005,10.204372397000043],[98.86956172700008,10.153864379000026],[98.84643926400008,10.062386250000031],[98.88575166900006,10.062753650000047],[98.90296881300009,10.054639031000022],[98.92263888400004,10.068939674000035],[98.92180868000008,10.083485919000054],[98.93129773400005,10.117674123000029],[98.94952029300003,10.182036168000025]]]}},{"type":"Feature","properties":{"code":"860710","name":"เขาทะลุ","parentCode":"8607"},"geometry":{"type":"Polygon","coordinates":[[[98.94576853700005,10.23388441700007],[98.90798591400005,10.264647642000057],[98.87517524400005,10.204372397000043],[98.94952029300003,10.182036168000025],[98.94576853700005,10.23388441700007]]]}},{"type":"Feature","properties":{"code":"860707","name":"ครน","parentCode":"8607"},"geometry":{"type":"Polygon","coordinates":[[[99.09842418700003,10.263759079000067],[99.10658371300008,10.304934067000033],[99.05760950300004,10.35360410800007],[99.01837712900004,10.333796326000027],[98.98842280900004,10.349647658000038],[99.02059973400009,10.278582895000056],[99.09842418700003,10.263759079000067]]]}},{"type":"Feature","properties":{"code":"860202","name":"คุริง","parentCode":"8602"},"geometry":{"type":"Polygon","coordinates":[[[99.17770457700004,10.716135588000043],[99.07696332600005,10.805626176000033],[99.06158728000008,10.805361033000054],[99.07149312800004,10.746018135000043],[99.10464387800005,10.728206236000062],[99.17265137500004,10.681740121000075],[99.17770457700004,10.716135588000043]]]}},{"type":"Feature","properties":{"code":"860113","name":"ขุนกระทิง","parentCode":"8601"},"geometry":{"type":"Polygon","coordinates":[[[99.14121592300006,10.493317881000053],[99.12833622000005,10.502743677000069],[99.09240069200007,10.443307967000067],[99.12400119800009,10.441366208000034],[99.14121592300006,10.493317881000053]]]}},{"type":"Feature","properties":{"code":"860411","name":"แหลมทราย","parentCode":"8604"},"geometry":{"type":"Polygon","coordinates":[[[99.13259419000008,9.977457162000064],[99.07370936900008,9.982049395000047],[99.08002786400004,9.954731583000068],[99.09457552400005,9.948981033000052],[99.12014115700003,9.950698556000077],[99.12967791700004,9.955718726000043],[99.13308511600007,9.968398121000064],[99.13259419000008,9.977457162000064]]]}},{"type":"Feature","properties":{"code":"860501","name":"ละแม","parentCode":"8605"},"geometry":{"type":"Polygon","coordinates":[[[99.13888219900008,9.824689543000034],[99.11281907500006,9.83877265600006],[99.10476468000007,9.791799040000058],[99.04920444500004,9.750375231000021],[99.00060794900008,9.723721759000057],[98.97015102700004,9.771939308000071],[98.95426414700006,9.807497101000024],[98.94639381800005,9.823231767000038],[98.88174171600008,9.789690717000042],[98.88084765900004,9.729186302000073],[98.93930299900006,9.681440785000063],[98.98241406400007,9.67157338900006],[99.02940192700004,9.694897840000067],[99.07000023200004,9.745129696000049],[99.14584402900005,9.746679688000029],[99.13888219900008,9.824689543000034]]]}},{"type":"Feature","properties":{"code":"860401","name":"หลังสวน","parentCode":"8604"},"geometry":{"type":"Polygon","coordinates":[[[99.08002786400004,9.954731583000068],[99.07538284700007,9.95438370100004],[99.09405591600006,9.947509987000046],[99.09457552400005,9.948981033000052],[99.08002786400004,9.954731583000068]]]}},{"type":"Feature","properties":{"code":"860106","name":"นาชะอัง","parentCode":"8601"},"geometry":{"type":"Polygon","coordinates":[[[99.27771004800007,10.551991992000069],[99.23385834800007,10.568317290000039],[99.18538116400003,10.518208530000038],[99.24877779000008,10.504965919000028],[99.23749658900005,10.531384024000033],[99.27771004800007,10.551991992000069]]]}},{"type":"Feature","properties":{"code":"860404","name":"นาขา","parentCode":"8604"},"geometry":{"type":"Polygon","coordinates":[[[99.12229365200005,10.018744174000062],[99.04039625900003,10.05249770100005],[98.99478497800004,10.019000453000046],[98.94225244000006,10.013170485000046],[98.93697126600006,10.042573772000026],[98.92669462400005,10.01693121300002],[98.95097756100006,10.002460117000055],[99.00002426800006,9.997293508000041],[99.05073696000005,10.025306941000053],[99.07370936900008,9.982049395000047],[99.13259419000008,9.977457162000064],[99.12229365200005,10.018744174000062]]]}},{"type":"Feature","properties":{"code":"860204","name":"นากระตาม","parentCode":"8602"},"geometry":{"type":"Polygon","coordinates":[[[99.23707691200008,10.660130557000059],[99.14919896100008,10.636511248000033],[99.12629769600005,10.579825699000025],[99.16549831400005,10.587115590000053],[99.20326760200004,10.57874365400005],[99.24001198000008,10.65071608200003],[99.23707691200008,10.660130557000059]]]}},{"type":"Feature","properties":{"code":"860405","name":"นาพญา","parentCode":"8604"},"geometry":{"type":"Polygon","coordinates":[[[99.10495691600005,9.912182362000067],[99.08118840300006,9.91638570400005],[99.08839547300005,9.845382591000032],[99.11281907500006,9.83877265600006],[99.13888219900008,9.824689543000034],[99.15734737200006,9.893301398000062],[99.10495691600005,9.912182362000067]]]}},{"type":"Feature","properties":{"code":"860701","name":"นาโพธิ์","parentCode":"8607"},"geometry":{"type":"Polygon","coordinates":[[[99.11569511600004,10.23924271900006],[99.10150745000004,10.245821007000075],[99.08422793000005,10.226712364000036],[99.07407223200005,10.208786382000028],[99.10504494200006,10.150393079000025],[99.14335444500006,10.156478798000023],[99.11569511600004,10.23924271900006]]]}},{"type":"Feature","properties":{"code":"860709","name":"นาสัก","parentCode":"8607"},"geometry":{"type":"Polygon","coordinates":[[[99.07407223200005,10.208786382000028],[99.02308178700008,10.207774591000032],[98.99121811400005,10.254833646000066],[98.94576853700005,10.23388441700007],[98.94952029300003,10.182036168000025],[98.93129773400005,10.117674123000029],[99.06088615200008,10.150173315000075],[99.10504494200006,10.150393079000025],[99.07407223200005,10.208786382000028]]]}},{"type":"Feature","properties":{"code":"860105","name":"นาทุ่ง","parentCode":"8601"},"geometry":{"type":"Polygon","coordinates":[[[99.24877779000008,10.504965919000028],[99.18538116400003,10.518208530000038],[99.16981848500006,10.498845438000046],[99.16995362400007,10.497315981000042],[99.18521918900007,10.490617783000062],[99.20699680700005,10.491331867000042],[99.23203465300008,10.495465768000031],[99.24877779000008,10.504965919000028]]]}},{"type":"Feature","properties":{"code":"860306","name":"ปากคลอง","parentCode":"8603"},"geometry":{"type":"Polygon","coordinates":[[[99.50256046200008,10.991796295000029],[99.44819749600003,10.977409563000037],[99.43119809600006,10.909135769000045],[99.41214915200004,10.810308225000028],[99.42371827200009,10.80131887400006],[99.44118120400003,10.871542720000036],[99.51936463500004,10.89565507900005],[99.48919717500007,10.954205590000072],[99.50256046200008,10.991796295000029]]]}},{"type":"Feature","properties":{"code":"860102","name":"ปากน้ำ","parentCode":"8601"},"geometry":{"type":"Polygon","coordinates":[[[99.26550564400009,10.426467069000068],[99.24508206100006,10.444075339000051],[99.22992072000005,10.388504686000033],[99.26550564400009,10.426467069000068]]]}},{"type":"Feature","properties":{"code":"860409","name":"ปากน้ำ","parentCode":"8604"},"geometry":{"type":"Polygon","coordinates":[[[99.16023804200006,9.94710823400004],[99.15277135000008,9.968876397000031],[99.13308511600007,9.968398121000064],[99.12967791700004,9.955718726000043],[99.16023804200006,9.94710823400004]]]}},{"type":"Feature","properties":{"code":"860705","name":"ปากแพรก","parentCode":"8607"},"geometry":{"type":"Polygon","coordinates":[[[99.14887925700003,10.311359454000069],[99.14605424600006,10.311468756000068],[99.09842418700003,10.263759079000067],[99.10150745000004,10.245821007000075],[99.11569511600004,10.23924271900006],[99.15247133800005,10.271973296000056],[99.16432842000006,10.279827167000064],[99.14887925700003,10.311359454000069]]]}},{"type":"Feature","properties":{"code":"860602","name":"ปากทรง","parentCode":"8606"},"geometry":{"type":"Polygon","coordinates":[[[98.77900260500007,9.691022194000027],[98.71452478200007,9.86016231900004],[98.66272584200004,9.808202479000045],[98.63304352400007,9.788482217000023],[98.63937656800005,9.713562482000043],[98.64032035700006,9.712211978000028],[98.64845841600004,9.661571180000067],[98.68442084400004,9.647336557000074],[98.73963607700006,9.600876690000064],[98.76808885500009,9.666160219000062],[98.77900260500007,9.691022194000027]]]}},{"type":"Feature","properties":{"code":"860801","name":"ปากตะโก","parentCode":"8608"},"geometry":{"type":"Polygon","coordinates":[[[99.17548061500008,10.171594953000067],[99.14335444500006,10.156478798000023],[99.11859292900004,10.096527237000032],[99.13156847900007,10.07419199800006],[99.15445901000004,10.064886533000049],[99.14761321700007,10.119372583000029],[99.17548061500008,10.171594953000067]]]}},{"type":"Feature","properties":{"code":"860603","name":"ปังหวาน","parentCode":"8606"},"geometry":{"type":"Polygon","coordinates":[[[98.88194655500007,10.004830626000057],[98.85754513800003,9.997463112000048],[98.83587434300006,9.98446326100003],[98.82931327900008,9.970661043000064],[98.83807435700004,9.927611012000057],[98.93967582600004,9.885067977000062],[98.95804685400003,9.82327341100006],[98.97790473400005,9.862869749000026],[98.97834268500009,9.896407907000025],[98.93168635500007,9.967634051000061],[98.88194655500007,10.004830626000057]]]}},{"type":"Feature","properties":{"code":"860601","name":"พะโต๊ะ","parentCode":"8606"},"geometry":{"type":"Polygon","coordinates":[[[98.81396141800008,9.93614941800007],[98.76737910300005,9.93983042900004],[98.74470896600008,9.915959372000032],[98.71452478200007,9.86016231900004],[98.77900260500007,9.691022194000027],[98.88084765900004,9.729186302000073],[98.88174171600008,9.789690717000042],[98.87429263500007,9.842576833000066],[98.83082404300006,9.885666230000027],[98.81396141800008,9.93614941800007]]]}},{"type":"Feature","properties":{"code":"860410","name":"พ้อแดง","parentCode":"8604"},"geometry":{"type":"Polygon","coordinates":[[[99.10495691600005,9.912182362000067],[99.12014115700003,9.950698556000077],[99.09457552400005,9.948981033000052],[99.09405591600006,9.947509987000046],[99.08057949200008,9.921484074000034],[99.08118840300006,9.91638570400005],[99.10495691600005,9.912182362000067]]]}},{"type":"Feature","properties":{"code":"860604","name":"พระรักษ์","parentCode":"8606"},"geometry":{"type":"Polygon","coordinates":[[[98.95804685400003,9.82327341100006],[98.93967582600004,9.885067977000062],[98.83807435700004,9.927611012000057],[98.82931327900008,9.970661043000064],[98.81396141800008,9.93614941800007],[98.83082404300006,9.885666230000027],[98.87429263500007,9.842576833000066],[98.88174171600008,9.789690717000042],[98.94639381800005,9.823231767000038],[98.95804685400003,9.82327341100006]]]}},{"type":"Feature","properties":{"code":"860205","name":"รับร่อ","parentCode":"8602"},"geometry":{"type":"Polygon","coordinates":[[[99.05628531300005,10.947309406000045],[99.02391570400005,10.970676079000043],[98.99929457600007,10.92390989100005],[99.01108455500008,10.856514441000058],[98.95780964700003,10.811912163000045],[98.92360509600007,10.827249152000036],[98.88538062100008,10.784155464000037],[98.91061177400007,10.735663247000048],[98.96701161900006,10.729154511000047],[98.94411279700006,10.69726544200006],[98.95876804000005,10.655992602000026],[99.04704170400004,10.637106626000048],[99.09750146100004,10.605603679000069],[99.11529982400003,10.615069690000041],[99.05693982300005,10.681507273000022],[99.07149312800004,10.746018135000043],[99.06158728000008,10.805361033000054],[99.08016439400006,10.865616868000075],[99.03622833100007,10.924303750000036],[99.05628531300005,10.947309406000045]]]}},{"type":"Feature","properties":{"code":"860203","name":"สลุย","parentCode":"8602"},"geometry":{"type":"Polygon","coordinates":[[[99.26767455700008,10.87041036000005],[99.23112502700008,10.865950189000046],[99.18809048800006,10.903604646000076],[99.12075418500007,10.930832704000068],[99.09873193400006,10.990524569000058],[99.05628531300005,10.947309406000045],[99.13658186800006,10.88808883200005],[99.12236701800003,10.865053161000048],[99.18802178700008,10.837560047000068],[99.22629557200008,10.797065891000045],[99.25028870000006,10.831060901000058],[99.27581733000005,10.852427275000025],[99.26767455700008,10.87041036000005]]]}},{"type":"Feature","properties":{"code":"860209","name":"ทรัพย์อนันต์","parentCode":"8602"},"geometry":{"type":"Polygon","coordinates":[[[99.22944336700004,10.734096960000045],[99.17770457700004,10.716135588000043],[99.17265137500004,10.681740121000075],[99.22113603600008,10.686158157000023],[99.22944336700004,10.734096960000045]]]}},{"type":"Feature","properties":{"code":"860303","name":"สะพลี","parentCode":"8603"},"geometry":{"type":"Polygon","coordinates":[[[99.29687580200005,10.624351713000067],[99.24001198000008,10.65071608200003],[99.20326760200004,10.57874365400005],[99.23385834800007,10.568317290000039],[99.27771004800007,10.551991992000069],[99.29687580200005,10.624351713000067]]]}},{"type":"Feature","properties":{"code":"860702","name":"สวี","parentCode":"8607"},"geometry":{"type":"Polygon","coordinates":[[[99.09842418700003,10.263759079000067],[99.02059973400009,10.278582895000056],[99.02267960800003,10.254421126000068],[99.08422793000005,10.226712364000036],[99.10150745000004,10.245821007000075],[99.09842418700003,10.263759079000067]]]}},{"type":"Feature","properties":{"code":"860210","name":"สองพี่น้อง","parentCode":"8602"},"geometry":{"type":"Polygon","coordinates":[[[99.15377956800006,11.033709260000023],[99.09873193400006,10.990524569000058],[99.12075418500007,10.930832704000068],[99.18809048800006,10.903604646000076],[99.23112502700008,10.865950189000046],[99.26767455700008,10.87041036000005],[99.25849291200007,10.96535085100004],[99.16873219000007,11.003546448000066],[99.15377956800006,11.033709260000023]]]}},{"type":"Feature","properties":{"code":"860503","name":"สวนแตง","parentCode":"8605"},"geometry":{"type":"Polygon","coordinates":[[[99.14584402900005,9.746679688000029],[99.07000023200004,9.745129696000049],[99.02940192700004,9.694897840000067],[99.15931372200004,9.70209692000003],[99.14584402900005,9.746679688000029]]]}},{"type":"Feature","properties":{"code":"860107","name":"ตากแดด","parentCode":"8601"},"geometry":{"type":"Polygon","coordinates":[[[99.16981848500006,10.498845438000046],[99.16606199400007,10.502952705000041],[99.14121592300006,10.493317881000053],[99.12400119800009,10.441366208000034],[99.15832821000004,10.437270574000024],[99.17926838600005,10.489986415000033],[99.16995362400007,10.497315981000042],[99.16981848500006,10.498845438000046]]]}},{"type":"Feature","properties":{"code":"860803","name":"ตะโก","parentCode":"8608"},"geometry":{"type":"Polygon","coordinates":[[[99.13156847900007,10.07419199800006],[99.11859292900004,10.096527237000032],[99.10102767300003,10.084858181000072],[99.01285174400005,10.075067469000032],[98.92180868000008,10.083485919000054],[98.92263888400004,10.068939674000035],[98.93697126600006,10.042573772000026],[98.94225244000006,10.013170485000046],[98.99478497800004,10.019000453000046],[99.04039625900003,10.05249770100005],[99.12229365200005,10.018744174000062],[99.13156847900007,10.07419199800006]]]}},{"type":"Feature","properties":{"code":"860704","name":"ท่าหิน","parentCode":"8607"},"geometry":{"type":"Polygon","coordinates":[[[99.19084538300007,10.201231922000034],[99.15247133800005,10.271973296000056],[99.11569511600004,10.23924271900006],[99.14335444500006,10.156478798000023],[99.17548061500008,10.171594953000067],[99.19084538300007,10.201231922000034]]]}},{"type":"Feature","properties":{"code":"860206","name":"ท่าข้าม","parentCode":"8602"},"geometry":{"type":"Polygon","coordinates":[[[99.10464387800005,10.728206236000062],[99.07149312800004,10.746018135000043],[99.05693982300005,10.681507273000022],[99.11529982400003,10.615069690000041],[99.09750146100004,10.605603679000069],[99.10028350000005,10.569523107000066],[99.12629769600005,10.579825699000025],[99.14919896100008,10.636511248000033],[99.14796894300008,10.661981818000072],[99.09211933400007,10.697157149000077],[99.10464387800005,10.728206236000062]]]}},{"type":"Feature","properties":{"code":"860403","name":"ท่ามะพลา","parentCode":"8604"},"geometry":{"type":"Polygon","coordinates":[[[99.05525501500006,9.952008188000036],[99.02893265200004,9.93275813400004],[99.02997467900008,9.89719173900005],[99.05717096800004,9.912732640000058],[99.05525501500006,9.952008188000036]]]}},{"type":"Feature","properties":{"code":"860201","name":"ท่าแซะ","parentCode":"8602"},"geometry":{"type":"Polygon","coordinates":[[[99.17265137500004,10.681740121000075],[99.10464387800005,10.728206236000062],[99.09211933400007,10.697157149000077],[99.14796894300008,10.661981818000072],[99.14919896100008,10.636511248000033],[99.23707691200008,10.660130557000059],[99.24081356600004,10.671447448000038],[99.22113603600008,10.686158157000023],[99.17265137500004,10.681740121000075]]]}},{"type":"Feature","properties":{"code":"860101","name":"ท่าตะเภา","parentCode":"8601"},"geometry":{"type":"Polygon","coordinates":[[[99.18521918900007,10.490617783000062],[99.16995362400007,10.497315981000042],[99.17926838600005,10.489986415000033],[99.18521918900007,10.490617783000062]]]}},{"type":"Feature","properties":{"code":"860103","name":"ท่ายาง","parentCode":"8601"},"geometry":{"type":"Polygon","coordinates":[[[99.23203465300008,10.495465768000031],[99.20699680700005,10.491331867000042],[99.21280534200008,10.41680771700004],[99.19406022600003,10.391625046000058],[99.19486218400004,10.373827468000059],[99.21498496100008,10.367059993000055],[99.22992072000005,10.388504686000033],[99.24508206100006,10.444075339000051],[99.23203465300008,10.495465768000031]]]}},{"type":"Feature","properties":{"code":"860302","name":"ทะเลทรัพย์","parentCode":"8603"},"geometry":{"type":"Polygon","coordinates":[[[99.31715022000009,10.712923127000067],[99.30004452900005,10.747451604000048],[99.23211314300005,10.777058487000033],[99.22944336700004,10.734096960000045],[99.22113603600008,10.686158157000023],[99.24081356600004,10.671447448000038],[99.29473130300005,10.682622251000055],[99.31715022000009,10.712923127000067]]]}},{"type":"Feature","properties":{"code":"860117","name":"ถ้ำสิงห์","parentCode":"8601"},"geometry":{"type":"Polygon","coordinates":[[[99.12400119800009,10.441366208000034],[99.09240069200007,10.443307967000067],[99.03640126900007,10.432187459000033],[99.03192008300005,10.415901832000031],[99.10277063000007,10.382923959000038],[99.08737326600004,10.42585962000004],[99.12400119800009,10.441366208000034]]]}},{"type":"Feature","properties":{"code":"860114","name":"ทุ่งคา","parentCode":"8601"},"geometry":{"type":"Polygon","coordinates":[[[99.15832821000004,10.437270574000024],[99.12400119800009,10.441366208000034],[99.08737326600004,10.42585962000004],[99.10277063000007,10.382923959000038],[99.14614451600005,10.34891439300003],[99.19486218400004,10.373827468000059],[99.19406022600003,10.391625046000058],[99.15832821000004,10.437270574000024]]]}},{"type":"Feature","properties":{"code":"860504","name":"ทุ่งคาวัด","parentCode":"8605"},"geometry":{"type":"Polygon","coordinates":[[[99.04920444500004,9.750375231000021],[98.97015102700004,9.771939308000071],[99.00060794900008,9.723721759000057],[99.04920444500004,9.750375231000021]]]}},{"type":"Feature","properties":{"code":"860502","name":"ทุ่งหลวง","parentCode":"8605"},"geometry":{"type":"Polygon","coordinates":[[[99.08839547300005,9.845382591000032],[99.02673833400007,9.798031110000068],[98.95426414700006,9.807497101000024],[98.97015102700004,9.771939308000071],[99.04920444500004,9.750375231000021],[99.10476468000007,9.791799040000058],[99.11281907500006,9.83877265600006],[99.08839547300005,9.845382591000032]]]}},{"type":"Feature","properties":{"code":"860703","name":"ทุ่งระยะ","parentCode":"8607"},"geometry":{"type":"Polygon","coordinates":[[[98.96026962900004,10.378973840000072],[98.93712688900007,10.383918848000064],[98.93072305900006,10.364847645000054],[98.94024457400008,10.341393339000035],[98.90430644800006,10.297005528000057],[98.90798591400005,10.264647642000057],[98.94576853700005,10.23388441700007],[98.99121811400005,10.254833646000066],[99.02308178700008,10.207774591000032],[99.07407223200005,10.208786382000028],[99.08422793000005,10.226712364000036],[99.02267960800003,10.254421126000068],[99.02059973400009,10.278582895000056],[98.98842280900004,10.349647658000038],[98.96026962900004,10.378973840000072]]]}},{"type":"Feature","properties":{"code":"860802","name":"ทุ่งตะไคร","parentCode":"8608"},"geometry":{"type":"Polygon","coordinates":[[[99.10504494200006,10.150393079000025],[99.06088615200008,10.150173315000075],[99.10102767300003,10.084858181000072],[99.11859292900004,10.096527237000032],[99.14335444500006,10.156478798000023],[99.10504494200006,10.150393079000025]]]}},{"type":"Feature","properties":{"code":"860111","name":"วังใหม่","parentCode":"8601"},"geometry":{"type":"Polygon","coordinates":[[[99.06377440000006,10.551421186000027],[98.96260108900003,10.539589496000076],[98.90640310000003,10.489276706000055],[98.89040218000008,10.469704515000046],[98.89127800500006,10.446581052000056],[98.91409049000004,10.479147022000063],[99.01267371100005,10.508257100000037],[99.08195079900008,10.494327892000058],[99.11025614900007,10.507078711000077],[99.07979114600005,10.543948828000055],[99.06377440000006,10.551421186000027]]]}},{"type":"Feature","properties":{"code":"860110","name":"วังไผ่","parentCode":"8601"},"geometry":{"type":"Polygon","coordinates":[[[99.14734628700006,10.536459059000038],[99.07979114600005,10.543948828000055],[99.11025614900007,10.507078711000077],[99.12833622000005,10.502743677000069],[99.14121592300006,10.493317881000053],[99.16606199400007,10.502952705000041],[99.14734628700006,10.536459059000038]]]}},{"type":"Feature","properties":{"code":"860412","name":"วังตะกอ","parentCode":"8604"},"geometry":{"type":"Polygon","coordinates":[[[99.07370936900008,9.982049395000047],[99.05073696000005,10.025306941000053],[99.00002426800006,9.997293508000041],[98.95097756100006,10.002460117000055],[99.00509899400004,9.933768190000023],[99.02893265200004,9.93275813400004],[99.05525501500006,9.952008188000036],[99.07538284700007,9.95438370100004],[99.08002786400004,9.954731583000068],[99.07370936900008,9.982049395000047]]]}},{"type":"Feature","properties":{"code":"860115","name":"วิสัยเหนือ","parentCode":"8601"},"geometry":{"type":"Polygon","coordinates":[[[99.03640126900007,10.432187459000033],[99.00617395600005,10.429381722000073],[99.10209493400004,10.326891698000054],[99.14605424600006,10.311468756000068],[99.14887925700003,10.311359454000069],[99.14614451600005,10.34891439300003],[99.10277063000007,10.382923959000038],[99.03192008300005,10.415901832000031],[99.03640126900007,10.432187459000033]]]}},{"type":"Feature","properties":{"code":"860708","name":"วิสัยใต้","parentCode":"8607"},"geometry":{"type":"Polygon","coordinates":[[[99.00617395600005,10.429381722000073],[98.98517846600004,10.434100852000029],[98.96026962900004,10.378973840000072],[98.98842280900004,10.349647658000038],[99.01837712900004,10.333796326000027],[99.05760950300004,10.35360410800007],[99.10658371300008,10.304934067000033],[99.09842418700003,10.263759079000067],[99.14605424600006,10.311468756000068],[99.10209493400004,10.326891698000054],[99.00617395600005,10.429381722000073]]]}}]}