{"type":"FeatureCollection","features":[{"type":"Feature","properties":{"code":"900608","name":"บาโหย","parentCode":"9006"},"geometry":{"type":"Polygon","coordinates":[[[100.97581691000005,6.48042695700002],[100.90682323700008,6.4949317190000215],[100.85215032700006,6.468211103000044],[100.81993027200008,6.418156987000032],[100.84104279900004,6.300423765000062],[100.91214657600005,6.303420234000043],[100.92877400500004,6.33091866500007],[100.92425610700008,6.427537578000056],[100.97581691000005,6.48042695700002]]]}},{"type":"Feature","properties":{"code":"901404","name":"บ้านหาร","parentCode":"9014"},"geometry":{"type":"Polygon","coordinates":[[[100.46855308900007,7.0732621340000605],[100.43996605300003,7.089170677000027],[100.43555139000006,7.060975334000034],[100.45106623300006,7.059913233000032],[100.46855308900007,7.0732621340000605]]]}},{"type":"Feature","properties":{"code":"900711","name":"บ้านขาว","parentCode":"9007"},"geometry":{"type":"Polygon","coordinates":[[[100.27856570500006,7.7617455300000415],[100.24825348100006,7.804666921000035],[100.23550052700006,7.883047180000062],[100.17749518400007,7.876479127000039],[100.20065014500005,7.777726530000052],[100.21748083600005,7.721654938000029],[100.27856570500006,7.7617455300000415]]]}},{"type":"Feature","properties":{"code":"900705","name":"บ้านใหม่","parentCode":"9007"},"geometry":{"type":"Polygon","coordinates":[[[100.32476656400007,7.804781276000028],[100.31820858900005,7.859965976000069],[100.26783610600006,7.849682314000063],[100.27856570500006,7.7617455300000415],[100.32476656400007,7.804781276000028]]]}},{"type":"Feature","properties":{"code":"900301","name":"บ้านนา","parentCode":"9003"},"geometry":{"type":"Polygon","coordinates":[[[100.81008153500005,6.910105644000055],[100.77353376400004,6.904103844000076],[100.76131292300005,6.957433884000068],[100.71957490500006,6.922635760000048],[100.72635745300005,6.892936089000045],[100.74284954100006,6.875502845000028],[100.79684540500006,6.870781691000047],[100.81008153500005,6.910105644000055]]]}},{"type":"Feature","properties":{"code":"900604","name":"บ้านโหนด","parentCode":"9006"},"geometry":{"type":"Polygon","coordinates":[[[101.05696059300004,6.67753177000003],[101.00478776900007,6.693809642000076],[101.02971992200008,6.605793381000069],[101.06803516000008,6.583517863000054],[101.08948753200008,6.609130030000074],[101.10361983100006,6.627967249000051],[101.06215298300003,6.655429383000069],[101.05696059300004,6.67753177000003]]]}},{"type":"Feature","properties":{"code":"901116","name":"บ้านพรุ","parentCode":"9011"},"geometry":{"type":"Polygon","coordinates":[[[100.50314034500008,6.967465162000053],[100.46308945400006,6.978802133000045],[100.44078336900009,6.938285389000043],[100.46012661200007,6.878784215000053],[100.53587589800009,6.878659526000035],[100.51950081900009,6.945181751000064],[100.50314034500008,6.967465162000053]]]}},{"type":"Feature","properties":{"code":"901510","name":"บางเขียด","parentCode":"9015"},"geometry":{"type":"Polygon","coordinates":[[[100.46449174300005,7.331995659000029],[100.44773775800007,7.366493912000067],[100.44557138900007,7.3726127380000435],[100.40606568400005,7.361804041000028],[100.42016736600004,7.319779041000061],[100.46449174300005,7.331995659000029]]]}},{"type":"Feature","properties":{"code":"901401","name":"บางกล่ำ","parentCode":"9014"},"geometry":{"type":"Polygon","coordinates":[[[100.45720722000004,7.117036867000024],[100.46220998500007,7.187041116000046],[100.39956252500008,7.085467863000076],[100.43567314400008,7.091428757000074],[100.45720722000004,7.117036867000024]]]}},{"type":"Feature","properties":{"code":"901304","name":"บางเหรียง","parentCode":"9013"},"geometry":{"type":"Polygon","coordinates":[[[100.46220998500007,7.187041116000046],[100.40658458400009,7.184614355000065],[100.34899227500006,7.12859983200002],[100.33202769700006,7.087845737000066],[100.39956252500008,7.085467863000076],[100.46220998500007,7.187041116000046]]]}},{"type":"Feature","properties":{"code":"900210","name":"บ่อแดง","parentCode":"9002"},"geometry":{"type":"Polygon","coordinates":[[[100.46386979500005,7.4210205890000225],[100.43756354800007,7.416624802000058],[100.44636269600005,7.388924264000025],[100.47262117900004,7.397459800000036],[100.46386979500005,7.4210205890000225]]]}},{"type":"Feature","properties":{"code":"900211","name":"บ่อดาน","parentCode":"9002"},"geometry":{"type":"Polygon","coordinates":[[[100.46386979500005,7.4210205890000225],[100.45304886700006,7.452764398000056],[100.43265616300005,7.446905326000035],[100.43350471200006,7.42873078100007],[100.43756354800007,7.416624802000058],[100.46386979500005,7.4210205890000225]]]}},{"type":"Feature","properties":{"code":"900706","name":"บ่อตรุ","parentCode":"9007"},"geometry":{"type":"Polygon","coordinates":[[[100.39757978600005,7.666867348000039],[100.36162651100005,7.641953966000074],[100.36796800600007,7.6141069410000455],[100.40793725300006,7.621994584000049],[100.39757978600005,7.666867348000039]]]}},{"type":"Feature","properties":{"code":"900101","name":"บ่อยาง","parentCode":"9001"},"geometry":{"type":"Polygon","coordinates":[[[100.61917016300004,7.181529923000028],[100.57542416500007,7.223196904000076],[100.58175136500006,7.182353711000076],[100.61917016300004,7.181529923000028]]]}},{"type":"Feature","properties":{"code":"900605","name":"จะแหน","parentCode":"9006"},"geometry":{"type":"Polygon","coordinates":[[[101.01448222500005,6.484531954000033],[100.98138350900007,6.558822580000026],[100.93284483600007,6.549142773000028],[100.90682323700008,6.4949317190000215],[100.97581691000005,6.48042695700002],[101.01448222500005,6.484531954000033]]]}},{"type":"Feature","properties":{"code":"901506","name":"ชะแล้","parentCode":"9015"},"geometry":{"type":"Polygon","coordinates":[[[100.46600059000008,7.3276953210000215],[100.46449174300005,7.331995659000029],[100.42016736600004,7.319779041000061],[100.42654989300007,7.289512374000026],[100.46071719400004,7.298320162000039],[100.46600059000008,7.3276953210000215]]]}},{"type":"Feature","properties":{"code":"901108","name":"ฉลุง","parentCode":"9011"},"geometry":{"type":"Polygon","coordinates":[[[100.39536032100006,6.992506912000067],[100.40139666400006,7.009850178000022],[100.30295824200005,7.039408641000023],[100.23643957200005,7.005178431000047],[100.21038755400008,6.98898796800006],[100.19088698500008,6.948299212000052],[100.25469914800004,6.9405303430000345],[100.27804553400006,6.976989998000022],[100.36732966600005,6.986323495000022],[100.39536032100006,6.992506912000067]]]}},{"type":"Feature","properties":{"code":"900402","name":"ฉาง","parentCode":"9004"},"geometry":{"type":"Polygon","coordinates":[[[100.74661161800003,6.75678390500002],[100.71657907700006,6.783320013000036],[100.68285775600003,6.77770223400006],[100.67676664100009,6.76484350000004],[100.74661161800003,6.75678390500002]]]}},{"type":"Feature","properties":{"code":"900310","name":"จะโหนง","parentCode":"9003"},"geometry":{"type":"Polygon","coordinates":[[[100.66716033700004,7.052379750000057],[100.63037284800004,7.0186987070000555],[100.61220859000008,6.969099204000031],[100.69468163700009,6.984917376000055],[100.70907483200006,6.968814683000062],[100.71527625600004,6.986436557000047],[100.66716033700004,7.052379750000057]]]}},{"type":"Feature","properties":{"code":"900201","name":"จะทิ้งพระ","parentCode":"9002"},"geometry":{"type":"Polygon","coordinates":[[[100.45304886700006,7.452764398000056],[100.44085604800006,7.49208559300007],[100.42362756900008,7.487244386000043],[100.43265616300005,7.446905326000035],[100.45304886700006,7.452764398000056]]]}},{"type":"Feature","properties":{"code":"901501","name":"ชิงโค","parentCode":"9015"},"geometry":{"type":"Polygon","coordinates":[[[100.55637696500008,7.250009117000047],[100.52025503300007,7.2960829860000445],[100.49698736300007,7.284483683000076],[100.52184705800005,7.23726913400003],[100.54827829900006,7.239837585000032],[100.55637696500008,7.250009117000047]]]}},{"type":"Feature","properties":{"code":"900803","name":"เชิงแส","parentCode":"9008"},"geometry":{"type":"Polygon","coordinates":[[[100.36004641800008,7.646762205000073],[100.22616036100004,7.64110482500007],[100.22881467100007,7.6140147240000715],[100.31969455100005,7.620127979000074],[100.35046176700007,7.579420758000026],[100.35463628500008,7.527302814000052],[100.35568193400007,7.5278199140000766],[100.35971893200008,7.584262822000028],[100.36796800600007,7.6141069410000455],[100.36162651100005,7.641953966000074],[100.36004641800008,7.646762205000073]]]}},{"type":"Feature","properties":{"code":"900205","name":"ชุมพล","parentCode":"9002"},"geometry":{"type":"Polygon","coordinates":[[[100.40793725300006,7.621994584000049],[100.36796800600007,7.6141069410000455],[100.35971893200008,7.584262822000028],[100.39254145400008,7.5876722400000745],[100.41317132500006,7.60027268500005],[100.40793725300006,7.621994584000049]]]}},{"type":"Feature","properties":{"code":"900712","name":"แดนสงวน","parentCode":"9007"},"geometry":{"type":"Polygon","coordinates":[[[100.32083373400008,7.879376103000027],[100.28873542600007,7.914861044000077],[100.26598024600008,7.91466839800006],[100.26061293300006,7.902660405000063],[100.26783610600006,7.849682314000063],[100.31820858900005,7.859965976000069],[100.32083373400008,7.879376103000027]]]}},{"type":"Feature","properties":{"code":"900204","name":"ดีหลวง","parentCode":"9002"},"geometry":{"type":"Polygon","coordinates":[[[100.42046553600005,7.569716951000032],[100.41317132500006,7.60027268500005],[100.39254145400008,7.5876722400000745],[100.40471153600004,7.562424203000035],[100.42046553600005,7.569716951000032]]]}},{"type":"Feature","properties":{"code":"901101","name":"หาดใหญ่","parentCode":"9011"},"geometry":{"type":"Polygon","coordinates":[[[100.46144492800005,6.984652147000077],[100.47946467700007,7.034900548000053],[100.45285149000006,7.027870720000067],[100.45263298300006,7.027981578000038],[100.45202211500003,7.020111654000061],[100.46144492800005,6.984652147000077]]]}},{"type":"Feature","properties":{"code":"901509","name":"หัวเขา","parentCode":"9015"},"geometry":{"type":"Polygon","coordinates":[[[100.57542416500007,7.223196904000076],[100.55637696500008,7.250009117000047],[100.54827829900006,7.239837585000032],[100.55786463100009,7.18169258000006],[100.57265089100008,7.16882114200007],[100.58175136500006,7.182353711000076],[100.57542416500007,7.223196904000076]]]}},{"type":"Feature","properties":{"code":"901303","name":"ห้วยลึก","parentCode":"9013"},"geometry":{"type":"Polygon","coordinates":[[[100.39913646500008,7.263564532000032],[100.37849772900006,7.313251323000031],[100.37150287400004,7.304440705000047],[100.33968906000007,7.26510971600004],[100.34072355000006,7.2481798000000595],[100.39913646500008,7.263564532000032]]]}},{"type":"Feature","properties":{"code":"900901","name":"กำแพงเพชร","parentCode":"9009"},"geometry":{"type":"Polygon","coordinates":[[[100.28518854800006,7.145360649000054],[100.24725070100004,7.132530583000062],[100.24896357700004,7.026590180000028],[100.23643957200005,7.005178431000047],[100.30295824200005,7.039408641000023],[100.33202769700006,7.087845737000066],[100.34899227500006,7.12859983200002],[100.32481220800008,7.140768973000036],[100.28518854800006,7.145360649000054]]]}},{"type":"Feature","properties":{"code":"900312","name":"แค","parentCode":"9003"},"geometry":{"type":"Polygon","coordinates":[[[100.59205952100007,6.8870584930000405],[100.58921066300007,6.818594745000041],[100.69396668500008,6.806336664000071],[100.71422570500005,6.806313172000046],[100.71388117300006,6.820597067000051],[100.64813562200004,6.838727306000067],[100.65249087500007,6.862089961000038],[100.59205952100007,6.8870584930000405]]]}},{"type":"Feature","properties":{"code":"900607","name":"เขาแดง","parentCode":"9006"},"geometry":{"type":"Polygon","coordinates":[[[100.86047838000007,6.561953800000026],[100.78031242000009,6.5700015990000225],[100.74867487500006,6.527120818000071],[100.74023225200006,6.5072861660000285],[100.75272342300008,6.45845801300004],[100.81025072500006,6.44465841300007],[100.81993027200008,6.418156987000032],[100.85215032700006,6.468211103000044],[100.84014759500008,6.500438424000038],[100.86047838000007,6.561953800000026]]]}},{"type":"Feature","properties":{"code":"901009","name":"เขามีเกียรติ","parentCode":"9010"},"geometry":{"type":"Polygon","coordinates":[[[100.58177200000006,6.787416922000034],[100.46831748400007,6.815734216000067],[100.49696825100006,6.737060915000029],[100.54501990000006,6.724753848000034],[100.58177200000006,6.787416922000034]]]}},{"type":"Feature","properties":{"code":"900909","name":"เขาพระ","parentCode":"9009"},"geometry":{"type":"Polygon","coordinates":[[[100.21038755400008,6.98898796800006],[100.22606425300006,7.067875079000032],[100.21371774600004,7.11780152700004],[100.12990881800005,7.092705353000042],[100.05721977100006,7.10757965800002],[100.07903057400006,6.963249835000056],[100.12174551000004,6.923864598000023],[100.20716119800005,6.8957554890000665],[100.19088698500008,6.948299212000052],[100.21038755400008,6.98898796800006]]]}},{"type":"Feature","properties":{"code":"900102","name":"เขารูปช้าง","parentCode":"9001"},"geometry":{"type":"Polygon","coordinates":[[[100.61917016300004,7.181529923000028],[100.58175136500006,7.182353711000076],[100.57265089100008,7.16882114200007],[100.60313533400006,7.127428508000037],[100.64975059000005,7.138163376000023],[100.61917016300004,7.181529923000028]]]}},{"type":"Feature","properties":{"code":"900702","name":"คลองแดน","parentCode":"9007"},"geometry":{"type":"Polygon","coordinates":[[[100.33657390400003,7.931797047000032],[100.32127355100005,7.936832596000045],[100.28873542600007,7.914861044000077],[100.32083373400008,7.879376103000027],[100.34307051100006,7.899246515000073],[100.33657390400003,7.931797047000032]]]}},{"type":"Feature","properties":{"code":"901105","name":"คลองแห","parentCode":"9011"},"geometry":{"type":"Polygon","coordinates":[[[100.50179262900008,7.074028640000051],[100.47774957600006,7.083486783000069],[100.46855308900007,7.0732621340000605],[100.45106623300006,7.059913233000032],[100.45285149000006,7.027870720000067],[100.47946467700007,7.034900548000053],[100.50963694200004,7.056113838000044],[100.50179262900008,7.074028640000051]]]}},{"type":"Feature","properties":{"code":"901601","name":"คลองหอยโข่ง","parentCode":"9016"},"geometry":{"type":"Polygon","coordinates":[[[100.38573772400008,6.82836446400006],[100.40215621800007,6.9091389310000295],[100.21953660200006,6.823510042000066],[100.26905090300005,6.780950919000077],[100.35492989500005,6.782913525000026],[100.37883435200007,6.817347163000022],[100.38573772400008,6.82836446400006]]]}},{"type":"Feature","properties":{"code":"900410","name":"คลองกวาง","parentCode":"9004"},"geometry":{"type":"Polygon","coordinates":[[[100.64968735600007,6.718716466000046],[100.60835447200009,6.712664124000071],[100.56466038600007,6.6762447980000275],[100.57077104100006,6.6231958620000455],[100.57147133100005,6.570045336000021],[100.59691157600008,6.546552715000075],[100.66013782000005,6.628897829000039],[100.66162579000007,6.633873258000051],[100.63412720700006,6.6480370270000435],[100.65433237600007,6.715113565000024],[100.64968735600007,6.718716466000046]]]}},{"type":"Feature","properties":{"code":"901604","name":"คลองหลา","parentCode":"9016"},"geometry":{"type":"Polygon","coordinates":[[[100.40373945600004,6.937811148000037],[100.40217192800009,6.940544727000031],[100.34271481300004,6.92732851300002],[100.27354081400006,6.885969682000052],[100.24756096500005,6.8483566920000385],[100.21070776000005,6.846148592000077],[100.20589952500006,6.841822556000068],[100.21953660200006,6.823510042000066],[100.40215621800007,6.9091389310000295],[100.40373945600004,6.937811148000037]]]}},{"type":"Feature","properties":{"code":"900313","name":"คลองเปียะ","parentCode":"9003"},"geometry":{"type":"Polygon","coordinates":[[[100.70907483200006,6.968814683000062],[100.69468163700009,6.984917376000055],[100.61220859000008,6.969099204000031],[100.60922283900004,6.966356417000043],[100.62010652600009,6.9257623270000295],[100.67387415300004,6.926166206000062],[100.71062874400008,6.959501567000075],[100.70907483200006,6.968814683000062]]]}},{"type":"Feature","properties":{"code":"901204","name":"คลองหรัง","parentCode":"9012"},"geometry":{"type":"Polygon","coordinates":[[[100.62010652600009,6.9257623270000295],[100.60922283900004,6.966356417000043],[100.60193696600004,6.965584755000066],[100.56188440400007,6.957116468000038],[100.57344556500004,6.883823802000052],[100.59205952100007,6.8870584930000405],[100.62010652600009,6.9257623270000295]]]}},{"type":"Feature","properties":{"code":"900206","name":"คลองรี","parentCode":"9002"},"geometry":{"type":"Polygon","coordinates":[[[100.40471153600004,7.562424203000035],[100.39254145400008,7.5876722400000745],[100.35971893200008,7.584262822000028],[100.35568193400007,7.5278199140000766],[100.38770697700005,7.497098089000076],[100.41966598000005,7.501181317000032],[100.41152899400004,7.527848669000036],[100.40471153600004,7.562424203000035]]]}},{"type":"Feature","properties":{"code":"900404","name":"คลองทราย","parentCode":"9004"},"geometry":{"type":"Polygon","coordinates":[[[100.59617804200008,6.797375922000072],[100.58177200000006,6.787416922000034],[100.54501990000006,6.724753848000034],[100.56466038600007,6.6762447980000275],[100.60835447200009,6.712664124000071],[100.64968735600007,6.718716466000046],[100.66300496800005,6.7688192250000725],[100.62718294000007,6.794286795000062],[100.59617804200008,6.797375922000072]]]}},{"type":"Feature","properties":{"code":"901107","name":"คลองอู่ตะเภา","parentCode":"9011"},"geometry":{"type":"Polygon","coordinates":[[[100.45106623300006,7.059913233000032],[100.43555139000006,7.060975334000034],[100.45263298300006,7.027981578000038],[100.45285149000006,7.027870720000067],[100.45106623300006,7.059913233000032]]]}},{"type":"Feature","properties":{"code":"901104","name":"คอหงส์","parentCode":"9011"},"geometry":{"type":"Polygon","coordinates":[[[100.53860950000006,6.986699429000055],[100.50963694200004,7.056113838000044],[100.47946467700007,7.034900548000053],[100.46144492800005,6.984652147000077],[100.46308945400006,6.978802133000045],[100.50314034500008,6.967465162000053],[100.54006453000005,6.972994627000048],[100.53860950000006,6.986699429000055]]]}},{"type":"Feature","properties":{"code":"901603","name":"โคกม่วง","parentCode":"9016"},"geometry":{"type":"Polygon","coordinates":[[[100.41560283400008,6.934193791000041],[100.40373945600004,6.937811148000037],[100.40215621800007,6.9091389310000295],[100.38573772400008,6.82836446400006],[100.43236290200008,6.839698564000059],[100.41560283400008,6.934193791000041]]]}},{"type":"Feature","properties":{"code":"900311","name":"คู","parentCode":"9003"},"geometry":{"type":"Polygon","coordinates":[[[100.72635745300005,6.892936089000045],[100.71527626600005,6.877804880000042],[100.65249087500007,6.862089961000038],[100.64813562200004,6.838727306000067],[100.71388117300006,6.820597067000051],[100.74499739400005,6.868618070000025],[100.74284954100006,6.875502845000028],[100.72635745300005,6.892936089000045]]]}},{"type":"Feature","properties":{"code":"900207","name":"คูขุด","parentCode":"9002"},"geometry":{"type":"Polygon","coordinates":[[[100.41966598000005,7.501181317000032],[100.38770697700005,7.497098089000076],[100.38258349800009,7.424991975000069],[100.38475742200006,7.4192778300000555],[100.43350471200006,7.42873078100007],[100.43265616300005,7.446905326000035],[100.42362756900008,7.487244386000043],[100.41966598000005,7.501181317000032]]]}},{"type":"Feature","properties":{"code":"901103","name":"คูเต่า","parentCode":"9011"},"geometry":{"type":"Polygon","coordinates":[[[100.50179262900008,7.074028640000051],[100.50422478000007,7.15811715600006],[100.46220998500007,7.187041116000046],[100.45720722000004,7.117036867000024],[100.47774957600006,7.083486783000069],[100.50179262900008,7.074028640000051]]]}},{"type":"Feature","properties":{"code":"901102","name":"ควนลัง","parentCode":"9011"},"geometry":{"type":"Polygon","coordinates":[[[100.46144492800005,6.984652147000077],[100.45202211500003,7.020111654000061],[100.39536032100006,6.992506912000067],[100.36732966600005,6.986323495000022],[100.40217192800009,6.940544727000031],[100.40373945600004,6.937811148000037],[100.41560283400008,6.934193791000041],[100.44078336900009,6.938285389000043],[100.46308945400006,6.978802133000045],[100.46144492800005,6.984652147000077]]]}},{"type":"Feature","properties":{"code":"900904","name":"ควนรู","parentCode":"9009"},"geometry":{"type":"Polygon","coordinates":[[[100.31673402100006,7.231349110000053],[100.30460917100004,7.208608298000058],[100.28518854800006,7.145360649000054],[100.32481220800008,7.140768973000036],[100.34005937000006,7.209041862000049],[100.32268765800006,7.22565897100003],[100.31673402100006,7.231349110000053]]]}},{"type":"Feature","properties":{"code":"901302","name":"ควนโส","parentCode":"9013"},"geometry":{"type":"Polygon","coordinates":[[[100.43940891300008,7.250350542000035],[100.40863688100006,7.265361569000049],[100.39913646500008,7.263564532000032],[100.34072355000006,7.2481798000000595],[100.31673402100006,7.231349110000053],[100.32268765800006,7.22565897100003],[100.38856869400007,7.216293958000051],[100.46220998500007,7.187041116000046],[100.43940891300008,7.250350542000035]]]}},{"type":"Feature","properties":{"code":"900606","name":"คูหา","parentCode":"9006"},"geometry":{"type":"Polygon","coordinates":[[[100.89883416800006,6.635936773000026],[100.86657261900007,6.659795847000055],[100.81088474700005,6.647120064000035],[100.76602976700008,6.6154079530000445],[100.78031242000009,6.5700015990000225],[100.86047838000007,6.561953800000026],[100.89725227400004,6.607962471000064],[100.89883416800006,6.635936773000026]]]}},{"type":"Feature","properties":{"code":"900903","name":"คูหาใต้","parentCode":"9009"},"geometry":{"type":"Polygon","coordinates":[[[100.30460917100004,7.208608298000058],[100.22066267300005,7.192073821000065],[100.24725070100004,7.132530583000062],[100.28518854800006,7.145360649000054],[100.30460917100004,7.208608298000058]]]}},{"type":"Feature","properties":{"code":"900308","name":"ขุนตัดหวาย","parentCode":"9003"},"geometry":{"type":"Polygon","coordinates":[[[100.71657907700006,6.783320013000036],[100.71422570500005,6.806313172000046],[100.69396668500008,6.806336664000071],[100.68190279500004,6.787197731000049],[100.68285775600003,6.77770223400006],[100.71657907700006,6.783320013000036]]]}},{"type":"Feature","properties":{"code":"900503","name":"เกาะสะบ้า","parentCode":"9005"},"geometry":{"type":"Polygon","coordinates":[[[100.93042684000005,6.89271545500003],[100.89149704500005,6.9235167110000475],[100.85230687900008,6.903038211000023],[100.85125608500005,6.834101748000023],[100.90736229800007,6.789406533000033],[100.90220341400004,6.820966500000054],[100.94089579400008,6.852607920000025],[100.93042684000005,6.89271545500003]]]}},{"type":"Feature","properties":{"code":"900103","name":"เกาะแต้ว","parentCode":"9001"},"geometry":{"type":"Polygon","coordinates":[[[100.67375408000004,7.101465949000044],[100.64975059000005,7.138163376000023],[100.60313533400006,7.127428508000037],[100.61397684400004,7.083661644000074],[100.66581569100003,7.0840018090000285],[100.67375408000004,7.101465949000044]]]}},{"type":"Feature","properties":{"code":"900801","name":"เกาะใหญ่","parentCode":"9008"},"geometry":{"type":"Polygon","coordinates":[[[100.35046176700007,7.579420758000026],[100.29806022300005,7.574232155000061],[100.31969455100005,7.620127979000074],[100.22881467100007,7.6140147240000715],[100.23331465400008,7.575677573000064],[100.23840898500004,7.5367357030000335],[100.27306896200008,7.496562275000031],[100.35463628500008,7.527302814000052],[100.35046176700007,7.579420758000026]]]}},{"type":"Feature","properties":{"code":"900106","name":"เกาะยอ","parentCode":"9001"},"geometry":{"type":"Polygon","coordinates":[[[100.55786463100009,7.18169258000006],[100.46220998500007,7.187041116000046],[100.50422478000007,7.15811715600006],[100.55492451700007,7.150927190000061],[100.57265089100008,7.16882114200007],[100.55786463100009,7.18169258000006]]]}},{"type":"Feature","properties":{"code":"900202","name":"กระดังงา","parentCode":"9002"},"geometry":{"type":"Polygon","coordinates":[[[100.44085604800006,7.49208559300007],[100.43012812700005,7.531190655000046],[100.41152899400004,7.527848669000036],[100.41966598000005,7.501181317000032],[100.42362756900008,7.487244386000043],[100.44085604800006,7.49208559300007]]]}},{"type":"Feature","properties":{"code":"900804","name":"กระแสสินธุ์","parentCode":"9008"},"geometry":{"type":"Polygon","coordinates":[[[100.35046176700007,7.579420758000026],[100.31969455100005,7.620127979000074],[100.29806022300005,7.574232155000061],[100.35046176700007,7.579420758000026]]]}},{"type":"Feature","properties":{"code":"900504","name":"ลำไพล","parentCode":"9005"},"geometry":{"type":"Polygon","coordinates":[[[100.95702143600005,6.708095058000026],[100.96290093400006,6.806117986000061],[100.94409282300006,6.774667116000046],[100.90736229800007,6.789406533000033],[100.90434515000004,6.737777703000063],[100.87508462700004,6.707351936000066],[100.83131309800007,6.715757627000073],[100.80553085400004,6.654727182000045],[100.81088474700005,6.647120064000035],[100.86657261900007,6.659795847000055],[100.89883416800006,6.635936773000026],[100.95484535000008,6.673954914000035],[100.95702143600005,6.708095058000026]]]}},{"type":"Feature","properties":{"code":"901403","name":"แม่ทอม","parentCode":"9014"},"geometry":{"type":"Polygon","coordinates":[[[100.47774957600006,7.083486783000069],[100.45720722000004,7.117036867000024],[100.43567314400008,7.091428757000074],[100.43996605300003,7.089170677000027],[100.46855308900007,7.0732621340000605],[100.47774957600006,7.083486783000069]]]}},{"type":"Feature","properties":{"code":"901511","name":"ม่วงงาม","parentCode":"9015"},"geometry":{"type":"Polygon","coordinates":[[[100.50421000400007,7.3256226060000245],[100.48108173800006,7.3762909750000745],[100.44773775800007,7.366493912000067],[100.46449174300005,7.331995659000029],[100.46600059000008,7.3276953210000215],[100.47643939300008,7.317165233000026],[100.50421000400007,7.3256226060000245]]]}},{"type":"Feature","properties":{"code":"900403","name":"นาหมอศรี","parentCode":"9004"},"geometry":{"type":"Polygon","coordinates":[[[100.68190279500004,6.787197731000049],[100.62718294000007,6.794286795000062],[100.66300496800005,6.7688192250000725],[100.67676664100009,6.76484350000004],[100.68285775600003,6.77770223400006],[100.68190279500004,6.787197731000049]]]}},{"type":"Feature","properties":{"code":"901201","name":"นาหม่อม","parentCode":"9012"},"geometry":{"type":"Polygon","coordinates":[[[100.54006453000005,6.972994627000048],[100.50314034500008,6.967465162000053],[100.51950081900009,6.945181751000064],[100.56188440400007,6.957116468000038],[100.60193696600004,6.965584755000066],[100.54006453000005,6.972994627000048]]]}},{"type":"Feature","properties":{"code":"900306","name":"นาทับ","parentCode":"9003"},"geometry":{"type":"Polygon","coordinates":[[[100.74052072700005,7.01190962000004],[100.67375408000004,7.101465949000044],[100.66581569100003,7.0840018090000285],[100.66716033700004,7.052379750000057],[100.71527625600004,6.986436557000047],[100.74052072700005,7.01190962000004]]]}},{"type":"Feature","properties":{"code":"900401","name":"นาทวี","parentCode":"9004"},"geometry":{"type":"Polygon","coordinates":[[[100.74661161800003,6.75678390500002],[100.67676664100009,6.76484350000004],[100.66300496800005,6.7688192250000725],[100.64968735600007,6.718716466000046],[100.65433237600007,6.715113565000024],[100.68434155500006,6.717707895000046],[100.74526556100005,6.689234828000053],[100.74226917100003,6.660235551000028],[100.80553085400004,6.654727182000045],[100.83131309800007,6.715757627000073],[100.79869020500007,6.749297674000047],[100.74661161800003,6.75678390500002]]]}},{"type":"Feature","properties":{"code":"900305","name":"นาหว้า","parentCode":"9003"},"geometry":{"type":"Polygon","coordinates":[[[100.71527626600005,6.877804880000042],[100.70339409800005,6.933663945000035],[100.67387415300004,6.926166206000062],[100.62010652600009,6.9257623270000295],[100.59205952100007,6.8870584930000405],[100.65249087500007,6.862089961000038],[100.71527626600005,6.877804880000042]]]}},{"type":"Feature","properties":{"code":"900307","name":"น้ำขาว","parentCode":"9003"},"geometry":{"type":"Polygon","coordinates":[[[100.69396668500008,6.806336664000071],[100.58921066300007,6.818594745000041],[100.59617804200008,6.797375922000072],[100.62718294000007,6.794286795000062],[100.68190279500004,6.787197731000049],[100.69396668500008,6.806336664000071]]]}},{"type":"Feature","properties":{"code":"901114","name":"น้ำน้อย","parentCode":"9011"},"geometry":{"type":"Polygon","coordinates":[[[100.55492451700007,7.150927190000061],[100.50422478000007,7.15811715600006],[100.50179262900008,7.074028640000051],[100.50963694200004,7.056113838000044],[100.54035284900004,7.069139061000044],[100.56398215200005,7.093268656000021],[100.55492451700007,7.150927190000061]]]}},{"type":"Feature","properties":{"code":"900302","name":"ป่าชิง","parentCode":"9003"},"geometry":{"type":"Polygon","coordinates":[[[100.71957490500006,6.922635760000048],[100.71062874400008,6.959501567000075],[100.67387415300004,6.926166206000062],[100.70339409800005,6.933663945000035],[100.71527626600005,6.877804880000042],[100.72635745300005,6.892936089000045],[100.71957490500006,6.922635760000048]]]}},{"type":"Feature","properties":{"code":"901508","name":"ป่าขาด","parentCode":"9015"},"geometry":{"type":"Polygon","coordinates":[[[100.48326468100004,7.276348664000068],[100.46784673900004,7.283814233000044],[100.43940891300008,7.250350542000035],[100.46220998500007,7.187041116000046],[100.50148067100008,7.247319361000052],[100.48326468100004,7.276348664000068]]]}},{"type":"Feature","properties":{"code":"901007","name":"ปาดังเบซาร์","parentCode":"9010"},"geometry":{"type":"Polygon","coordinates":[[[100.26905090300005,6.780950919000077],[100.21953660200006,6.823510042000066],[100.20589952500006,6.841822556000068],[100.19162110800005,6.8089398780000465],[100.21275848800008,6.768751587000054],[100.20442080600009,6.726748106000059],[100.24032360600006,6.6920583390000274],[100.28957743200004,6.710587861000022],[100.32147255200005,6.632252774000051],[100.34699573700004,6.64813343000003],[100.37458878900009,6.67670574400006],[100.38998926000005,6.69802637600003],[100.33383911500005,6.71439666200007],[100.26905090300005,6.780950919000077]]]}},{"type":"Feature","properties":{"code":"900502","name":"ปากบาง","parentCode":"9005"},"geometry":{"type":"Polygon","coordinates":[[[101.06609815300004,6.857092431000069],[100.96918104400004,6.869728100000032],[100.97518469500005,6.81998373700003],[101.02863443800004,6.7785569740000255],[101.05437259300004,6.801492333000056],[101.06609815300004,6.857092431000069]]]}},{"type":"Feature","properties":{"code":"901507","name":"ปากรอ","parentCode":"9015"},"geometry":{"type":"Polygon","coordinates":[[[100.46784673900004,7.283814233000044],[100.46071719400004,7.298320162000039],[100.42654989300007,7.289512374000026],[100.40863688100006,7.265361569000049],[100.43940891300008,7.250350542000035],[100.46784673900004,7.283814233000044]]]}},{"type":"Feature","properties":{"code":"900707","name":"ปากแตระ","parentCode":"9007"},"geometry":{"type":"Polygon","coordinates":[[[100.37716223300004,7.747586974000058],[100.36764514400005,7.785880176000035],[100.33951277000006,7.783199381000031],[100.35293262700009,7.746854087000031],[100.35851352600008,7.748103416000049],[100.37716223300004,7.747586974000058]]]}},{"type":"Feature","properties":{"code":"901003","name":"พังลา","parentCode":"9010"},"geometry":{"type":"Polygon","coordinates":[[[100.45025308000004,6.835567769000022],[100.43338438100005,6.746768109000072],[100.49696825100006,6.737060915000029],[100.46831748400007,6.815734216000067],[100.45025308000004,6.835567769000022]]]}},{"type":"Feature","properties":{"code":"900708","name":"พังยาง","parentCode":"9007"},"geometry":{"type":"Polygon","coordinates":[[[100.37310722200004,7.695335818000046],[100.35851352600008,7.748103416000049],[100.35293262700009,7.746854087000031],[100.34309595900004,7.717612374000055],[100.35137468300007,7.6906006370000455],[100.37310722200004,7.695335818000046]]]}},{"type":"Feature","properties":{"code":"901118","name":"พะตง","parentCode":"9011"},"geometry":{"type":"Polygon","coordinates":[[[100.58921066300007,6.818594745000041],[100.59205952100007,6.8870584930000405],[100.57344556500004,6.883823802000052],[100.53587589800009,6.878659526000035],[100.46012661200007,6.878784215000053],[100.45025308000004,6.835567769000022],[100.46831748400007,6.815734216000067],[100.58177200000006,6.787416922000034],[100.59617804200008,6.797375922000072],[100.58921066300007,6.818594745000041]]]}},{"type":"Feature","properties":{"code":"900104","name":"พะวง","parentCode":"9001"},"geometry":{"type":"Polygon","coordinates":[[[100.60313533400006,7.127428508000037],[100.57265089100008,7.16882114200007],[100.55492451700007,7.150927190000061],[100.56398215200005,7.093268656000021],[100.60574732200007,7.047880848000034],[100.61397684400004,7.083661644000074],[100.60313533400006,7.127428508000037]]]}},{"type":"Feature","properties":{"code":"901202","name":"พิจิตร","parentCode":"9012"},"geometry":{"type":"Polygon","coordinates":[[[100.63037284800004,7.0186987070000555],[100.60044891700005,7.025066109000022],[100.55807656200005,7.009594777000075],[100.53860950000006,6.986699429000055],[100.54006453000005,6.972994627000048],[100.60193696600004,6.965584755000066],[100.60922283900004,6.966356417000043],[100.61220859000008,6.969099204000031],[100.63037284800004,7.0186987070000555]]]}},{"type":"Feature","properties":{"code":"900603","name":"เปียน","parentCode":"9006"},"geometry":{"type":"Polygon","coordinates":[[[101.00478776900007,6.693809642000076],[100.97205102700008,6.700314782000021],[100.95462524100009,6.632699491000039],[100.98018253400005,6.631200946000035],[101.02963923100003,6.57385776600006],[101.06803516000008,6.583517863000054],[101.02971992200008,6.605793381000069],[101.00478776900007,6.693809642000076]]]}},{"type":"Feature","properties":{"code":"900405","name":"ปลักหนู","parentCode":"9004"},"geometry":{"type":"Polygon","coordinates":[[[100.68434155500006,6.717707895000046],[100.65433237600007,6.715113565000024],[100.63412720700006,6.6480370270000435],[100.66162579000007,6.633873258000051],[100.68495773000006,6.653493259000072],[100.68434155500006,6.717707895000046]]]}},{"type":"Feature","properties":{"code":"900409","name":"ประกอบ","parentCode":"9004"},"geometry":{"type":"Polygon","coordinates":[[[100.72113306800009,6.561688512000046],[100.69366108700007,6.560285521000026],[100.65550070600005,6.5049699250000685],[100.60756259600004,6.508265533000042],[100.60819698400007,6.4723311940000485],[100.65230853200006,6.442930258000047],[100.70891553500007,6.4705008320000275],[100.74023225200006,6.5072861660000285],[100.74867487500006,6.527120818000071],[100.72113306800009,6.561688512000046]]]}},{"type":"Feature","properties":{"code":"901002","name":"ปริก","parentCode":"9010"},"geometry":{"type":"Polygon","coordinates":[[[100.43338438100005,6.746768109000072],[100.41289814400005,6.731644564000021],[100.38998926000005,6.69802637600003],[100.37458878900009,6.67670574400006],[100.43972277500006,6.653602757000044],[100.57077104100006,6.6231958620000455],[100.56466038600007,6.6762447980000275],[100.54501990000006,6.724753848000034],[100.49696825100006,6.737060915000029],[100.43338438100005,6.746768109000072]]]}},{"type":"Feature","properties":{"code":"901504","name":"รำแดง","parentCode":"9015"},"geometry":{"type":"Polygon","coordinates":[[[100.47643939300008,7.317165233000026],[100.46600059000008,7.3276953210000215],[100.46071719400004,7.298320162000039],[100.46784673900004,7.283814233000044],[100.48326468100004,7.276348664000068],[100.49698736300007,7.284483683000076],[100.47643939300008,7.317165233000026]]]}},{"type":"Feature","properties":{"code":"900701","name":"ระโนด","parentCode":"9007"},"geometry":{"type":"Polygon","coordinates":[[[100.33951277000006,7.783199381000031],[100.32476656400007,7.804781276000028],[100.27856570500006,7.7617455300000415],[100.21748083600005,7.721654938000029],[100.21843506600004,7.712163715000031],[100.22005766600006,7.695345519000057],[100.34309595900004,7.717612374000055],[100.35293262700009,7.746854087000031],[100.33951277000006,7.783199381000031]]]}},{"type":"Feature","properties":{"code":"901301","name":"รัตภูมิ","parentCode":"9013"},"geometry":{"type":"Polygon","coordinates":[[[100.46220998500007,7.187041116000046],[100.38856869400007,7.216293958000051],[100.32268765800006,7.22565897100003],[100.34005937000006,7.209041862000049],[100.32481220800008,7.140768973000036],[100.34899227500006,7.12859983200002],[100.40658458400009,7.184614355000065],[100.46220998500007,7.187041116000046]]]}},{"type":"Feature","properties":{"code":"900709","name":"ระวะ","parentCode":"9007"},"geometry":{"type":"Polygon","coordinates":[[[100.37716223300004,7.747586974000058],[100.35851352600008,7.748103416000049],[100.37310722200004,7.695335818000046],[100.39487983900005,7.678813203000061],[100.37716223300004,7.747586974000058]]]}},{"type":"Feature","properties":{"code":"900802","name":"โรง","parentCode":"9008"},"geometry":{"type":"Polygon","coordinates":[[[100.35137468300007,7.6906006370000455],[100.34309595900004,7.717612374000055],[100.22005766600006,7.695345519000057],[100.22616036100004,7.64110482500007],[100.36004641800008,7.646762205000073],[100.35137468300007,7.6906006370000455]]]}},{"type":"Feature","properties":{"code":"900601","name":"สะบ้าย้อย","parentCode":"9006"},"geometry":{"type":"Polygon","coordinates":[[[100.97205102700008,6.700314782000021],[100.95702143600005,6.708095058000026],[100.95484535000008,6.673954914000035],[100.89883416800006,6.635936773000026],[100.89725227400004,6.607962471000064],[100.93378171700004,6.611396321000029],[100.98138350900007,6.558822580000026],[101.02963923100003,6.57385776600006],[100.98018253400005,6.631200946000035],[100.95462524100009,6.632699491000039],[100.97205102700008,6.700314782000021]]]}},{"type":"Feature","properties":{"code":"901001","name":"สะเดา","parentCode":"9010"},"geometry":{"type":"Polygon","coordinates":[[[100.37458878900009,6.67670574400006],[100.34699573700004,6.64813343000003],[100.41925957900008,6.610777883000026],[100.43972277500006,6.653602757000044],[100.37458878900009,6.67670574400006]]]}},{"type":"Feature","properties":{"code":"900304","name":"สะกอม","parentCode":"9003"},"geometry":{"type":"Polygon","coordinates":[[[100.82547617100005,6.951668768000047],[100.77532383400006,6.976723721000042],[100.76131292300005,6.957433884000068],[100.77353376400004,6.904103844000076],[100.81008153500005,6.910105644000055],[100.82547617100005,6.951668768000047]]]}},{"type":"Feature","properties":{"code":"900507","name":"สะกอม","parentCode":"9005"},"geometry":{"type":"Polygon","coordinates":[[[100.89149704500005,6.9235167110000475],[100.84986861800007,6.961436649000063],[100.82547617100005,6.951668768000047],[100.81008153500005,6.910105644000055],[100.79684540500006,6.870781691000047],[100.82246581200008,6.814939056000071],[100.85125608500005,6.834101748000023],[100.85230687900008,6.903038211000023],[100.89149704500005,6.9235167110000475]]]}},{"type":"Feature","properties":{"code":"901008","name":"สำนักขาม","parentCode":"9010"},"geometry":{"type":"Polygon","coordinates":[[[100.34699573700004,6.64813343000003],[100.32147255200005,6.632252774000051],[100.30581921900006,6.611127535000037],[100.35968240500006,6.548205496000037],[100.42359667600005,6.517540420000046],[100.45992447900005,6.5312626270000465],[100.41925957900008,6.610777883000026],[100.34699573700004,6.64813343000003]]]}},{"type":"Feature","properties":{"code":"901004","name":"สำนักแต้ว","parentCode":"9010"},"geometry":{"type":"Polygon","coordinates":[[[100.57077104100006,6.6231958620000455],[100.43972277500006,6.653602757000044],[100.41925957900008,6.610777883000026],[100.45992447900005,6.5312626270000465],[100.51913694400008,6.489184637000051],[100.56135973400006,6.496500387000026],[100.60819698400007,6.4723311940000485],[100.60756259600004,6.508265533000042],[100.59691157600008,6.546552715000075],[100.57147133100005,6.570045336000021],[100.57077104100006,6.6231958620000455]]]}},{"type":"Feature","properties":{"code":"900203","name":"สนามชัย","parentCode":"9002"},"geometry":{"type":"Polygon","coordinates":[[[100.42046553600005,7.569716951000032],[100.40471153600004,7.562424203000035],[100.41152899400004,7.527848669000036],[100.43012812700005,7.531190655000046],[100.42046553600005,7.569716951000032]]]}},{"type":"Feature","properties":{"code":"900303","name":"สะพานไม้แก่น","parentCode":"9003"},"geometry":{"type":"Polygon","coordinates":[[[100.79684540500006,6.870781691000047],[100.74284954100006,6.875502845000028],[100.74499739400005,6.868618070000025],[100.74723070000005,6.815595006000024],[100.80126742800007,6.76782066800007],[100.82246581200008,6.814939056000071],[100.79684540500006,6.870781691000047]]]}},{"type":"Feature","properties":{"code":"901502","name":"สทิงหม้อ","parentCode":"9015"},"geometry":{"type":"Polygon","coordinates":[[[100.54827829900006,7.239837585000032],[100.52184705800005,7.23726913400003],[100.46220998500007,7.187041116000046],[100.55786463100009,7.18169258000006],[100.54827829900006,7.239837585000032]]]}},{"type":"Feature","properties":{"code":"900407","name":"สะท้อน","parentCode":"9004"},"geometry":{"type":"Polygon","coordinates":[[[100.74226917100003,6.660235551000028],[100.68495773000006,6.653493259000072],[100.66162579000007,6.633873258000051],[100.66013782000005,6.628897829000039],[100.70517221100005,6.610078071000032],[100.72113306800009,6.561688512000046],[100.74867487500006,6.527120818000071],[100.78031242000009,6.5700015990000225],[100.76602976700008,6.6154079530000445],[100.81088474700005,6.647120064000035],[100.80553085400004,6.654727182000045],[100.74226917100003,6.660235551000028]]]}},{"type":"Feature","properties":{"code":"900703","name":"ตะเครียะ","parentCode":"9007"},"geometry":{"type":"Polygon","coordinates":[[[100.26783610600006,7.849682314000063],[100.26061293300006,7.902660405000063],[100.23550052700006,7.883047180000062],[100.24825348100006,7.804666921000035],[100.27856570500006,7.7617455300000415],[100.26783610600006,7.849682314000063]]]}},{"type":"Feature","properties":{"code":"900314","name":"ตลิ่งชัน","parentCode":"9003"},"geometry":{"type":"Polygon","coordinates":[[[100.77532383400006,6.976723721000042],[100.74052072700005,7.01190962000004],[100.71527625600004,6.986436557000047],[100.70907483200006,6.968814683000062],[100.71062874400008,6.959501567000075],[100.71957490500006,6.922635760000048],[100.76131292300005,6.957433884000068],[100.77532383400006,6.976723721000042]]]}},{"type":"Feature","properties":{"code":"900704","name":"ท่าบอน","parentCode":"9007"},"geometry":{"type":"Polygon","coordinates":[[[100.36764514400005,7.785880176000035],[100.34307051100006,7.899246515000073],[100.32083373400008,7.879376103000027],[100.31820858900005,7.859965976000069],[100.32476656400007,7.804781276000028],[100.33951277000006,7.783199381000031],[100.36764514400005,7.785880176000035]]]}},{"type":"Feature","properties":{"code":"900902","name":"ท่าชะมวง","parentCode":"9009"},"geometry":{"type":"Polygon","coordinates":[[[100.24725070100004,7.132530583000062],[100.22066267300005,7.192073821000065],[100.17461642000006,7.174775914000065],[100.15632260800004,7.14874855100004],[100.11432726400005,7.166617762000044],[100.05721977100006,7.10757965800002],[100.12990881800005,7.092705353000042],[100.21371774600004,7.11780152700004],[100.22606425300006,7.067875079000032],[100.21038755400008,6.98898796800006],[100.23643957200005,7.005178431000047],[100.24896357700004,7.026590180000028],[100.24725070100004,7.132530583000062]]]}},{"type":"Feature","properties":{"code":"901402","name":"ท่าช้าง","parentCode":"9014"},"geometry":{"type":"Polygon","coordinates":[[[100.43996605300003,7.089170677000027],[100.43567314400008,7.091428757000074],[100.39956252500008,7.085467863000076],[100.33202769700006,7.087845737000066],[100.30295824200005,7.039408641000023],[100.40139666400006,7.009850178000022],[100.39536032100006,6.992506912000067],[100.45202211500003,7.020111654000061],[100.45263298300006,7.027981578000038],[100.43555139000006,7.060975334000034],[100.43996605300003,7.089170677000027]]]}},{"type":"Feature","properties":{"code":"900208","name":"ท่าหิน","parentCode":"9002"},"geometry":{"type":"Polygon","coordinates":[[[100.43756354800007,7.416624802000058],[100.43350471200006,7.42873078100007],[100.38475742200006,7.4192778300000555],[100.40606568400005,7.361804041000028],[100.44557138900007,7.3726127380000435],[100.44636269600005,7.388924264000025],[100.43756354800007,7.416624802000058]]]}},{"type":"Feature","properties":{"code":"901113","name":"ท่าข้าม","parentCode":"9011"},"geometry":{"type":"Polygon","coordinates":[[[100.60574732200007,7.047880848000034],[100.56398215200005,7.093268656000021],[100.54035284900004,7.069139061000044],[100.55807656200005,7.009594777000075],[100.60044891700005,7.025066109000022],[100.60574732200007,7.047880848000034]]]}},{"type":"Feature","properties":{"code":"900309","name":"ท่าหมอไทร","parentCode":"9003"},"geometry":{"type":"Polygon","coordinates":[[[100.74499739400005,6.868618070000025],[100.71388117300006,6.820597067000051],[100.71422570500005,6.806313172000046],[100.71657907700006,6.783320013000036],[100.74661161800003,6.75678390500002],[100.79869020500007,6.749297674000047],[100.80126742800007,6.76782066800007],[100.74723070000005,6.815595006000024],[100.74499739400005,6.868618070000025]]]}},{"type":"Feature","properties":{"code":"900505","name":"ท่าม่วง","parentCode":"9005"},"geometry":{"type":"Polygon","coordinates":[[[101.02863443800004,6.7785569740000255],[100.97518469500005,6.81998373700003],[100.96290093400006,6.806117986000061],[100.95702143600005,6.708095058000026],[100.97205102700008,6.700314782000021],[101.00478776900007,6.693809642000076],[101.05696059300004,6.67753177000003],[101.06058888600006,6.705709648000038],[101.05793308100004,6.70683858700005],[101.01761865100008,6.724940731000061],[101.02882712200005,6.777379366000048],[101.02863443800004,6.7785569740000255]]]}},{"type":"Feature","properties":{"code":"901006","name":"ท่าโพธิ์","parentCode":"9010"},"geometry":{"type":"Polygon","coordinates":[[[100.43236290200008,6.839698564000059],[100.38573772400008,6.82836446400006],[100.37883435200007,6.817347163000022],[100.41289814400005,6.731644564000021],[100.43338438100005,6.746768109000072],[100.45025308000004,6.835567769000022],[100.43236290200008,6.839698564000059]]]}},{"type":"Feature","properties":{"code":"900406","name":"ท่าประดู่","parentCode":"9004"},"geometry":{"type":"Polygon","coordinates":[[[100.74226917100003,6.660235551000028],[100.74526556100005,6.689234828000053],[100.68434155500006,6.717707895000046],[100.68495773000006,6.653493259000072],[100.74226917100003,6.660235551000028]]]}},{"type":"Feature","properties":{"code":"901503","name":"ทำนบ","parentCode":"9015"},"geometry":{"type":"Polygon","coordinates":[[[100.52184705800005,7.23726913400003],[100.49698736300007,7.284483683000076],[100.48326468100004,7.276348664000068],[100.50148067100008,7.247319361000052],[100.46220998500007,7.187041116000046],[100.52184705800005,7.23726913400003]]]}},{"type":"Feature","properties":{"code":"900609","name":"ธารคีรี","parentCode":"9006"},"geometry":{"type":"Polygon","coordinates":[[[101.06379754400007,6.542556894000029],[101.09021512400005,6.608214353000051],[101.08948753200008,6.609130030000074],[101.06803516000008,6.583517863000054],[101.02963923100003,6.57385776600006],[100.98138350900007,6.558822580000026],[101.01448222500005,6.484531954000033],[101.03467357500006,6.485744666000073],[101.06379754400007,6.542556894000029]]]}},{"type":"Feature","properties":{"code":"900408","name":"ทับช้าง","parentCode":"9004"},"geometry":{"type":"Polygon","coordinates":[[[100.66013782000005,6.628897829000039],[100.59691157600008,6.546552715000075],[100.60756259600004,6.508265533000042],[100.65550070600005,6.5049699250000685],[100.69366108700007,6.560285521000026],[100.72113306800009,6.561688512000046],[100.70517221100005,6.610078071000032],[100.66013782000005,6.628897829000039]]]}},{"type":"Feature","properties":{"code":"900501","name":"เทพา","parentCode":"9005"},"geometry":{"type":"Polygon","coordinates":[[[100.96918104400004,6.869728100000032],[100.93042684000005,6.89271545500003],[100.94089579400008,6.852607920000025],[100.90220341400004,6.820966500000054],[100.90736229800007,6.789406533000033],[100.94409282300006,6.774667116000046],[100.96290093400006,6.806117986000061],[100.97518469500005,6.81998373700003],[100.96918104400004,6.869728100000032]]]}},{"type":"Feature","properties":{"code":"901203","name":"ทุ่งขมิ้น","parentCode":"9012"},"geometry":{"type":"Polygon","coordinates":[[[100.56188440400007,6.957116468000038],[100.51950081900009,6.945181751000064],[100.53587589800009,6.878659526000035],[100.57344556500004,6.883823802000052],[100.56188440400007,6.957116468000038]]]}},{"type":"Feature","properties":{"code":"901602","name":"ทุ่งลาน","parentCode":"9016"},"geometry":{"type":"Polygon","coordinates":[[[100.44078336900009,6.938285389000043],[100.41560283400008,6.934193791000041],[100.43236290200008,6.839698564000059],[100.45025308000004,6.835567769000022],[100.46012661200007,6.878784215000053],[100.44078336900009,6.938285389000043]]]}},{"type":"Feature","properties":{"code":"901005","name":"ทุ่งหมอ","parentCode":"9010"},"geometry":{"type":"Polygon","coordinates":[[[100.37883435200007,6.817347163000022],[100.35492989500005,6.782913525000026],[100.26905090300005,6.780950919000077],[100.33383911500005,6.71439666200007],[100.38998926000005,6.69802637600003],[100.41289814400005,6.731644564000021],[100.37883435200007,6.817347163000022]]]}},{"type":"Feature","properties":{"code":"900602","name":"ทุ่งพอ","parentCode":"9006"},"geometry":{"type":"Polygon","coordinates":[[[100.98138350900007,6.558822580000026],[100.93378171700004,6.611396321000029],[100.89725227400004,6.607962471000064],[100.86047838000007,6.561953800000026],[100.84014759500008,6.500438424000038],[100.85215032700006,6.468211103000044],[100.90682323700008,6.4949317190000215],[100.93284483600007,6.549142773000028],[100.98138350900007,6.558822580000026]]]}},{"type":"Feature","properties":{"code":"901112","name":"ทุ่งตำเสา","parentCode":"9011"},"geometry":{"type":"Polygon","coordinates":[[[100.36732966600005,6.986323495000022],[100.27804553400006,6.976989998000022],[100.25469914800004,6.9405303430000345],[100.19088698500008,6.948299212000052],[100.20716119800005,6.8957554890000665],[100.21070776000005,6.846148592000077],[100.24756096500005,6.8483566920000385],[100.27354081400006,6.885969682000052],[100.34271481300004,6.92732851300002],[100.40217192800009,6.940544727000031],[100.36732966600005,6.986323495000022]]]}},{"type":"Feature","properties":{"code":"900105","name":"ทุ่งหวัง","parentCode":"9001"},"geometry":{"type":"Polygon","coordinates":[[[100.66581569100003,7.0840018090000285],[100.61397684400004,7.083661644000074],[100.60574732200007,7.047880848000034],[100.60044891700005,7.025066109000022],[100.63037284800004,7.0186987070000555],[100.66716033700004,7.052379750000057],[100.66581569100003,7.0840018090000285]]]}},{"type":"Feature","properties":{"code":"901111","name":"ทุ่งใหญ่","parentCode":"9011"},"geometry":{"type":"Polygon","coordinates":[[[100.55807656200005,7.009594777000075],[100.54035284900004,7.069139061000044],[100.50963694200004,7.056113838000044],[100.53860950000006,6.986699429000055],[100.55807656200005,7.009594777000075]]]}},{"type":"Feature","properties":{"code":"900506","name":"วังใหญ่","parentCode":"9005"},"geometry":{"type":"Polygon","coordinates":[[[100.90736229800007,6.789406533000033],[100.85125608500005,6.834101748000023],[100.82246581200008,6.814939056000071],[100.80126742800007,6.76782066800007],[100.79869020500007,6.749297674000047],[100.83131309800007,6.715757627000073],[100.87508462700004,6.707351936000066],[100.90434515000004,6.737777703000063],[100.90736229800007,6.789406533000033]]]}},{"type":"Feature","properties":{"code":"900209","name":"วัดจันทร์","parentCode":"9002"},"geometry":{"type":"Polygon","coordinates":[[[100.47262117900004,7.397459800000036],[100.44636269600005,7.388924264000025],[100.44557138900007,7.3726127380000435],[100.44773775800007,7.366493912000067],[100.48108173800006,7.3762909750000745],[100.47262117900004,7.397459800000036]]]}},{"type":"Feature","properties":{"code":"901505","name":"วัดขนุน","parentCode":"9015"},"geometry":{"type":"Polygon","coordinates":[[[100.52025503300007,7.2960829860000445],[100.50421000400007,7.3256226060000245],[100.47643939300008,7.317165233000026],[100.49698736300007,7.284483683000076],[100.52025503300007,7.2960829860000445]]]}},{"type":"Feature","properties":{"code":"900710","name":"วัดสน","parentCode":"9007"},"geometry":{"type":"Polygon","coordinates":[[[100.39487983900005,7.678813203000061],[100.37310722200004,7.695335818000046],[100.35137468300007,7.6906006370000455],[100.36004641800008,7.646762205000073],[100.36162651100005,7.641953966000074],[100.39757978600005,7.666867348000039],[100.39487983900005,7.678813203000061]]]}}]}