{"type":"FeatureCollection","features":[{"type":"Feature","properties":{"code":"910104","name":"บ้านควน","parentCode":"9101"},"geometry":{"type":"Polygon","coordinates":[[[100.07281623800009,6.672248385000046],[100.08061948900007,6.712573206000059],[100.01708984400005,6.702329915000064],[100.03086445300005,6.679147067000031],[100.06616962200007,6.650276530000042],[100.07281623800009,6.672248385000046]]]}},{"type":"Feature","properties":{"code":"910105","name":"ฉลุง","parentCode":"9101"},"geometry":{"type":"Polygon","coordinates":[[[100.07840792100006,6.741735280000057],[100.05383548200007,6.753848752000067],[99.99040692800008,6.733622945000036],[100.01708984400005,6.702329915000064],[100.08061948900007,6.712573206000059],[100.07845689000004,6.72361230000007],[100.07840792100006,6.741735280000057]]]}},{"type":"Feature","properties":{"code":"910108","name":"เจ๊ะบิลัง","parentCode":"9101"},"geometry":{"type":"Polygon","coordinates":[[[99.97852559400008,6.7533564350000574],[99.94797429200008,6.745478708000064],[99.91283466100003,6.724147022000068],[99.91997511300008,6.676223332000063],[99.97371983800008,6.629174094000064],[100.00754526900005,6.641503433000025],[100.03086445300005,6.679147067000031],[100.01708984400005,6.702329915000064],[99.99040692800008,6.733622945000036],[99.97852559400008,6.7533564350000574]]]}},{"type":"Feature","properties":{"code":"910501","name":"กำแพง","parentCode":"9105"},"geometry":{"type":"Polygon","coordinates":[[[99.80385404000003,7.004635350000058],[99.78363189900006,7.012168605000056],[99.79190913700006,6.983748959000025],[99.74563428000005,6.957243953000045],[99.72136341300006,6.895617120000054],[99.76866265400008,6.875127356000064],[99.81050193100003,6.908497071000056],[99.81909844100005,6.983570193000048],[99.80385404000003,7.004635350000058]]]}},{"type":"Feature","properties":{"code":"910112","name":"เกตรี","parentCode":"9101"},"geometry":{"type":"Polygon","coordinates":[[[100.11889719300007,6.7221330290000765],[100.07845689000004,6.72361230000007],[100.08061948900007,6.712573206000059],[100.07281623800009,6.672248385000046],[100.17914878200008,6.683107481000036],[100.12595324700004,6.691382890000057],[100.11889719300007,6.7221330290000765]]]}},{"type":"Feature","properties":{"code":"910503","name":"เขาขาว","parentCode":"9105"},"geometry":{"type":"Polygon","coordinates":[[[99.85791119700008,6.9223654050000505],[99.81909844100005,6.983570193000048],[99.81050193100003,6.908497071000056],[99.86036893100004,6.9143708880000645],[99.85791119700008,6.9223654050000505]]]}},{"type":"Feature","properties":{"code":"910102","name":"คลองขุด","parentCode":"9101"},"geometry":{"type":"Polygon","coordinates":[[[100.17914878200008,6.683107481000036],[100.07281623800009,6.672248385000046],[100.06616962200007,6.650276530000042],[100.06026875900005,6.633915608000052],[100.09510865000004,6.6220318320000615],[100.05998990000006,6.597726709000028],[100.04984308000007,6.576666980000027],[100.07833287800008,6.557658180000033],[100.08023857500007,6.557473099000049],[100.11756135500008,6.5941424050000705],[100.15836179900003,6.569482438000023],[100.18296178200006,6.573496453000075],[100.16757352900004,6.64803310800005],[100.17914878200008,6.683107481000036]]]}},{"type":"Feature","properties":{"code":"910603","name":"ขอนคลาน","parentCode":"9106"},"geometry":{"type":"Polygon","coordinates":[[[99.71169262600006,6.997640145000048],[99.69991813500008,7.015784672000052],[99.68343000300007,7.013964619000035],[99.68803674500003,6.971805391000032],[99.71169262600006,6.997640145000048]]]}},{"type":"Feature","properties":{"code":"910201","name":"ควนโดน","parentCode":"9102"},"geometry":{"type":"Polygon","coordinates":[[[100.08074504400008,6.840991674000065],[99.99777560300004,6.820610975000022],[100.00692025700005,6.805332878000058],[100.04489156100004,6.786562188000062],[100.07712003400007,6.780408587000068],[100.12399777500008,6.811076662000062],[100.12856194800008,6.816599660000065],[100.08074504400008,6.840991674000065]]]}},{"type":"Feature","properties":{"code":"910302","name":"ควนกาหลง","parentCode":"9103"},"geometry":{"type":"Polygon","coordinates":[[[100.05721977100006,7.10757965800002],[100.02822832700008,7.090332414000045],[99.99216811600007,7.066927777000046],[99.97231284900005,7.041976335000072],[99.98160935400006,6.986990152000033],[100.00126422400007,6.948569937000059],[99.99439823500006,6.90020221900005],[99.96306911600004,6.865371563000053],[99.96052811400006,6.846640844000035],[99.99777560300004,6.820610975000022],[100.08074504400008,6.840991674000065],[100.06710658200006,6.937576805000049],[100.07903057400006,6.963249835000056],[100.05721977100006,7.10757965800002]]]}},{"type":"Feature","properties":{"code":"910103","name":"ควนขัน","parentCode":"9101"},"geometry":{"type":"Polygon","coordinates":[[[100.06616962200007,6.650276530000042],[100.03086445300005,6.679147067000031],[100.00754526900005,6.641503433000025],[100.02602999300007,6.605653006000068],[100.04984308000007,6.576666980000027],[100.05998990000006,6.597726709000028],[100.06026875900005,6.633915608000052],[100.06616962200007,6.650276530000042]]]}},{"type":"Feature","properties":{"code":"910111","name":"ควนโพธิ์","parentCode":"9101"},"geometry":{"type":"Polygon","coordinates":[[[100.04489156100004,6.786562188000062],[100.00692025700005,6.805332878000058],[99.97852559400008,6.7533564350000574],[99.99040692800008,6.733622945000036],[100.05383548200007,6.753848752000067],[100.04489156100004,6.786562188000062]]]}},{"type":"Feature","properties":{"code":"910202","name":"ควนสตอ","parentCode":"9102"},"geometry":{"type":"Polygon","coordinates":[[[100.11889719300007,6.7221330290000765],[100.12399777500008,6.811076662000062],[100.07712003400007,6.780408587000068],[100.07840792100006,6.741735280000057],[100.07845689000004,6.72361230000007],[100.11889719300007,6.7221330290000765]]]}},{"type":"Feature","properties":{"code":"910106","name":"เกาะสาหร่าย","parentCode":"9101"},"geometry":{"type":"MultiPolygon","coordinates":[[[[99.29285782700003,6.56696011300005],[99.28406755100008,6.508376588000033],[99.31342340900005,6.509402120000061],[99.32560160300005,6.551393999000027],[99.29285782700003,6.56696011300005]]],[[[99.24969917200008,6.581762883000067],[99.19219890900007,6.5760384550000595],[99.17938703700008,6.546084957000062],[99.21781077800006,6.5380306970000674],[99.24969917200008,6.581762883000067]]],[[[99.65886536900007,6.72096754100005],[99.61467938200008,6.660945457000025],[99.59564262900005,6.598117567000031],[99.65332964100008,6.503883118000033],[99.69789449500007,6.542988628000046],[99.67772901100005,6.630705162000027],[99.68415355400003,6.685013642000058],[99.65886536900007,6.72096754100005]]]]}},{"type":"Feature","properties":{"code":"910502","name":"ละงู","parentCode":"9105"},"geometry":{"type":"Polygon","coordinates":[[[99.86036893100004,6.9143708880000645],[99.81050193100003,6.908497071000056],[99.76866265400008,6.875127356000064],[99.76965324700006,6.841018588000054],[99.80680986000004,6.774054389000071],[99.84008843400005,6.779013131000056],[99.83705781500004,6.820709767000039],[99.88617912900008,6.849324441000022],[99.88748106500003,6.850469749000069],[99.88314800800003,6.869423793000067],[99.86516198900006,6.911719468000058],[99.86036893100004,6.9143708880000645]]]}},{"type":"Feature","properties":{"code":"910506","name":"แหลมสน","parentCode":"9105"},"geometry":{"type":"Polygon","coordinates":[[[99.74563428000005,6.957243953000045],[99.71169262600006,6.997640145000048],[99.68803674500003,6.971805391000032],[99.68484929700008,6.90727666500004],[99.72136341300006,6.895617120000054],[99.74563428000005,6.957243953000045]]]}},{"type":"Feature","properties":{"code":"910602","name":"นาทอน","parentCode":"9106"},"geometry":{"type":"Polygon","coordinates":[[[99.73426375600008,7.1093003990000625],[99.70169157400005,7.066519561000064],[99.69991813500008,7.015784672000052],[99.71169262600006,6.997640145000048],[99.74563428000005,6.957243953000045],[99.79190913700006,6.983748959000025],[99.78363189900006,7.012168605000056],[99.75583600800007,7.07963679300002],[99.73426375600008,7.1093003990000625]]]}},{"type":"Feature","properties":{"code":"910505","name":"น้ำผุด","parentCode":"9105"},"geometry":{"type":"Polygon","coordinates":[[[99.89496173000003,6.985106023000071],[99.87445179000008,7.079448073000037],[99.86910586600004,7.077792806000048],[99.87433347500007,7.034789635000038],[99.80385404000003,7.004635350000058],[99.81909844100005,6.983570193000048],[99.85791119700008,6.9223654050000505],[99.89496173000003,6.985106023000071]]]}},{"type":"Feature","properties":{"code":"910702","name":"นิคมพัฒนา","parentCode":"9107"},"geometry":{"type":"Polygon","coordinates":[[[99.98160935400006,6.986990152000033],[99.92812793000007,6.971180738000044],[99.89496173000003,6.985106023000071],[99.85791119700008,6.9223654050000505],[99.86036893100004,6.9143708880000645],[99.86516198900006,6.911719468000058],[100.00126422400007,6.948569937000059],[99.98160935400006,6.986990152000033]]]}},{"type":"Feature","properties":{"code":"910605","name":"ป่าแก่บ่อหิน","parentCode":"9106"},"geometry":{"type":"Polygon","coordinates":[[[99.86910586600004,7.077792806000048],[99.75583600800007,7.07963679300002],[99.78363189900006,7.012168605000056],[99.80385404000003,7.004635350000058],[99.87433347500007,7.034789635000038],[99.86910586600004,7.077792806000048]]]}},{"type":"Feature","properties":{"code":"910402","name":"แป-ระ","parentCode":"9104"},"geometry":{"type":"Polygon","coordinates":[[[99.96306911600004,6.865371563000053],[99.88314800800003,6.869423793000067],[99.88748106500003,6.850469749000069],[99.94653227800006,6.823485199000061],[99.96052811400006,6.846640844000035],[99.96306911600004,6.865371563000053]]]}},{"type":"Feature","properties":{"code":"910504","name":"ปากน้ำ","parentCode":"9105"},"geometry":{"type":"Polygon","coordinates":[[[99.72136341300006,6.895617120000054],[99.68484929700008,6.90727666500004],[99.69716274400008,6.855852844000026],[99.76965324700006,6.841018588000054],[99.76866265400008,6.875127356000064],[99.72136341300006,6.895617120000054]]]}},{"type":"Feature","properties":{"code":"910701","name":"ปาล์มพัฒนา","parentCode":"9107"},"geometry":{"type":"Polygon","coordinates":[[[99.99216811600007,7.066927777000046],[99.94812364200004,7.101188786000023],[99.87445179000008,7.079448073000037],[99.89496173000003,6.985106023000071],[99.92812793000007,6.971180738000044],[99.98160935400006,6.986990152000033],[99.97231284900005,7.041976335000072],[99.99216811600007,7.066927777000046]]]}},{"type":"Feature","properties":{"code":"910101","name":"พิมาน","parentCode":"9101"},"geometry":{"type":"Polygon","coordinates":[[[100.06026875900005,6.633915608000052],[100.05998990000006,6.597726709000028],[100.09510865000004,6.6220318320000615],[100.06026875900005,6.633915608000052]]]}},{"type":"Feature","properties":{"code":"910110","name":"ปูยู","parentCode":"9101"},"geometry":{"type":"Polygon","coordinates":[[[100.15836179900003,6.569482438000023],[100.11756135500008,6.5941424050000705],[100.08023857500007,6.557473099000049],[100.12077593200007,6.422715688000039],[100.15799077100007,6.47905944300004],[100.15836179900003,6.569482438000023]]]}},{"type":"Feature","properties":{"code":"910403","name":"สาคร","parentCode":"9104"},"geometry":{"type":"Polygon","coordinates":[[[99.88617912900008,6.849324441000022],[99.83705781500004,6.820709767000039],[99.84008843400005,6.779013131000056],[99.87758672700005,6.720800705000045],[99.91283466100003,6.724147022000068],[99.94797429200008,6.745478708000064],[99.90570036800005,6.756582808000076],[99.88617912900008,6.849324441000022]]]}},{"type":"Feature","properties":{"code":"910109","name":"ตำมะลัง","parentCode":"9101"},"geometry":{"type":"Polygon","coordinates":[[[100.04984308000007,6.576666980000027],[100.02602999300007,6.605653006000068],[100.01099863700006,6.557525216000045],[100.06442821100006,6.5162643550000325],[100.07833287800008,6.557658180000033],[100.04984308000007,6.576666980000027]]]}},{"type":"Feature","properties":{"code":"910107","name":"ตันหยงโป","parentCode":"9101"},"geometry":{"type":"Polygon","coordinates":[[[100.00754526900005,6.641503433000025],[99.97371983800008,6.629174094000064],[99.94856827800004,6.590666360000057],[99.98963298000007,6.594644151000068],[100.01099863700006,6.557525216000045],[100.02602999300007,6.605653006000068],[100.00754526900005,6.641503433000025]]]}},{"type":"Feature","properties":{"code":"910401","name":"ท่าแพ","parentCode":"9104"},"geometry":{"type":"Polygon","coordinates":[[[99.99777560300004,6.820610975000022],[99.96052811400006,6.846640844000035],[99.94653227800006,6.823485199000061],[99.90570036800005,6.756582808000076],[99.94797429200008,6.745478708000064],[99.97852559400008,6.7533564350000574],[100.00692025700005,6.805332878000058],[99.99777560300004,6.820610975000022]]]}},{"type":"Feature","properties":{"code":"910404","name":"ท่าเรือ","parentCode":"9104"},"geometry":{"type":"Polygon","coordinates":[[[99.94653227800006,6.823485199000061],[99.88748106500003,6.850469749000069],[99.88617912900008,6.849324441000022],[99.90570036800005,6.756582808000076],[99.94653227800006,6.823485199000061]]]}},{"type":"Feature","properties":{"code":"910604","name":"ทุ่งบุหลัง","parentCode":"9106"},"geometry":{"type":"Polygon","coordinates":[[[99.70169157400005,7.066519561000064],[99.66990214700007,7.040738822000037],[99.68343000300007,7.013964619000035],[99.69991813500008,7.015784672000052],[99.70169157400005,7.066519561000064]]]}},{"type":"Feature","properties":{"code":"910301","name":"ทุ่งนุ้ย","parentCode":"9103"},"geometry":{"type":"Polygon","coordinates":[[[100.20716119800005,6.8957554890000665],[100.12174551000004,6.923864598000023],[100.07903057400006,6.963249835000056],[100.06710658200006,6.937576805000049],[100.08074504400008,6.840991674000065],[100.12856194800008,6.816599660000065],[100.19162110800005,6.8089398780000465],[100.20589952500006,6.841822556000068],[100.21070776000005,6.846148592000077],[100.20716119800005,6.8957554890000665]]]}},{"type":"Feature","properties":{"code":"910601","name":"ทุ่งหว้า","parentCode":"9106"},"geometry":{"type":"Polygon","coordinates":[[[99.95808786500004,7.199451934000024],[99.94856212600007,7.203698755000062],[99.89989643000007,7.188720561000025],[99.83126926700004,7.138032037000073],[99.73933561800004,7.131864303000043],[99.73426375600008,7.1093003990000625],[99.75583600800007,7.07963679300002],[99.86910586600004,7.077792806000048],[99.87445179000008,7.079448073000037],[99.94812364200004,7.101188786000023],[99.99216811600007,7.066927777000046],[100.02822832700008,7.090332414000045],[100.00031215300004,7.112109063000048],[99.95808786500004,7.199451934000024]]]}},{"type":"Feature","properties":{"code":"910303","name":"อุใดเจริญ","parentCode":"9103"},"geometry":{"type":"Polygon","coordinates":[[[99.96306911600004,6.865371563000053],[99.99439823500006,6.90020221900005],[100.00126422400007,6.948569937000059],[99.86516198900006,6.911719468000058],[99.88314800800003,6.869423793000067],[99.96306911600004,6.865371563000053]]]}},{"type":"Feature","properties":{"code":"910204","name":"วังประจัน","parentCode":"9102"},"geometry":{"type":"Polygon","coordinates":[[[100.19162110800005,6.8089398780000465],[100.12856194800008,6.816599660000065],[100.12399777500008,6.811076662000062],[100.11889719300007,6.7221330290000765],[100.12595324700004,6.691382890000057],[100.17914878200008,6.683107481000036],[100.20442080600009,6.726748106000059],[100.21275848800008,6.768751587000054],[100.19162110800005,6.8089398780000465]]]}},{"type":"Feature","properties":{"code":"910203","name":"ย่านซื่อ","parentCode":"9102"},"geometry":{"type":"Polygon","coordinates":[[[100.07712003400007,6.780408587000068],[100.04489156100004,6.786562188000062],[100.05383548200007,6.753848752000067],[100.07840792100006,6.741735280000057],[100.07712003400007,6.780408587000068]]]}}]}