{"type":"FeatureCollection","features":[{"type":"Feature","properties":{"code":"920703","name":"อ่าวตง","parentCode":"9207"},"geometry":{"type":"Polygon","coordinates":[[[99.43596893300008,7.87465885000006],[99.41985965100008,7.920485626000072],[99.36522460200007,7.944966600000043],[99.33377463700003,7.9287921000000665],[99.33204413800007,7.883030832000031],[99.28751684400004,7.859115741000039],[99.29420194100004,7.825097650000032],[99.33593390300007,7.823057759000051],[99.36043593200009,7.77684692400004],[99.42461081500005,7.796942104000038],[99.42507448700007,7.844859453000026],[99.44582912900006,7.845116540000049],[99.43596893300008,7.87465885000006]]]}},{"type":"Feature","properties":{"code":"921002","name":"บ้าหวี","parentCode":"9210"},"geometry":{"type":"Polygon","coordinates":[[[99.64168866500006,7.2795328350000545],[99.56801660600007,7.321111064000036],[99.55444220700008,7.3026915110000346],[99.55373282100004,7.295461455000066],[99.60762152500007,7.226394953000067],[99.61945198900008,7.2192772450000575],[99.64168866500006,7.2795328350000545]]]}},{"type":"Feature","properties":{"code":"920105","name":"บ้านควน","parentCode":"9201"},"geometry":{"type":"Polygon","coordinates":[[[99.64613310100003,7.562109578000047],[99.63661976700007,7.558806723000032],[99.62604863500007,7.54016828400006],[99.63278289100003,7.496812169000066],[99.65086767300005,7.515985665000073],[99.64711176900005,7.55885304800006],[99.64613310100003,7.562109578000047]]]}},{"type":"Feature","properties":{"code":"920407","name":"บ้านนา","parentCode":"9204"},"geometry":{"type":"Polygon","coordinates":[[[99.64795811600004,7.334870121000051],[99.58071182200007,7.3615131300000485],[99.56801660600007,7.321111064000036],[99.64168866500006,7.2795328350000545],[99.69589192000007,7.265467840000042],[99.73219310800005,7.29244923300007],[99.74220564200004,7.306202087000031],[99.68561150600004,7.3365238750000685],[99.64795811600004,7.334870121000051]]]}},{"type":"Feature","properties":{"code":"920118","name":"บ้านโพธิ์","parentCode":"9201"},"geometry":{"type":"Polygon","coordinates":[[[99.66913300400006,7.62588407100003],[99.65538885800004,7.637074127000062],[99.61364529300005,7.605440957000042],[99.62284794100003,7.582970981000074],[99.63661976700007,7.558806723000032],[99.64613310100003,7.562109578000047],[99.66411588200003,7.579710264000028],[99.66913300400006,7.62588407100003]]]}},{"type":"Feature","properties":{"code":"920605","name":"บางดี","parentCode":"9206"},"geometry":{"type":"Polygon","coordinates":[[[99.53369371300005,7.877888207000069],[99.47219858400007,7.9042069000000765],[99.43596893300008,7.87465885000006],[99.44582912900006,7.845116540000049],[99.51387465200008,7.768923935000032],[99.52368216600007,7.7873982770000225],[99.54186931500004,7.841028122000068],[99.54609057100004,7.859604860000047],[99.53369371300005,7.877888207000069]]]}},{"type":"Feature","properties":{"code":"920404","name":"บางด้วน","parentCode":"9204"},"geometry":{"type":"Polygon","coordinates":[[[99.75335592300007,7.346347953000077],[99.69968912400009,7.365382829000055],[99.68561150600004,7.3365238750000685],[99.74220564200004,7.306202087000031],[99.75335592300007,7.346347953000077]]]}},{"type":"Feature","properties":{"code":"920606","name":"บางกุ้ง","parentCode":"9206"},"geometry":{"type":"Polygon","coordinates":[[[99.42507448700007,7.844859453000026],[99.42461081500005,7.796942104000038],[99.45268824900006,7.739117835000059],[99.46535083600008,7.729405798000073],[99.49348513300004,7.755594629000029],[99.46109431500008,7.7716147840000644],[99.42507448700007,7.844859453000026]]]}},{"type":"Feature","properties":{"code":"920203","name":"บางหมาก","parentCode":"9202"},"geometry":{"type":"Polygon","coordinates":[[[99.60972844800006,7.479547859000036],[99.59437376800008,7.503037271000039],[99.55028514500003,7.485124818000031],[99.53689673900004,7.448192956000071],[99.56103062900007,7.433484366000073],[99.60972844800006,7.479547859000036]]]}},{"type":"Feature","properties":{"code":"920204","name":"บางเป้า","parentCode":"9202"},"geometry":{"type":"Polygon","coordinates":[[[99.56103062900007,7.433484366000073],[99.53689673900004,7.448192956000071],[99.51694696300007,7.434293167000021],[99.51259197200005,7.421337624000046],[99.52517195600007,7.395868112000073],[99.52918787000004,7.375547715000039],[99.55764930700008,7.399311305000026],[99.56103062900007,7.433484366000073]]]}},{"type":"Feature","properties":{"code":"920109","name":"บางรัก","parentCode":"9201"},"geometry":{"type":"Polygon","coordinates":[[[99.59781436800006,7.562565712000037],[99.57156395600003,7.573595638000029],[99.55348544700007,7.5655745340000635],[99.56883446100005,7.5401215120000415],[99.58935430700006,7.543255846000022],[99.59781436800006,7.562565712000037]]]}},{"type":"Feature","properties":{"code":"920211","name":"บางสัก","parentCode":"9202"},"geometry":{"type":"Polygon","coordinates":[[[99.42740603400006,7.47977701700006],[99.38949338600008,7.474298936000025],[99.35078091300005,7.400263464000034],[99.37756219400006,7.342015067000034],[99.43289847400007,7.3483614230000285],[99.48389068200004,7.37537177400003],[99.43688568700009,7.397972526000046],[99.44259222000005,7.467543360000036],[99.42740603400006,7.47977701700006]]]}},{"type":"Feature","properties":{"code":"920501","name":"บ่อหิน","parentCode":"9205"},"geometry":{"type":"Polygon","coordinates":[[[99.36405268700008,7.644577801000025],[99.30261699200008,7.606799005000028],[99.28205666100007,7.618889548000027],[99.31315797400003,7.538497516000064],[99.41209351000003,7.58014266400005],[99.41098378900006,7.586962928000048],[99.40552647100009,7.608956005000039],[99.36438906800004,7.6028865220000625],[99.36405268700008,7.644577801000025]]]}},{"type":"Feature","properties":{"code":"920210","name":"บ่อน้ำร้อน","parentCode":"9202"},"geometry":{"type":"Polygon","coordinates":[[[99.51446283600006,7.4375501270000655],[99.45859091600005,7.471388755000021],[99.44259222000005,7.467543360000036],[99.43688568700009,7.397972526000046],[99.48389068200004,7.37537177400003],[99.50614768500009,7.407321969000066],[99.51259197200005,7.421337624000046],[99.51694696300007,7.434293167000021],[99.51446283600006,7.4375501270000655]]]}},{"type":"Feature","properties":{"code":"920802","name":"ช่อง","parentCode":"9208"},"geometry":{"type":"Polygon","coordinates":[[[99.80066455200006,7.597793920000072],[99.75606823900006,7.573035206000043],[99.75201334400003,7.539372183000069],[99.74995473500007,7.5323996260000285],[99.75445952800004,7.486348274000022],[99.82064834300007,7.518871703000059],[99.83726114800004,7.541306658000053],[99.80066455200006,7.597793920000072]]]}},{"type":"Feature","properties":{"code":"921001","name":"หาดสำราญ","parentCode":"9210"},"geometry":{"type":"Polygon","coordinates":[[[99.60762152500007,7.226394953000067],[99.55373282100004,7.295461455000066],[99.53533181600005,7.287531280000053],[99.52235044700006,7.249726210000063],[99.55320548400005,7.214630009000075],[99.60762152500007,7.226394953000067]]]}},{"type":"Feature","properties":{"code":"920617","name":"ห้วยนาง","parentCode":"9206"},"geometry":{"type":"Polygon","coordinates":[[[99.60904924400006,7.911825587000067],[99.56258753800006,7.9250660440000615],[99.54198529400009,7.908980290000045],[99.53369371300005,7.877888207000069],[99.54609057100004,7.859604860000047],[99.61496811700005,7.870086181000033],[99.60904924400006,7.911825587000067]]]}},{"type":"Feature","properties":{"code":"920601","name":"ห้วยยอด","parentCode":"9206"},"geometry":{"type":"Polygon","coordinates":[[[99.63816429400003,7.798032655000043],[99.60108426300008,7.792368466000028],[99.60047931400004,7.7671939770000336],[99.64534142200006,7.750693951000073],[99.66832417800003,7.777016480000043],[99.63816429400003,7.798032655000043]]]}},{"type":"Feature","properties":{"code":"920503","name":"กะลาเส","parentCode":"9205"},"geometry":{"type":"Polygon","coordinates":[[[99.36043593200009,7.77684692400004],[99.33593390300007,7.823057759000051],[99.29420194100004,7.825097650000032],[99.28714729400008,7.810054884000067],[99.30553006900004,7.755999513000063],[99.29627246700005,7.688757623000072],[99.28220906600006,7.660894042000052],[99.36706389400007,7.671132792000037],[99.35481405000007,7.7468870870000615],[99.36043593200009,7.77684692400004]]]}},{"type":"Feature","properties":{"code":"920201","name":"กันตัง","parentCode":"9202"},"geometry":{"type":"Polygon","coordinates":[[[99.52517195600007,7.395868112000073],[99.51259197200005,7.421337624000046],[99.50614768500009,7.407321969000066],[99.52517195600007,7.395868112000073]]]}},{"type":"Feature","properties":{"code":"920206","name":"กันตังใต้","parentCode":"9202"},"geometry":{"type":"Polygon","coordinates":[[[99.52517195600007,7.395868112000073],[99.50614768500009,7.407321969000066],[99.48389068200004,7.37537177400003],[99.49852297300004,7.308198055000048],[99.53533181600005,7.287531280000053],[99.55373282100004,7.295461455000066],[99.55444220700008,7.3026915110000346],[99.52918787000004,7.375547715000039],[99.52517195600007,7.395868112000073]]]}},{"type":"Feature","properties":{"code":"920608","name":"เขาขาว","parentCode":"9206"},"geometry":{"type":"Polygon","coordinates":[[[99.63227337100005,7.829802359000041],[99.60450079900005,7.818286127000022],[99.59526280500006,7.7932915840000305],[99.60108426300008,7.792368466000028],[99.63816429400003,7.798032655000043],[99.63227337100005,7.829802359000041]]]}},{"type":"Feature","properties":{"code":"920607","name":"เขากอบ","parentCode":"9206"},"geometry":{"type":"Polygon","coordinates":[[[99.60450079900005,7.818286127000022],[99.54186931500004,7.841028122000068],[99.52368216600007,7.7873982770000225],[99.53789709500006,7.766458688000057],[99.59526280500006,7.7932915840000305],[99.60450079900005,7.818286127000022]]]}},{"type":"Feature","properties":{"code":"920502","name":"เขาไม้แก้ว","parentCode":"9205"},"geometry":{"type":"Polygon","coordinates":[[[99.29627246700005,7.688757623000072],[99.25947516700006,7.657362437000074],[99.28205666100007,7.618889548000027],[99.30261699200008,7.606799005000028],[99.36405268700008,7.644577801000025],[99.36706389400007,7.671132792000037],[99.28220906600006,7.660894042000052],[99.29627246700005,7.688757623000072]]]}},{"type":"Feature","properties":{"code":"920905","name":"เขาไพร","parentCode":"9209"},"geometry":{"type":"Polygon","coordinates":[[[99.73048329100004,7.952916886000025],[99.65127294800004,7.972531074000074],[99.63440677600005,7.949559001000068],[99.68169540900004,7.949623677000034],[99.70975653100004,7.924068503000058],[99.74044621000007,7.926631396000062],[99.73048329100004,7.952916886000025]]]}},{"type":"Feature","properties":{"code":"920609","name":"เขาปูน","parentCode":"9206"},"geometry":{"type":"Polygon","coordinates":[[[99.71437518900007,7.814990430000023],[99.63227337100005,7.829802359000041],[99.63816429400003,7.798032655000043],[99.66832417800003,7.777016480000043],[99.70840181800008,7.753987792000032],[99.77336434900008,7.765619592000064],[99.75769420000006,7.808872231000066],[99.71437518900007,7.814990430000023]]]}},{"type":"Feature","properties":{"code":"920701","name":"เขาวิเศษ","parentCode":"9207"},"geometry":{"type":"Polygon","coordinates":[[[99.46535083600008,7.729405798000073],[99.45268824900006,7.739117835000059],[99.42356040100003,7.678739397000072],[99.40552647100009,7.608956005000039],[99.41098378900006,7.586962928000048],[99.45707953300007,7.5926190540000675],[99.49226319900004,7.562935217000074],[99.49375721600006,7.5864601680000305],[99.46278812200006,7.608825802000069],[99.50358199200008,7.629897562000053],[99.49109094900007,7.702935516000025],[99.46535083600008,7.729405798000073]]]}},{"type":"Feature","properties":{"code":"920214","name":"คลองชีล้อม","parentCode":"9202"},"geometry":{"type":"Polygon","coordinates":[[[99.60972844800006,7.479547859000036],[99.56103062900007,7.433484366000073],[99.55764930700008,7.399311305000026],[99.59486563500008,7.391675555000063],[99.61585395100008,7.435232262000056],[99.61272715200005,7.4656501930000445],[99.60972844800006,7.479547859000036]]]}},{"type":"Feature","properties":{"code":"920208","name":"คลองลุ","parentCode":"9202"},"geometry":{"type":"Polygon","coordinates":[[[99.52654775700006,7.505332331000034],[99.46288324800008,7.493464154000037],[99.45859091600005,7.471388755000021],[99.51446283600006,7.4375501270000655],[99.52654775700006,7.505332331000034]]]}},{"type":"Feature","properties":{"code":"920902","name":"คลองปาง","parentCode":"9209"},"geometry":{"type":"Polygon","coordinates":[[[99.65467672200003,8.011412515000075],[99.61571817900005,7.987660443000038],[99.63050179500004,7.950191919000076],[99.63440677600005,7.949559001000068],[99.65127294800004,7.972531074000074],[99.65467672200003,8.011412515000075]]]}},{"type":"Feature","properties":{"code":"920110","name":"โคกหล่อ","parentCode":"9201"},"geometry":{"type":"Polygon","coordinates":[[[99.62604863500007,7.54016828400006],[99.59842786500008,7.538464888000021],[99.62433399800005,7.485388979000049],[99.63278289100003,7.496812169000066],[99.62604863500007,7.54016828400006]]]}},{"type":"Feature","properties":{"code":"920804","name":"โคกสะบ้า","parentCode":"9208"},"geometry":{"type":"Polygon","coordinates":[[[99.75445952800004,7.486348274000022],[99.74995473500007,7.5323996260000285],[99.70151636200006,7.504397671000049],[99.67678032100008,7.517384520000064],[99.68204551000008,7.489971837000041],[99.72653039400006,7.474886017000074],[99.75445952800004,7.486348274000022]]]}},{"type":"Feature","properties":{"code":"920207","name":"โคกยาง","parentCode":"9202"},"geometry":{"type":"Polygon","coordinates":[[[99.51944552400005,7.540661324000041],[99.44925064300008,7.533796994000056],[99.43119921400006,7.500006173000031],[99.42740603400006,7.47977701700006],[99.44259222000005,7.467543360000036],[99.45859091600005,7.471388755000021],[99.46288324800008,7.493464154000037],[99.52654775700006,7.505332331000034],[99.54029553500004,7.505254871000034],[99.54445679600008,7.5273973060000685],[99.51944552400005,7.540661324000041]]]}},{"type":"Feature","properties":{"code":"920901","name":"ควนเมา","parentCode":"9209"},"geometry":{"type":"Polygon","coordinates":[[[99.61571817900005,7.987660443000038],[99.61146865300003,7.988359425000056],[99.60284263800008,7.983427509000023],[99.56258753800006,7.9250660440000615],[99.60904924400006,7.911825587000067],[99.62792467100007,7.912290784000049],[99.63050179500004,7.950191919000076],[99.61571817900005,7.987660443000038]]]}},{"type":"Feature","properties":{"code":"920107","name":"ควนปริง","parentCode":"9201"},"geometry":{"type":"Polygon","coordinates":[[[99.58935430700006,7.543255846000022],[99.56883446100005,7.5401215120000415],[99.59437376800008,7.503037271000039],[99.60972844800006,7.479547859000036],[99.61272715200005,7.4656501930000445],[99.62433399800005,7.485388979000049],[99.59842786500008,7.538464888000021],[99.58935430700006,7.543255846000022]]]}},{"type":"Feature","properties":{"code":"920202","name":"ควนธานี","parentCode":"9202"},"geometry":{"type":"Polygon","coordinates":[[[99.56883446100005,7.5401215120000415],[99.54445679600008,7.5273973060000685],[99.54029553500004,7.505254871000034],[99.55028514500003,7.485124818000031],[99.59437376800008,7.503037271000039],[99.56883446100005,7.5401215120000415]]]}},{"type":"Feature","properties":{"code":"920213","name":"เกาะลิบง","parentCode":"9202"},"geometry":{"type":"MultiPolygon","coordinates":[[[[99.39786942600006,7.267319919000045],[99.36869785000005,7.267120864000049],[99.36503221800007,7.224799888000064],[99.39409565300008,7.210652832000051],[99.44720355100009,7.250017608000064],[99.39786942600006,7.267319919000045]]],[[[99.43289847400007,7.3483614230000285],[99.37756219400006,7.342015067000034],[99.35078091300005,7.400263464000034],[99.34873902500004,7.4014902040000266],[99.33892531500004,7.377856224000027],[99.39840228400004,7.3045460390000585],[99.44048739400006,7.295249016000071],[99.43289847400007,7.3483614230000285]]]]}},{"type":"Feature","properties":{"code":"920308","name":"เกาะเปียะ","parentCode":"9203"},"geometry":{"type":"Polygon","coordinates":[[[99.72653039400006,7.474886017000074],[99.68204551000008,7.489971837000041],[99.67286322200005,7.441150127000071],[99.68893396800007,7.406525196000075],[99.71870364800009,7.442692876000024],[99.72653039400006,7.474886017000074]]]}},{"type":"Feature","properties":{"code":"920411","name":"เกาะสุกร","parentCode":"9204"},"geometry":{"type":"Polygon","coordinates":[[[99.55503993300005,7.126789892000033],[99.56521705300008,7.0940529360000255],[99.61597201100005,7.082250717000022],[99.55503993300005,7.126789892000033]]]}},{"type":"Feature","properties":{"code":"920413","name":"แหลมสอม","parentCode":"9204"},"geometry":{"type":"Polygon","coordinates":[[[99.80350736200006,7.262684051000065],[99.77179446900004,7.3019894170000725],[99.80305065300007,7.33062923500006],[99.78692630700004,7.363577543000076],[99.75335592300007,7.346347953000077],[99.74220564200004,7.306202087000031],[99.73219310800005,7.29244923300007],[99.73936610300007,7.274350352000056],[99.80350736200006,7.262684051000065]]]}},{"type":"Feature","properties":{"code":"920803","name":"ละมอ","parentCode":"9208"},"geometry":{"type":"Polygon","coordinates":[[[99.80066455200006,7.597793920000072],[99.78770864400008,7.644569083000022],[99.73310709100008,7.622722693000071],[99.70854173000004,7.583863213000029],[99.71095423300005,7.545680388000051],[99.75201334400003,7.539372183000069],[99.75606823900006,7.573035206000043],[99.80066455200006,7.597793920000072]]]}},{"type":"Feature","properties":{"code":"920615","name":"ลำภูรา","parentCode":"9206"},"geometry":{"type":"Polygon","coordinates":[[[99.63027203500008,7.702131055000052],[99.56135358700004,7.722002277000058],[99.54898494200006,7.679373439000074],[99.57134790700007,7.671271367000031],[99.63047838400007,7.695859598000027],[99.63027203500008,7.702131055000052]]]}},{"type":"Feature","properties":{"code":"920410","name":"ลิพัง","parentCode":"9204"},"geometry":{"type":"Polygon","coordinates":[[[99.89989643000007,7.188720561000025],[99.88466502800009,7.241176186000075],[99.86147730100004,7.217069761000062],[99.79925633300007,7.237729324000043],[99.73137405500006,7.192476222000039],[99.73785208400005,7.1354045500000325],[99.73933561800004,7.131864303000043],[99.83126926700004,7.138032037000073],[99.89989643000007,7.188720561000025]]]}},{"type":"Feature","properties":{"code":"920504","name":"ไม้ฝาด","parentCode":"9205"},"geometry":{"type":"Polygon","coordinates":[[[99.43119921400006,7.500006173000031],[99.41209351000003,7.58014266400005],[99.31315797400003,7.538497516000064],[99.34873902500004,7.4014902040000266],[99.35078091300005,7.400263464000034],[99.38949338600008,7.474298936000025],[99.42740603400006,7.47977701700006],[99.43119921400006,7.500006173000031]]]}},{"type":"Feature","properties":{"code":"920106","name":"นาบินหลา","parentCode":"9201"},"geometry":{"type":"Polygon","coordinates":[[[99.67956471800005,7.550932953000029],[99.64711176900005,7.55885304800006],[99.65086767300005,7.515985665000073],[99.66757484800007,7.5178951000000325],[99.67956471800005,7.550932953000029]]]}},{"type":"Feature","properties":{"code":"920303","name":"นาชุมเห็ด","parentCode":"9203"},"geometry":{"type":"Polygon","coordinates":[[[99.83353137300008,7.503257999000027],[99.82064834300007,7.518871703000059],[99.75445952800004,7.486348274000022],[99.72653039400006,7.474886017000074],[99.71870364800009,7.442692876000024],[99.76247076100003,7.434910069000068],[99.85828970400007,7.458692969000026],[99.85013342400003,7.47307356500005],[99.83353137300008,7.503257999000027]]]}},{"type":"Feature","properties":{"code":"920806","name":"นาข้าวเสีย","parentCode":"9208"},"geometry":{"type":"Polygon","coordinates":[[[99.71095423300005,7.545680388000051],[99.68728052000006,7.559551317000057],[99.67956471800005,7.550932953000029],[99.66757484800007,7.5178951000000325],[99.67678032100008,7.517384520000064],[99.70151636200006,7.504397671000049],[99.74995473500007,7.5323996260000285],[99.75201334400003,7.539372183000069],[99.71095423300005,7.545680388000051]]]}},{"type":"Feature","properties":{"code":"920212","name":"นาเกลือ","parentCode":"9202"},"geometry":{"type":"Polygon","coordinates":[[[99.48389068200004,7.37537177400003],[99.43289847400007,7.3483614230000285],[99.44048739400006,7.295249016000071],[99.49852297300004,7.308198055000048],[99.48389068200004,7.37537177400003]]]}},{"type":"Feature","properties":{"code":"920505","name":"นาเมืองเพชร","parentCode":"9205"},"geometry":{"type":"Polygon","coordinates":[[[99.49226319900004,7.562935217000074],[99.45707953300007,7.5926190540000675],[99.41098378900006,7.586962928000048],[99.41209351000003,7.58014266400005],[99.43119921400006,7.500006173000031],[99.44925064300008,7.533796994000056],[99.51944552400005,7.540661324000041],[99.49226319900004,7.562935217000074]]]}},{"type":"Feature","properties":{"code":"920805","name":"นาหมื่นศรี","parentCode":"9208"},"geometry":{"type":"Polygon","coordinates":[[[99.73310709100008,7.622722693000071],[99.67452840000004,7.620579795000026],[99.66688494800007,7.580904963000023],[99.67757657400006,7.580013759000053],[99.70854173000004,7.583863213000029],[99.73310709100008,7.622722693000071]]]}},{"type":"Feature","properties":{"code":"920104","name":"นาพละ","parentCode":"9201"},"geometry":{"type":"Polygon","coordinates":[[[99.67452840000004,7.620579795000026],[99.66913300400006,7.62588407100003],[99.66411588200003,7.579710264000028],[99.66688494800007,7.580904963000023],[99.67452840000004,7.620579795000026]]]}},{"type":"Feature","properties":{"code":"920117","name":"นาตาล่วง","parentCode":"9201"},"geometry":{"type":"Polygon","coordinates":[[[99.62284794100003,7.582970981000074],[99.61364529300005,7.605440957000042],[99.58065991600006,7.595444615000076],[99.57156395600003,7.573595638000029],[99.59781436800006,7.562565712000037],[99.62284794100003,7.582970981000074]]]}},{"type":"Feature","properties":{"code":"920119","name":"นาท่ามเหนือ","parentCode":"9201"},"geometry":{"type":"Polygon","coordinates":[[[99.63047838400007,7.695859598000027],[99.57134790700007,7.671271367000031],[99.57699940300006,7.600738707000062],[99.58065991600006,7.595444615000076],[99.61364529300005,7.605440957000042],[99.65538885800004,7.637074127000062],[99.65469758900008,7.686401297000032],[99.63047838400007,7.695859598000027]]]}},{"type":"Feature","properties":{"code":"920120","name":"นาท่ามใต้","parentCode":"9201"},"geometry":{"type":"Polygon","coordinates":[[[99.57134790700007,7.671271367000031],[99.54898494200006,7.679373439000074],[99.53215751300007,7.649923300000069],[99.51499930000006,7.613816989000043],[99.57699940300006,7.600738707000062],[99.57134790700007,7.671271367000031]]]}},{"type":"Feature","properties":{"code":"920113","name":"นาโต๊ะหมิง","parentCode":"9201"},"geometry":{"type":"Polygon","coordinates":[[[99.55348544700007,7.5655745340000635],[99.49375721600006,7.5864601680000305],[99.49226319900004,7.562935217000074],[99.51944552400005,7.540661324000041],[99.54445679600008,7.5273973060000685],[99.56883446100005,7.5401215120000415],[99.55348544700007,7.5655745340000635]]]}},{"type":"Feature","properties":{"code":"920616","name":"นาวง","parentCode":"9206"},"geometry":{"type":"Polygon","coordinates":[[[99.53789709500006,7.766458688000057],[99.52368216600007,7.7873982770000225],[99.51387465200008,7.768923935000032],[99.49348513300004,7.755594629000029],[99.46535083600008,7.729405798000073],[99.49109094900007,7.702935516000025],[99.54650416700008,7.729457281000066],[99.54682163100006,7.74216821400006],[99.53789709500006,7.766458688000057]]]}},{"type":"Feature","properties":{"code":"920801","name":"นาโยงเหนือ","parentCode":"9208"},"geometry":{"type":"Polygon","coordinates":[[[99.70854173000004,7.583863213000029],[99.67757657400006,7.580013759000053],[99.68728052000006,7.559551317000057],[99.71095423300005,7.545680388000051],[99.70854173000004,7.583863213000029]]]}},{"type":"Feature","properties":{"code":"920108","name":"นาโยงใต้","parentCode":"9201"},"geometry":{"type":"Polygon","coordinates":[[[99.67757657400006,7.580013759000053],[99.66688494800007,7.580904963000023],[99.66411588200003,7.579710264000028],[99.64613310100003,7.562109578000047],[99.64711176900005,7.55885304800006],[99.67956471800005,7.550932953000029],[99.68728052000006,7.559551317000057],[99.67757657400006,7.580013759000053]]]}},{"type":"Feature","properties":{"code":"920304","name":"ในควน","parentCode":"9203"},"geometry":{"type":"Polygon","coordinates":[[[99.74356697600007,7.414620164000041],[99.68197079600009,7.379870235000055],[99.68293155800006,7.370667800000035],[99.69968912400009,7.365382829000055],[99.75335592300007,7.346347953000077],[99.78692630700004,7.363577543000076],[99.79352517600006,7.3665023570000585],[99.78267820500008,7.41238336400005],[99.74356697600007,7.414620164000041]]]}},{"type":"Feature","properties":{"code":"920619","name":"ในเตา","parentCode":"9206"},"geometry":{"type":"Polygon","coordinates":[[[99.74044621000007,7.926631396000062],[99.70975653100004,7.924068503000058],[99.71495707400004,7.8654873930000235],[99.69307621000007,7.845816968000065],[99.71437518900007,7.814990430000023],[99.75769420000006,7.808872231000066],[99.75196518700005,7.831567132000032],[99.73824742400006,7.858896272000038],[99.73789967700009,7.860885086000053],[99.74044621000007,7.926631396000062]]]}},{"type":"Feature","properties":{"code":"920115","name":"น้ำผุด","parentCode":"9201"},"geometry":{"type":"Polygon","coordinates":[[[99.81111686800006,7.648636847000034],[99.72835093700007,7.718491939000046],[99.65469758900008,7.686401297000032],[99.65538885800004,7.637074127000062],[99.66913300400006,7.62588407100003],[99.67452840000004,7.620579795000026],[99.73310709100008,7.622722693000071],[99.78770864400008,7.644569083000022],[99.80892406200007,7.644788234000032],[99.81111686800006,7.648636847000034]]]}},{"type":"Feature","properties":{"code":"920302","name":"หนองบ่อ","parentCode":"9203"},"geometry":{"type":"Polygon","coordinates":[[[99.76247076100003,7.434910069000068],[99.71870364800009,7.442692876000024],[99.68893396800007,7.406525196000075],[99.68197079600009,7.379870235000055],[99.74356697600007,7.414620164000041],[99.76247076100003,7.434910069000068]]]}},{"type":"Feature","properties":{"code":"920903","name":"หนองบัว","parentCode":"9209"},"geometry":{"type":"Polygon","coordinates":[[[99.75308218200007,8.007832903000065],[99.71323485500005,7.990171082000074],[99.65467672200003,8.011412515000075],[99.65127294800004,7.972531074000074],[99.73048329100004,7.952916886000025],[99.75308218200007,8.007832903000065]]]}},{"type":"Feature","properties":{"code":"920602","name":"หนองช้างแล่น","parentCode":"9206"},"geometry":{"type":"Polygon","coordinates":[[[99.62792467100007,7.912290784000049],[99.60904924400006,7.911825587000067],[99.61496811700005,7.870086181000033],[99.54609057100004,7.859604860000047],[99.54186931500004,7.841028122000068],[99.60450079900005,7.818286127000022],[99.63227337100005,7.829802359000041],[99.63008934400006,7.8776060410000355],[99.62792467100007,7.912290784000049]]]}},{"type":"Feature","properties":{"code":"920904","name":"หนองปรือ","parentCode":"9209"},"geometry":{"type":"Polygon","coordinates":[[[99.70975653100004,7.924068503000058],[99.68169540900004,7.949623677000034],[99.63440677600005,7.949559001000068],[99.63050179500004,7.950191919000076],[99.62792467100007,7.912290784000049],[99.63008934400006,7.8776060410000355],[99.69307621000007,7.845816968000065],[99.71495707400004,7.8654873930000235],[99.70975653100004,7.924068503000058]]]}},{"type":"Feature","properties":{"code":"920114","name":"หนองตรุด","parentCode":"9201"},"geometry":{"type":"Polygon","coordinates":[[[99.53215751300007,7.649923300000069],[99.50358199200008,7.629897562000053],[99.46278812200006,7.608825802000069],[99.49375721600006,7.5864601680000305],[99.55348544700007,7.5655745340000635],[99.57156395600003,7.573595638000029],[99.58065991600006,7.595444615000076],[99.57699940300006,7.600738707000062],[99.51499930000006,7.613816989000043],[99.53215751300007,7.649923300000069]]]}},{"type":"Feature","properties":{"code":"920610","name":"ปากแจ่ม","parentCode":"9206"},"geometry":{"type":"Polygon","coordinates":[[[99.77336434900008,7.765619592000064],[99.70840181800008,7.753987792000032],[99.66832417800003,7.777016480000043],[99.64534142200006,7.750693951000073],[99.63027203500008,7.702131055000052],[99.63047838400007,7.695859598000027],[99.65469758900008,7.686401297000032],[99.72835093700007,7.718491939000046],[99.81111686800006,7.648636847000034],[99.78784765600005,7.7435383280000565],[99.77336434900008,7.765619592000064]]]}},{"type":"Feature","properties":{"code":"920611","name":"ปากคม","parentCode":"9206"},"geometry":{"type":"Polygon","coordinates":[[[99.64534142200006,7.750693951000073],[99.60047931400004,7.7671939770000336],[99.54682163100006,7.74216821400006],[99.54650416700008,7.729457281000066],[99.56135358700004,7.722002277000058],[99.63027203500008,7.702131055000052],[99.64534142200006,7.750693951000073]]]}},{"type":"Feature","properties":{"code":"920403","name":"ปะเหลียน","parentCode":"9204"},"geometry":{"type":"Polygon","coordinates":[[[99.90384392200008,7.3471812780000505],[99.81165745900006,7.376539140000034],[99.79352517600006,7.3665023570000585],[99.78692630700004,7.363577543000076],[99.80305065300007,7.33062923500006],[99.77179446900004,7.3019894170000725],[99.80350736200006,7.262684051000065],[99.79925633300007,7.237729324000043],[99.86147730100004,7.217069761000062],[99.88466502800009,7.241176186000075],[99.89989643000007,7.188720561000025],[99.94856212600007,7.203698755000062],[99.93224874900005,7.246662205000064],[99.93986396200006,7.313511952000056],[99.90384392200008,7.3471812780000505]]]}},{"type":"Feature","properties":{"code":"920305","name":"โพรงจระเข้","parentCode":"9203"},"geometry":{"type":"Polygon","coordinates":[[[99.86492283300004,7.4399370870000325],[99.85828970400007,7.458692969000026],[99.76247076100003,7.434910069000068],[99.74356697600007,7.414620164000041],[99.78267820500008,7.41238336400005],[99.79352517600006,7.3665023570000585],[99.81165745900006,7.376539140000034],[99.90384392200008,7.3471812780000505],[99.89418508700004,7.397857381000051],[99.86492283300004,7.4399370870000325]]]}},{"type":"Feature","properties":{"code":"920409","name":"สุโสะ","parentCode":"9204"},"geometry":{"type":"Polygon","coordinates":[[[99.73936610300007,7.274350352000056],[99.73219310800005,7.29244923300007],[99.69589192000007,7.265467840000042],[99.64168866500006,7.2795328350000545],[99.61945198900008,7.2192772450000575],[99.64159856800006,7.16576010600005],[99.65247521300006,7.165627172000029],[99.66535232900009,7.204497986000035],[99.71069562900004,7.218112045000055],[99.73936610300007,7.274350352000056]]]}},{"type":"Feature","properties":{"code":"921003","name":"ตะเสะ","parentCode":"9210"},"geometry":{"type":"Polygon","coordinates":[[[99.61945198900008,7.2192772450000575],[99.60762152500007,7.226394953000067],[99.55320548400005,7.214630009000075],[99.60410721800008,7.136687259000041],[99.64159856800006,7.16576010600005],[99.61945198900008,7.2192772450000575]]]}},{"type":"Feature","properties":{"code":"920401","name":"ท่าข้าม","parentCode":"9204"},"geometry":{"type":"Polygon","coordinates":[[[99.71069562900004,7.218112045000055],[99.66535232900009,7.204497986000035],[99.65247521300006,7.165627172000029],[99.66887910700007,7.113962397000023],[99.70473853400006,7.130889798000055],[99.72974762400008,7.179112313000076],[99.71069562900004,7.218112045000055]]]}},{"type":"Feature","properties":{"code":"920614","name":"ท่างิ้ว","parentCode":"9206"},"geometry":{"type":"Polygon","coordinates":[[[99.69307621000007,7.845816968000065],[99.63008934400006,7.8776060410000355],[99.63227337100005,7.829802359000041],[99.71437518900007,7.814990430000023],[99.69307621000007,7.845816968000065]]]}},{"type":"Feature","properties":{"code":"920412","name":"ท่าพญา","parentCode":"9204"},"geometry":{"type":"Polygon","coordinates":[[[99.68293155800006,7.370667800000035],[99.66214524000009,7.3674697720000495],[99.64795811600004,7.334870121000051],[99.68561150600004,7.3365238750000685],[99.69968912400009,7.365382829000055],[99.68293155800006,7.370667800000035]]]}},{"type":"Feature","properties":{"code":"920704","name":"ท่าสะบ้า","parentCode":"9207"},"geometry":{"type":"Polygon","coordinates":[[[99.56135358700004,7.722002277000058],[99.54650416700008,7.729457281000066],[99.49109094900007,7.702935516000025],[99.50358199200008,7.629897562000053],[99.53215751300007,7.649923300000069],[99.54898494200006,7.679373439000074],[99.56135358700004,7.722002277000058]]]}},{"type":"Feature","properties":{"code":"920101","name":"ทับเที่ยง","parentCode":"9201"},"geometry":{"type":"Polygon","coordinates":[[[99.63661976700007,7.558806723000032],[99.62284794100003,7.582970981000074],[99.59781436800006,7.562565712000037],[99.58935430700006,7.543255846000022],[99.59842786500008,7.538464888000021],[99.62604863500007,7.54016828400006],[99.63661976700007,7.558806723000032]]]}},{"type":"Feature","properties":{"code":"920307","name":"ทุ่งค่าย","parentCode":"9203"},"geometry":{"type":"Polygon","coordinates":[[[99.66757484800007,7.5178951000000325],[99.65086767300005,7.515985665000073],[99.63278289100003,7.496812169000066],[99.62433399800005,7.485388979000049],[99.61272715200005,7.4656501930000445],[99.61585395100008,7.435232262000056],[99.65652550600004,7.423968590000072],[99.67286322200005,7.441150127000071],[99.68204551000008,7.489971837000041],[99.67678032100008,7.517384520000064],[99.66757484800007,7.5178951000000325]]]}},{"type":"Feature","properties":{"code":"920306","name":"ทุ่งกระบือ","parentCode":"9203"},"geometry":{"type":"Polygon","coordinates":[[[99.65652550600004,7.423968590000072],[99.61585395100008,7.435232262000056],[99.59486563500008,7.391675555000063],[99.58071182200007,7.3615131300000485],[99.64795811600004,7.334870121000051],[99.66214524000009,7.3674697720000495],[99.65652550600004,7.423968590000072]]]}},{"type":"Feature","properties":{"code":"920620","name":"ทุ่งต่อ","parentCode":"9206"},"geometry":{"type":"Polygon","coordinates":[[[99.60108426300008,7.792368466000028],[99.59526280500006,7.7932915840000305],[99.53789709500006,7.766458688000057],[99.54682163100006,7.74216821400006],[99.60047931400004,7.7671939770000336],[99.60108426300008,7.792368466000028]]]}},{"type":"Feature","properties":{"code":"920402","name":"ทุ่งยาว","parentCode":"9204"},"geometry":{"type":"Polygon","coordinates":[[[99.80350736200006,7.262684051000065],[99.73936610300007,7.274350352000056],[99.71069562900004,7.218112045000055],[99.72974762400008,7.179112313000076],[99.70473853400006,7.130889798000055],[99.73785208400005,7.1354045500000325],[99.73137405500006,7.192476222000039],[99.79925633300007,7.237729324000043],[99.80350736200006,7.262684051000065]]]}},{"type":"Feature","properties":{"code":"920621","name":"วังคีรี","parentCode":"9206"},"geometry":{"type":"Polygon","coordinates":[[[99.44582912900006,7.845116540000049],[99.42507448700007,7.844859453000026],[99.46109431500008,7.7716147840000644],[99.49348513300004,7.755594629000029],[99.51387465200008,7.768923935000032],[99.44582912900006,7.845116540000049]]]}},{"type":"Feature","properties":{"code":"920702","name":"วังมะปราง","parentCode":"9207"},"geometry":{"type":"Polygon","coordinates":[[[99.42356040100003,7.678739397000072],[99.41903873800004,7.7169605940000565],[99.35481405000007,7.7468870870000615],[99.36706389400007,7.671132792000037],[99.36405268700008,7.644577801000025],[99.36438906800004,7.6028865220000625],[99.40552647100009,7.608956005000039],[99.42356040100003,7.678739397000072]]]}},{"type":"Feature","properties":{"code":"920705","name":"วังมะปรางเหนือ","parentCode":"9207"},"geometry":{"type":"Polygon","coordinates":[[[99.45268824900006,7.739117835000059],[99.42461081500005,7.796942104000038],[99.36043593200009,7.77684692400004],[99.35481405000007,7.7468870870000615],[99.41903873800004,7.7169605940000565],[99.42356040100003,7.678739397000072],[99.45268824900006,7.739117835000059]]]}},{"type":"Feature","properties":{"code":"920205","name":"วังวน","parentCode":"9202"},"geometry":{"type":"Polygon","coordinates":[[[99.59486563500008,7.391675555000063],[99.55764930700008,7.399311305000026],[99.52918787000004,7.375547715000039],[99.55444220700008,7.3026915110000346],[99.56801660600007,7.321111064000036],[99.58071182200007,7.3615131300000485],[99.59486563500008,7.391675555000063]]]}},{"type":"Feature","properties":{"code":"920209","name":"ย่านซื่อ","parentCode":"9202"},"geometry":{"type":"Polygon","coordinates":[[[99.54029553500004,7.505254871000034],[99.52654775700006,7.505332331000034],[99.51446283600006,7.4375501270000655],[99.51694696300007,7.434293167000021],[99.53689673900004,7.448192956000071],[99.55028514500003,7.485124818000031],[99.54029553500004,7.505254871000034]]]}},{"type":"Feature","properties":{"code":"920301","name":"ย่านตาขาว","parentCode":"9203"},"geometry":{"type":"Polygon","coordinates":[[[99.68893396800007,7.406525196000075],[99.67286322200005,7.441150127000071],[99.65652550600004,7.423968590000072],[99.66214524000009,7.3674697720000495],[99.68293155800006,7.370667800000035],[99.68197079600009,7.379870235000055],[99.68893396800007,7.406525196000075]]]}}]}