{"type":"FeatureCollection","features":[{"type":"Feature","properties":{"code":"931103","name":"อ่างทอง","parentCode":"9311"},"geometry":{"type":"Polygon","coordinates":[[[99.99235661000006,7.572093211000038],[99.97161806500009,7.57429638900004],[99.94682473200004,7.5593287840000585],[99.96508546000007,7.5223629400000505],[99.98904785300005,7.5299198140000385],[99.99235661000006,7.572093211000038]]]}},{"type":"Feature","properties":{"code":"931102","name":"บ้านนา","parentCode":"9311"},"geometry":{"type":"Polygon","coordinates":[[[99.89301223100006,7.606772425000031],[99.87160277000004,7.626153671000054],[99.80066455200006,7.597793920000072],[99.83726114800004,7.541306658000053],[99.82064834300007,7.518871703000059],[99.83353137300008,7.503257999000027],[99.93079178500005,7.525986984000042],[99.92139732700008,7.588535339000032],[99.89301223100006,7.606772425000031]]]}},{"type":"Feature","properties":{"code":"931004","name":"บ้านพร้าว","parentCode":"9310"},"geometry":{"type":"Polygon","coordinates":[[[99.98987604300004,7.830798657000059],[99.98887606600005,7.8467166240000665],[99.90324684500007,7.8305934170000455],[99.90024364200008,7.762456321000059],[99.93059818200004,7.791360144000066],[99.97517444400006,7.797835514000042],[99.98987604300004,7.830798657000059]]]}},{"type":"Feature","properties":{"code":"930113","name":"ชัยบุรี","parentCode":"9301"},"geometry":{"type":"Polygon","coordinates":[[[100.11920338200008,7.672522001000061],[100.12709489400004,7.7334068810000645],[100.09815762200009,7.723375760000067],[100.05268333700008,7.685145766000062],[100.05383897100006,7.656342712000026],[100.08791278000007,7.667101356000046],[100.11920338200008,7.672522001000061]]]}},{"type":"Feature","properties":{"code":"930513","name":"ชะมวง","parentCode":"9305"},"geometry":{"type":"Polygon","coordinates":[[[99.97517444400006,7.797835514000042],[99.93059818200004,7.791360144000066],[99.92549114000008,7.734045858000059],[99.99121520000006,7.734945224000057],[99.98964495900003,7.786331094000047],[99.97517444400006,7.797835514000042]]]}},{"type":"Feature","properties":{"code":"930202","name":"ชะรัด","parentCode":"9302"},"geometry":{"type":"Polygon","coordinates":[[[100.01692575600003,7.483937167000022],[99.96231517600006,7.483105205000072],[99.95982474200008,7.469023278000066],[99.97080519900004,7.457706936000022],[100.00337308900004,7.453110337000055],[100.01692575600003,7.483937167000022]]]}},{"type":"Feature","properties":{"code":"930305","name":"จองถนน","parentCode":"9303"},"geometry":{"type":"Polygon","coordinates":[[[100.27306896200008,7.496562275000031],[100.23840898500004,7.5367357030000335],[100.16604982200005,7.49053993800004],[100.16982420300008,7.46873916100003],[100.17943204800008,7.46797196600005],[100.27618305600004,7.478396521000036],[100.27306896200008,7.496562275000031]]]}},{"type":"Feature","properties":{"code":"931101","name":"ชุมพล","parentCode":"9311"},"geometry":{"type":"Polygon","coordinates":[[[99.97737852000006,7.643030363000037],[99.95104447600005,7.64694920200003],[99.89301223100006,7.606772425000031],[99.92139732700008,7.588535339000032],[99.94682473200004,7.5593287840000585],[99.97161806500009,7.57429638900004],[99.98771451400006,7.587683640000023],[99.98717770000007,7.638339728000062],[99.97737852000006,7.643030363000037]]]}},{"type":"Feature","properties":{"code":"930602","name":"ดอนประดู่","parentCode":"9306"},"geometry":{"type":"Polygon","coordinates":[[[100.37150287400004,7.304440705000047],[100.31592651900007,7.298698656000056],[100.27836325100009,7.2564795530000765],[100.33968906000007,7.26510971600004],[100.37150287400004,7.304440705000047]]]}},{"type":"Feature","properties":{"code":"930510","name":"ดอนทราย","parentCode":"9305"},"geometry":{"type":"Polygon","coordinates":[[[99.99121520000006,7.734945224000057],[99.92549114000008,7.734045858000059],[99.92338492400006,7.715289907000056],[99.98839341100006,7.693763708000063],[99.99115304900005,7.729597046000038],[99.99121520000006,7.734945224000057]]]}},{"type":"Feature","properties":{"code":"930607","name":"ดอนทราย","parentCode":"9306"},"geometry":{"type":"Polygon","coordinates":[[[100.34072355000006,7.2481798000000595],[100.33968906000007,7.26510971600004],[100.27836325100009,7.2564795530000765],[100.26106524900007,7.242996514000026],[100.31673402100006,7.231349110000053],[100.34072355000006,7.2481798000000595]]]}},{"type":"Feature","properties":{"code":"930605","name":"ฝาละมี","parentCode":"9306"},"geometry":{"type":"Polygon","coordinates":[[[100.31129805500007,7.360396336000065],[100.28163444400008,7.437325329000032],[100.19138259100004,7.394391555000027],[100.18934038800006,7.391957438000077],[100.19647123700008,7.382220637000046],[100.22266453400005,7.354682212000057],[100.25699384700005,7.308631646000038],[100.29650784900008,7.322918323000067],[100.31129805500007,7.360396336000065]]]}},{"type":"Feature","properties":{"code":"930306","name":"หานโพธิ์","parentCode":"9303"},"geometry":{"type":"Polygon","coordinates":[[[100.23331465400008,7.575677573000064],[100.15841548800006,7.576227446000075],[100.10604351200004,7.544613424000033],[100.13592681100005,7.464499248000038],[100.16604982200005,7.49053993800004],[100.23840898500004,7.5367357030000335],[100.23331465400008,7.575677573000064]]]}},{"type":"Feature","properties":{"code":"930606","name":"หารเทา","parentCode":"9306"},"geometry":{"type":"Polygon","coordinates":[[[100.31592651900007,7.298698656000056],[100.29650784900008,7.322918323000067],[100.25699384700005,7.308631646000038],[100.20098962100008,7.267278488000045],[100.26106524900007,7.242996514000026],[100.27836325100009,7.2564795530000765],[100.31592651900007,7.298698656000056]]]}},{"type":"Feature","properties":{"code":"930301","name":"เขาชัยสน","parentCode":"9303"},"geometry":{"type":"Polygon","coordinates":[[[100.16982420300008,7.46873916100003],[100.16604982200005,7.49053993800004],[100.13592681100005,7.464499248000038],[100.07051860100006,7.450971953000021],[100.04979305400008,7.406889810000052],[100.08346482900004,7.405189653000036],[100.08949531800005,7.367234930000052],[100.10871336700006,7.36018013000006],[100.12780141100006,7.4107507140000735],[100.16982420300008,7.46873916100003]]]}},{"type":"Feature","properties":{"code":"930103","name":"เขาเจียก","parentCode":"9301"},"geometry":{"type":"Polygon","coordinates":[[[100.06627219300003,7.6279920240000365],[100.01975581000005,7.63727676000002],[100.02516835300008,7.59950350400004],[100.03650972000008,7.6033107050000694],[100.04468273700007,7.605534997000063],[100.06627219300003,7.6279920240000365]]]}},{"type":"Feature","properties":{"code":"930702","name":"เขาปู่","parentCode":"9307"},"geometry":{"type":"Polygon","coordinates":[[[99.84058513600007,7.747208375000071],[99.78784765600005,7.7435383280000565],[99.81111686800006,7.648636847000034],[99.80892406200007,7.644788234000032],[99.87881328700007,7.6658576570000605],[99.87785537300005,7.703207462000023],[99.84058513600007,7.747208375000071]]]}},{"type":"Feature","properties":{"code":"930701","name":"เขาย่า","parentCode":"9307"},"geometry":{"type":"Polygon","coordinates":[[[99.92549114000008,7.734045858000059],[99.93059818200004,7.791360144000066],[99.90024364200008,7.762456321000059],[99.84058513600007,7.747208375000071],[99.87785537300005,7.703207462000023],[99.91739921900006,7.70640594300005],[99.92338492400006,7.715289907000056],[99.92549114000008,7.734045858000059]]]}},{"type":"Feature","properties":{"code":"930203","name":"คลองเฉลิม","parentCode":"9302"},"geometry":{"type":"Polygon","coordinates":[[[100.00337308900004,7.453110337000055],[99.97080519900004,7.457706936000022],[99.95928154800004,7.396665249000023],[99.89418508700004,7.397857381000051],[99.90384392200008,7.3471812780000505],[99.93986396200006,7.313511952000056],[99.99713056600007,7.328837707000048],[100.01625690600008,7.356856351000033],[99.99513657500006,7.423469641000054],[100.01216805800004,7.439161881000075],[100.00337308900004,7.453110337000055]]]}},{"type":"Feature","properties":{"code":"930204","name":"คลองทรายขาว","parentCode":"9302"},"geometry":{"type":"Polygon","coordinates":[[[99.97080519900004,7.457706936000022],[99.95982474200008,7.469023278000066],[99.86492283300004,7.4399370870000325],[99.89418508700004,7.397857381000051],[99.95928154800004,7.396665249000023],[99.97080519900004,7.457706936000022]]]}},{"type":"Feature","properties":{"code":"930403","name":"คลองใหญ่","parentCode":"9304"},"geometry":{"type":"Polygon","coordinates":[[[100.11293701900007,7.294503620000057],[100.08076888700003,7.302114606000032],[100.05144267100007,7.288681074000067],[100.05819240300008,7.248388205000026],[100.01870480700006,7.208849832000055],[100.12384455300008,7.269164418000059],[100.11293701900007,7.294503620000057]]]}},{"type":"Feature","properties":{"code":"930105","name":"โคกชะงาย","parentCode":"9301"},"geometry":{"type":"Polygon","coordinates":[[[100.02132107900007,7.639725166000062],[99.98717770000007,7.638339728000062],[99.98771451400006,7.587683640000023],[100.02516835300008,7.59950350400004],[100.01975581000005,7.63727676000002],[100.02132107900007,7.639725166000062]]]}},{"type":"Feature","properties":{"code":"930307","name":"โคกม่วง","parentCode":"9303"},"geometry":{"type":"Polygon","coordinates":[[[100.06676788300007,7.488413023000021],[100.01216805800004,7.439161881000075],[99.99513657500006,7.423469641000054],[100.01625690600008,7.356856351000033],[100.07308238500008,7.365378920000069],[100.08949531800005,7.367234930000052],[100.08346482900004,7.405189653000036],[100.04979305400008,7.406889810000052],[100.07051860100006,7.450971953000021],[100.06676788300007,7.488413023000021]]]}},{"type":"Feature","properties":{"code":"930802","name":"โคกทราย","parentCode":"9308"},"geometry":{"type":"Polygon","coordinates":[[[100.20098962100008,7.267278488000045],[100.16990339600005,7.2543356210000525],[100.20105409300004,7.235937659000058],[100.17461642000006,7.174775914000065],[100.22066267300005,7.192073821000065],[100.30460917100004,7.208608298000058],[100.31673402100006,7.231349110000053],[100.26106524900007,7.242996514000026],[100.20098962100008,7.267278488000045]]]}},{"type":"Feature","properties":{"code":"930903","name":"โคกสัก","parentCode":"9309"},"geometry":{"type":"Polygon","coordinates":[[[100.18934038800006,7.391957438000077],[100.16179605100007,7.429452414000025],[100.12780141100006,7.4107507140000735],[100.10871336700006,7.36018013000006],[100.13479124600008,7.358902287000035],[100.19647123700008,7.382220637000046],[100.18934038800006,7.391957438000077]]]}},{"type":"Feature","properties":{"code":"930302","name":"ควนขนุน","parentCode":"9303"},"geometry":{"type":"Polygon","coordinates":[[[100.13592681100005,7.464499248000038],[100.10604351200004,7.544613424000033],[100.08551774700004,7.532666404000054],[100.07836972800004,7.523739595000052],[100.06676788300007,7.488413023000021],[100.07051860100006,7.450971953000021],[100.13592681100005,7.464499248000038]]]}},{"type":"Feature","properties":{"code":"930501","name":"ควนขนุน","parentCode":"9305"},"geometry":{"type":"Polygon","coordinates":[[[100.04791154700007,7.760848207000038],[99.98964495900003,7.786331094000047],[99.99121520000006,7.734945224000057],[99.99115304900005,7.729597046000038],[100.02981674000006,7.734343048000028],[100.04791154700007,7.760848207000038]]]}},{"type":"Feature","properties":{"code":"930111","name":"ควนมะพร้าว","parentCode":"9301"},"geometry":{"type":"Polygon","coordinates":[[[100.15841548800006,7.576227446000075],[100.12448295200005,7.626115595000044],[100.08796165500007,7.6123489670000595],[100.10604351200004,7.544613424000033],[100.15841548800006,7.576227446000075]]]}},{"type":"Feature","properties":{"code":"930101","name":"คูหาสวรรค์","parentCode":"9301"},"geometry":{"type":"Polygon","coordinates":[[[100.12390609000005,7.6281048980000605],[100.08330298300007,7.634801226000036],[100.06627219300003,7.6279920240000365],[100.04468273700007,7.605534997000063],[100.06881516200008,7.606433203000051],[100.08796165500007,7.6123489670000595],[100.12448295200005,7.626115595000044],[100.12390609000005,7.6281048980000605]]]}},{"type":"Feature","properties":{"code":"930604","name":"เกาะหมาก","parentCode":"9306"},"geometry":{"type":"Polygon","coordinates":[[[100.38770697700005,7.497098089000076],[100.35568193400007,7.5278199140000766],[100.35463628500008,7.527302814000052],[100.27306896200008,7.496562275000031],[100.27618305600004,7.478396521000036],[100.28163444400008,7.437325329000032],[100.31129805500007,7.360396336000065],[100.35115709000007,7.3499649270000305],[100.38258349800009,7.424991975000069],[100.38770697700005,7.497098089000076]]]}},{"type":"Feature","properties":{"code":"930603","name":"เกาะนางคำ","parentCode":"9306"},"geometry":{"type":"Polygon","coordinates":[[[100.38475742200006,7.4192778300000555],[100.38258349800009,7.424991975000069],[100.35115709000007,7.3499649270000305],[100.37849772900006,7.313251323000031],[100.39913646500008,7.263564532000032],[100.40863688100006,7.265361569000049],[100.42654989300007,7.289512374000026],[100.42016736600004,7.319779041000061],[100.40606568400005,7.361804041000028],[100.38475742200006,7.4192778300000555]]]}},{"type":"Feature","properties":{"code":"931003","name":"เกาะเต่า","parentCode":"9310"},"geometry":{"type":"Polygon","coordinates":[[[99.92315073000003,7.864939475000028],[99.87349775100006,7.850588562000041],[99.83782837600006,7.865119484000047],[99.79448612600004,7.800276957000051],[99.75196518700005,7.831567132000032],[99.75769420000006,7.808872231000066],[99.77336434900008,7.765619592000064],[99.78784765600005,7.7435383280000565],[99.84058513600007,7.747208375000071],[99.90024364200008,7.762456321000059],[99.90324684500007,7.8305934170000455],[99.92315073000003,7.864939475000028]]]}},{"type":"Feature","properties":{"code":"930201","name":"กงหรา","parentCode":"9302"},"geometry":{"type":"Polygon","coordinates":[[[99.95278707700004,7.50921164500005],[99.85013342400003,7.47307356500005],[99.85828970400007,7.458692969000026],[99.86492283300004,7.4399370870000325],[99.95982474200008,7.469023278000066],[99.96231517600006,7.483105205000072],[99.95278707700004,7.50921164500005]]]}},{"type":"Feature","properties":{"code":"930506","name":"แหลมโตนด","parentCode":"9305"},"geometry":{"type":"Polygon","coordinates":[[[100.07959723100004,7.854725163000069],[100.05595702700003,7.838055458000042],[99.98509613100003,7.862672904000021],[99.98887606600005,7.8467166240000665],[99.98987604300004,7.830798657000059],[100.04019117300004,7.806380723000075],[100.09349794600007,7.808456291000027],[100.09738437200008,7.810136527000054],[100.07959723100004,7.854725163000069]]]}},{"type":"Feature","properties":{"code":"931104","name":"ลำสินธุ์","parentCode":"9311"},"geometry":{"type":"Polygon","coordinates":[[[99.94682473200004,7.5593287840000585],[99.92139732700008,7.588535339000032],[99.93079178500005,7.525986984000042],[99.83353137300008,7.503257999000027],[99.85013342400003,7.47307356500005],[99.95278707700004,7.50921164500005],[99.96508546000007,7.5223629400000505],[99.94682473200004,7.5593287840000585]]]}},{"type":"Feature","properties":{"code":"930109","name":"ลำปำ","parentCode":"9301"},"geometry":{"type":"Polygon","coordinates":[[[100.21843506600004,7.712163715000031],[100.12709489400004,7.7334068810000645],[100.11920338200008,7.672522001000061],[100.12390609000005,7.6281048980000605],[100.12448295200005,7.626115595000044],[100.15841548800006,7.576227446000075],[100.23331465400008,7.575677573000064],[100.22881467100007,7.6140147240000715],[100.22616036100004,7.64110482500007],[100.22005766600006,7.695345519000057],[100.21843506600004,7.712163715000031]]]}},{"type":"Feature","properties":{"code":"931002","name":"ลานข่อย","parentCode":"9310"},"geometry":{"type":"Polygon","coordinates":[[[99.88739427000007,7.889451885000028],[99.80837798800007,7.892876596000065],[99.73824742400006,7.858896272000038],[99.75196518700005,7.831567132000032],[99.79448612600004,7.800276957000051],[99.83782837600006,7.865119484000047],[99.87349775100006,7.850588562000041],[99.92315073000003,7.864939475000028],[99.88739427000007,7.889451885000028]]]}},{"type":"Feature","properties":{"code":"930401","name":"แม่ขรี","parentCode":"9304"},"geometry":{"type":"Polygon","coordinates":[[[100.10871336700006,7.36018013000006],[100.08949531800005,7.367234930000052],[100.07308238500008,7.365378920000069],[100.06022793500006,7.312806392000027],[100.08076888700003,7.302114606000032],[100.11293701900007,7.294503620000057],[100.12171149700004,7.326104164000071],[100.13479124600008,7.358902287000035],[100.10871336700006,7.36018013000006]]]}},{"type":"Feature","properties":{"code":"930511","name":"มะกอกเหนือ","parentCode":"9305"},"geometry":{"type":"Polygon","coordinates":[[[100.09815762200009,7.723375760000067],[100.06907987700004,7.761750353000025],[100.04791154700007,7.760848207000038],[100.02981674000006,7.734343048000028],[100.05147641400004,7.7026573840000765],[100.05268333700008,7.685145766000062],[100.09815762200009,7.723375760000067]]]}},{"type":"Feature","properties":{"code":"930504","name":"นาขยาด","parentCode":"9305"},"geometry":{"type":"Polygon","coordinates":[[[99.98839341100006,7.693763708000063],[99.92338492400006,7.715289907000056],[99.91739921900006,7.70640594300005],[99.93822102300004,7.659189239000057],[99.97571105200007,7.662021154000058],[99.99049902900003,7.6699393190000364],[99.98839341100006,7.693763708000063]]]}},{"type":"Feature","properties":{"code":"930114","name":"นาโหนด","parentCode":"9301"},"geometry":{"type":"Polygon","coordinates":[[[100.07836972800004,7.523739595000052],[100.03087182200005,7.520584168000028],[100.01692575600003,7.483937167000022],[100.00337308900004,7.453110337000055],[100.01216805800004,7.439161881000075],[100.06676788300007,7.488413023000021],[100.07836972800004,7.523739595000052]]]}},{"type":"Feature","properties":{"code":"930902","name":"นาปะขอ","parentCode":"9309"},"geometry":{"type":"Polygon","coordinates":[[[100.27618305600004,7.478396521000036],[100.17943204800008,7.46797196600005],[100.19138259100004,7.394391555000027],[100.28163444400008,7.437325329000032],[100.27618305600004,7.478396521000036]]]}},{"type":"Feature","properties":{"code":"930106","name":"นาท่อม","parentCode":"9301"},"geometry":{"type":"Polygon","coordinates":[[[100.03155805100005,7.593986656000027],[100.03650972000008,7.6033107050000694],[100.02516835300008,7.59950350400004],[99.98771451400006,7.587683640000023],[99.97161806500009,7.57429638900004],[99.99235661000006,7.572093211000038],[100.03155805100005,7.593986656000027]]]}},{"type":"Feature","properties":{"code":"930803","name":"หนองธง","parentCode":"9308"},"geometry":{"type":"Polygon","coordinates":[[[100.16450544800006,7.27825675400004],[100.12171149700004,7.326104164000071],[100.11293701900007,7.294503620000057],[100.12384455300008,7.269164418000059],[100.01870480700006,7.208849832000055],[99.95808786500004,7.199451934000024],[100.00031215300004,7.112109063000048],[100.02822832700008,7.090332414000045],[100.04989906600008,7.148343385000032],[100.14930478800005,7.250192030000051],[100.16450544800006,7.27825675400004]]]}},{"type":"Feature","properties":{"code":"930801","name":"ป่าบอน","parentCode":"9308"},"geometry":{"type":"Polygon","coordinates":[[[100.22266453400005,7.354682212000057],[100.19647123700008,7.382220637000046],[100.13479124600008,7.358902287000035],[100.12171149700004,7.326104164000071],[100.16450544800006,7.27825675400004],[100.22266453400005,7.354682212000057]]]}},{"type":"Feature","properties":{"code":"931001","name":"ป่าพะยอม","parentCode":"9310"},"geometry":{"type":"Polygon","coordinates":[[[99.97634646600005,7.871911135000062],[99.96241242000008,7.905740901000058],[99.92315073000003,7.864939475000028],[99.90324684500007,7.8305934170000455],[99.98887606600005,7.8467166240000665],[99.98509613100003,7.862672904000021],[99.97634646600005,7.871911135000062]]]}},{"type":"Feature","properties":{"code":"930601","name":"ปากพะยูน","parentCode":"9306"},"geometry":{"type":"Polygon","coordinates":[[[100.35115709000007,7.3499649270000305],[100.31129805500007,7.360396336000065],[100.29650784900008,7.322918323000067],[100.31592651900007,7.298698656000056],[100.37150287400004,7.304440705000047],[100.37849772900006,7.313251323000031],[100.35115709000007,7.3499649270000305]]]}},{"type":"Feature","properties":{"code":"930508","name":"ปันแต","parentCode":"9305"},"geometry":{"type":"Polygon","coordinates":[[[99.98987604300004,7.830798657000059],[99.97517444400006,7.797835514000042],[99.98964495900003,7.786331094000047],[100.04791154700007,7.760848207000038],[100.06907987700004,7.761750353000025],[100.09349794600007,7.808456291000027],[100.04019117300004,7.806380723000075],[99.98987604300004,7.830798657000059]]]}},{"type":"Feature","properties":{"code":"930512","name":"พนางตุง","parentCode":"9305"},"geometry":{"type":"Polygon","coordinates":[[[100.20065014500005,7.777726530000052],[100.10412114800005,7.783179751000034],[100.09738437200008,7.810136527000054],[100.09349794600007,7.808456291000027],[100.06907987700004,7.761750353000025],[100.09815762200009,7.723375760000067],[100.12709489400004,7.7334068810000645],[100.21843506600004,7.712163715000031],[100.21748083600005,7.721654938000029],[100.20065014500005,7.777726530000052]]]}},{"type":"Feature","properties":{"code":"930505","name":"พนมวังก์","parentCode":"9305"},"geometry":{"type":"Polygon","coordinates":[[[100.05147641400004,7.7026573840000765],[99.98839341100006,7.693763708000063],[99.99049902900003,7.6699393190000364],[100.03646485300004,7.646094294000022],[100.05383897100006,7.656342712000026],[100.05268333700008,7.685145766000062],[100.05147641400004,7.7026573840000765]]]}},{"type":"Feature","properties":{"code":"930115","name":"พญาขัน","parentCode":"9301"},"geometry":{"type":"Polygon","coordinates":[[[100.11920338200008,7.672522001000061],[100.08791278000007,7.667101356000046],[100.08330298300007,7.634801226000036],[100.12390609000005,7.6281048980000605],[100.11920338200008,7.672522001000061]]]}},{"type":"Feature","properties":{"code":"930516","name":"แพรกหา","parentCode":"9305"},"geometry":{"type":"Polygon","coordinates":[[[100.03646485300004,7.646094294000022],[99.99049902900003,7.6699393190000364],[99.97571105200007,7.662021154000058],[99.97737852000006,7.643030363000037],[99.98717770000007,7.638339728000062],[100.02132107900007,7.639725166000062],[100.03646485300004,7.646094294000022]]]}},{"type":"Feature","properties":{"code":"930107","name":"ปรางหมู่","parentCode":"9301"},"geometry":{"type":"Polygon","coordinates":[[[100.08330298300007,7.634801226000036],[100.08791278000007,7.667101356000046],[100.05383897100006,7.656342712000026],[100.03646485300004,7.646094294000022],[100.02132107900007,7.639725166000062],[100.01975581000005,7.63727676000002],[100.06627219300003,7.6279920240000365],[100.08330298300007,7.634801226000036]]]}},{"type":"Feature","properties":{"code":"930112","name":"ร่มเมือง","parentCode":"9301"},"geometry":{"type":"Polygon","coordinates":[[[100.03155805100005,7.593986656000027],[99.99235661000006,7.572093211000038],[99.98904785300005,7.5299198140000385],[100.01822746400006,7.522822998000038],[100.03847249900008,7.577294860000052],[100.03155805100005,7.593986656000027]]]}},{"type":"Feature","properties":{"code":"930205","name":"สมหวัง","parentCode":"9302"},"geometry":{"type":"Polygon","coordinates":[[[100.01822746400006,7.522822998000038],[99.98904785300005,7.5299198140000385],[99.96508546000007,7.5223629400000505],[99.95278707700004,7.50921164500005],[99.96231517600006,7.483105205000072],[100.01692575600003,7.483937167000022],[100.03087182200005,7.520584168000028],[100.01822746400006,7.522822998000038]]]}},{"type":"Feature","properties":{"code":"930110","name":"ตำนาน","parentCode":"9301"},"geometry":{"type":"Polygon","coordinates":[[[100.10604351200004,7.544613424000033],[100.08796165500007,7.6123489670000595],[100.06881516200008,7.606433203000051],[100.06646510300004,7.575459588000058],[100.08551774700004,7.532666404000054],[100.10604351200004,7.544613424000033]]]}},{"type":"Feature","properties":{"code":"930402","name":"ตะโหมด","parentCode":"9304"},"geometry":{"type":"Polygon","coordinates":[[[100.07308238500008,7.365378920000069],[100.01625690600008,7.356856351000033],[99.99713056600007,7.328837707000048],[99.93986396200006,7.313511952000056],[99.93224874900005,7.246662205000064],[99.94856212600007,7.203698755000062],[99.95808786500004,7.199451934000024],[100.01870480700006,7.208849832000055],[100.05819240300008,7.248388205000026],[100.05144267100007,7.288681074000067],[100.08076888700003,7.302114606000032],[100.06022793500006,7.312806392000027],[100.07308238500008,7.365378920000069]]]}},{"type":"Feature","properties":{"code":"930509","name":"โตนดด้วน","parentCode":"9305"},"geometry":{"type":"Polygon","coordinates":[[[100.05147641400004,7.7026573840000765],[100.02981674000006,7.734343048000028],[99.99115304900005,7.729597046000038],[99.98839341100006,7.693763708000063],[100.05147641400004,7.7026573840000765]]]}},{"type":"Feature","properties":{"code":"930703","name":"ตะแพน","parentCode":"9307"},"geometry":{"type":"Polygon","coordinates":[[[99.97571105200007,7.662021154000058],[99.93822102300004,7.659189239000057],[99.91739921900006,7.70640594300005],[99.87785537300005,7.703207462000023],[99.87881328700007,7.6658576570000605],[99.80892406200007,7.644788234000032],[99.78770864400008,7.644569083000022],[99.80066455200006,7.597793920000072],[99.87160277000004,7.626153671000054],[99.89301223100006,7.606772425000031],[99.95104447600005,7.64694920200003],[99.97737852000006,7.643030363000037],[99.97571105200007,7.662021154000058]]]}},{"type":"Feature","properties":{"code":"930108","name":"ท่าแค","parentCode":"9301"},"geometry":{"type":"Polygon","coordinates":[[[100.06646510300004,7.575459588000058],[100.03847249900008,7.577294860000052],[100.01822746400006,7.522822998000038],[100.03087182200005,7.520584168000028],[100.07836972800004,7.523739595000052],[100.08551774700004,7.532666404000054],[100.06646510300004,7.575459588000058]]]}},{"type":"Feature","properties":{"code":"930901","name":"ท่ามะเดื่อ","parentCode":"9309"},"geometry":{"type":"Polygon","coordinates":[[[100.17943204800008,7.46797196600005],[100.16982420300008,7.46873916100003],[100.12780141100006,7.4107507140000735],[100.16179605100007,7.429452414000025],[100.18934038800006,7.391957438000077],[100.19138259100004,7.394391555000027],[100.17943204800008,7.46797196600005]]]}},{"type":"Feature","properties":{"code":"930104","name":"ท่ามิหรำ","parentCode":"9301"},"geometry":{"type":"Polygon","coordinates":[[[100.06646510300004,7.575459588000058],[100.06881516200008,7.606433203000051],[100.04468273700007,7.605534997000063],[100.03650972000008,7.6033107050000694],[100.03155805100005,7.593986656000027],[100.03847249900008,7.577294860000052],[100.06646510300004,7.575459588000058]]]}},{"type":"Feature","properties":{"code":"930502","name":"ทะเลน้อย","parentCode":"9305"},"geometry":{"type":"Polygon","coordinates":[[[100.17749518400007,7.876479127000039],[100.09793041900008,7.87572123800004],[100.08244181700007,7.857834450000041],[100.07959723100004,7.854725163000069],[100.09738437200008,7.810136527000054],[100.10412114800005,7.783179751000034],[100.20065014500005,7.777726530000052],[100.17749518400007,7.876479127000039]]]}},{"type":"Feature","properties":{"code":"930804","name":"ทุ่งนารี","parentCode":"9308"},"geometry":{"type":"Polygon","coordinates":[[[100.16990339600005,7.2543356210000525],[100.14930478800005,7.250192030000051],[100.04989906600008,7.148343385000032],[100.02822832700008,7.090332414000045],[100.05721977100006,7.10757965800002],[100.11432726400005,7.166617762000044],[100.15632260800004,7.14874855100004],[100.17461642000006,7.174775914000065],[100.20105409300004,7.235937659000058],[100.16990339600005,7.2543356210000525]]]}},{"type":"Feature","properties":{"code":"930806","name":"วังใหม่","parentCode":"9308"},"geometry":{"type":"Polygon","coordinates":[[[100.25699384700005,7.308631646000038],[100.22266453400005,7.354682212000057],[100.16450544800006,7.27825675400004],[100.14930478800005,7.250192030000051],[100.16990339600005,7.2543356210000525],[100.20098962100008,7.267278488000045],[100.25699384700005,7.308631646000038]]]}}]}