{"type":"FeatureCollection","features":[{"type":"Feature","properties":{"code":"940102","name":"อาเนาะรู","parentCode":"9401"},"geometry":{"type":"Polygon","coordinates":[[[101.25148874200005,6.863474837000069],[101.25866810000008,6.860915186000057],[101.26207280800008,6.866204572000072],[101.25563551900007,6.876894433000075],[101.25148874200005,6.863474837000069]]]}},{"type":"Feature","properties":{"code":"940913","name":"บาโลย","parentCode":"9409"},"geometry":{"type":"Polygon","coordinates":[[[101.46614863600007,6.775907689000064],[101.43829899100007,6.793853934000026],[101.43329425200005,6.797333942000023],[101.41874848600008,6.786550187000046],[101.41709779900003,6.778778747000047],[101.46143422200004,6.7738206800000285],[101.46614863600007,6.775907689000064]]]}},{"type":"Feature","properties":{"code":"940409","name":"บ้านกลาง","parentCode":"9404"},"geometry":{"type":"Polygon","coordinates":[[[101.54481409800007,6.845978258000059],[101.51106816600009,6.864169688000061],[101.50783974500007,6.849986922000028],[101.48309286700004,6.8232658610000385],[101.50168378200004,6.809815512000057],[101.54140533300006,6.808694893000052],[101.54180970300007,6.817447776000051],[101.54481409800007,6.845978258000059]]]}},{"type":"Feature","properties":{"code":"940410","name":"บ้านน้ำบ่อ","parentCode":"9404"},"geometry":{"type":"Polygon","coordinates":[[[101.59532410800006,6.781710246000046],[101.54481409800007,6.845978258000059],[101.54180970300007,6.817447776000051],[101.56406944100007,6.768898825000065],[101.59532410800006,6.781710246000046]]]}},{"type":"Feature","properties":{"code":"940403","name":"บ้านนอก","parentCode":"9404"},"geometry":{"type":"Polygon","coordinates":[[[101.48309286700004,6.8232658610000385],[101.45214180600004,6.828531019000025],[101.45083971300005,6.824998077000032],[101.45908372000008,6.81601502500007],[101.46897939200005,6.798857182000063],[101.50996682500005,6.800060490000021],[101.50168378200004,6.809815512000057],[101.48309286700004,6.8232658610000385]]]}},{"type":"Feature","properties":{"code":"940104","name":"บานา","parentCode":"9401"},"geometry":{"type":"Polygon","coordinates":[[[101.29944243800009,6.88134881600007],[101.24826072300004,6.898752727000044],[101.25525278200007,6.89347434900003],[101.25563551900007,6.876894433000075],[101.26207280800008,6.866204572000072],[101.29069483000006,6.851559364000025],[101.30486833300006,6.865083858000048],[101.29944243800009,6.88134881600007]]]}},{"type":"Feature","properties":{"code":"940704","name":"บางเก่า","parentCode":"9407"},"geometry":{"type":"Polygon","coordinates":[[[101.61261619700008,6.752117847000022],[101.59532410800006,6.781710246000046],[101.56406944100007,6.768898825000065],[101.55174421800007,6.766963578000059],[101.57862474700005,6.744371767000075],[101.61261619700008,6.752117847000022]]]}},{"type":"Feature","properties":{"code":"940308","name":"บางเขา","parentCode":"9403"},"geometry":{"type":"Polygon","coordinates":[[[101.13893589100007,6.859576691000029],[101.10591260400008,6.859592844000076],[101.09470450400005,6.8130838360000325],[101.14913394000007,6.79925332800002],[101.16418427100007,6.855818327000065],[101.13893589100007,6.859576691000029]]]}},{"type":"Feature","properties":{"code":"940203","name":"บางโกระ","parentCode":"9402"},"geometry":{"type":"Polygon","coordinates":[[[101.11744550900005,6.769434715000045],[101.08901425000005,6.738055256000052],[101.10619338500004,6.739429630000075],[101.11442423500006,6.764195559000029],[101.11744550900005,6.769434715000045]]]}},{"type":"Feature","properties":{"code":"940909","name":"บางปู","parentCode":"9409"},"geometry":{"type":"Polygon","coordinates":[[[101.36825808100008,6.868708207000054],[101.34284518700008,6.88544949900006],[101.32415748800008,6.8766590070000575],[101.32389092200003,6.859617339000067],[101.34841987200008,6.861431085000049],[101.36825808100008,6.868708207000054]]]}},{"type":"Feature","properties":{"code":"940309","name":"บางตาวา","parentCode":"9403"},"geometry":{"type":"Polygon","coordinates":[[[101.19247565800003,6.866092363000064],[101.13893589100007,6.859576691000029],[101.16418427100007,6.855818327000065],[101.19474468000004,6.8638725100000215],[101.19247565800003,6.866092363000064]]]}},{"type":"Feature","properties":{"code":"940112","name":"บาราเฮาะ","parentCode":"9401"},"geometry":{"type":"Polygon","coordinates":[[[101.25334348100006,6.842064571000037],[101.24487831100004,6.819773099000031],[101.29081095700008,6.823235508000039],[101.29298670300005,6.833509960000072],[101.28915403600007,6.842441246000021],[101.25334348100006,6.842064571000037]]]}},{"type":"Feature","properties":{"code":"940108","name":"บาราโหม","parentCode":"9401"},"geometry":{"type":"Polygon","coordinates":[[[101.32415748800008,6.8766590070000575],[101.31805963800008,6.878805646000046],[101.31305377400008,6.868814819000022],[101.31756255000005,6.863499649000062],[101.32389092200003,6.859617339000067],[101.32415748800008,6.8766590070000575]]]}},{"type":"Feature","properties":{"code":"940307","name":"บ่อทอง","parentCode":"9403"},"geometry":{"type":"Polygon","coordinates":[[[101.14913394000007,6.79925332800002],[101.09470450400005,6.8130838360000325],[101.08615842700004,6.7924644180000655],[101.12322840600007,6.779377618000069],[101.17195552100009,6.763733676000072],[101.17555902400005,6.791292768000062],[101.14913394000007,6.79925332800002]]]}},{"type":"Feature","properties":{"code":"940705","name":"บือเระ","parentCode":"9407"},"geometry":{"type":"Polygon","coordinates":[[[101.56986092900007,6.701669476000063],[101.57862474700005,6.744371767000075],[101.54079563900007,6.727245509000056],[101.54345861200005,6.7161789030000705],[101.56986092900007,6.701669476000063]]]}},{"type":"Feature","properties":{"code":"940103","name":"จะบังติกอ","parentCode":"9401"},"geometry":{"type":"Polygon","coordinates":[[[101.25866810000008,6.860915186000057],[101.25148874200005,6.863474837000069],[101.24562769300007,6.860508804000062],[101.24493235400007,6.8558591040000465],[101.24967149100007,6.850366819000044],[101.25866810000008,6.860915186000057]]]}},{"type":"Feature","properties":{"code":"940215","name":"ช้างให้ตก","parentCode":"9402"},"geometry":{"type":"Polygon","coordinates":[[[101.10527849800008,6.6937174430000255],[101.06058888600006,6.705709648000038],[101.05696059300004,6.67753177000003],[101.06215298300003,6.655429383000069],[101.10527849800008,6.6937174430000255]]]}},{"type":"Feature","properties":{"code":"940917","name":"จะรัง","parentCode":"9409"},"geometry":{"type":"Polygon","coordinates":[[[101.48186474000005,6.850963840000077],[101.45414932100005,6.863844918000041],[101.42186979800005,6.861935080000023],[101.42122035900007,6.837111915000037],[101.43544564400008,6.833358506000025],[101.45083971300005,6.824998077000032],[101.45214180600004,6.828531019000025],[101.48186474000005,6.850963840000077]]]}},{"type":"Feature","properties":{"code":"940304","name":"ดาโต๊ะ","parentCode":"9403"},"geometry":{"type":"Polygon","coordinates":[[[101.26645642900007,6.695180338000057],[101.25181336500003,6.739160539000068],[101.20201193800006,6.727297813000064],[101.20823795700005,6.723281038000039],[101.22952166300007,6.707636705000027],[101.26645642900007,6.695180338000057]]]}},{"type":"Feature","properties":{"code":"940404","name":"ดอน","parentCode":"9404"},"geometry":{"type":"Polygon","coordinates":[[[101.50996682500005,6.800060490000021],[101.46897939200005,6.798857182000063],[101.46986067000006,6.795772180000029],[101.46614863600007,6.775907689000064],[101.46143422200004,6.7738206800000285],[101.47083717400005,6.764249826000025],[101.47294530800008,6.763109918000055],[101.49384978000006,6.776725896000073],[101.51089633300006,6.798089449000031],[101.50996682500005,6.800060490000021]]]}},{"type":"Feature","properties":{"code":"940303","name":"ดอนรัก","parentCode":"9403"},"geometry":{"type":"Polygon","coordinates":[[[101.22719822000005,6.853978315000063],[101.20435305300003,6.857291985000074],[101.19321063600006,6.828731051000034],[101.20951219900007,6.819085108000024],[101.21266806300008,6.82078565300003],[101.22719822000005,6.853978315000063]]]}},{"type":"Feature","properties":{"code":"940804","name":"ดอนทราย","parentCode":"9408"},"geometry":{"type":"Polygon","coordinates":[[[101.72484185400003,6.576857325000049],[101.68384146700004,6.642019522000055],[101.68290943700003,6.641342914000063],[101.70113577200004,6.5689333670000565],[101.70931256500006,6.568903285000033],[101.72484185400003,6.576857325000049]]]}},{"type":"Feature","properties":{"code":"940707","name":"กะดุนง","parentCode":"9407"},"geometry":{"type":"Polygon","coordinates":[[[101.56501631000003,6.665245901000048],[101.54979076600006,6.664744147000022],[101.56137364900007,6.628742530000068],[101.57601505500008,6.641153035000059],[101.58109538800005,6.6556126080000695],[101.56501631000003,6.665245901000048]]]}},{"type":"Feature","properties":{"code":"940107","name":"กะมิยอ","parentCode":"9401"},"geometry":{"type":"Polygon","coordinates":[[[101.30144620600004,6.8340599530000645],[101.32154659600008,6.843444653000063],[101.32389092200003,6.859617339000067],[101.31756255000005,6.863499649000062],[101.30144620600004,6.8340599530000645]]]}},{"type":"Feature","properties":{"code":"941101","name":"กะรุบี","parentCode":"9411"},"geometry":{"type":"Polygon","coordinates":[[[101.59668353800004,6.577951546000065],[101.54291649000004,6.610427826000034],[101.52208854100007,6.58361196200002],[101.53677912900008,6.556012145000068],[101.59243153100005,6.56560236200005],[101.59668353800004,6.577951546000065]]]}},{"type":"Feature","properties":{"code":"941012","name":"เขาตูม","parentCode":"9410"},"geometry":{"type":"Polygon","coordinates":[[[101.36106942500004,6.64086377600006],[101.33081479100008,6.630701334000037],[101.30340570800007,6.621162092000077],[101.29345611200006,6.616558087000044],[101.29786518400005,6.583483585000067],[101.30212695600005,6.568668549000051],[101.35487452600006,6.5571950630000515],[101.38244364100007,6.569576460000064],[101.37263981300003,6.599366802000077],[101.36106942500004,6.64086377600006]]]}},{"type":"Feature","properties":{"code":"941009","name":"คลองใหม่","parentCode":"9410"},"geometry":{"type":"Polygon","coordinates":[[[101.26586376000006,6.7746055700000625],[101.23857353800008,6.76310456300007],[101.25181336500003,6.739160539000068],[101.26645642900007,6.695180338000057],[101.28667625000008,6.712244578000025],[101.28352044300004,6.717751656000075],[101.26923648900004,6.754590077000046],[101.26586376000006,6.7746055700000625]]]}},{"type":"Feature","properties":{"code":"940106","name":"คลองมานิง","parentCode":"9401"},"geometry":{"type":"Polygon","coordinates":[[[101.30144620600004,6.8340599530000645],[101.31756255000005,6.863499649000062],[101.31305377400008,6.868814819000022],[101.30486833300006,6.865083858000048],[101.29069483000006,6.851559364000025],[101.28915403600007,6.842441246000021],[101.29298670300005,6.833509960000072],[101.30144620600004,6.8340599530000645]]]}},{"type":"Feature","properties":{"code":"940407","name":"คอกกระบือ","parentCode":"9404"},"geometry":{"type":"Polygon","coordinates":[[[101.54140533300006,6.808694893000052],[101.50168378200004,6.809815512000057],[101.50996682500005,6.800060490000021],[101.51089633300006,6.798089449000031],[101.52673568500006,6.780508712000028],[101.54140533300006,6.808694893000052]]]}},{"type":"Feature","properties":{"code":"940201","name":"โคกโพธิ์","parentCode":"9402"},"geometry":{"type":"Polygon","coordinates":[[[101.08901425000005,6.738055256000052],[101.02882712200005,6.777379366000048],[101.01761865100008,6.724940731000061],[101.05793308100004,6.70683858700005],[101.10253180900008,6.723862377000046],[101.10619338500004,6.739429630000075],[101.08901425000005,6.738055256000052]]]}},{"type":"Feature","properties":{"code":"940302","name":"คอลอตันหยง","parentCode":"9403"},"geometry":{"type":"Polygon","coordinates":[[[101.23857353800008,6.76310456300007],[101.21889318800004,6.766349369000068],[101.21043390500006,6.770101260000047],[101.19071037500004,6.755650828000057],[101.19173278200009,6.750020394000046],[101.20201193800006,6.727297813000064],[101.25181336500003,6.739160539000068],[101.23857353800008,6.76310456300007]]]}},{"type":"Feature","properties":{"code":"940405","name":"ควน","parentCode":"9404"},"geometry":{"type":"Polygon","coordinates":[[[101.51448960800008,6.742508157000032],[101.49384978000006,6.776725896000073],[101.47294530800008,6.763109918000055],[101.50123982900004,6.733949216000042],[101.51448960800008,6.742508157000032]]]}},{"type":"Feature","properties":{"code":"940214","name":"ควนโนรี","parentCode":"9402"},"geometry":{"type":"Polygon","coordinates":[[[101.20201193800006,6.727297813000064],[101.19173278200009,6.750020394000046],[101.16329292800003,6.711578002000067],[101.16163742300006,6.6768428790000485],[101.18431696200008,6.66198720400007],[101.20823795700005,6.723281038000039],[101.20201193800006,6.727297813000064]]]}},{"type":"Feature","properties":{"code":"940508","name":"เกาะจัน","parentCode":"9405"},"geometry":{"type":"Polygon","coordinates":[[[101.40688744500005,6.746496591000039],[101.36645437300007,6.745701346000033],[101.36043525900004,6.730332646000022],[101.39947579000005,6.715968781000072],[101.40249525300004,6.732857406000051],[101.40688744500005,6.746496591000039]]]}},{"type":"Feature","properties":{"code":"941011","name":"กอลำ","parentCode":"9410"},"geometry":{"type":"Polygon","coordinates":[[[101.36106942500004,6.64086377600006],[101.35960663400004,6.64779395000005],[101.33140617200007,6.6975973800000475],[101.32553327800008,6.706200802000069],[101.30945428600006,6.700888823000071],[101.33081479100008,6.630701334000037],[101.36106942500004,6.64086377600006]]]}},{"type":"Feature","properties":{"code":"940301","name":"เกาะเปาะ","parentCode":"9403"},"geometry":{"type":"Polygon","coordinates":[[[101.20951219900007,6.819085108000024],[101.19321063600006,6.828731051000034],[101.19048706500007,6.820116220000045],[101.20787374500009,6.797372008000025],[101.20951219900007,6.819085108000024]]]}},{"type":"Feature","properties":{"code":"941008","name":"กระโด","parentCode":"9410"},"geometry":{"type":"Polygon","coordinates":[[[101.32033420700009,6.724500240000054],[101.29219850100009,6.7273840770000675],[101.28352044300004,6.717751656000075],[101.28667625000008,6.712244578000025],[101.30945428600006,6.700888823000071],[101.32553327800008,6.706200802000069],[101.32033420700009,6.724500240000054]]]}},{"type":"Feature","properties":{"code":"940507","name":"กระเสาะ","parentCode":"9405"},"geometry":{"type":"Polygon","coordinates":[[[101.40862194700009,6.7605178410000235],[101.37026047300009,6.762219454000046],[101.36777527300006,6.76330093200005],[101.36645437300007,6.745701346000033],[101.40688744500005,6.746496591000039],[101.40862194700009,6.7605178410000235]]]}},{"type":"Feature","properties":{"code":"940504","name":"กระหวะ","parentCode":"9405"},"geometry":{"type":"Polygon","coordinates":[[[101.46143422200004,6.7738206800000285],[101.41709779900003,6.778778747000047],[101.41550561800005,6.773910828000055],[101.43253192600008,6.740694554000072],[101.45550873200006,6.75614861300005],[101.47083717400005,6.764249826000025],[101.46143422200004,6.7738206800000285]]]}},{"type":"Feature","properties":{"code":"940506","name":"ลางา","parentCode":"9405"},"geometry":{"type":"Polygon","coordinates":[[[101.47294530800008,6.763109918000055],[101.47083717400005,6.764249826000025],[101.45550873200006,6.75614861300005],[101.45880732100005,6.711766174000047],[101.48665708100003,6.7126176060000375],[101.50123982900004,6.733949216000042],[101.47294530800008,6.763109918000055]]]}},{"type":"Feature","properties":{"code":"940918","name":"แหลมโพธิ์","parentCode":"9409"},"geometry":{"type":"Polygon","coordinates":[[[101.35814226600007,6.903772169000035],[101.32405751000005,6.928069438000023],[101.34503293200004,6.896787556000049],[101.35814226600007,6.903772169000035]]]}},{"type":"Feature","properties":{"code":"940708","name":"ละหาร","parentCode":"9407"},"geometry":{"type":"Polygon","coordinates":[[[101.63862703300003,6.644685153000069],[101.64074654400008,6.673838087000036],[101.60984151900004,6.688648811000064],[101.60647401900007,6.676308397000071],[101.61480112100008,6.629572824000036],[101.63140115900006,6.635138712000071],[101.63862703300003,6.644685153000069]]]}},{"type":"Feature","properties":{"code":"940312","name":"ลิปะสะโง","parentCode":"9403"},"geometry":{"type":"Polygon","coordinates":[[[101.24487831100004,6.819773099000031],[101.21266806300008,6.82078565300003],[101.20951219900007,6.819085108000024],[101.20787374500009,6.797372008000025],[101.21043390500006,6.770101260000047],[101.21889318800004,6.766349369000068],[101.25510405700004,6.797428384000057],[101.25246292000008,6.802896997000062],[101.24487831100004,6.819773099000031]]]}},{"type":"Feature","properties":{"code":"940505","name":"ลุโบะยิไร","parentCode":"9405"},"geometry":{"type":"Polygon","coordinates":[[[101.43751918800007,6.702366623000046],[101.40336978900007,6.703812053000036],[101.38769440300007,6.668299097000045],[101.35960663400004,6.64779395000005],[101.36106942500004,6.64086377600006],[101.37263981300003,6.599366802000077],[101.42229421400003,6.637342892000049],[101.42970070400008,6.6428730680000285],[101.43751918800007,6.702366623000046]]]}},{"type":"Feature","properties":{"code":"941201","name":"แม่ลาน","parentCode":"9412"},"geometry":{"type":"Polygon","coordinates":[[[101.27012422000007,6.645572017000063],[101.23514237000006,6.683959497000046],[101.20645005000006,6.651011925000034],[101.19901349700007,6.644020686000033],[101.22402740100006,6.606261136000057],[101.22855219300004,6.61113522200003],[101.23665062600008,6.6274212780000425],[101.27012422000007,6.645572017000063]]]}},{"type":"Feature","properties":{"code":"940802","name":"ไม้แก่น","parentCode":"9408"},"geometry":{"type":"Polygon","coordinates":[[[101.66377691100007,6.671549918000039],[101.64074654400008,6.673838087000036],[101.63862703300003,6.644685153000069],[101.66181711100006,6.631350022000049],[101.68290943700003,6.641342914000063],[101.68384146700004,6.642019522000055],[101.66377691100007,6.671549918000039]]]}},{"type":"Feature","properties":{"code":"940202","name":"มะกรูด","parentCode":"9402"},"geometry":{"type":"Polygon","coordinates":[[[101.14940102900005,6.713566865000075],[101.11442423500006,6.764195559000029],[101.10619338500004,6.739429630000075],[101.10253180900008,6.723862377000046],[101.12288482000008,6.704507300000046],[101.14940102900005,6.713566865000075]]]}},{"type":"Feature","properties":{"code":"940709","name":"มะนังดาลำ","parentCode":"9407"},"geometry":{"type":"Polygon","coordinates":[[[101.60647401900007,6.676308397000071],[101.58109538800005,6.6556126080000695],[101.57601505500008,6.641153035000059],[101.58668031700006,6.626373642000033],[101.61480112100008,6.629572824000036],[101.60647401900007,6.676308397000071]]]}},{"type":"Feature","properties":{"code":"940915","name":"มะนังยง","parentCode":"9409"},"geometry":{"type":"Polygon","coordinates":[[[101.41717472100004,6.794441162000055],[101.41389836200005,6.832894149000026],[101.39669301900005,6.826522889000046],[101.37789653200008,6.806975347000048],[101.41717472100004,6.794441162000055]]]}},{"type":"Feature","properties":{"code":"940501","name":"มายอ","parentCode":"9405"},"geometry":{"type":"Polygon","coordinates":[[[101.43308156800003,6.725689596000052],[101.40249525300004,6.732857406000051],[101.39947579000005,6.715968781000072],[101.40336978900007,6.703812053000036],[101.43751918800007,6.702366623000046],[101.43951777300003,6.708298724000031],[101.43308156800003,6.725689596000052]]]}},{"type":"Feature","properties":{"code":"941010","name":"เมาะมาวี","parentCode":"9410"},"geometry":{"type":"Polygon","coordinates":[[[101.30945428600006,6.700888823000071],[101.28667625000008,6.712244578000025],[101.28036161800009,6.68187537600005],[101.30340570800007,6.621162092000077],[101.33081479100008,6.630701334000037],[101.30945428600006,6.700888823000071]]]}},{"type":"Feature","properties":{"code":"941202","name":"ม่วงเตี้ย","parentCode":"9412"},"geometry":{"type":"Polygon","coordinates":[[[101.28667625000008,6.712244578000025],[101.26645642900007,6.695180338000057],[101.22952166300007,6.707636705000027],[101.23514237000006,6.683959497000046],[101.27012422000007,6.645572017000063],[101.28036161800009,6.68187537600005],[101.28667625000008,6.712244578000025]]]}},{"type":"Feature","properties":{"code":"940213","name":"นาเกตุ","parentCode":"9402"},"geometry":{"type":"Polygon","coordinates":[[[101.17195552100009,6.763733676000072],[101.12322840600007,6.779377618000069],[101.11744550900005,6.769434715000045],[101.11442423500006,6.764195559000029],[101.14940102900005,6.713566865000075],[101.16329292800003,6.711578002000067],[101.19173278200009,6.750020394000046],[101.19071037500004,6.755650828000057],[101.17195552100009,6.763733676000072]]]}},{"type":"Feature","properties":{"code":"940206","name":"นาประดู่","parentCode":"9402"},"geometry":{"type":"Polygon","coordinates":[[[101.14940102900005,6.713566865000075],[101.12288482000008,6.704507300000046],[101.11490545600009,6.698438002000046],[101.11704945200006,6.63149233200005],[101.16163742300006,6.6768428790000485],[101.16329292800003,6.711578002000067],[101.14940102900005,6.713566865000075]]]}},{"type":"Feature","properties":{"code":"940603","name":"น้ำดำ","parentCode":"9406"},"geometry":{"type":"Polygon","coordinates":[[[101.44436477200009,6.635896889000037],[101.42970070400008,6.6428730680000285],[101.42229421400003,6.637342892000049],[101.42734867600007,6.593865723000022],[101.47007740400005,6.59595725500003],[101.44436477200009,6.635896889000037]]]}},{"type":"Feature","properties":{"code":"940910","name":"หนองแรต","parentCode":"9409"},"geometry":{"type":"Polygon","coordinates":[[[101.42186979800005,6.861935080000023],[101.39166989100005,6.874224034000065],[101.38290043100005,6.856625453000049],[101.39669301900005,6.826522889000046],[101.41389836200005,6.832894149000026],[101.42122035900007,6.837111915000037],[101.42186979800005,6.861935080000023]]]}},{"type":"Feature","properties":{"code":"940204","name":"ป่าบอน","parentCode":"9402"},"geometry":{"type":"Polygon","coordinates":[[[101.10253180900008,6.723862377000046],[101.05793308100004,6.70683858700005],[101.06058888600006,6.705709648000038],[101.10527849800008,6.6937174430000255],[101.11490545600009,6.698438002000046],[101.12288482000008,6.704507300000046],[101.10253180900008,6.723862377000046]]]}},{"type":"Feature","properties":{"code":"940604","name":"ปากู","parentCode":"9406"},"geometry":{"type":"Polygon","coordinates":[[[101.50236486500006,6.603703730000063],[101.48556404300007,6.666408256000068],[101.44436477200009,6.635896889000037],[101.47007740400005,6.59595725500003],[101.50236486500006,6.603703730000063]]]}},{"type":"Feature","properties":{"code":"940513","name":"ปานัน","parentCode":"9405"},"geometry":{"type":"Polygon","coordinates":[[[101.33140617200007,6.6975973800000475],[101.34871050000004,6.70868660900004],[101.35133431800006,6.729211629000076],[101.34302739000003,6.735641346000023],[101.33722425700006,6.7387988000000405],[101.32033420700009,6.724500240000054],[101.32553327800008,6.706200802000069],[101.33140617200007,6.6975973800000475]]]}},{"type":"Feature","properties":{"code":"941203","name":"ป่าไร่","parentCode":"9412"},"geometry":{"type":"Polygon","coordinates":[[[101.22952166300007,6.707636705000027],[101.20823795700005,6.723281038000039],[101.18431696200008,6.66198720400007],[101.20645005000006,6.651011925000034],[101.23514237000006,6.683959497000046],[101.22952166300007,6.707636705000027]]]}},{"type":"Feature","properties":{"code":"940509","name":"ปะโด","parentCode":"9405"},"geometry":{"type":"Polygon","coordinates":[[[101.38769440300007,6.668299097000045],[101.34871050000004,6.70868660900004],[101.33140617200007,6.6975973800000475],[101.35960663400004,6.64779395000005],[101.38769440300007,6.668299097000045]]]}},{"type":"Feature","properties":{"code":"940710","name":"แป้น","parentCode":"9407"},"geometry":{"type":"Polygon","coordinates":[[[101.55174421800007,6.766963578000059],[101.53582552800003,6.767998652000074],[101.51520961400007,6.74275298200007],[101.54079563900007,6.727245509000056],[101.57862474700005,6.744371767000075],[101.55174421800007,6.766963578000059]]]}},{"type":"Feature","properties":{"code":"940207","name":"ปากล่อ","parentCode":"9402"},"geometry":{"type":"Polygon","coordinates":[[[101.22402740100006,6.606261136000057],[101.19901349700007,6.644020686000033],[101.12827988000004,6.611965191000024],[101.18917957800005,6.598654389000046],[101.22402740100006,6.606261136000057]]]}},{"type":"Feature","properties":{"code":"940109","name":"ปะกาฮะรัง","parentCode":"9401"},"geometry":{"type":"Polygon","coordinates":[[[101.24967149100007,6.850366819000044],[101.24493235400007,6.8558591040000465],[101.22719822000005,6.853978315000063],[101.21266806300008,6.82078565300003],[101.24487831100004,6.819773099000031],[101.25334348100006,6.842064571000037],[101.24967149100007,6.850366819000044]]]}},{"type":"Feature","properties":{"code":"940401","name":"ปะนาเระ","parentCode":"9404"},"geometry":{"type":"Polygon","coordinates":[[[101.51106816600009,6.864169688000061],[101.45664238700004,6.88279170900006],[101.45414932100005,6.863844918000041],[101.48186474000005,6.850963840000077],[101.50783974500007,6.849986922000028],[101.51106816600009,6.864169688000061]]]}},{"type":"Feature","properties":{"code":"940703","name":"ปะเสยะวอ","parentCode":"9407"},"geometry":{"type":"Polygon","coordinates":[[[101.63982805700005,6.716052962000049],[101.61261619700008,6.752117847000022],[101.57862474700005,6.744371767000075],[101.56986092900007,6.701669476000063],[101.58032634000006,6.690287998000031],[101.61155938200005,6.707880451000051],[101.63982805700005,6.716052962000049]]]}},{"type":"Feature","properties":{"code":"940602","name":"พิเทน","parentCode":"9406"},"geometry":{"type":"Polygon","coordinates":[[[101.51575811100008,6.6985517220000474],[101.48665708100003,6.7126176060000375],[101.45880732100005,6.711766174000047],[101.43951777300003,6.708298724000031],[101.43751918800007,6.702366623000046],[101.42970070400008,6.6428730680000285],[101.44436477200009,6.635896889000037],[101.48556404300007,6.666408256000068],[101.51070959100008,6.675923386000022],[101.51575811100008,6.6985517220000474]]]}},{"type":"Feature","properties":{"code":"940408","name":"พ่อมิ่ง","parentCode":"9404"},"geometry":{"type":"Polygon","coordinates":[[[101.56406944100007,6.768898825000065],[101.54180970300007,6.817447776000051],[101.54140533300006,6.808694893000052],[101.52673568500006,6.780508712000028],[101.53582552800003,6.767998652000074],[101.55174421800007,6.766963578000059],[101.56406944100007,6.768898825000065]]]}},{"type":"Feature","properties":{"code":"941006","name":"ปิตูมุดี","parentCode":"9410"},"geometry":{"type":"Polygon","coordinates":[[[101.29499810000004,6.751199532000044],[101.26923648900004,6.754590077000046],[101.28352044300004,6.717751656000075],[101.29219850100009,6.7273840770000675],[101.29499810000004,6.751199532000044]]]}},{"type":"Feature","properties":{"code":"940911","name":"ปิยามุมัง","parentCode":"9409"},"geometry":{"type":"Polygon","coordinates":[[[101.39669301900005,6.826522889000046],[101.38290043100005,6.856625453000049],[101.37452427200009,6.84310976200004],[101.36385256600005,6.810739271000045],[101.37789653200008,6.806975347000048],[101.39669301900005,6.826522889000046]]]}},{"type":"Feature","properties":{"code":"941103","name":"ปล่องหอย","parentCode":"9411"},"geometry":{"type":"Polygon","coordinates":[[[101.54979076600006,6.664744147000022],[101.51070959100008,6.675923386000022],[101.48556404300007,6.666408256000068],[101.50236486500006,6.603703730000063],[101.50697336700006,6.602971104000062],[101.52208854100007,6.58361196200002],[101.54291649000004,6.610427826000034],[101.56137364900007,6.628742530000068],[101.54979076600006,6.664744147000022]]]}},{"type":"Feature","properties":{"code":"941003","name":"ประจัน","parentCode":"9410"},"geometry":{"type":"Polygon","coordinates":[[[101.31732645200003,6.801794112000039],[101.28601490000005,6.809121360000063],[101.25246292000008,6.802896997000062],[101.25510405700004,6.797428384000057],[101.27109644700005,6.7837366840000755],[101.30259597900005,6.787750663000054],[101.31732645200003,6.801794112000039]]]}},{"type":"Feature","properties":{"code":"940113","name":"ปุยุด","parentCode":"9401"},"geometry":{"type":"Polygon","coordinates":[[[101.28601490000005,6.809121360000063],[101.29081095700008,6.823235508000039],[101.24487831100004,6.819773099000031],[101.25246292000008,6.802896997000062],[101.28601490000005,6.809121360000063]]]}},{"type":"Feature","properties":{"code":"940912","name":"ปุลากง","parentCode":"9409"},"geometry":{"type":"Polygon","coordinates":[[[101.41550561800005,6.773910828000055],[101.37200766300003,6.786825151000073],[101.37026047300009,6.762219454000046],[101.40862194700009,6.7605178410000235],[101.41550561800005,6.773910828000055]]]}},{"type":"Feature","properties":{"code":"940310","name":"ปุโละปุโย","parentCode":"9403"},"geometry":{"type":"Polygon","coordinates":[[[101.21043390500006,6.770101260000047],[101.20787374500009,6.797372008000025],[101.19048706500007,6.820116220000045],[101.17555902400005,6.791292768000062],[101.17195552100009,6.763733676000072],[101.19071037500004,6.755650828000057],[101.21043390500006,6.770101260000047]]]}},{"type":"Feature","properties":{"code":"940916","name":"ราตาปันยัง","parentCode":"9409"},"geometry":{"type":"Polygon","coordinates":[[[101.36385256600005,6.810739271000045],[101.37452427200009,6.84310976200004],[101.35314917600004,6.839988022000057],[101.32966518100005,6.82541827600005],[101.33564754700006,6.803592031000051],[101.35966445200006,6.793568871000048],[101.36385256600005,6.810739271000045]]]}},{"type":"Feature","properties":{"code":"941005","name":"ระแว้ง","parentCode":"9410"},"geometry":{"type":"Polygon","coordinates":[[[101.33406086200006,6.770260457000063],[101.31108644500006,6.778257259000043],[101.29952939200007,6.754805652000073],[101.33793480600008,6.741098899000065],[101.33406086200006,6.770260457000063]]]}},{"type":"Feature","properties":{"code":"940110","name":"รูสะมิแล","parentCode":"9401"},"geometry":{"type":"Polygon","coordinates":[[[101.25525278200007,6.89347434900003],[101.24826072300004,6.898752727000044],[101.19247565800003,6.866092363000064],[101.19474468000004,6.8638725100000215],[101.20435305300003,6.857291985000074],[101.22719822000005,6.853978315000063],[101.24493235400007,6.8558591040000465],[101.24562769300007,6.860508804000062],[101.25525278200007,6.89347434900003]]]}},{"type":"Feature","properties":{"code":"940914","name":"สาบัน","parentCode":"9409"},"geometry":{"type":"Polygon","coordinates":[[[101.45083971300005,6.824998077000032],[101.43544564400008,6.833358506000025],[101.43462187900008,6.805781859000035],[101.45908372000008,6.81601502500007],[101.45083971300005,6.824998077000032]]]}},{"type":"Feature","properties":{"code":"940101","name":"สะบารัง","parentCode":"9401"},"geometry":{"type":"Polygon","coordinates":[[[101.24562769300007,6.860508804000062],[101.25148874200005,6.863474837000069],[101.25563551900007,6.876894433000075],[101.25525278200007,6.89347434900003],[101.24562769300007,6.860508804000062]]]}},{"type":"Feature","properties":{"code":"941002","name":"สะดาวา","parentCode":"9410"},"geometry":{"type":"Polygon","coordinates":[[[101.32966518100005,6.82541827600005],[101.32154659600008,6.843444653000063],[101.30144620600004,6.8340599530000645],[101.29298670300005,6.833509960000072],[101.29081095700008,6.823235508000039],[101.28601490000005,6.809121360000063],[101.31732645200003,6.801794112000039],[101.33524847500007,6.801041909000048],[101.33564754700006,6.803592031000051],[101.32966518100005,6.82541827600005]]]}},{"type":"Feature","properties":{"code":"940205","name":"ทรายขาว","parentCode":"9402"},"geometry":{"type":"Polygon","coordinates":[[[101.11704945200006,6.63149233200005],[101.11490545600009,6.698438002000046],[101.10527849800008,6.6937174430000255],[101.06215298300003,6.655429383000069],[101.10361983100006,6.627967249000051],[101.11345888300008,6.626929371000074],[101.11704945200006,6.63149233200005]]]}},{"type":"Feature","properties":{"code":"940801","name":"ไทรทอง","parentCode":"9408"},"geometry":{"type":"Polygon","coordinates":[[[101.70113577200004,6.5689333670000565],[101.68290943700003,6.641342914000063],[101.66181711100006,6.631350022000049],[101.63468323000006,6.620832983000071],[101.65202381800003,6.60233635700007],[101.67514972700008,6.57304954600005],[101.70113577200004,6.5689333670000565]]]}},{"type":"Feature","properties":{"code":"940512","name":"สะกำ","parentCode":"9405"},"geometry":{"type":"Polygon","coordinates":[[[101.45880732100005,6.711766174000047],[101.45550873200006,6.75614861300005],[101.43253192600008,6.740694554000072],[101.43308156800003,6.725689596000052],[101.43951777300003,6.708298724000031],[101.45880732100005,6.711766174000047]]]}},{"type":"Feature","properties":{"code":"940510","name":"สาคอบน","parentCode":"9405"},"geometry":{"type":"Polygon","coordinates":[[[101.33406086200006,6.770260457000063],[101.33793480600008,6.741098899000065],[101.33722425700006,6.7387988000000405],[101.34302739000003,6.735641346000023],[101.35740772800006,6.767394961000036],[101.33406086200006,6.770260457000063]]]}},{"type":"Feature","properties":{"code":"940511","name":"สาคอใต้","parentCode":"9405"},"geometry":{"type":"Polygon","coordinates":[[[101.36777527300006,6.76330093200005],[101.35740772800006,6.767394961000036],[101.34302739000003,6.735641346000023],[101.35133431800006,6.729211629000076],[101.36043525900004,6.730332646000022],[101.36645437300007,6.745701346000033],[101.36777527300006,6.76330093200005]]]}},{"type":"Feature","properties":{"code":"941004","name":"สะนอ","parentCode":"9410"},"geometry":{"type":"Polygon","coordinates":[[[101.33524847500007,6.801041909000048],[101.31732645200003,6.801794112000039],[101.30259597900005,6.787750663000054],[101.31108644500006,6.778257259000043],[101.33406086200006,6.770260457000063],[101.33524847500007,6.801041909000048]]]}},{"type":"Feature","properties":{"code":"940906","name":"ตาแกะ","parentCode":"9409"},"geometry":{"type":"Polygon","coordinates":[[[101.35314917600004,6.839988022000057],[101.34841987200008,6.861431085000049],[101.32389092200003,6.859617339000067],[101.32154659600008,6.843444653000063],[101.32966518100005,6.82541827600005],[101.35314917600004,6.839988022000057]]]}},{"type":"Feature","properties":{"code":"940702","name":"ตะบิ้ง","parentCode":"9407"},"geometry":{"type":"Polygon","coordinates":[[[101.61155938200005,6.707880451000051],[101.58032634000006,6.690287998000031],[101.56501631000003,6.665245901000048],[101.58109538800005,6.6556126080000695],[101.60647401900007,6.676308397000071],[101.60984151900004,6.688648811000064],[101.61155938200005,6.707880451000051]]]}},{"type":"Feature","properties":{"code":"940907","name":"ตาลีอายร์","parentCode":"9409"},"geometry":{"type":"Polygon","coordinates":[[[101.41717472100004,6.794441162000055],[101.37789653200008,6.806975347000048],[101.36385256600005,6.810739271000045],[101.35966445200006,6.793568871000048],[101.37200766300003,6.786825151000073],[101.41550561800005,6.773910828000055],[101.41709779900003,6.778778747000047],[101.41874848600008,6.786550187000046],[101.41717472100004,6.794441162000055]]]}},{"type":"Feature","properties":{"code":"940901","name":"ตะโละ","parentCode":"9409"},"geometry":{"type":"Polygon","coordinates":[[[101.37026047300009,6.762219454000046],[101.37200766300003,6.786825151000073],[101.35966445200006,6.793568871000048],[101.33564754700006,6.803592031000051],[101.33524847500007,6.801041909000048],[101.33406086200006,6.770260457000063],[101.35740772800006,6.767394961000036],[101.36777527300006,6.76330093200005],[101.37026047300009,6.762219454000046]]]}},{"type":"Feature","properties":{"code":"941102","name":"ตะโละดือรามัน","parentCode":"9411"},"geometry":{"type":"Polygon","coordinates":[[[101.57601505500008,6.641153035000059],[101.56137364900007,6.628742530000068],[101.54291649000004,6.610427826000034],[101.59668353800004,6.577951546000065],[101.59630428000008,6.581272401000035],[101.58668031700006,6.626373642000033],[101.57601505500008,6.641153035000059]]]}},{"type":"Feature","properties":{"code":"940902","name":"ตะโละกาโปร์","parentCode":"9409"},"geometry":{"type":"Polygon","coordinates":[[[101.45664238700004,6.88279170900006],[101.35814226600007,6.903772169000035],[101.34503293200004,6.896787556000049],[101.34284518700008,6.88544949900006],[101.36825808100008,6.868708207000054],[101.39166989100005,6.874224034000065],[101.42186979800005,6.861935080000023],[101.45414932100005,6.863844918000041],[101.45664238700004,6.88279170900006]]]}},{"type":"Feature","properties":{"code":"940803","name":"ตะโละไกรทอง","parentCode":"9408"},"geometry":{"type":"Polygon","coordinates":[[[101.66181711100006,6.631350022000049],[101.63862703300003,6.644685153000069],[101.63140115900006,6.635138712000071],[101.63468323000006,6.620832983000071],[101.66181711100006,6.631350022000049]]]}},{"type":"Feature","properties":{"code":"940601","name":"ตะโละแมะนา","parentCode":"9406"},"geometry":{"type":"Polygon","coordinates":[[[101.42734867600007,6.593865723000022],[101.42229421400003,6.637342892000049],[101.37263981300003,6.599366802000077],[101.38244364100007,6.569576460000064],[101.41047200100007,6.583139407000033],[101.42734867600007,6.593865723000022]]]}},{"type":"Feature","properties":{"code":"940701","name":"ตะลุบัน","parentCode":"9407"},"geometry":{"type":"Polygon","coordinates":[[[101.66377691100007,6.671549918000039],[101.63982805700005,6.716052962000049],[101.61155938200005,6.707880451000051],[101.60984151900004,6.688648811000064],[101.64074654400008,6.673838087000036],[101.66377691100007,6.671549918000039]]]}},{"type":"Feature","properties":{"code":"940111","name":"ตะลุโบะ","parentCode":"9401"},"geometry":{"type":"Polygon","coordinates":[[[101.25334348100006,6.842064571000037],[101.28915403600007,6.842441246000021],[101.29069483000006,6.851559364000025],[101.26207280800008,6.866204572000072],[101.25866810000008,6.860915186000057],[101.24967149100007,6.850366819000044],[101.25334348100006,6.842064571000037]]]}},{"type":"Feature","properties":{"code":"940904","name":"ตันหยงจึงงา","parentCode":"9409"},"geometry":{"type":"Polygon","coordinates":[[[101.46986067000006,6.795772180000029],[101.43829899100007,6.793853934000026],[101.46614863600007,6.775907689000064],[101.46986067000006,6.795772180000029]]]}},{"type":"Feature","properties":{"code":"940903","name":"ตันหยงดาลอ","parentCode":"9409"},"geometry":{"type":"Polygon","coordinates":[[[101.43462187900008,6.805781859000035],[101.43544564400008,6.833358506000025],[101.42122035900007,6.837111915000037],[101.41389836200005,6.832894149000026],[101.41717472100004,6.794441162000055],[101.41874848600008,6.786550187000046],[101.43329425200005,6.797333942000023],[101.43462187900008,6.805781859000035]]]}},{"type":"Feature","properties":{"code":"940105","name":"ตันหยงลุโละ","parentCode":"9401"},"geometry":{"type":"Polygon","coordinates":[[[101.31805963800008,6.878805646000046],[101.29944243800009,6.88134881600007],[101.30486833300006,6.865083858000048],[101.31305377400008,6.868814819000022],[101.31805963800008,6.878805646000046]]]}},{"type":"Feature","properties":{"code":"940306","name":"ท่ากำชำ","parentCode":"9403"},"geometry":{"type":"Polygon","coordinates":[[[101.10591260400008,6.859592844000076],[101.06609815300004,6.857092431000069],[101.05437259300004,6.801492333000056],[101.08615842700004,6.7924644180000655],[101.09470450400005,6.8130838360000325],[101.10591260400008,6.859592844000076]]]}},{"type":"Feature","properties":{"code":"940402","name":"ท่าข้าม","parentCode":"9404"},"geometry":{"type":"Polygon","coordinates":[[[101.50783974500007,6.849986922000028],[101.48186474000005,6.850963840000077],[101.45214180600004,6.828531019000025],[101.48309286700004,6.8232658610000385],[101.50783974500007,6.849986922000028]]]}},{"type":"Feature","properties":{"code":"940406","name":"ท่าน้ำ","parentCode":"9404"},"geometry":{"type":"Polygon","coordinates":[[[101.52673568500006,6.780508712000028],[101.51089633300006,6.798089449000031],[101.49384978000006,6.776725896000073],[101.51448960800008,6.742508157000032],[101.51520961400007,6.74275298200007],[101.53582552800003,6.767998652000074],[101.52673568500006,6.780508712000028]]]}},{"type":"Feature","properties":{"code":"940211","name":"ท่าเรือ","parentCode":"9402"},"geometry":{"type":"Polygon","coordinates":[[[101.08615842700004,6.7924644180000655],[101.05437259300004,6.801492333000056],[101.02863443800004,6.7785569740000255],[101.02882712200005,6.777379366000048],[101.08901425000005,6.738055256000052],[101.11744550900005,6.769434715000045],[101.12322840600007,6.779377618000069],[101.08615842700004,6.7924644180000655]]]}},{"type":"Feature","properties":{"code":"940502","name":"ถนน","parentCode":"9405"},"geometry":{"type":"Polygon","coordinates":[[[101.43308156800003,6.725689596000052],[101.43253192600008,6.740694554000072],[101.41550561800005,6.773910828000055],[101.40862194700009,6.7605178410000235],[101.40688744500005,6.746496591000039],[101.40249525300004,6.732857406000051],[101.43308156800003,6.725689596000052]]]}},{"type":"Feature","properties":{"code":"940711","name":"ทุ่งคล้า","parentCode":"9407"},"geometry":{"type":"Polygon","coordinates":[[[101.54079563900007,6.727245509000056],[101.51520961400007,6.74275298200007],[101.51448960800008,6.742508157000032],[101.50123982900004,6.733949216000042],[101.48665708100003,6.7126176060000375],[101.51575811100008,6.6985517220000474],[101.54345861200005,6.7161789030000705],[101.54079563900007,6.727245509000056]]]}},{"type":"Feature","properties":{"code":"940208","name":"ทุ่งพลา","parentCode":"9402"},"geometry":{"type":"Polygon","coordinates":[[[101.18431696200008,6.66198720400007],[101.16163742300006,6.6768428790000485],[101.11704945200006,6.63149233200005],[101.11345888300008,6.626929371000074],[101.12827988000004,6.611965191000024],[101.19901349700007,6.644020686000033],[101.20645005000006,6.651011925000034],[101.18431696200008,6.66198720400007]]]}},{"type":"Feature","properties":{"code":"940905","name":"ตอหลัง","parentCode":"9409"},"geometry":{"type":"Polygon","coordinates":[[[101.46986067000006,6.795772180000029],[101.46897939200005,6.798857182000063],[101.45908372000008,6.81601502500007],[101.43462187900008,6.805781859000035],[101.43329425200005,6.797333942000023],[101.43829899100007,6.793853934000026],[101.46986067000006,6.795772180000029]]]}},{"type":"Feature","properties":{"code":"940503","name":"ตรัง","parentCode":"9405"},"geometry":{"type":"Polygon","coordinates":[[[101.39947579000005,6.715968781000072],[101.36043525900004,6.730332646000022],[101.35133431800006,6.729211629000076],[101.34871050000004,6.70868660900004],[101.38769440300007,6.668299097000045],[101.40336978900007,6.703812053000036],[101.39947579000005,6.715968781000072]]]}},{"type":"Feature","properties":{"code":"940706","name":"เตราะบอน","parentCode":"9407"},"geometry":{"type":"Polygon","coordinates":[[[101.56986092900007,6.701669476000063],[101.54345861200005,6.7161789030000705],[101.51575811100008,6.6985517220000474],[101.51070959100008,6.675923386000022],[101.54979076600006,6.664744147000022],[101.56501631000003,6.665245901000048],[101.58032634000006,6.690287998000031],[101.56986092900007,6.701669476000063]]]}},{"type":"Feature","properties":{"code":"940305","name":"ตุยง","parentCode":"9403"},"geometry":{"type":"Polygon","coordinates":[[[101.20435305300003,6.857291985000074],[101.19474468000004,6.8638725100000215],[101.16418427100007,6.855818327000065],[101.14913394000007,6.79925332800002],[101.17555902400005,6.791292768000062],[101.19048706500007,6.820116220000045],[101.19321063600006,6.828731051000034],[101.20435305300003,6.857291985000074]]]}},{"type":"Feature","properties":{"code":"941007","name":"วัด","parentCode":"9410"},"geometry":{"type":"Polygon","coordinates":[[[101.33793480600008,6.741098899000065],[101.29952939200007,6.754805652000073],[101.29499810000004,6.751199532000044],[101.29219850100009,6.7273840770000675],[101.32033420700009,6.724500240000054],[101.33722425700006,6.7387988000000405],[101.33793480600008,6.741098899000065]]]}},{"type":"Feature","properties":{"code":"940311","name":"ยาบี","parentCode":"9403"},"geometry":{"type":"Polygon","coordinates":[[[101.27109644700005,6.7837366840000755],[101.25510405700004,6.797428384000057],[101.21889318800004,6.766349369000068],[101.23857353800008,6.76310456300007],[101.26586376000006,6.7746055700000625],[101.27109644700005,6.7837366840000755]]]}},{"type":"Feature","properties":{"code":"940908","name":"ยามู","parentCode":"9409"},"geometry":{"type":"Polygon","coordinates":[[[101.38290043100005,6.856625453000049],[101.39166989100005,6.874224034000065],[101.36825808100008,6.868708207000054],[101.34841987200008,6.861431085000049],[101.35314917600004,6.839988022000057],[101.37452427200009,6.84310976200004],[101.38290043100005,6.856625453000049]]]}},{"type":"Feature","properties":{"code":"941001","name":"ยะรัง","parentCode":"9410"},"geometry":{"type":"Polygon","coordinates":[[[101.31108644500006,6.778257259000043],[101.30259597900005,6.787750663000054],[101.27109644700005,6.7837366840000755],[101.26586376000006,6.7746055700000625],[101.26923648900004,6.754590077000046],[101.29499810000004,6.751199532000044],[101.29952939200007,6.754805652000073],[101.31108644500006,6.778257259000043]]]}}]}