{"type":"FeatureCollection","features":[{"type":"Feature","properties":{"code":"950615","name":"อาซ่อง","parentCode":"9506"},"geometry":{"type":"Polygon","coordinates":[[[101.48722520800004,6.509528355000043],[101.48066170500005,6.538748534000035],[101.46814560900003,6.556718886000056],[101.42016786200008,6.52578124300004],[101.44229050800004,6.4885903660000395],[101.48527113800009,6.50435442600002],[101.48722520800004,6.509528355000043]]]}},{"type":"Feature","properties":{"code":"950204","name":"อัยเยอร์เวง","parentCode":"9502"},"geometry":{"type":"Polygon","coordinates":[[[101.47793917500007,6.043515905000049],[101.40623324200004,6.05777593800002],[101.32807314100006,6.01164304200006],[101.32571504700007,5.9354766030000405],[101.28637774900005,5.894402891000027],[101.26635538600004,5.917212092000057],[101.25177361500005,5.999002806000021],[101.16462998400004,6.01329402500005],[101.10634695500005,5.998807508000027],[101.12388227100007,5.977130114000033],[101.08648938000005,5.911635281000031],[101.17909633000005,5.889520479000055],[101.22956194400007,5.860051551000026],[101.27860538200008,5.85687749300007],[101.29480462500004,5.812322226000049],[101.34552103900006,5.809079069000063],[101.39154133300008,5.875880929000061],[101.48486317900006,5.870298863000073],[101.50222226700004,5.889682420000042],[101.47565403200008,5.9882909540000355],[101.47793917500007,6.043515905000049]]]}},{"type":"Feature","properties":{"code":"950611","name":"บาโงย","parentCode":"9506"},"geometry":{"type":"Polygon","coordinates":[[[101.36288560200006,6.4786554050000404],[101.32460088200008,6.500512714000024],[101.33225107300007,6.462046878000024],[101.35602810200004,6.460172549000049],[101.36288560200006,6.4786554050000404]]]}},{"type":"Feature","properties":{"code":"950507","name":"บาโงยซิแน","parentCode":"9505"},"geometry":{"type":"Polygon","coordinates":[[[101.16691930300004,6.539907797000069],[101.15451483700008,6.548309481000047],[101.13797470300005,6.533948871000064],[101.16926086800004,6.507325408000042],[101.17423352400004,6.508604618000049],[101.16691930300004,6.539907797000069]]]}},{"type":"Feature","properties":{"code":"950302","name":"บาเจาะ","parentCode":"9503"},"geometry":{"type":"Polygon","coordinates":[[[101.34367864100005,6.223904244000039],[101.29236205400008,6.2758184840000695],[101.26184104400005,6.264067900000043],[101.26567031300004,6.215558603000034],[101.26403965400004,6.184875052000052],[101.32146015500007,6.186905104000061],[101.34367864100005,6.223904244000039]]]}},{"type":"Feature","properties":{"code":"950702","name":"บาละ","parentCode":"9507"},"geometry":{"type":"Polygon","coordinates":[[[101.07919510800008,6.398591377000059],[100.92425610700008,6.427537578000056],[100.92877400500004,6.33091866500007],[100.91214657600005,6.303420234000043],[100.84104279900004,6.300423765000062],[100.85496262800007,6.231592343000045],[100.87211502700006,6.2645487330000265],[100.90211390400003,6.233583076000059],[100.94379143800006,6.243250397000054],[100.96895754100007,6.2830245610000475],[100.97985649900005,6.3044778260000385],[101.07834432700008,6.348744795000073],[101.07633154900009,6.380109064000067],[101.07919510800008,6.398591377000059]]]}},{"type":"Feature","properties":{"code":"950610","name":"บาลอ","parentCode":"9506"},"geometry":{"type":"Polygon","coordinates":[[[101.46301069000003,6.465804682000055],[101.44341244500004,6.477160712000057],[101.41375274300003,6.450825857000041],[101.41360774100008,6.416523641000026],[101.41984325000004,6.402888141000062],[101.46981464600003,6.428918632000034],[101.46301069000003,6.465804682000055]]]}},{"type":"Feature","properties":{"code":"950402","name":"บ้านแหร","parentCode":"9504"},"geometry":{"type":"Polygon","coordinates":[[[101.39390589000004,6.159855831000073],[101.32824390600007,6.15827882800005],[101.26241367200004,6.130413227000076],[101.19422487700007,6.144314204000068],[101.15538566400005,6.130004662000033],[101.12702271000006,6.104358922000074],[101.10947349900005,6.065229664000071],[101.14822564200006,6.083842936000053],[101.21602771700009,6.062454450000075],[101.23632694900004,6.099121505000028],[101.29675967500003,6.093130733000066],[101.35174590000008,6.112682603000053],[101.37926181000006,6.088510094000071],[101.41708670900005,6.143073135000066],[101.40971726600009,6.157244844000047],[101.39390589000004,6.159855831000073]]]}},{"type":"Feature","properties":{"code":"950115","name":"บันนังสาเรง","parentCode":"9501"},"geometry":{"type":"Polygon","coordinates":[[[101.28309380500008,6.478932999000051],[101.24765431200007,6.514474233000044],[101.23321095700004,6.508601664000025],[101.23206670400003,6.487883097000065],[101.24891967300005,6.454050236000057],[101.27912178100007,6.470072979000065],[101.28309380500008,6.478932999000051]]]}},{"type":"Feature","properties":{"code":"950301","name":"บันนังสตา","parentCode":"9503"},"geometry":{"type":"Polygon","coordinates":[[[101.28813122500009,6.299700210000026],[101.22617905300007,6.340926934000038],[101.18204165700007,6.284702526000046],[101.19677616100006,6.204809954000041],[101.26567031300004,6.215558603000034],[101.26184104400005,6.264067900000043],[101.29236205400008,6.2758184840000695],[101.28813122500009,6.299700210000026]]]}},{"type":"Feature","properties":{"code":"950504","name":"บาโร๊ะ","parentCode":"9505"},"geometry":{"type":"Polygon","coordinates":[[[101.09402101000006,6.481769384000074],[101.05245883900005,6.458119061000048],[101.07919510800008,6.398591377000059],[101.07633154900009,6.380109064000067],[101.13363815300005,6.4383091060000766],[101.17041927100007,6.439819689000046],[101.15742004800006,6.478409850000048],[101.09402101000006,6.481769384000074]]]}},{"type":"Feature","properties":{"code":"950201","name":"เบตง","parentCode":"9502"},"geometry":{"type":"Polygon","coordinates":[[[101.08451899100004,5.781776271000069],[101.01183631700007,5.838002604000053],[100.98333705500005,5.808331423000027],[101.03403010700004,5.738109909000059],[101.06040770300007,5.7439119660000415],[101.08288664100007,5.770595136000054],[101.08451899100004,5.781776271000069]]]}},{"type":"Feature","properties":{"code":"950102","name":"บุดี","parentCode":"9501"},"geometry":{"type":"Polygon","coordinates":[[[101.30385230400003,6.446496532000026],[101.32545889000005,6.4508872140000335],[101.33225107300007,6.462046878000024],[101.32460088200008,6.500512714000024],[101.33220161600008,6.538699615000041],[101.29896951200004,6.524635295000053],[101.28309380500008,6.478932999000051],[101.27912178100007,6.470072979000065],[101.30385230400003,6.446496532000026]]]}},{"type":"Feature","properties":{"code":"950612","name":"บือมัง","parentCode":"9506"},"geometry":{"type":"Polygon","coordinates":[[[101.35568504400004,6.435652592000054],[101.32545889000005,6.4508872140000335],[101.30385230400003,6.446496532000026],[101.32561287500005,6.3917346860000634],[101.34780340700007,6.376973919000022],[101.37026269600005,6.408419472000048],[101.35568504400004,6.435652592000054]]]}},{"type":"Feature","properties":{"code":"950607","name":"จะกว๊ะ","parentCode":"9506"},"geometry":{"type":"Polygon","coordinates":[[[101.58474450200004,6.512373526000033],[101.48722520800004,6.509528355000043],[101.48527113800009,6.50435442600002],[101.53838330000008,6.473937077000073],[101.58474450200004,6.512373526000033]]]}},{"type":"Feature","properties":{"code":"950803","name":"ห้วยกระทิง","parentCode":"9508"},"geometry":{"type":"Polygon","coordinates":[[[101.27376500300005,6.361025465000068],[101.20895284600005,6.373038920000056],[101.20998365100007,6.368063254000049],[101.22617905300007,6.340926934000038],[101.28813122500009,6.299700210000026],[101.28901709900003,6.313564777000067],[101.27376500300005,6.361025465000068]]]}},{"type":"Feature","properties":{"code":"950701","name":"กาบัง","parentCode":"9507"},"geometry":{"type":"Polygon","coordinates":[[[101.03467357500006,6.485744666000073],[101.01448222500005,6.484531954000033],[100.97581691000005,6.48042695700002],[100.92425610700008,6.427537578000056],[101.07919510800008,6.398591377000059],[101.05245883900005,6.458119061000048],[101.03467357500006,6.485744666000073]]]}},{"type":"Feature","properties":{"code":"950603","name":"กาลอ","parentCode":"9506"},"geometry":{"type":"Polygon","coordinates":[[[101.41984325000004,6.402888141000062],[101.41360774100008,6.416523641000026],[101.37026269600005,6.408419472000048],[101.34780340700007,6.376973919000022],[101.37589692800003,6.3444332020000616],[101.38779984700005,6.335564738000073],[101.38907332800005,6.34041030700007],[101.41984325000004,6.402888141000062]]]}},{"type":"Feature","properties":{"code":"950602","name":"กาลูปัง","parentCode":"9506"},"geometry":{"type":"Polygon","coordinates":[[[101.35726367200004,6.44560430100006],[101.38111777500006,6.449864220000052],[101.38496272500004,6.466420146000075],[101.37699859800006,6.482652348000045],[101.36288560200006,6.4786554050000404],[101.35602810200004,6.460172549000049],[101.35726367200004,6.44560430100006]]]}},{"type":"Feature","properties":{"code":"950508","name":"กาตอง","parentCode":"9505"},"geometry":{"type":"Polygon","coordinates":[[[101.06379754400007,6.542556894000029],[101.03467357500006,6.485744666000073],[101.05245883900005,6.458119061000048],[101.09402101000006,6.481769384000074],[101.07910248200005,6.526951300000064],[101.06379754400007,6.542556894000029]]]}},{"type":"Feature","properties":{"code":"950601","name":"กายูบอเกาะ","parentCode":"9506"},"geometry":{"type":"Polygon","coordinates":[[[101.40983092400006,6.530361286000073],[101.39977675400007,6.521902994000072],[101.38496272500004,6.466420146000075],[101.38111777500006,6.449864220000052],[101.41375274300003,6.450825857000041],[101.44341244500004,6.477160712000057],[101.44229050800004,6.4885903660000395],[101.42016786200008,6.52578124300004],[101.40983092400006,6.530361286000073]]]}},{"type":"Feature","properties":{"code":"950606","name":"เกะรอ","parentCode":"9506"},"geometry":{"type":"Polygon","coordinates":[[[101.52208854100007,6.58361196200002],[101.50697336700006,6.602971104000062],[101.51198406600008,6.564952034000044],[101.48066170500005,6.538748534000035],[101.48722520800004,6.509528355000043],[101.58474450200004,6.512373526000033],[101.59076258800008,6.512082323000072],[101.59351262400008,6.525678084000049],[101.59759046500005,6.553852278000022],[101.59243153100005,6.56560236200005],[101.53677912900008,6.556012145000068],[101.52208854100007,6.58361196200002]]]}},{"type":"Feature","properties":{"code":"950404","name":"คีรีเขต","parentCode":"9504"},"geometry":{"type":"Polygon","coordinates":[[[101.15538566400005,6.130004662000033],[101.17299109300006,6.198436617000027],[101.11845888700009,6.1863936450000665],[101.05844172900004,6.1430629240000485],[101.12702271000006,6.104358922000074],[101.15538566400005,6.130004662000033]]]}},{"type":"Feature","properties":{"code":"950306","name":"เขื่อนบางลาง","parentCode":"9503"},"geometry":{"type":"Polygon","coordinates":[[[101.37859050200007,6.214366741000049],[101.34367864100005,6.223904244000039],[101.32146015500007,6.186905104000061],[101.26403965400004,6.184875052000052],[101.26241367200004,6.130413227000076],[101.32824390600007,6.15827882800005],[101.39390589000004,6.159855831000073],[101.37859050200007,6.214366741000049]]]}},{"type":"Feature","properties":{"code":"950605","name":"โกตาบารู","parentCode":"9506"},"geometry":{"type":"Polygon","coordinates":[[[101.35602810200004,6.460172549000049],[101.33225107300007,6.462046878000024],[101.32545889000005,6.4508872140000335],[101.35568504400004,6.435652592000054],[101.35726367200004,6.44560430100006],[101.35602810200004,6.460172549000049]]]}},{"type":"Feature","properties":{"code":"950604","name":"กอตอตือร๊ะ","parentCode":"9506"},"geometry":{"type":"Polygon","coordinates":[[[101.39977675400007,6.521902994000072],[101.36666147200003,6.51339198900007],[101.37699859800006,6.482652348000045],[101.38496272500004,6.466420146000075],[101.39977675400007,6.521902994000072]]]}},{"type":"Feature","properties":{"code":"950801","name":"กรงปินัง","parentCode":"9508"},"geometry":{"type":"Polygon","coordinates":[[[101.32561287500005,6.3917346860000634],[101.30385230400003,6.446496532000026],[101.27912178100007,6.470072979000065],[101.24891967300005,6.454050236000057],[101.26774140400005,6.423452011000052],[101.27585524100004,6.375963822000074],[101.32561287500005,6.3917346860000634]]]}},{"type":"Feature","properties":{"code":"950502","name":"ละแอ","parentCode":"9505"},"geometry":{"type":"Polygon","coordinates":[[[101.19391695400009,6.504895736000037],[101.17423352400004,6.508604618000049],[101.16926086800004,6.507325408000042],[101.15742004800006,6.478409850000048],[101.17041927100007,6.439819689000046],[101.17867673200004,6.3869726480000395],[101.20998365100007,6.368063254000049],[101.20895284600005,6.373038920000056],[101.19717124000005,6.431802327000071],[101.21429125100008,6.454810574000021],[101.22158243800004,6.483626881000021],[101.19391695400009,6.504895736000037]]]}},{"type":"Feature","properties":{"code":"950109","name":"ลำใหม่","parentCode":"9501"},"geometry":{"type":"Polygon","coordinates":[[[101.23728192300007,6.585592980000058],[101.22855219300004,6.61113522200003],[101.22402740100006,6.606261136000057],[101.18917957800005,6.598654389000046],[101.17757392100003,6.56764787000003],[101.19856010200004,6.556883138000046],[101.23728192300007,6.585592980000058]]]}},{"type":"Feature","properties":{"code":"950111","name":"ลำพะยา","parentCode":"9501"},"geometry":{"type":"Polygon","coordinates":[[[101.11345888300008,6.626929371000074],[101.10361983100006,6.627967249000051],[101.08948753200008,6.609130030000074],[101.09021512400005,6.608214353000051],[101.14894379300006,6.555289604000052],[101.17757392100003,6.56764787000003],[101.18917957800005,6.598654389000046],[101.12827988000004,6.611965191000024],[101.11345888300008,6.626929371000074]]]}},{"type":"Feature","properties":{"code":"950104","name":"ลิดล","parentCode":"9501"},"geometry":{"type":"Polygon","coordinates":[[[101.19856010200004,6.556883138000046],[101.17757392100003,6.56764787000003],[101.14894379300006,6.555289604000052],[101.15451483700008,6.548309481000047],[101.16691930300004,6.539907797000069],[101.18389833100008,6.533280525000066],[101.20807326800008,6.534540046000075],[101.19856010200004,6.556883138000046]]]}},{"type":"Feature","properties":{"code":"950403","name":"แม่หวาด","parentCode":"9504"},"geometry":{"type":"Polygon","coordinates":[[[101.47058598000007,6.073894192000068],[101.44654267200008,6.082091424000055],[101.41708670900005,6.143073135000066],[101.37926181000006,6.088510094000071],[101.35174590000008,6.112682603000053],[101.29675967500003,6.093130733000066],[101.23632694900004,6.099121505000028],[101.21602771700009,6.062454450000075],[101.14822564200006,6.083842936000053],[101.10947349900005,6.065229664000071],[101.10634695500005,5.998807508000027],[101.16462998400004,6.01329402500005],[101.25177361500005,5.999002806000021],[101.26635538600004,5.917212092000057],[101.28637774900005,5.894402891000027],[101.32571504700007,5.9354766030000405],[101.32807314100006,6.01164304200006],[101.40623324200004,6.05777593800002],[101.47793917500007,6.043515905000049],[101.47058598000007,6.073894192000068]]]}},{"type":"Feature","properties":{"code":"950110","name":"หน้าถ้ำ","parentCode":"9501"},"geometry":{"type":"Polygon","coordinates":[[[101.22844104400008,6.510371860000021],[101.21818049200004,6.541171327000029],[101.20807326800008,6.534540046000075],[101.22844104400008,6.510371860000021]]]}},{"type":"Feature","properties":{"code":"950609","name":"เนินงาม","parentCode":"9506"},"geometry":{"type":"Polygon","coordinates":[[[101.36666147200003,6.51339198900007],[101.33220161600008,6.538699615000041],[101.32460088200008,6.500512714000024],[101.36288560200006,6.4786554050000404],[101.37699859800006,6.482652348000045],[101.36666147200003,6.51339198900007]]]}},{"type":"Feature","properties":{"code":"950503","name":"ปะแต","parentCode":"9505"},"geometry":{"type":"Polygon","coordinates":[[[101.17041927100007,6.439819689000046],[101.13363815300005,6.4383091060000766],[101.07633154900009,6.380109064000067],[101.07834432700008,6.348744795000073],[100.97985649900005,6.3044778260000385],[100.96895754100007,6.2830245610000475],[101.01264438300007,6.248711121000042],[101.10152680100003,6.25544325900006],[101.18204165700007,6.284702526000046],[101.22617905300007,6.340926934000038],[101.20998365100007,6.368063254000049],[101.17867673200004,6.3869726480000395],[101.17041927100007,6.439819689000046]]]}},{"type":"Feature","properties":{"code":"950114","name":"พร่อน","parentCode":"9501"},"geometry":{"type":"Polygon","coordinates":[[[101.24758092400003,6.573740192000059],[101.23728192300007,6.585592980000058],[101.19856010200004,6.556883138000046],[101.20807326800008,6.534540046000075],[101.21818049200004,6.541171327000029],[101.24758092400003,6.573740192000059]]]}},{"type":"Feature","properties":{"code":"950112","name":"เปาะเส้ง","parentCode":"9501"},"geometry":{"type":"Polygon","coordinates":[[[101.22844104400008,6.510371860000021],[101.20807326800008,6.534540046000075],[101.18389833100008,6.533280525000066],[101.19391695400009,6.504895736000037],[101.22158243800004,6.483626881000021],[101.23206670400003,6.487883097000065],[101.23321095700004,6.508601664000025],[101.22844104400008,6.510371860000021]]]}},{"type":"Feature","properties":{"code":"950804","name":"ปุโรง","parentCode":"9508"},"geometry":{"type":"Polygon","coordinates":[[[101.24891967300005,6.454050236000057],[101.23206670400003,6.487883097000065],[101.22158243800004,6.483626881000021],[101.21429125100008,6.454810574000021],[101.26774140400005,6.423452011000052],[101.24891967300005,6.454050236000057]]]}},{"type":"Feature","properties":{"code":"950802","name":"สะเอะ","parentCode":"9508"},"geometry":{"type":"Polygon","coordinates":[[[101.26774140400005,6.423452011000052],[101.21429125100008,6.454810574000021],[101.19717124000005,6.431802327000071],[101.20895284600005,6.373038920000056],[101.27376500300005,6.361025465000068],[101.27585524100004,6.375963822000074],[101.26774140400005,6.423452011000052]]]}},{"type":"Feature","properties":{"code":"950101","name":"สะเตง","parentCode":"9501"},"geometry":{"type":"Polygon","coordinates":[[[101.29786518400005,6.583483585000067],[101.27406521400007,6.566033215000061],[101.26146228700009,6.526498128000071],[101.30212695600005,6.568668549000051],[101.29786518400005,6.583483585000067]]]}},{"type":"Feature","properties":{"code":"950116","name":"สะเตงนอก","parentCode":"9501"},"geometry":{"type":"Polygon","coordinates":[[[101.35487452600006,6.5571950630000515],[101.30212695600005,6.568668549000051],[101.26146228700009,6.526498128000071],[101.24765431200007,6.514474233000044],[101.28309380500008,6.478932999000051],[101.29896951200004,6.524635295000053],[101.33220161600008,6.538699615000041],[101.35487452600006,6.5571950630000515]]]}},{"type":"Feature","properties":{"code":"950506","name":"ตาชี","parentCode":"9505"},"geometry":{"type":"Polygon","coordinates":[[[101.14894379300006,6.555289604000052],[101.09021512400005,6.608214353000051],[101.06379754400007,6.542556894000029],[101.07910248200005,6.526951300000064],[101.13797470300005,6.533948871000064],[101.15451483700008,6.548309481000047],[101.14894379300006,6.555289604000052]]]}},{"type":"Feature","properties":{"code":"950305","name":"ตลิ่งชัน","parentCode":"9503"},"geometry":{"type":"Polygon","coordinates":[[[101.39399286600008,6.2986442940000416],[101.38779984700005,6.335564738000073],[101.37589692800003,6.3444332020000616],[101.28901709900003,6.313564777000067],[101.28813122500009,6.299700210000026],[101.29236205400008,6.2758184840000695],[101.34367864100005,6.223904244000039],[101.37859050200007,6.214366741000049],[101.39844426200006,6.23142746000002],[101.39399286600008,6.2986442940000416]]]}},{"type":"Feature","properties":{"code":"950616","name":"ตะโล๊ะหะลอ","parentCode":"9506"},"geometry":{"type":"Polygon","coordinates":[[[101.48527113800009,6.50435442600002],[101.44229050800004,6.4885903660000395],[101.44341244500004,6.477160712000057],[101.46301069000003,6.465804682000055],[101.50761612900004,6.451294603000065],[101.53838330000008,6.473937077000073],[101.48527113800009,6.50435442600002]]]}},{"type":"Feature","properties":{"code":"950203","name":"ตาเนาะแมเราะ","parentCode":"9502"},"geometry":{"type":"Polygon","coordinates":[[[101.08648938000005,5.911635281000031],[101.03782941800006,5.917838206000056],[101.01183631700007,5.838002604000053],[101.08451899100004,5.781776271000069],[101.12711202300005,5.810115110000027],[101.17481287400005,5.797327797000037],[101.17909633000005,5.889520479000055],[101.08648938000005,5.911635281000031]]]}},{"type":"Feature","properties":{"code":"950303","name":"ตาเนาะปูเต๊ะ","parentCode":"9503"},"geometry":{"type":"Polygon","coordinates":[[[101.32561287500005,6.3917346860000634],[101.27585524100004,6.375963822000074],[101.27376500300005,6.361025465000068],[101.28901709900003,6.313564777000067],[101.37589692800003,6.3444332020000616],[101.34780340700007,6.376973919000022],[101.32561287500005,6.3917346860000634]]]}},{"type":"Feature","properties":{"code":"950118","name":"ตาเซะ","parentCode":"9501"},"geometry":{"type":"Polygon","coordinates":[[[101.30340570800007,6.621162092000077],[101.28036161800009,6.68187537600005],[101.27012422000007,6.645572017000063],[101.23665062600008,6.6274212780000425],[101.25849186200008,6.592045363000068],[101.29345611200006,6.616558087000044],[101.30340570800007,6.621162092000077]]]}},{"type":"Feature","properties":{"code":"950108","name":"ท่าสาป","parentCode":"9501"},"geometry":{"type":"Polygon","coordinates":[[[101.27406521400007,6.566033215000061],[101.24758092400003,6.573740192000059],[101.21818049200004,6.541171327000029],[101.22844104400008,6.510371860000021],[101.23321095700004,6.508601664000025],[101.24765431200007,6.514474233000044],[101.26146228700009,6.526498128000071],[101.27406521400007,6.566033215000061]]]}},{"type":"Feature","properties":{"code":"950608","name":"ท่าธง","parentCode":"9506"},"geometry":{"type":"Polygon","coordinates":[[[101.50236486500006,6.603703730000063],[101.47007740400005,6.59595725500003],[101.42734867600007,6.593865723000022],[101.41047200100007,6.583139407000033],[101.40983092400006,6.530361286000073],[101.42016786200008,6.52578124300004],[101.46814560900003,6.556718886000056],[101.48066170500005,6.538748534000035],[101.51198406600008,6.564952034000044],[101.50697336700006,6.602971104000062],[101.50236486500006,6.603703730000063]]]}},{"type":"Feature","properties":{"code":"950304","name":"ถ้ำทะลุ","parentCode":"9503"},"geometry":{"type":"Polygon","coordinates":[[[101.18204165700007,6.284702526000046],[101.10152680100003,6.25544325900006],[101.11845888700009,6.1863936450000665],[101.17299109300006,6.198436617000027],[101.19677616100006,6.204809954000041],[101.18204165700007,6.284702526000046]]]}},{"type":"Feature","properties":{"code":"950205","name":"ธารน้ำทิพย์","parentCode":"9502"},"geometry":{"type":"Polygon","coordinates":[[[101.09701514300008,5.692842272000064],[101.11858328000005,5.764624907000041],[101.08288664100007,5.770595136000054],[101.06040770300007,5.7439119660000415],[101.09701514300008,5.692842272000064]]]}},{"type":"Feature","properties":{"code":"950401","name":"ธารโต","parentCode":"9504"},"geometry":{"type":"Polygon","coordinates":[[[101.26403965400004,6.184875052000052],[101.26567031300004,6.215558603000034],[101.19677616100006,6.204809954000041],[101.17299109300006,6.198436617000027],[101.15538566400005,6.130004662000033],[101.19422487700007,6.144314204000068],[101.26241367200004,6.130413227000076],[101.26403965400004,6.184875052000052]]]}},{"type":"Feature","properties":{"code":"950614","name":"วังพญา","parentCode":"9506"},"geometry":{"type":"Polygon","coordinates":[[[101.41047200100007,6.583139407000033],[101.38244364100007,6.569576460000064],[101.35487452600006,6.5571950630000515],[101.33220161600008,6.538699615000041],[101.36666147200003,6.51339198900007],[101.39977675400007,6.521902994000072],[101.40983092400006,6.530361286000073],[101.41047200100007,6.583139407000033]]]}},{"type":"Feature","properties":{"code":"950501","name":"ยะหา","parentCode":"9505"},"geometry":{"type":"Polygon","coordinates":[[[101.16926086800004,6.507325408000042],[101.13797470300005,6.533948871000064],[101.07910248200005,6.526951300000064],[101.09402101000006,6.481769384000074],[101.15742004800006,6.478409850000048],[101.16926086800004,6.507325408000042]]]}},{"type":"Feature","properties":{"code":"950106","name":"ยะลา","parentCode":"9501"},"geometry":{"type":"Polygon","coordinates":[[[101.18389833100008,6.533280525000066],[101.16691930300004,6.539907797000069],[101.17423352400004,6.508604618000049],[101.19391695400009,6.504895736000037],[101.18389833100008,6.533280525000066]]]}},{"type":"Feature","properties":{"code":"950202","name":"ยะรม","parentCode":"9502"},"geometry":{"type":"Polygon","coordinates":[[[101.29480462500004,5.812322226000049],[101.27860538200008,5.85687749300007],[101.22956194400007,5.860051551000026],[101.17909633000005,5.889520479000055],[101.17481287400005,5.797327797000037],[101.12711202300005,5.810115110000027],[101.08451899100004,5.781776271000069],[101.08288664100007,5.770595136000054],[101.11858328000005,5.764624907000041],[101.09701514300008,5.692842272000064],[101.13562825500009,5.613037873000053],[101.21421603900006,5.6614160920000245],[101.25979354600008,5.712162913000043],[101.26359431800006,5.800917696000056],[101.29480462500004,5.812322226000049]]]}},{"type":"Feature","properties":{"code":"950613","name":"ยะต๊ะ","parentCode":"9506"},"geometry":{"type":"Polygon","coordinates":[[[101.41375274300003,6.450825857000041],[101.38111777500006,6.449864220000052],[101.35726367200004,6.44560430100006],[101.35568504400004,6.435652592000054],[101.37026269600005,6.408419472000048],[101.41360774100008,6.416523641000026],[101.41375274300003,6.450825857000041]]]}},{"type":"Feature","properties":{"code":"950103","name":"ยุโป","parentCode":"9501"},"geometry":{"type":"Polygon","coordinates":[[[101.29345611200006,6.616558087000044],[101.25849186200008,6.592045363000068],[101.23665062600008,6.6274212780000425],[101.22855219300004,6.61113522200003],[101.23728192300007,6.585592980000058],[101.24758092400003,6.573740192000059],[101.27406521400007,6.566033215000061],[101.29786518400005,6.583483585000067],[101.29345611200006,6.616558087000044]]]}}]}