{"type":"FeatureCollection","features":[{"type":"Feature","properties":{"code":"960508","name":"บาโงสะโต","parentCode":"9605"},"geometry":{"type":"Polygon","coordinates":[[[101.71761936600006,6.260721424000053],[101.70281188700005,6.313323738000065],[101.66949880600004,6.267598478000025],[101.70116456900007,6.2546390030000225],[101.71761936600006,6.260721424000053]]]}},{"type":"Feature","properties":{"code":"960301","name":"บาเจาะ","parentCode":"9603"},"geometry":{"type":"Polygon","coordinates":[[[101.67859519000007,6.5302392860000396],[101.59351262400008,6.525678084000049],[101.59076258800008,6.512082323000072],[101.60782077500005,6.496055807000062],[101.68687513600008,6.511118939000028],[101.67859519000007,6.5302392860000396]]]}},{"type":"Feature","properties":{"code":"960205","name":"บางขุนทอง","parentCode":"9602"},"geometry":{"type":"Polygon","coordinates":[[[102.00014421400004,6.262468006000063],[101.92437040100003,6.26527205900004],[101.91919873800003,6.230605125000068],[101.97252574800007,6.188591584000051],[102.00896767900008,6.256947456000034],[102.00014421400004,6.262468006000063]]]}},{"type":"Feature","properties":{"code":"960101","name":"บางนาค","parentCode":"9601"},"geometry":{"type":"Polygon","coordinates":[[[101.83137131600006,6.44634482500004],[101.81467919500005,6.454650944000036],[101.81430132900005,6.437105139000039],[101.83071982900003,6.401473286000055],[101.83137131600006,6.44634482500004]]]}},{"type":"Feature","properties":{"code":"960104","name":"บางปอ","parentCode":"9601"},"geometry":{"type":"Polygon","coordinates":[[[101.84017734100007,6.333845995000047],[101.79094344200007,6.350934180000024],[101.76243893700007,6.326926294000032],[101.76627800200004,6.319279557000073],[101.82211605500004,6.298502015000054],[101.84726196300005,6.303057469000066],[101.84017734100007,6.333845995000047]]]}},{"type":"Feature","properties":{"code":"960305","name":"บาเระเหนือ","parentCode":"9603"},"geometry":{"type":"Polygon","coordinates":[[[101.67514972700008,6.57304954600005],[101.65202381800003,6.60233635700007],[101.59630428000008,6.581272401000035],[101.59668353800004,6.577951546000065],[101.59243153100005,6.56560236200005],[101.59759046500005,6.553852278000022],[101.67514972700008,6.57304954600005]]]}},{"type":"Feature","properties":{"code":"960306","name":"บาเระใต้","parentCode":"9603"},"geometry":{"type":"Polygon","coordinates":[[[101.70113577200004,6.5689333670000565],[101.67514972700008,6.57304954600005],[101.67859519000007,6.5302392860000396],[101.68687513600008,6.511118939000028],[101.72715024500008,6.512755566000067],[101.70931256500006,6.568903285000033],[101.70113577200004,6.5689333670000565]]]}},{"type":"Feature","properties":{"code":"960605","name":"บาตง","parentCode":"9606"},"geometry":{"type":"Polygon","coordinates":[[[101.50552334200006,6.324179897000022],[101.46855973900006,6.381865391000076],[101.38907332800005,6.34041030700007],[101.38779984700005,6.335564738000073],[101.39399286600008,6.2986442940000416],[101.50352779600007,6.30545352200005],[101.50552334200006,6.324179897000022]]]}},{"type":"Feature","properties":{"code":"960506","name":"บองอ","parentCode":"9605"},"geometry":{"type":"Polygon","coordinates":[[[101.77786883400006,6.2498968430000446],[101.73905329800004,6.262133154000026],[101.71761936600006,6.260721424000053],[101.70116456900007,6.2546390030000225],[101.67195143700008,6.188647935000063],[101.71286002200009,6.170464870000046],[101.74863762500007,6.117584996000062],[101.80185691300005,6.129716704000032],[101.78385895600007,6.193750894000061],[101.77786883400006,6.2498968430000446]]]}},{"type":"Feature","properties":{"code":"961302","name":"บูกิต","parentCode":"9613"},"geometry":{"type":"Polygon","coordinates":[[[101.88570054900003,6.195446071000049],[101.83885859300005,6.232841855000061],[101.78385895600007,6.193750894000061],[101.80185691300005,6.129716704000032],[101.80505113600003,6.1241100340000685],[101.83012761600008,6.139330249000068],[101.86117187100007,6.16069784900003],[101.88570054900003,6.195446071000049]]]}},{"type":"Feature","properties":{"code":"960509","name":"เฉลิม","parentCode":"9605"},"geometry":{"type":"Polygon","coordinates":[[[101.68620984000006,6.355801191000069],[101.67695132200004,6.358308990000069],[101.66854012200008,6.329739447000065],[101.60150252500006,6.318934076000062],[101.60099134600006,6.317841720000047],[101.60617813600004,6.2783102490000715],[101.66949880600004,6.267598478000025],[101.70281188700005,6.313323738000065],[101.69965020000006,6.354790000000037],[101.68620984000006,6.355801191000069]]]}},{"type":"Feature","properties":{"code":"961201","name":"จะแนะ","parentCode":"9612"},"geometry":{"type":"Polygon","coordinates":[[[101.70372082400007,6.147221647000038],[101.66713495900007,6.107580125000027],[101.65844899200005,6.05341646200003],[101.67997199500007,5.997532515000046],[101.73653363300008,6.086010483000052],[101.70372082400007,6.147221647000038]]]}},{"type":"Feature","properties":{"code":"961204","name":"ช้างเผือก","parentCode":"9612"},"geometry":{"type":"Polygon","coordinates":[[[101.67997199500007,5.997532515000046],[101.65844899200005,6.05341646200003],[101.66713495900007,6.107580125000027],[101.65252915500008,6.086139020000076],[101.60155139300008,6.094079823000072],[101.56424423500005,6.086749638000072],[101.51161357300003,6.054083436000042],[101.47058598000007,6.073894192000068],[101.47793917500007,6.043515905000049],[101.47565403200008,5.9882909540000355],[101.50222226700004,5.889682420000042],[101.58108960500005,5.934509778000063],[101.61768585900006,5.896407322000073],[101.64618286800004,5.925843115000021],[101.67997199500007,5.997532515000046]]]}},{"type":"Feature","properties":{"code":"960201","name":"เจ๊ะเห","parentCode":"9602"},"geometry":{"type":"Polygon","coordinates":[[[102.08393265000007,6.229564349000043],[102.03158549700004,6.282782633000068],[102.01564630400009,6.254820199000051],[102.03824021100007,6.246728226000073],[102.08393265000007,6.229564349000043]]]}},{"type":"Feature","properties":{"code":"960403","name":"จอเบาะ","parentCode":"9604"},"geometry":{"type":"Polygon","coordinates":[[[101.68525083700007,6.4042644390000305],[101.64352732000003,6.41053512600007],[101.62331560500007,6.400339063000047],[101.63591660200007,6.368956227000069],[101.67695132200004,6.358308990000069],[101.68620984000006,6.355801191000069],[101.68525083700007,6.4042644390000305]]]}},{"type":"Feature","properties":{"code":"960704","name":"เชิงคีรี","parentCode":"9607"},"geometry":{"type":"Polygon","coordinates":[[[101.60099134600006,6.317841720000047],[101.54309433800006,6.325053530000048],[101.53211911000005,6.3137579810000375],[101.54205747900005,6.251746805000039],[101.61587181100003,6.229717746000063],[101.60617813600004,6.2783102490000715],[101.60099134600006,6.317841720000047]]]}},{"type":"Feature","properties":{"code":"961301","name":"จวบ","parentCode":"9613"},"geometry":{"type":"Polygon","coordinates":[[[101.86882592200004,6.2982413210000345],[101.84726196300005,6.303057469000066],[101.82211605500004,6.298502015000054],[101.77786883400006,6.2498968430000446],[101.78385895600007,6.193750894000061],[101.83885859300005,6.232841855000061],[101.86882592200004,6.2982413210000345]]]}},{"type":"Feature","properties":{"code":"961202","name":"ดุซงญอ","parentCode":"9612"},"geometry":{"type":"Polygon","coordinates":[[[101.71286002200009,6.170464870000046],[101.67195143700008,6.188647935000063],[101.62828762800007,6.180893811000033],[101.60155139300008,6.094079823000072],[101.65252915500008,6.086139020000076],[101.66713495900007,6.107580125000027],[101.70372082400007,6.147221647000038],[101.71286002200009,6.170464870000046]]]}},{"type":"Feature","properties":{"code":"960806","name":"เอราวัณ","parentCode":"9608"},"geometry":{"type":"Polygon","coordinates":[[[101.86268457200003,5.98385375600003],[101.80981812700009,5.97719889800004],[101.81243325100007,5.962967883000033],[101.81434465800004,5.95796027800003],[101.86584239400008,5.945693753000057],[101.86268457200003,5.98385375600003]]]}},{"type":"Feature","properties":{"code":"960507","name":"กาลิซา","parentCode":"9605"},"geometry":{"type":"Polygon","coordinates":[[[101.66949880600004,6.267598478000025],[101.60617813600004,6.2783102490000715],[101.61587181100003,6.229717746000063],[101.61215994700007,6.2210280830000215],[101.62828762800007,6.180893811000033],[101.67195143700008,6.188647935000063],[101.70116456900007,6.2546390030000225],[101.66949880600004,6.267598478000025]]]}},{"type":"Feature","properties":{"code":"960705","name":"กาหลง","parentCode":"9607"},"geometry":{"type":"Polygon","coordinates":[[[101.40971726600009,6.157244844000047],[101.46872809200005,6.177981316000057],[101.45922619100008,6.2595103290000225],[101.39844426200006,6.23142746000002],[101.37859050200007,6.214366741000049],[101.39390589000004,6.159855831000073],[101.40971726600009,6.157244844000047]]]}},{"type":"Feature","properties":{"code":"960105","name":"กะลุวอ","parentCode":"9601"},"geometry":{"type":"Polygon","coordinates":[[[101.89994735000005,6.353213538000034],[101.86412601100005,6.390599113000064],[101.82761974000005,6.375758605000044],[101.84017734100007,6.333845995000047],[101.84726196300005,6.303057469000066],[101.86882592200004,6.2982413210000345],[101.91634903900007,6.2831757310000285],[101.89994735000005,6.353213538000034]]]}},{"type":"Feature","properties":{"code":"960106","name":"กะลุวอเหนือ","parentCode":"9601"},"geometry":{"type":"Polygon","coordinates":[[[101.91879983200005,6.372850005000032],[101.87488770500005,6.424320648000048],[101.83137131600006,6.44634482500004],[101.83071982900003,6.401473286000055],[101.82761974000005,6.375758605000044],[101.86412601100005,6.390599113000064],[101.89994735000005,6.353213538000034],[101.91879983200005,6.372850005000032]]]}},{"type":"Feature","properties":{"code":"961106","name":"กาวะ","parentCode":"9611"},"geometry":{"type":"Polygon","coordinates":[[[101.91808357200006,6.028668555000024],[101.88787288300006,6.044082338000067],[101.85362909700007,6.028083818000027],[101.89592755900009,5.984301038000069],[101.92456490800004,6.015719499000056],[101.91808357200006,6.028668555000024]]]}},{"type":"Feature","properties":{"code":"960303","name":"กาเยาะมาตี","parentCode":"9603"},"geometry":{"type":"Polygon","coordinates":[[[101.67514972700008,6.57304954600005],[101.59759046500005,6.553852278000022],[101.59351262400008,6.525678084000049],[101.67859519000007,6.5302392860000396],[101.67514972700008,6.57304954600005]]]}},{"type":"Feature","properties":{"code":"960802","name":"กายูคละ","parentCode":"9608"},"geometry":{"type":"Polygon","coordinates":[[[101.92974247100005,5.947510545000057],[101.94816826500005,5.990587145000063],[101.92456490800004,6.015719499000056],[101.89592755900009,5.984301038000069],[101.86268457200003,5.98385375600003],[101.86584239400008,5.945693753000057],[101.91659477600007,5.94619483300005],[101.92974247100005,5.947510545000057]]]}},{"type":"Feature","properties":{"code":"960803","name":"ฆอเลาะ","parentCode":"9608"},"geometry":{"type":"Polygon","coordinates":[[[101.92974247100005,5.947510545000057],[101.91659477600007,5.94619483300005],[101.88386091700005,5.92651371900007],[101.88558889000007,5.889479386000062],[101.93586013700008,5.863097199000038],[101.92974247100005,5.947510545000057]]]}},{"type":"Feature","properties":{"code":"960107","name":"โคกเคียน","parentCode":"9601"},"geometry":{"type":"Polygon","coordinates":[[[101.81467919500005,6.454650944000036],[101.72484185400003,6.576857325000049],[101.70931256500006,6.568903285000033],[101.72715024500008,6.512755566000067],[101.71593086700005,6.4999496260000456],[101.73166643200005,6.4740006450000465],[101.77593224800006,6.43063316100006],[101.81430132900005,6.437105139000039],[101.81467919500005,6.454650944000036]]]}},{"type":"Feature","properties":{"code":"960608","name":"โคกสะตอ","parentCode":"9606"},"geometry":{"type":"Polygon","coordinates":[[[101.50352779600007,6.30545352200005],[101.39399286600008,6.2986442940000416],[101.39844426200006,6.23142746000002],[101.45922619100008,6.2595103290000225],[101.49018004600003,6.2548217460000615],[101.50352779600007,6.30545352200005]]]}},{"type":"Feature","properties":{"code":"960208","name":"โฆษิต","parentCode":"9602"},"geometry":{"type":"Polygon","coordinates":[[[102.07758052200006,6.198155080000049],[102.04187225800007,6.206015301000036],[101.98734927800007,6.176910617000033],[102.02270797500006,6.151056502000074],[102.04976062100008,6.14446001400006],[102.07846083800007,6.172856611000043],[102.07758052200006,6.198155080000049]]]}},{"type":"Feature","properties":{"code":"960903","name":"เกียร์","parentCode":"9609"},"geometry":{"type":"Polygon","coordinates":[[[101.80981812700009,5.97719889800004],[101.79500707000005,6.034065045000034],[101.73941692300008,5.985857304000035],[101.77625666800009,5.9431410960000335],[101.81243325100007,5.962967883000033],[101.80981812700009,5.97719889800004]]]}},{"type":"Feature","properties":{"code":"960206","name":"เกาะสะท้อน","parentCode":"9602"},"geometry":{"type":"Polygon","coordinates":[[[102.03824021100007,6.246728226000073],[102.04187225800007,6.206015301000036],[102.07758052200006,6.198155080000049],[102.08393265000007,6.229564349000043],[102.03824021100007,6.246728226000073]]]}},{"type":"Feature","properties":{"code":"960606","name":"ลาโละ","parentCode":"9606"},"geometry":{"type":"Polygon","coordinates":[[[101.63591660200007,6.368956227000069],[101.62331560500007,6.400339063000047],[101.55489538400008,6.362347143000022],[101.54309433800006,6.325053530000048],[101.60099134600006,6.317841720000047],[101.60150252500006,6.318934076000062],[101.63591660200007,6.368956227000069]]]}},{"type":"Feature","properties":{"code":"960402","name":"ละหาร","parentCode":"9604"},"geometry":{"type":"Polygon","coordinates":[[[101.78348020600004,6.408570298000029],[101.71980769800007,6.409051893000026],[101.72183471900007,6.366693318000046],[101.77795985400007,6.397335278000071],[101.78348020600004,6.408570298000029]]]}},{"type":"Feature","properties":{"code":"960102","name":"ลำภู","parentCode":"9601"},"geometry":{"type":"Polygon","coordinates":[[[101.83071982900003,6.401473286000055],[101.81430132900005,6.437105139000039],[101.77593224800006,6.43063316100006],[101.78348020600004,6.408570298000029],[101.77795985400007,6.397335278000071],[101.79094344200007,6.350934180000024],[101.84017734100007,6.333845995000047],[101.82761974000005,6.375758605000044],[101.83071982900003,6.401473286000055]]]}},{"type":"Feature","properties":{"code":"960804","name":"โละจูด","parentCode":"9608"},"geometry":{"type":"Polygon","coordinates":[[[101.88558889000007,5.889479386000062],[101.84144994600007,5.888425372000029],[101.80962336200008,5.842222094000022],[101.80082291600007,5.79463830800006],[101.82516801800006,5.767311993000021],[101.86617833000008,5.791272064000054],[101.88003755800008,5.83212764600006],[101.93586013700008,5.863097199000038],[101.88558889000007,5.889479386000062]]]}},{"type":"Feature","properties":{"code":"960404","name":"ลุโบะบายะ","parentCode":"9604"},"geometry":{"type":"Polygon","coordinates":[[[101.69522095500008,6.410795797000048],[101.68084875000005,6.4414518990000715],[101.64739089000005,6.4316279380000765],[101.64352732000003,6.41053512600007],[101.68525083700007,6.4042644390000305],[101.69522095500008,6.410795797000048]]]}},{"type":"Feature","properties":{"code":"960405","name":"ลุโบะบือซา","parentCode":"9604"},"geometry":{"type":"Polygon","coordinates":[[[101.78348020600004,6.408570298000029],[101.77593224800006,6.43063316100006],[101.73166643200005,6.4740006450000465],[101.68084875000005,6.4414518990000715],[101.69522095500008,6.410795797000048],[101.71980769800007,6.409051893000026],[101.78348020600004,6.408570298000029]]]}},{"type":"Feature","properties":{"code":"960302","name":"ลุโบะสาวอ","parentCode":"9603"},"geometry":{"type":"Polygon","coordinates":[[[101.72715024500008,6.512755566000067],[101.68687513600008,6.511118939000028],[101.60782077500005,6.496055807000062],[101.63634355600004,6.472036279000065],[101.71593086700005,6.4999496260000456],[101.72715024500008,6.512755566000067]]]}},{"type":"Feature","properties":{"code":"960901","name":"มาโมง","parentCode":"9609"},"geometry":{"type":"Polygon","coordinates":[[[101.81434465800004,5.95796027800003],[101.81243325100007,5.962967883000033],[101.77625666800009,5.9431410960000335],[101.73796192900005,5.903495021000026],[101.64618286800004,5.925843115000021],[101.61768585900006,5.896407322000073],[101.66037902000005,5.849689564000073],[101.72621438200008,5.86399384200007],[101.80082291600007,5.79463830800006],[101.80962336200008,5.842222094000022],[101.80784239300004,5.9094862660000445],[101.81434465800004,5.95796027800003]]]}},{"type":"Feature","properties":{"code":"960805","name":"แม่ดง","parentCode":"9608"},"geometry":{"type":"Polygon","coordinates":[[[101.88386091700005,5.92651371900007],[101.80784239300004,5.9094862660000445],[101.80962336200008,5.842222094000022],[101.84144994600007,5.888425372000029],[101.88558889000007,5.889479386000062],[101.88386091700005,5.92651371900007]]]}},{"type":"Feature","properties":{"code":"960103","name":"มะนังตายอ","parentCode":"9601"},"geometry":{"type":"Polygon","coordinates":[[[101.79094344200007,6.350934180000024],[101.77795985400007,6.397335278000071],[101.72183471900007,6.366693318000046],[101.72106031000004,6.347393670000031],[101.76243893700007,6.326926294000032],[101.79094344200007,6.350934180000024]]]}},{"type":"Feature","properties":{"code":"961303","name":"มะรือโบออก","parentCode":"9613"},"geometry":{"type":"Polygon","coordinates":[[[101.91634903900007,6.2831757310000285],[101.86882592200004,6.2982413210000345],[101.83885859300005,6.232841855000061],[101.88570054900003,6.195446071000049],[101.91712836600004,6.277851158000033],[101.91634903900007,6.2831757310000285]]]}},{"type":"Feature","properties":{"code":"960510","name":"มะรือโบตก","parentCode":"9605"},"geometry":{"type":"Polygon","coordinates":[[[101.63591660200007,6.368956227000069],[101.60150252500006,6.318934076000062],[101.66854012200008,6.329739447000065],[101.67695132200004,6.358308990000069],[101.63591660200007,6.368956227000069]]]}},{"type":"Feature","properties":{"code":"961003","name":"มูโนะ","parentCode":"9610"},"geometry":{"type":"Polygon","coordinates":[[[102.06406462100006,6.104892113000062],[102.04603599400008,6.130172673000061],[102.01047801100003,6.082841606000045],[102.03017486800007,6.067159557000025],[102.06406462100006,6.104892113000062]]]}},{"type":"Feature","properties":{"code":"960207","name":"นานาค","parentCode":"9602"},"geometry":{"type":"Polygon","coordinates":[[[102.06406462100006,6.104892113000062],[102.07846083800007,6.172856611000043],[102.04976062100008,6.14446001400006],[102.04603599400008,6.130172673000061],[102.06406462100006,6.104892113000062]]]}},{"type":"Feature","properties":{"code":"961002","name":"ปาเสมัส","parentCode":"9610"},"geometry":{"type":"Polygon","coordinates":[[[102.01047801100003,6.082841606000045],[101.93870299700006,6.074028243000043],[101.91893215700009,6.032327472000077],[101.97802499700003,6.029942283000025],[102.03017486800007,6.067159557000025],[102.01047801100003,6.082841606000045]]]}},{"type":"Feature","properties":{"code":"960304","name":"ปะลุกาสาเมาะ","parentCode":"9603"},"geometry":{"type":"Polygon","coordinates":[[[101.63468323000006,6.620832983000071],[101.63140115900006,6.635138712000071],[101.61480112100008,6.629572824000036],[101.58668031700006,6.626373642000033],[101.59630428000008,6.581272401000035],[101.65202381800003,6.60233635700007],[101.63468323000006,6.620832983000071]]]}},{"type":"Feature","properties":{"code":"961101","name":"ปะลุรู","parentCode":"9611"},"geometry":{"type":"Polygon","coordinates":[[[101.93740162200004,6.076981258000046],[101.89396747700005,6.1359580560000495],[101.84540499900004,6.084924511000054],[101.88787288300006,6.044082338000067],[101.91808357200006,6.028668555000024],[101.91893215700009,6.032327472000077],[101.93870299700006,6.074028243000043],[101.93740162200004,6.076981258000046]]]}},{"type":"Feature","properties":{"code":"961203","name":"ผดุงมาตร","parentCode":"9612"},"geometry":{"type":"Polygon","coordinates":[[[101.71286002200009,6.170464870000046],[101.70372082400007,6.147221647000038],[101.73653363300008,6.086010483000052],[101.79931654300003,6.087545835000071],[101.80830074400006,6.098394533000032],[101.80505113600003,6.1241100340000685],[101.80185691300005,6.129716704000032],[101.74863762500007,6.117584996000062],[101.71286002200009,6.170464870000046]]]}},{"type":"Feature","properties":{"code":"960202","name":"ไพรวัน","parentCode":"9602"},"geometry":{"type":"Polygon","coordinates":[[[101.98055800900005,6.316520053000033],[101.91879983200005,6.372850005000032],[101.89994735000005,6.353213538000034],[101.91634903900007,6.2831757310000285],[101.91712836600004,6.277851158000033],[101.92437040100003,6.26527205900004],[102.00014421400004,6.262468006000063],[101.98055800900005,6.316520053000033]]]}},{"type":"Feature","properties":{"code":"960203","name":"พร่อน","parentCode":"9602"},"geometry":{"type":"Polygon","coordinates":[[[102.01564630400009,6.254820199000051],[102.00896767900008,6.256947456000034],[101.97252574800007,6.188591584000051],[101.98734927800007,6.176910617000033],[102.04187225800007,6.206015301000036],[102.03824021100007,6.246728226000073],[102.01564630400009,6.254820199000051]]]}},{"type":"Feature","properties":{"code":"960904","name":"ภูเขาทอง","parentCode":"9609"},"geometry":{"type":"Polygon","coordinates":[[[101.80082291600007,5.79463830800006],[101.72621438200008,5.86399384200007],[101.66037902000005,5.849689564000073],[101.65883856300007,5.812043097000071],[101.69020704800005,5.756031193000069],[101.71914638000004,5.788488871000027],[101.76179870700008,5.794778533000056],[101.81743903000006,5.733001936000051],[101.82516801800006,5.767311993000021],[101.80082291600007,5.79463830800006]]]}},{"type":"Feature","properties":{"code":"961004","name":"ปูโยะ","parentCode":"9610"},"geometry":{"type":"Polygon","coordinates":[[[102.04976062100008,6.14446001400006],[102.02270797500006,6.151056502000074],[101.93740162200004,6.076981258000046],[101.93870299700006,6.074028243000043],[102.01047801100003,6.082841606000045],[102.04603599400008,6.130172673000061],[102.04976062100008,6.14446001400006]]]}},{"type":"Feature","properties":{"code":"961105","name":"ริโก๋","parentCode":"9611"},"geometry":{"type":"Polygon","coordinates":[[[101.85362909700007,6.028083818000027],[101.88787288300006,6.044082338000067],[101.84540499900004,6.084924511000054],[101.83012761600008,6.139330249000068],[101.80505113600003,6.1241100340000685],[101.80830074400006,6.098394533000032],[101.85362909700007,6.028083818000027]]]}},{"type":"Feature","properties":{"code":"960603","name":"เรียง","parentCode":"9606"},"geometry":{"type":"Polygon","coordinates":[[[101.46981464600003,6.428918632000034],[101.41984325000004,6.402888141000062],[101.38907332800005,6.34041030700007],[101.46855973900006,6.381865391000076],[101.47152371500005,6.391210026000067],[101.46981464600003,6.428918632000034]]]}},{"type":"Feature","properties":{"code":"960905","name":"ร่มไทร","parentCode":"9609"},"geometry":{"type":"Polygon","coordinates":[[[101.79500707000005,6.034065045000034],[101.79931654300003,6.087545835000071],[101.73653363300008,6.086010483000052],[101.67997199500007,5.997532515000046],[101.73941692300008,5.985857304000035],[101.79500707000005,6.034065045000034]]]}},{"type":"Feature","properties":{"code":"960601","name":"รือเสาะ","parentCode":"9606"},"geometry":{"type":"Polygon","coordinates":[[[101.55489538400008,6.362347143000022],[101.51199269200004,6.409714768000072],[101.47152371500005,6.391210026000067],[101.46855973900006,6.381865391000076],[101.50552334200006,6.324179897000022],[101.53211911000005,6.3137579810000375],[101.54309433800006,6.325053530000048],[101.55489538400008,6.362347143000022]]]}},{"type":"Feature","properties":{"code":"960607","name":"รือเสาะออก","parentCode":"9606"},"geometry":{"type":"Polygon","coordinates":[[[101.54267415400005,6.4190015650000305],[101.51199269200004,6.409714768000072],[101.55489538400008,6.362347143000022],[101.62331560500007,6.400339063000047],[101.54267415400005,6.4190015650000305]]]}},{"type":"Feature","properties":{"code":"960701","name":"ซากอ","parentCode":"9607"},"geometry":{"type":"Polygon","coordinates":[[[101.54205747900005,6.251746805000039],[101.49018004600003,6.2548217460000615],[101.51079220800005,6.196046848000037],[101.56656336300006,6.189806788000055],[101.61215994700007,6.2210280830000215],[101.61587181100003,6.229717746000063],[101.54205747900005,6.251746805000039]]]}},{"type":"Feature","properties":{"code":"961104","name":"สากอ","parentCode":"9611"},"geometry":{"type":"Polygon","coordinates":[[[101.85362909700007,6.028083818000027],[101.80830074400006,6.098394533000032],[101.79931654300003,6.087545835000071],[101.79500707000005,6.034065045000034],[101.80981812700009,5.97719889800004],[101.86268457200003,5.98385375600003],[101.89592755900009,5.984301038000069],[101.85362909700007,6.028083818000027]]]}},{"type":"Feature","properties":{"code":"960204","name":"ศาลาใหม่","parentCode":"9602"},"geometry":{"type":"Polygon","coordinates":[[[102.03158549700004,6.282782633000068],[101.98055800900005,6.316520053000033],[102.00014421400004,6.262468006000063],[102.00896767900008,6.256947456000034],[102.01564630400009,6.254820199000051],[102.03158549700004,6.282782633000068]]]}},{"type":"Feature","properties":{"code":"960604","name":"สามัคคี","parentCode":"9606"},"geometry":{"type":"Polygon","coordinates":[[[101.64739089000005,6.4316279380000765],[101.53927928000007,6.442164642000023],[101.54267415400005,6.4190015650000305],[101.62331560500007,6.400339063000047],[101.64352732000003,6.41053512600007],[101.64739089000005,6.4316279380000765]]]}},{"type":"Feature","properties":{"code":"960602","name":"สาวอ","parentCode":"9606"},"geometry":{"type":"Polygon","coordinates":[[[101.50761612900004,6.451294603000065],[101.46301069000003,6.465804682000055],[101.46981464600003,6.428918632000034],[101.47152371500005,6.391210026000067],[101.51199269200004,6.409714768000072],[101.54267415400005,6.4190015650000305],[101.53927928000007,6.442164642000023],[101.50761612900004,6.451294603000065]]]}},{"type":"Feature","properties":{"code":"960706","name":"ศรีบรรพต","parentCode":"9607"},"geometry":{"type":"Polygon","coordinates":[[[101.62828762800007,6.180893811000033],[101.61215994700007,6.2210280830000215],[101.56656336300006,6.189806788000055],[101.51079220800005,6.196046848000037],[101.53627362700007,6.150357566000025],[101.52953422300004,6.113106875000028],[101.56424423500005,6.086749638000072],[101.60155139300008,6.094079823000072],[101.62828762800007,6.180893811000033]]]}},{"type":"Feature","properties":{"code":"960703","name":"ศรีสาคร","parentCode":"9607"},"geometry":{"type":"Polygon","coordinates":[[[101.49018004600003,6.2548217460000615],[101.45922619100008,6.2595103290000225],[101.46872809200005,6.177981316000057],[101.40971726600009,6.157244844000047],[101.41708670900005,6.143073135000066],[101.44654267200008,6.082091424000055],[101.47058598000007,6.073894192000068],[101.51161357300003,6.054083436000042],[101.56424423500005,6.086749638000072],[101.52953422300004,6.113106875000028],[101.53627362700007,6.150357566000025],[101.51079220800005,6.196046848000037],[101.49018004600003,6.2548217460000615]]]}},{"type":"Feature","properties":{"code":"961001","name":"สุไหงโก-ลก","parentCode":"9610"},"geometry":{"type":"Polygon","coordinates":[[[101.94816826500005,5.990587145000063],[101.97802499700003,6.029942283000025],[101.91893215700009,6.032327472000077],[101.91808357200006,6.028668555000024],[101.92456490800004,6.015719499000056],[101.94816826500005,5.990587145000063]]]}},{"type":"Feature","properties":{"code":"961102","name":"สุไหงปาดี","parentCode":"9611"},"geometry":{"type":"Polygon","coordinates":[[[101.91712836600004,6.277851158000033],[101.88570054900003,6.195446071000049],[101.86117187100007,6.16069784900003],[101.89396747700005,6.1359580560000495],[101.93740162200004,6.076981258000046],[102.02270797500006,6.151056502000074],[101.98734927800007,6.176910617000033],[101.97252574800007,6.188591584000051],[101.91919873800003,6.230605125000068],[101.92437040100003,6.26527205900004],[101.91712836600004,6.277851158000033]]]}},{"type":"Feature","properties":{"code":"960902","name":"สุคิริน","parentCode":"9609"},"geometry":{"type":"Polygon","coordinates":[[[101.73941692300008,5.985857304000035],[101.67997199500007,5.997532515000046],[101.64618286800004,5.925843115000021],[101.73796192900005,5.903495021000026],[101.77625666800009,5.9431410960000335],[101.73941692300008,5.985857304000035]]]}},{"type":"Feature","properties":{"code":"960609","name":"สุวารี","parentCode":"9606"},"geometry":{"type":"Polygon","coordinates":[[[101.59076258800008,6.512082323000072],[101.58474450200004,6.512373526000033],[101.53838330000008,6.473937077000073],[101.50761612900004,6.451294603000065],[101.53927928000007,6.442164642000023],[101.64739089000005,6.4316279380000765],[101.63634355600004,6.472036279000065],[101.60782077500005,6.496055807000062],[101.59076258800008,6.512082323000072]]]}},{"type":"Feature","properties":{"code":"960702","name":"ตะมะยูง","parentCode":"9607"},"geometry":{"type":"Polygon","coordinates":[[[101.53211911000005,6.3137579810000375],[101.50552334200006,6.324179897000022],[101.50352779600007,6.30545352200005],[101.49018004600003,6.2548217460000615],[101.54205747900005,6.251746805000039],[101.53211911000005,6.3137579810000375]]]}},{"type":"Feature","properties":{"code":"960502","name":"ตันหยงลิมอ","parentCode":"9605"},"geometry":{"type":"Polygon","coordinates":[[[101.82211605500004,6.298502015000054],[101.76627800200004,6.319279557000073],[101.73905329800004,6.262133154000026],[101.77786883400006,6.2498968430000446],[101.82211605500004,6.298502015000054]]]}},{"type":"Feature","properties":{"code":"960501","name":"ตันหยงมัส","parentCode":"9605"},"geometry":{"type":"Polygon","coordinates":[[[101.72106031000004,6.347393670000031],[101.69965020000006,6.354790000000037],[101.70281188700005,6.313323738000065],[101.71761936600006,6.260721424000053],[101.73905329800004,6.262133154000026],[101.76627800200004,6.319279557000073],[101.76243893700007,6.326926294000032],[101.72106031000004,6.347393670000031]]]}},{"type":"Feature","properties":{"code":"960406","name":"ตะปอเยาะ","parentCode":"9604"},"geometry":{"type":"Polygon","coordinates":[[[101.73166643200005,6.4740006450000465],[101.71593086700005,6.4999496260000456],[101.63634355600004,6.472036279000065],[101.64739089000005,6.4316279380000765],[101.68084875000005,6.4414518990000715],[101.73166643200005,6.4740006450000465]]]}},{"type":"Feature","properties":{"code":"961103","name":"โต๊ะเด็ง","parentCode":"9611"},"geometry":{"type":"Polygon","coordinates":[[[101.84540499900004,6.084924511000054],[101.89396747700005,6.1359580560000495],[101.86117187100007,6.16069784900003],[101.83012761600008,6.139330249000068],[101.84540499900004,6.084924511000054]]]}},{"type":"Feature","properties":{"code":"960801","name":"แว้ง","parentCode":"9608"},"geometry":{"type":"Polygon","coordinates":[[[101.86584239400008,5.945693753000057],[101.81434465800004,5.95796027800003],[101.80784239300004,5.9094862660000445],[101.88386091700005,5.92651371900007],[101.91659477600007,5.94619483300005],[101.86584239400008,5.945693753000057]]]}},{"type":"Feature","properties":{"code":"960401","name":"ยี่งอ","parentCode":"9604"},"geometry":{"type":"Polygon","coordinates":[[[101.71980769800007,6.409051893000026],[101.69522095500008,6.410795797000048],[101.68525083700007,6.4042644390000305],[101.68620984000006,6.355801191000069],[101.69965020000006,6.354790000000037],[101.72106031000004,6.347393670000031],[101.72183471900007,6.366693318000046],[101.71980769800007,6.409051893000026]]]}}]}