{"type":"FeatureCollection","features":[{"type":"Feature","properties":{"code":"1050","name":"บางบอน","parentCode":"10"},"geometry":{"type":"Polygon","coordinates":[[[100.44679705800007,13.682558432000064],[100.43773390500007,13.693684476000044],[100.42782137100005,13.687613030000023],[100.38484448200006,13.671401884000034],[100.34683704300005,13.655339513000058],[100.35024229000004,13.640497348000054],[100.37648208400009,13.619703151000067],[100.44679705800007,13.682558432000064]]]}},{"type":"Feature","properties":{"code":"1006","name":"บางกะปิ","parentCode":"10"},"geometry":{"type":"Polygon","coordinates":[[[100.66462440800007,13.775369817000069],[100.62447812000005,13.817398727000068],[100.61506420100005,13.799774373000048],[100.60409512000007,13.751200633000053],[100.60125180600005,13.748090111000067],[100.65908613500005,13.738385275000041],[100.66462440800007,13.775369817000069]]]}},{"type":"Feature","properties":{"code":"1040","name":"บางแค","parentCode":"10"},"geometry":{"type":"Polygon","coordinates":[[[100.40618470000004,13.749437693000061],[100.35935948200006,13.738002047000066],[100.38484448200006,13.671401884000034],[100.42782137100005,13.687613030000023],[100.41338956400006,13.74793375400003],[100.40618470000004,13.749437693000061]]]}},{"type":"Feature","properties":{"code":"1005","name":"บางเขน","parentCode":"10"},"geometry":{"type":"Polygon","coordinates":[[[100.68449650700006,13.87424829300005],[100.61113183000003,13.899779846000058],[100.59481328300006,13.887630844000057],[100.58654720500004,13.858933983000043],[100.58986609900006,13.84392907800003],[100.63712175800003,13.844668458000058],[100.64598685000004,13.847368251000034],[100.67545749200008,13.856381383000041],[100.68449650700006,13.87424829300005]]]}},{"type":"Feature","properties":{"code":"1031","name":"บางคอแหลม","parentCode":"10"},"geometry":{"type":"Polygon","coordinates":[[[100.52994573900008,13.702543641000034],[100.50817089700007,13.712460984000074],[100.49863760900007,13.705137064000041],[100.48999809100007,13.695261866000067],[100.51698184600008,13.682678629000065],[100.52994573900008,13.702543641000034]]]}},{"type":"Feature","properties":{"code":"1021","name":"บางขุนเทียน","parentCode":"10"},"geometry":{"type":"Polygon","coordinates":[[[100.47033367300008,13.65904032900005],[100.44679705800007,13.682558432000064],[100.37648208400009,13.619703151000067],[100.40883825200007,13.493389571000023],[100.45369343500005,13.501979764000055],[100.47693016600005,13.602955251000026],[100.47033367300008,13.65904032900005]]]}},{"type":"Feature","properties":{"code":"1047","name":"บางนา","parentCode":"10"},"geometry":{"type":"Polygon","coordinates":[[[100.64023600300004,13.677941022000027],[100.58876983900007,13.683015013000045],[100.59210252600008,13.663807903000077],[100.64480773300005,13.653638436000051],[100.65379229100006,13.668975588000023],[100.64023600300004,13.677941022000027]]]}},{"type":"Feature","properties":{"code":"1025","name":"บางพลัด","parentCode":"10"},"geometry":{"type":"Polygon","coordinates":[[[100.49903981300008,13.77266572700006],[100.51649756100005,13.80035809800006],[100.51525513000007,13.813274840000076],[100.46617687000008,13.788917403000028],[100.46593869000009,13.787158609000073],[100.49097198800007,13.761928724000029],[100.49903981300008,13.77266572700006]]]}},{"type":"Feature","properties":{"code":"1004","name":"บางรัก","parentCode":"10"},"geometry":{"type":"Polygon","coordinates":[[[100.51203169500008,13.719335614000045],[100.54474537400006,13.72616625300003],[100.51568779700006,13.738046738000037],[100.51229834900005,13.729392587000063],[100.51203169500008,13.719335614000045]]]}},{"type":"Feature","properties":{"code":"1029","name":"บางซื่อ","parentCode":"10"},"geometry":{"type":"Polygon","coordinates":[[[100.53742427600008,13.79785442900004],[100.54362947200008,13.849628112000062],[100.50740059800006,13.816038387000049],[100.51525513000007,13.813274840000076],[100.51649756100005,13.80035809800006],[100.53742427600008,13.79785442900004]]]}},{"type":"Feature","properties":{"code":"1020","name":"บางกอกน้อย","parentCode":"10"},"geometry":{"type":"Polygon","coordinates":[[[100.49097198800007,13.761928724000029],[100.46593869000009,13.787158609000073],[100.46205219200004,13.744419748000041],[100.48829925000007,13.748209494000037],[100.49097198800007,13.761928724000029]]]}},{"type":"Feature","properties":{"code":"1016","name":"บางกอกใหญ่","parentCode":"10"},"geometry":{"type":"Polygon","coordinates":[[[100.49196979800007,13.742172671000048],[100.48829925000007,13.748209494000037],[100.46205219200004,13.744419748000041],[100.47163796800004,13.722443215000055],[100.49196979800007,13.742172671000048]]]}},{"type":"Feature","properties":{"code":"1027","name":"บึงกุ่ม","parentCode":"10"},"geometry":{"type":"Polygon","coordinates":[[[100.67513534100004,13.781205881000062],[100.64598685000004,13.847368251000034],[100.63712175800003,13.844668458000058],[100.62447812000005,13.817398727000068],[100.66462440800007,13.775369817000069],[100.67513534100004,13.781205881000062]]]}},{"type":"Feature","properties":{"code":"1030","name":"จตุจักร","parentCode":"10"},"geometry":{"type":"Polygon","coordinates":[[[100.58986609900006,13.84392907800003],[100.58654720500004,13.858933983000043],[100.54362947200008,13.849628112000062],[100.53742427600008,13.79785442900004],[100.56162658600005,13.794959305000077],[100.57489622500003,13.801069838000046],[100.58834139400005,13.802980927000021],[100.58986609900006,13.84392907800003]]]}},{"type":"Feature","properties":{"code":"1035","name":"จอมทอง","parentCode":"10"},"geometry":{"type":"Polygon","coordinates":[[[100.46923467500005,13.715962863000073],[100.43773390500007,13.693684476000044],[100.44679705800007,13.682558432000064],[100.47033367300008,13.65904032900005],[100.47579651200004,13.661882128000059],[100.48254528000007,13.694834889000049],[100.46923467500005,13.715962863000073]]]}},{"type":"Feature","properties":{"code":"1026","name":"ดินแดง","parentCode":"10"},"geometry":{"type":"Polygon","coordinates":[[[100.56496850000008,13.75512621300004],[100.57489622500003,13.801069838000046],[100.56162658600005,13.794959305000077],[100.54343121400007,13.762715976000038],[100.56496850000008,13.75512621300004]]]}},{"type":"Feature","properties":{"code":"1036","name":"ดอนเมือง","parentCode":"10"},"geometry":{"type":"Polygon","coordinates":[[[100.62254545900004,13.950251041000058],[100.60652594900006,13.954378499000029],[100.56754835800007,13.951203277000047],[100.55889311700008,13.914457016000028],[100.59481328300006,13.887630844000057],[100.61113183000003,13.899779846000058],[100.62254545900004,13.950251041000058]]]}},{"type":"Feature","properties":{"code":"1002","name":"ดุสิต","parentCode":"10"},"geometry":{"type":"Polygon","coordinates":[[[100.53742427600008,13.79785442900004],[100.51649756100005,13.80035809800006],[100.49903981300008,13.77266572700006],[100.50939924600004,13.763650817000041],[100.51737146000005,13.753099860000077],[100.51916671800006,13.752732672000036],[100.52788649100006,13.774338363000027],[100.53742427600008,13.79785442900004]]]}},{"type":"Feature","properties":{"code":"1017","name":"ห้วยขวาง","parentCode":"10"},"geometry":{"type":"Polygon","coordinates":[[[100.58838302000004,13.802839008000035],[100.58834139400005,13.802980927000021],[100.57489622500003,13.801069838000046],[100.56496850000008,13.75512621300004],[100.56329744400006,13.747890403000042],[100.59815193000009,13.741144634000023],[100.60125180600005,13.748090111000067],[100.60409512000007,13.751200633000053],[100.58838302000004,13.802839008000035]]]}},{"type":"Feature","properties":{"code":"1043","name":"คันนายาว","parentCode":"10"},"geometry":{"type":"Polygon","coordinates":[[[100.67545749200008,13.856381383000041],[100.64598685000004,13.847368251000034],[100.67513534100004,13.781205881000062],[100.70496396600004,13.797679626000047],[100.69677590500004,13.81549276100003],[100.67545749200008,13.856381383000041]]]}},{"type":"Feature","properties":{"code":"1046","name":"คลองสามวา","parentCode":"10"},"geometry":{"type":"Polygon","coordinates":[[[100.79259302400004,13.931387879000056],[100.68695337600008,13.916254426000023],[100.68449650700006,13.87424829300005],[100.67545749200008,13.856381383000041],[100.69677590500004,13.81549276100003],[100.79899596500007,13.849289744000032],[100.79259302400004,13.931387879000056]]]}},{"type":"Feature","properties":{"code":"1018","name":"คลองสาน","parentCode":"10"},"geometry":{"type":"Polygon","coordinates":[[[100.49863760900007,13.705137064000041],[100.50817089700007,13.712460984000074],[100.51203169500008,13.719335614000045],[100.51229834900005,13.729392587000063],[100.49980669000007,13.738632557000074],[100.49764789800008,13.739218486000027],[100.49863760900007,13.705137064000041]]]}},{"type":"Feature","properties":{"code":"1033","name":"คลองเตย","parentCode":"10"},"geometry":{"type":"Polygon","coordinates":[[[100.60165893700008,13.704666227000075],[100.55069532700008,13.742848937000076],[100.55291228900006,13.722771623000028],[100.55375391500007,13.716543495000053],[100.55486719200007,13.705483354000023],[100.58391953000006,13.69609611900006],[100.60165893700008,13.704666227000075]]]}},{"type":"Feature","properties":{"code":"1041","name":"หลักสี่","parentCode":"10"},"geometry":{"type":"Polygon","coordinates":[[[100.59481328300006,13.887630844000057],[100.55889311700008,13.914457016000028],[100.55028518200004,13.877585603000057],[100.54362947200008,13.849628112000062],[100.58654720500004,13.858933983000043],[100.59481328300006,13.887630844000057]]]}},{"type":"Feature","properties":{"code":"1011","name":"ลาดกระบัง","parentCode":"10"},"geometry":{"type":"Polygon","coordinates":[[[100.87883300700008,13.737877175000051],[100.79509311000004,13.793974302000038],[100.71640317600009,13.778113848000032],[100.70839322600006,13.732496905000062],[100.70999435100003,13.716782075000026],[100.78335778600007,13.716618769000036],[100.85934736500008,13.689560424000035],[100.86076681300005,13.696903409000072],[100.87883300700008,13.737877175000051]]]}},{"type":"Feature","properties":{"code":"1038","name":"ลาดพร้าว","parentCode":"10"},"geometry":{"type":"Polygon","coordinates":[[[100.63712175800003,13.844668458000058],[100.58986609900006,13.84392907800003],[100.58834139400005,13.802980927000021],[100.58838302000004,13.802839008000035],[100.61506420100005,13.799774373000048],[100.62447812000005,13.817398727000068],[100.63712175800003,13.844668458000058]]]}},{"type":"Feature","properties":{"code":"1010","name":"มีนบุรี","parentCode":"10"},"geometry":{"type":"Polygon","coordinates":[[[100.79509311000004,13.793974302000038],[100.79899596500007,13.849289744000032],[100.69677590500004,13.81549276100003],[100.70496396600004,13.797679626000047],[100.71640317600009,13.778113848000032],[100.79509311000004,13.793974302000038]]]}},{"type":"Feature","properties":{"code":"1003","name":"หนองจอก","parentCode":"10"},"geometry":{"type":"Polygon","coordinates":[[[100.93085189000004,13.804404244000068],[100.91398311800003,13.946490894000021],[100.79259302400004,13.931387879000056],[100.79899596500007,13.849289744000032],[100.79509311000004,13.793974302000038],[100.87883300700008,13.737877175000051],[100.93085189000004,13.804404244000068]]]}},{"type":"Feature","properties":{"code":"1023","name":"หนองแขม","parentCode":"10"},"geometry":{"type":"Polygon","coordinates":[[[100.38484448200006,13.671401884000034],[100.35935948200006,13.738002047000066],[100.33745528100008,13.736036289000026],[100.33033285600004,13.719719976000022],[100.34683704300005,13.655339513000058],[100.38484448200006,13.671401884000034]]]}},{"type":"Feature","properties":{"code":"1007","name":"ปทุมวัน","parentCode":"10"},"geometry":{"type":"Polygon","coordinates":[[[100.51916671800006,13.752732672000036],[100.51737146000005,13.753099860000077],[100.51568779700006,13.738046738000037],[100.54474537400006,13.72616625300003],[100.55291228900006,13.722771623000028],[100.55069532700008,13.742848937000076],[100.55007543800008,13.748403346000032],[100.51916671800006,13.752732672000036]]]}},{"type":"Feature","properties":{"code":"1022","name":"ภาษีเจริญ","parentCode":"10"},"geometry":{"type":"Polygon","coordinates":[[[100.46205219200004,13.744419748000041],[100.41338956400006,13.74793375400003],[100.42782137100005,13.687613030000023],[100.43773390500007,13.693684476000044],[100.46923467500005,13.715962863000073],[100.47163796800004,13.722443215000055],[100.46205219200004,13.744419748000041]]]}},{"type":"Feature","properties":{"code":"1014","name":"พญาไท","parentCode":"10"},"geometry":{"type":"Polygon","coordinates":[[[100.56162658600005,13.794959305000077],[100.53742427600008,13.79785442900004],[100.52788649100006,13.774338363000027],[100.54343121400007,13.762715976000038],[100.56162658600005,13.794959305000077]]]}},{"type":"Feature","properties":{"code":"1009","name":"พระโขนง","parentCode":"10"},"geometry":{"type":"Polygon","coordinates":[[[100.63411112400007,13.700761585000066],[100.60574255000006,13.706509271000073],[100.60165893700008,13.704666227000075],[100.58391953000006,13.69609611900006],[100.58876983900007,13.683015013000045],[100.64023600300004,13.677941022000027],[100.63411112400007,13.700761585000066]]]}},{"type":"Feature","properties":{"code":"1001","name":"พระนคร","parentCode":"10"},"geometry":{"type":"Polygon","coordinates":[[[100.49980669000007,13.738632557000074],[100.50389819800006,13.746847599000034],[100.50939924600004,13.763650817000041],[100.49903981300008,13.77266572700006],[100.49097198800007,13.761928724000029],[100.48829925000007,13.748209494000037],[100.49196979800007,13.742172671000048],[100.49764789800008,13.739218486000027],[100.49980669000007,13.738632557000074]]]}},{"type":"Feature","properties":{"code":"1008","name":"ป้อมปราบศัตรูพ่าย","parentCode":"10"},"geometry":{"type":"Polygon","coordinates":[[[100.51568779700006,13.738046738000037],[100.51737146000005,13.753099860000077],[100.50939924600004,13.763650817000041],[100.50389819800006,13.746847599000034],[100.51568779700006,13.738046738000037]]]}},{"type":"Feature","properties":{"code":"1032","name":"ประเวศ","parentCode":"10"},"geometry":{"type":"Polygon","coordinates":[[[100.70839322600006,13.732496905000062],[100.65901055600006,13.737862488000076],[100.63411112400007,13.700761585000066],[100.64023600300004,13.677941022000027],[100.65379229100006,13.668975588000023],[100.70999435100003,13.716782075000026],[100.70839322600006,13.732496905000062]]]}},{"type":"Feature","properties":{"code":"1024","name":"ราษฎร์บูรณะ","parentCode":"10"},"geometry":{"type":"Polygon","coordinates":[[[100.48999809100007,13.695261866000067],[100.48254528000007,13.694834889000049],[100.47579651200004,13.661882128000059],[100.51751520700009,13.661599672000023],[100.52340115700008,13.677882705000059],[100.51698184600008,13.682678629000065],[100.48999809100007,13.695261866000067]]]}},{"type":"Feature","properties":{"code":"1037","name":"ราชเทวี","parentCode":"10"},"geometry":{"type":"Polygon","coordinates":[[[100.56496850000008,13.75512621300004],[100.54343121400007,13.762715976000038],[100.52788649100006,13.774338363000027],[100.51916671800006,13.752732672000036],[100.55007543800008,13.748403346000032],[100.56329744400006,13.747890403000042],[100.56496850000008,13.75512621300004]]]}},{"type":"Feature","properties":{"code":"1042","name":"สายไหม","parentCode":"10"},"geometry":{"type":"Polygon","coordinates":[[[100.68695337600008,13.916254426000023],[100.62254545900004,13.950251041000058],[100.61113183000003,13.899779846000058],[100.68449650700006,13.87424829300005],[100.68695337600008,13.916254426000023]]]}},{"type":"Feature","properties":{"code":"1013","name":"สัมพันธวงศ์","parentCode":"10"},"geometry":{"type":"Polygon","coordinates":[[[100.51229834900005,13.729392587000063],[100.51568779700006,13.738046738000037],[100.50389819800006,13.746847599000034],[100.49980669000007,13.738632557000074],[100.51229834900005,13.729392587000063]]]}},{"type":"Feature","properties":{"code":"1044","name":"สะพานสูง","parentCode":"10"},"geometry":{"type":"Polygon","coordinates":[[[100.71640317600009,13.778113848000032],[100.70496396600004,13.797679626000047],[100.67513534100004,13.781205881000062],[100.66462440800007,13.775369817000069],[100.65908613500005,13.738385275000041],[100.65901055600006,13.737862488000076],[100.70839322600006,13.732496905000062],[100.71640317600009,13.778113848000032]]]}},{"type":"Feature","properties":{"code":"1028","name":"สาทร","parentCode":"10"},"geometry":{"type":"Polygon","coordinates":[[[100.55291228900006,13.722771623000028],[100.54474537400006,13.72616625300003],[100.51203169500008,13.719335614000045],[100.50817089700007,13.712460984000074],[100.52994573900008,13.702543641000034],[100.55375391500007,13.716543495000053],[100.55291228900006,13.722771623000028]]]}},{"type":"Feature","properties":{"code":"1034","name":"สวนหลวง","parentCode":"10"},"geometry":{"type":"Polygon","coordinates":[[[100.65908613500005,13.738385275000041],[100.60125180600005,13.748090111000067],[100.59815193000009,13.741144634000023],[100.60574255000006,13.706509271000073],[100.63411112400007,13.700761585000066],[100.65901055600006,13.737862488000076],[100.65908613500005,13.738385275000041]]]}},{"type":"Feature","properties":{"code":"1019","name":"ตลิ่งชัน","parentCode":"10"},"geometry":{"type":"Polygon","coordinates":[[[100.46617687000008,13.788917403000028],[100.41105770500008,13.801346720000026],[100.40618470000004,13.749437693000061],[100.41338956400006,13.74793375400003],[100.46205219200004,13.744419748000041],[100.46593869000009,13.787158609000073],[100.46617687000008,13.788917403000028]]]}},{"type":"Feature","properties":{"code":"1048","name":"ทวีวัฒนา","parentCode":"10"},"geometry":{"type":"Polygon","coordinates":[[[100.41105770500008,13.801346720000026],[100.32791238700008,13.80412552100006],[100.33010398200008,13.76309221200006],[100.33745528100008,13.736036289000026],[100.35935948200006,13.738002047000066],[100.40618470000004,13.749437693000061],[100.41105770500008,13.801346720000026]]]}},{"type":"Feature","properties":{"code":"1015","name":"ธนบุรี","parentCode":"10"},"geometry":{"type":"Polygon","coordinates":[[[100.49863760900007,13.705137064000041],[100.49764789800008,13.739218486000027],[100.49196979800007,13.742172671000048],[100.47163796800004,13.722443215000055],[100.46923467500005,13.715962863000073],[100.48254528000007,13.694834889000049],[100.48999809100007,13.695261866000067],[100.49863760900007,13.705137064000041]]]}},{"type":"Feature","properties":{"code":"1049","name":"ทุ่งครุ","parentCode":"10"},"geometry":{"type":"Polygon","coordinates":[[[100.51751520700009,13.661599672000023],[100.47579651200004,13.661882128000059],[100.47033367300008,13.65904032900005],[100.47693016600005,13.602955251000026],[100.52103794300007,13.605141864000075],[100.51751520700009,13.661599672000023]]]}},{"type":"Feature","properties":{"code":"1039","name":"วัฒนา","parentCode":"10"},"geometry":{"type":"Polygon","coordinates":[[[100.56329744400006,13.747890403000042],[100.55007543800008,13.748403346000032],[100.55069532700008,13.742848937000076],[100.60165893700008,13.704666227000075],[100.60574255000006,13.706509271000073],[100.59815193000009,13.741144634000023],[100.56329744400006,13.747890403000042]]]}},{"type":"Feature","properties":{"code":"1045","name":"วังทองหลาง","parentCode":"10"},"geometry":{"type":"Polygon","coordinates":[[[100.61506420100005,13.799774373000048],[100.58838302000004,13.802839008000035],[100.60409512000007,13.751200633000053],[100.61506420100005,13.799774373000048]]]}},{"type":"Feature","properties":{"code":"1012","name":"ยานนาวา","parentCode":"10"},"geometry":{"type":"Polygon","coordinates":[[[100.55375391500007,13.716543495000053],[100.52994573900008,13.702543641000034],[100.51698184600008,13.682678629000065],[100.52340115700008,13.677882705000059],[100.55486719200007,13.705483354000023],[100.55375391500007,13.716543495000053]]]}}]}