{"type":"FeatureCollection","features":[{"type":"Feature","properties":{"code":"1102","name":"บางบ่อ","parentCode":"11"},"geometry":{"type":"Polygon","coordinates":[[[100.96097103400007,13.636038575000043],[100.93755046400008,13.668675565000058],[100.86076681300005,13.696903409000072],[100.85934736500008,13.689560424000035],[100.82766616100008,13.565204208000068],[100.77216344500005,13.553657159000068],[100.76585653500007,13.521771201000035],[100.78037276600008,13.491971804000059],[100.84839130800003,13.478420328000027],[100.96097103400007,13.636038575000043]]]}},{"type":"Feature","properties":{"code":"1103","name":"บางพลี","parentCode":"11"},"geometry":{"type":"Polygon","coordinates":[[[100.78335778600007,13.716618769000036],[100.70999435100003,13.716782075000026],[100.65379229100006,13.668975588000023],[100.64480773300005,13.653638436000051],[100.69778248100005,13.586494578000043],[100.69562173500003,13.523410001000059],[100.76585653500007,13.521771201000035],[100.77216344500005,13.553657159000068],[100.78335778600007,13.716618769000036]]]}},{"type":"Feature","properties":{"code":"1106","name":"บางเสาธง","parentCode":"11"},"geometry":{"type":"Polygon","coordinates":[[[100.85934736500008,13.689560424000035],[100.78335778600007,13.716618769000036],[100.77216344500005,13.553657159000068],[100.82766616100008,13.565204208000068],[100.85934736500008,13.689560424000035]]]}},{"type":"Feature","properties":{"code":"1101","name":"เมืองสมุทรปราการ","parentCode":"11"},"geometry":{"type":"Polygon","coordinates":[[[100.64480773300005,13.653638436000051],[100.59210252600008,13.663807903000077],[100.55135740800006,13.618557683000063],[100.59733268100007,13.538992501000052],[100.78037276600008,13.491971804000059],[100.76585653500007,13.521771201000035],[100.69562173500003,13.523410001000059],[100.69778248100005,13.586494578000043],[100.64480773300005,13.653638436000051]]]}},{"type":"Feature","properties":{"code":"1104","name":"พระประแดง","parentCode":"11"},"geometry":{"type":"Polygon","coordinates":[[[100.59210252600008,13.663807903000077],[100.58876983900007,13.683015013000045],[100.58391953000006,13.69609611900006],[100.55486719200007,13.705483354000023],[100.52340115700008,13.677882705000059],[100.51751520700009,13.661599672000023],[100.52103794300007,13.605141864000075],[100.55135740800006,13.618557683000063],[100.59210252600008,13.663807903000077]]]}},{"type":"Feature","properties":{"code":"1105","name":"พระสมุทรเจดีย์","parentCode":"11"},"geometry":{"type":"Polygon","coordinates":[[[100.59733268100007,13.538992501000052],[100.55135740800006,13.618557683000063],[100.52103794300007,13.605141864000075],[100.47693016600005,13.602955251000026],[100.45369343500005,13.501979764000055],[100.59733268100007,13.538992501000052]]]}}]}