{"type":"FeatureCollection","features":[{"type":"Feature","properties":{"code":"1702","name":"บางระจัน","parentCode":"17"},"geometry":{"type":"Polygon","coordinates":[[[100.34157055100007,14.937216233000072],[100.28845836900007,14.956346628000063],[100.20269512300007,14.953456120000055],[100.21542735900005,14.839860029000022],[100.30500514700003,14.82853714600003],[100.36743094300004,14.87112860600007],[100.34157055100007,14.937216233000072]]]}},{"type":"Feature","properties":{"code":"1706","name":"อินทร์บุรี","parentCode":"17"},"geometry":{"type":"Polygon","coordinates":[[[100.42748741400004,15.061086905000025],[100.35152437900007,15.118409770000028],[100.25958723600007,15.058910965000052],[100.22394397200009,15.024909168000022],[100.28845836900007,14.956346628000063],[100.34157055100007,14.937216233000072],[100.44688555300007,15.003178427000023],[100.42748741400004,15.061086905000025]]]}},{"type":"Feature","properties":{"code":"1703","name":"ค่ายบางระจัน","parentCode":"17"},"geometry":{"type":"Polygon","coordinates":[[[100.39305713400006,14.816935558000068],[100.36743094300004,14.87112860600007],[100.30500514700003,14.82853714600003],[100.21542735900005,14.839860029000022],[100.22643316800009,14.795045493000032],[100.34886868900008,14.77950241800005],[100.39305713400006,14.816935558000068]]]}},{"type":"Feature","properties":{"code":"1701","name":"เมืองสิงห์บุรี","parentCode":"17"},"geometry":{"type":"Polygon","coordinates":[[[100.42200090200004,14.922429691000048],[100.44688555300007,15.003178427000023],[100.34157055100007,14.937216233000072],[100.36743094300004,14.87112860600007],[100.39305713400006,14.816935558000068],[100.40839723500005,14.810212152000076],[100.45431854700007,14.857026374000043],[100.42200090200004,14.922429691000048]]]}},{"type":"Feature","properties":{"code":"1704","name":"พรหมบุรี","parentCode":"17"},"geometry":{"type":"Polygon","coordinates":[[[100.45794010500003,14.721096421000027],[100.48468555100004,14.739415832000077],[100.45431854700007,14.857026374000043],[100.40839723500005,14.810212152000076],[100.41475125800008,14.747663002000024],[100.41960507100003,14.726725673000033],[100.45794010500003,14.721096421000027]]]}},{"type":"Feature","properties":{"code":"1705","name":"ท่าช้าง","parentCode":"17"},"geometry":{"type":"Polygon","coordinates":[[[100.40839723500005,14.810212152000076],[100.39305713400006,14.816935558000068],[100.34886868900008,14.77950241800005],[100.38158001400006,14.74300437900007],[100.41475125800008,14.747663002000024],[100.40839723500005,14.810212152000076]]]}}]}