{"type":"FeatureCollection","features":[{"type":"Feature","properties":{"code":"1806","name":"หันคา","parentCode":"18"},"geometry":{"type":"Polygon","coordinates":[[[100.03838083800008,15.139357134000022],[99.80863163900005,15.142324220000035],[99.77166536700008,15.140612779000037],[99.87885178100004,15.004353880000053],[99.94667235800006,14.988196779000077],[99.95172454400006,14.909854185000029],[100.04173330800006,14.914929855000025],[100.08709981500004,14.955579406000027],[100.07249663100004,15.088817240000026],[100.03838083800008,15.139357134000022]]]}},{"type":"Feature","properties":{"code":"1802","name":"มโนรมย์","parentCode":"18"},"geometry":{"type":"Polygon","coordinates":[[[100.21784782000003,15.363384734000022],[100.10186987000009,15.417357425000034],[100.05606914800006,15.268930625000053],[100.15301897200004,15.24562338100003],[100.26503365900004,15.268409418000033],[100.21784782000003,15.363384734000022]]]}},{"type":"Feature","properties":{"code":"1801","name":"เมืองชัยนาท","parentCode":"18"},"geometry":{"type":"Polygon","coordinates":[[[100.26503365900004,15.268409418000033],[100.15301897200004,15.24562338100003],[100.05606914800006,15.268930625000053],[100.05816397900008,15.26366521600005],[100.03838083800008,15.139357134000022],[100.07249663100004,15.088817240000026],[100.18500127300007,15.117765904000066],[100.17708450000003,15.223126518000072],[100.29361736800007,15.207693696000035],[100.26503365900004,15.268409418000033]]]}},{"type":"Feature","properties":{"code":"1808","name":"เนินขาม","parentCode":"18"},"geometry":{"type":"Polygon","coordinates":[[[99.95172454400006,14.909854185000029],[99.94667235800006,14.988196779000077],[99.87885178100004,15.004353880000053],[99.77166536700008,15.140612779000037],[99.79078508700007,15.10028369400004],[99.72377013800008,14.962032211000064],[99.73173369100004,14.962623385000029],[99.95172454400006,14.909854185000029]]]}},{"type":"Feature","properties":{"code":"1807","name":"หนองมะโมง","parentCode":"18"},"geometry":{"type":"Polygon","coordinates":[[[99.87181485800005,15.304944541000054],[99.78416137300007,15.317721014000028],[99.72727105900003,15.249636508000037],[99.77166536700008,15.140612779000037],[99.80863163900005,15.142324220000035],[99.93235750200006,15.235551352000073],[99.92248217400004,15.29811096700007],[99.87181485800005,15.304944541000054]]]}},{"type":"Feature","properties":{"code":"1805","name":"สรรคบุรี","parentCode":"18"},"geometry":{"type":"Polygon","coordinates":[[[100.25958723600007,15.058910965000052],[100.18500127300007,15.117765904000066],[100.07249663100004,15.088817240000026],[100.08709981500004,14.955579406000027],[100.20269512300007,14.953456120000055],[100.28845836900007,14.956346628000063],[100.22394397200009,15.024909168000022],[100.25958723600007,15.058910965000052]]]}},{"type":"Feature","properties":{"code":"1804","name":"สรรพยา","parentCode":"18"},"geometry":{"type":"Polygon","coordinates":[[[100.29361736800007,15.207693696000035],[100.17708450000003,15.223126518000072],[100.18500127300007,15.117765904000066],[100.25958723600007,15.058910965000052],[100.35152437900007,15.118409770000028],[100.29361736800007,15.207693696000035]]]}},{"type":"Feature","properties":{"code":"1803","name":"วัดสิงห์","parentCode":"18"},"geometry":{"type":"Polygon","coordinates":[[[100.03722899900004,15.292283610000027],[99.92248217400004,15.29811096700007],[99.93235750200006,15.235551352000073],[99.80863163900005,15.142324220000035],[100.03838083800008,15.139357134000022],[100.05816397900008,15.26366521600005],[100.03722899900004,15.292283610000027]]]}}]}