{"type":"FeatureCollection","features":[{"type":"Feature","properties":{"code":"1906","name":"บ้านหมอ","parentCode":"19"},"geometry":{"type":"Polygon","coordinates":[[[100.74823524900006,14.657101436000062],[100.68226864200005,14.675792750000028],[100.64088281500005,14.635877160000064],[100.62220608600006,14.562426945000027],[100.78270467300007,14.567032528000027],[100.80367198800008,14.599761973000057],[100.74823524900006,14.657101436000062]]]}},{"type":"Feature","properties":{"code":"1913","name":"เฉลิมพระเกียรติ","parentCode":"19"},"geometry":{"type":"Polygon","coordinates":[[[100.96203611400006,14.566053897000074],[100.93505900400004,14.695492386000069],[100.95947452200005,14.743768713000065],[100.94363481200008,14.741983173000051],[100.85265968000004,14.728689931000076],[100.85887061600005,14.665544643000032],[100.88839484100004,14.565531920000069],[100.96203611400006,14.566053897000074]]]}},{"type":"Feature","properties":{"code":"1907","name":"ดอนพุด","parentCode":"19"},"geometry":{"type":"Polygon","coordinates":[[[100.63053203300007,14.649993705000043],[100.60228489700006,14.655050733000053],[100.58198596700004,14.62440686900004],[100.60184496400007,14.554215713000076],[100.62220608600006,14.562426945000027],[100.64088281500005,14.635877160000064],[100.63053203300007,14.649993705000043]]]}},{"type":"Feature","properties":{"code":"1902","name":"แก่งคอย","parentCode":"19"},"geometry":{"type":"Polygon","coordinates":[[[101.06098292100006,14.759725925000055],[101.02388084700004,14.809935740000071],[100.95947452200005,14.743768713000065],[100.93505900400004,14.695492386000069],[100.96203611400006,14.566053897000074],[101.00021307100008,14.417760420000036],[101.05328758500008,14.412313636000022],[101.16572385300003,14.34237577700003],[101.24283172200006,14.471104316000037],[101.14239520300004,14.537226516000032],[101.13313643900005,14.648378939000054],[101.07543917700008,14.730676333000076],[101.06098292100006,14.759725925000055]]]}},{"type":"Feature","properties":{"code":"1911","name":"มวกเหล็ก","parentCode":"19"},"geometry":{"type":"Polygon","coordinates":[[[101.40022633700005,15.073792757000035],[101.36307893800006,15.046971339000038],[101.33157233100007,14.982754885000077],[101.21931341200008,14.919249235000052],[101.22823124300004,14.834768051000026],[101.11390839600006,14.699853913000027],[101.07543917700008,14.730676333000076],[101.13313643900005,14.648378939000054],[101.14239520300004,14.537226516000032],[101.24283172200006,14.471104316000037],[101.18144376700008,14.547400271000072],[101.21581990800007,14.590527120000047],[101.19894691400003,14.755928070000039],[101.28091246900004,14.726229594000074],[101.45015668300005,14.857215820000022],[101.44856781000004,14.902157604000024],[101.40022633700005,15.073792757000035]]]}},{"type":"Feature","properties":{"code":"1901","name":"เมืองสระบุรี","parentCode":"19"},"geometry":{"type":"Polygon","coordinates":[[[100.96203611400006,14.566053897000074],[100.88839484100004,14.565531920000069],[100.85014877500004,14.521002504000023],[100.84518218900007,14.459408770000039],[100.93926327900004,14.433992139000054],[101.00021307100008,14.417760420000036],[100.96203611400006,14.566053897000074]]]}},{"type":"Feature","properties":{"code":"1908","name":"หนองโดน","parentCode":"19"},"geometry":{"type":"Polygon","coordinates":[[[100.72453262900007,14.760059856000055],[100.66521372500006,14.735270480000054],[100.63053203300007,14.649993705000043],[100.64088281500005,14.635877160000064],[100.68226864200005,14.675792750000028],[100.74823524900006,14.657101436000062],[100.72453262900007,14.760059856000055]]]}},{"type":"Feature","properties":{"code":"1903","name":"หนองแค","parentCode":"19"},"geometry":{"type":"Polygon","coordinates":[[[100.93926327900004,14.433992139000054],[100.84518218900007,14.459408770000039],[100.77236061700006,14.434628474000021],[100.78677699600007,14.370244253000067],[100.77550453200007,14.318618553000022],[100.82317983000007,14.329661398000042],[100.82149886400003,14.242746399000055],[100.89154523600007,14.27595109400005],[100.93780674400006,14.31439787000005],[100.93926327900004,14.433992139000054]]]}},{"type":"Feature","properties":{"code":"1905","name":"หนองแซง","parentCode":"19"},"geometry":{"type":"Polygon","coordinates":[[[100.85014877500004,14.521002504000023],[100.77865228600007,14.530733977000068],[100.76430784600007,14.494022060000077],[100.77236061700006,14.434628474000021],[100.84518218900007,14.459408770000039],[100.85014877500004,14.521002504000023]]]}},{"type":"Feature","properties":{"code":"1909","name":"พระพุทธบาท","parentCode":"19"},"geometry":{"type":"Polygon","coordinates":[[[100.84812840500007,14.797201615000063],[100.72453262900007,14.760059856000055],[100.74823524900006,14.657101436000062],[100.80367198800008,14.599761973000057],[100.85887061600005,14.665544643000032],[100.85265968000004,14.728689931000076],[100.94363481200008,14.741983173000051],[100.84812840500007,14.797201615000063]]]}},{"type":"Feature","properties":{"code":"1910","name":"เสาไห้","parentCode":"19"},"geometry":{"type":"Polygon","coordinates":[[[100.88839484100004,14.565531920000069],[100.85887061600005,14.665544643000032],[100.80367198800008,14.599761973000057],[100.78270467300007,14.567032528000027],[100.77865228600007,14.530733977000068],[100.85014877500004,14.521002504000023],[100.88839484100004,14.565531920000069]]]}},{"type":"Feature","properties":{"code":"1912","name":"วังม่วง","parentCode":"19"},"geometry":{"type":"Polygon","coordinates":[[[101.21931341200008,14.919249235000052],[101.09706470300006,14.908787693000022],[101.06098292100006,14.759725925000055],[101.07543917700008,14.730676333000076],[101.11390839600006,14.699853913000027],[101.22823124300004,14.834768051000026],[101.21931341200008,14.919249235000052]]]}},{"type":"Feature","properties":{"code":"1904","name":"วิหารแดง","parentCode":"19"},"geometry":{"type":"Polygon","coordinates":[[[101.00021307100008,14.417760420000036],[100.93926327900004,14.433992139000054],[100.93780674400006,14.31439787000005],[100.89154523600007,14.27595109400005],[100.95111814600006,14.271684207000021],[101.01134928200008,14.300062270000069],[101.05328758500008,14.412313636000022],[101.00021307100008,14.417760420000036]]]}}]}