{"type":"FeatureCollection","features":[{"type":"Feature","properties":{"code":"3702","name":"ชานุมาน","parentCode":"37"},"geometry":{"type":"Polygon","coordinates":[[[104.97872389200006,16.279131600000028],[104.81730983300008,16.187845294000056],[104.76607414700004,16.196444264000036],[104.82500423100004,16.155255647000047],[104.81385420500004,16.09867915600006],[104.81836996500004,16.00862573300003],[105.00993760100005,15.99959560700006],[105.06026078000008,16.09814908000004],[104.97872389200006,16.279131600000028]]]}},{"type":"Feature","properties":{"code":"3706","name":"หัวตะพาน","parentCode":"37"},"geometry":{"type":"Polygon","coordinates":[[[104.60513090000006,15.766060053000047],[104.43348225000005,15.779258365000032],[104.41890576400004,15.745743803000039],[104.44035092800004,15.618161901000065],[104.51201416400005,15.563932335000061],[104.56611250600008,15.556378805000065],[104.63743448300005,15.646958945000051],[104.62006736500007,15.687008168000034],[104.60513090000006,15.766060053000047]]]}},{"type":"Feature","properties":{"code":"3707","name":"ลืออำนาจ","parentCode":"37"},"geometry":{"type":"Polygon","coordinates":[[[104.77637890300008,15.733692805000032],[104.69962127800005,15.801195763000067],[104.60513090000006,15.766060053000047],[104.62006736500007,15.687008168000034],[104.80754981400008,15.603687571000023],[104.77637890300008,15.733692805000032]]]}},{"type":"Feature","properties":{"code":"3701","name":"เมืองอำนาจเจริญ","parentCode":"37"},"geometry":{"type":"Polygon","coordinates":[[[104.78402757100008,15.96536710600003],[104.70496548800008,16.015482946000077],[104.53137100700008,16.003802165000025],[104.50195090200003,15.976500546000068],[104.43348225000005,15.779258365000032],[104.60513090000006,15.766060053000047],[104.69962127800005,15.801195763000067],[104.77637890300008,15.733692805000032],[104.82149853300007,15.786249188000056],[104.78402757100008,15.96536710600003]]]}},{"type":"Feature","properties":{"code":"3703","name":"ปทุมราชวงศา","parentCode":"37"},"geometry":{"type":"Polygon","coordinates":[[[105.00993760100005,15.99959560700006],[104.81836996500004,16.00862573300003],[104.78402757100008,15.96536710600003],[104.82149853300007,15.786249188000056],[104.90395328300008,15.748584701000027],[104.90739223900005,15.761424343000044],[104.95836079200006,15.78907210500006],[105.00420106100006,15.93715320800004],[105.00993760100005,15.99959560700006]]]}},{"type":"Feature","properties":{"code":"3704","name":"พนา","parentCode":"37"},"geometry":{"type":"Polygon","coordinates":[[[104.90395328300008,15.748584701000027],[104.82149853300007,15.786249188000056],[104.77637890300008,15.733692805000032],[104.80754981400008,15.603687571000023],[104.86981367500005,15.538341982000077],[104.88754400700009,15.545026620000044],[104.93314208500004,15.640393321000033],[104.89493616000004,15.65352426800007],[104.90395328300008,15.748584701000027]]]}},{"type":"Feature","properties":{"code":"3705","name":"เสนางคนิคม","parentCode":"37"},"geometry":{"type":"Polygon","coordinates":[[[104.81385420500004,16.09867915600006],[104.66201339300005,16.123357397000063],[104.54260898700005,16.07117774900007],[104.53137100700008,16.003802165000025],[104.70496548800008,16.015482946000077],[104.78402757100008,15.96536710600003],[104.81836996500004,16.00862573300003],[104.81385420500004,16.09867915600006]]]}}]}