{"type":"FeatureCollection","features":[{"type":"Feature","properties":{"code":"4111","name":"บ้านดุง","parentCode":"41"},"geometry":{"type":"Polygon","coordinates":[[[103.39971421400008,17.904579917000035],[103.35890542900006,17.856837622000057],[103.30031540000004,17.82707353400002],[103.24059045400008,17.88569112600004],[103.12710939600004,17.826457704000063],[103.11675591000005,17.695988294000074],[103.11652826100004,17.61933536500004],[103.15590714600006,17.591651655000078],[103.32044880200004,17.549345294000034],[103.41102792500004,17.596395260000065],[103.40381173500003,17.68399583000007],[103.40314380800004,17.751599890000023],[103.36776083700005,17.779943608000053],[103.41454208900007,17.842592379000052],[103.39971421400008,17.904579917000035]]]}},{"type":"Feature","properties":{"code":"4117","name":"บ้านผือ","parentCode":"41"},"geometry":{"type":"Polygon","coordinates":[[[102.35595659600006,17.922744519000048],[102.27592842700005,17.980617410000036],[102.25568599200005,17.88496876800002],[102.31893491700004,17.81635078100004],[102.31811639400007,17.676841384000056],[102.33248071900005,17.550936283000055],[102.38490303400005,17.45218862100006],[102.54090502500009,17.53339465700003],[102.67166988400004,17.531287589000044],[102.69326517500008,17.57184200000006],[102.73154950300005,17.603536193000025],[102.59670904000006,17.622550752000052],[102.61187369600003,17.683474919000048],[102.52370153800007,17.763182114000074],[102.44034774300007,17.767434535000064],[102.44142441900004,17.819934105000073],[102.35595659600006,17.922744519000048]]]}},{"type":"Feature","properties":{"code":"4108","name":"ไชยวาน","parentCode":"41"},"geometry":{"type":"Polygon","coordinates":[[[103.25379723900005,17.31794883200007],[103.21576134100007,17.34293691000005],[103.17058821300009,17.23623160300002],[103.24462808500004,17.112033014000076],[103.26331553000006,17.15628358200007],[103.37281819200007,17.152702015000045],[103.44048773200007,17.213253829000053],[103.29969806800005,17.269534340000064],[103.25379723900005,17.31794883200007]]]}},{"type":"Feature","properties":{"code":"4124","name":"กู่แก้ว","parentCode":"41"},"geometry":{"type":"Polygon","coordinates":[[[103.24462808500004,17.112033014000076],[103.17058821300009,17.23623160300002],[103.08393861900004,17.22088525500004],[103.08856333600005,17.203280102000065],[103.15513272200008,17.101446821000025],[103.24462808500004,17.112033014000076]]]}},{"type":"Feature","properties":{"code":"4104","name":"กุมภวาปี","parentCode":"41"},"geometry":{"type":"Polygon","coordinates":[[[102.93432483900006,17.20403958600002],[102.82345184200005,17.26337482400004],[102.79967238600005,17.244512352000072],[102.87951002700004,17.160430501000064],[102.84980750700004,17.033146232000036],[102.90405194700008,16.993996194000033],[103.02503765800009,17.004125225000053],[103.03591189200006,16.883807902000058],[103.09811585400007,16.912621710000053],[103.11729689700007,16.961118657000043],[103.05145621300005,17.043901900000037],[103.15513272200008,17.101446821000025],[103.08856333600005,17.203280102000065],[102.93432483900006,17.20403958600002]]]}},{"type":"Feature","properties":{"code":"4102","name":"กุดจับ","parentCode":"41"},"geometry":{"type":"Polygon","coordinates":[[[102.67166988400004,17.531287589000044],[102.54090502500009,17.53339465700003],[102.38490303400005,17.45218862100006],[102.39860857800005,17.414633237000032],[102.42118316300008,17.375820901000054],[102.43773393600009,17.338332094000066],[102.59859431000007,17.374847343000056],[102.61291359100005,17.43486590400005],[102.70067851500005,17.468549775000042],[102.67166988400004,17.531287589000044]]]}},{"type":"Feature","properties":{"code":"4101","name":"เมืองอุดรธานี","parentCode":"41"},"geometry":{"type":"Polygon","coordinates":[[[102.96221879500007,17.47059822500006],[102.91425523500004,17.488010291000023],[102.89672177600005,17.56418006100006],[102.69326517500008,17.57184200000006],[102.67166988400004,17.531287589000044],[102.70067851500005,17.468549775000042],[102.61291359100005,17.43486590400005],[102.59859431000007,17.374847343000056],[102.66514247700007,17.295443512000077],[102.66995394700007,17.20580932300004],[102.79967238600005,17.244512352000072],[102.82345184200005,17.26337482400004],[102.93432483900006,17.20403958600002],[102.90055851500006,17.243738509000025],[102.94770354500008,17.32046588000003],[102.95485179600007,17.45489520600006],[102.96221879500007,17.47059822500006]]]}},{"type":"Feature","properties":{"code":"4122","name":"นายูง","parentCode":"41"},"geometry":{"type":"Polygon","coordinates":[[[102.27592842700005,17.980617410000036],[102.20089191600005,18.02200282600006],[102.15594996200008,17.99034785400005],[102.10189125200009,18.078636650000078],[102.05513989400004,18.086168997000073],[102.02426850200004,17.976845033000075],[102.03921710900005,17.80122395500007],[102.12854865800006,17.797921289000044],[102.17891290900008,17.86043018500004],[102.25568599200005,17.88496876800002],[102.27592842700005,17.980617410000036]]]}},{"type":"Feature","properties":{"code":"4118","name":"น้ำโสม","parentCode":"41"},"geometry":{"type":"Polygon","coordinates":[[[102.31811639400007,17.676841384000056],[102.31893491700004,17.81635078100004],[102.25568599200005,17.88496876800002],[102.17891290900008,17.86043018500004],[102.12854865800006,17.797921289000044],[102.03921710900005,17.80122395500007],[102.03643160000007,17.65029137500005],[102.08322637300006,17.634323248000044],[102.14947946200004,17.66595085000006],[102.24508205200004,17.65067217400002],[102.31811639400007,17.676841384000056]]]}},{"type":"Feature","properties":{"code":"4105","name":"โนนสะอาด","parentCode":"41"},"geometry":{"type":"Polygon","coordinates":[[[102.84980750700004,17.033146232000036],[102.73426316200005,17.10240396200004],[102.70970462200006,17.087009188000025],[102.82270086200003,16.97293878200003],[102.81024756400006,16.894091380000077],[102.92899095500007,16.83790547800004],[103.00192928600006,16.864928680000048],[103.03591189200006,16.883807902000058],[103.02503765800009,17.004125225000053],[102.90405194700008,16.993996194000033],[102.84980750700004,17.033146232000036]]]}},{"type":"Feature","properties":{"code":"4106","name":"หนองหาน","parentCode":"41"},"geometry":{"type":"Polygon","coordinates":[[[103.12944090600007,17.497600895000062],[103.05071459300007,17.455194920000054],[102.95485179600007,17.45489520600006],[102.94770354500008,17.32046588000003],[103.08393861900004,17.22088525500004],[103.17058821300009,17.23623160300002],[103.21576134100007,17.34293691000005],[103.25379723900005,17.31794883200007],[103.30139356100005,17.395262398000057],[103.27616605000009,17.43676797100005],[103.15415609300004,17.418384841000034],[103.12944090600007,17.497600895000062]]]}},{"type":"Feature","properties":{"code":"4121","name":"หนองแสง","parentCode":"41"},"geometry":{"type":"Polygon","coordinates":[[[102.84980750700004,17.033146232000036],[102.87951002700004,17.160430501000064],[102.79967238600005,17.244512352000072],[102.66995394700007,17.20580932300004],[102.70004704800004,17.086895766000055],[102.70970462200006,17.087009188000025],[102.73426316200005,17.10240396200004],[102.84980750700004,17.033146232000036]]]}},{"type":"Feature","properties":{"code":"4103","name":"หนองวัวซอ","parentCode":"41"},"geometry":{"type":"Polygon","coordinates":[[[102.66995394700007,17.20580932300004],[102.66514247700007,17.295443512000077],[102.59859431000007,17.374847343000056],[102.43773393600009,17.338332094000066],[102.43775010700006,17.28230654300006],[102.59269452700005,17.265869052000028],[102.46974707300006,17.201414503000024],[102.57938673500007,17.04081631100007],[102.66933312300006,16.993749911000066],[102.70004704800004,17.086895766000055],[102.66995394700007,17.20580932300004]]]}},{"type":"Feature","properties":{"code":"4119","name":"เพ็ญ","parentCode":"41"},"geometry":{"type":"Polygon","coordinates":[[[102.96928710800006,17.823692950000066],[102.88435982900006,17.898208878000048],[102.84416276500008,17.836655750000034],[102.83074508700008,17.69362841800006],[102.79699195100005,17.685889090000046],[102.73154950300005,17.603536193000025],[102.69326517500008,17.57184200000006],[102.89672177600005,17.56418006100006],[102.91425523500004,17.488010291000023],[102.96221879500007,17.47059822500006],[102.99613811300009,17.531668384000056],[103.11652826100004,17.61933536500004],[103.11675591000005,17.695988294000074],[102.95707086400006,17.746491571000035],[102.96928710800006,17.823692950000066]]]}},{"type":"Feature","properties":{"code":"4123","name":"พิบูลย์รักษ์","parentCode":"41"},"geometry":{"type":"Polygon","coordinates":[[[103.15590714600006,17.591651655000078],[103.11652826100004,17.61933536500004],[102.99613811300009,17.531668384000056],[102.96221879500007,17.47059822500006],[102.95485179600007,17.45489520600006],[103.05071459300007,17.455194920000054],[103.12944090600007,17.497600895000062],[103.15590714600006,17.591651655000078]]]}},{"type":"Feature","properties":{"code":"4125","name":"ประจักษ์ศิลปาคม","parentCode":"41"},"geometry":{"type":"Polygon","coordinates":[[[103.08393861900004,17.22088525500004],[102.94770354500008,17.32046588000003],[102.90055851500006,17.243738509000025],[102.93432483900006,17.20403958600002],[103.08856333600005,17.203280102000065],[103.08393861900004,17.22088525500004]]]}},{"type":"Feature","properties":{"code":"4120","name":"สร้างคอม","parentCode":"41"},"geometry":{"type":"Polygon","coordinates":[[[103.12710939600004,17.826457704000063],[103.07800458400004,17.885741689000042],[102.96928710800006,17.823692950000066],[102.95707086400006,17.746491571000035],[103.11675591000005,17.695988294000074],[103.12710939600004,17.826457704000063]]]}},{"type":"Feature","properties":{"code":"4109","name":"ศรีธาตุ","parentCode":"41"},"geometry":{"type":"Polygon","coordinates":[[[103.37281819200007,17.152702015000045],[103.26331553000006,17.15628358200007],[103.24462808500004,17.112033014000076],[103.15513272200008,17.101446821000025],[103.05145621300005,17.043901900000037],[103.11729689700007,16.961118657000043],[103.22095961000008,16.967839921000063],[103.33011977600006,16.924071163000065],[103.31707040300006,16.980053398000052],[103.37281819200007,17.152702015000045]]]}},{"type":"Feature","properties":{"code":"4107","name":"ทุ่งฝน","parentCode":"41"},"geometry":{"type":"Polygon","coordinates":[[[103.32044880200004,17.549345294000034],[103.15590714600006,17.591651655000078],[103.12944090600007,17.497600895000062],[103.15415609300004,17.418384841000034],[103.27616605000009,17.43676797100005],[103.32044880200004,17.549345294000034]]]}},{"type":"Feature","properties":{"code":"4110","name":"วังสามหมอ","parentCode":"41"},"geometry":{"type":"Polygon","coordinates":[[[103.61353067400006,17.15172246900005],[103.47025972500006,17.229916415000048],[103.44048773200007,17.213253829000053],[103.37281819200007,17.152702015000045],[103.31707040300006,16.980053398000052],[103.33011977600006,16.924071163000065],[103.40076142800007,16.854806452000048],[103.42162529600006,16.803074037000044],[103.49166146300007,16.907026579000046],[103.53019888300008,17.062729473000047],[103.62074341900006,17.092853047000062],[103.66212023000008,17.019615229000067],[103.64484206900005,17.114699504000043],[103.61353067400006,17.15172246900005]]]}}]}