{"type":"FeatureCollection","features":[{"type":"Feature","properties":{"code":"4617","name":"ดอนจาน","parentCode":"46"},"geometry":{"type":"Polygon","coordinates":[[[103.83200475000007,16.489048358000048],[103.70440305800008,16.568928302000074],[103.65536165800006,16.496794644000033],[103.59790618700004,16.48939566300004],[103.69116392500007,16.384384082000054],[103.70596527800006,16.386315204000027],[103.82283783900004,16.470103490000042],[103.83200475000007,16.489048358000048]]]}},{"type":"Feature","properties":{"code":"4608","name":"ห้วยเม็ก","parentCode":"46"},"geometry":{"type":"Polygon","coordinates":[[[103.37383616500006,16.61877170300005],[103.32221020700007,16.607570966000026],[103.21115245700008,16.649775565000027],[103.17136768500006,16.771122873000024],[103.15239866900004,16.643603950000056],[103.18706081600004,16.551598700000056],[103.16391014200008,16.487637371000062],[103.26034196300009,16.508177470000078],[103.33135772700007,16.487704199000063],[103.37383616500006,16.61877170300005]]]}},{"type":"Feature","properties":{"code":"4614","name":"ห้วยผึ้ง","parentCode":"46"},"geometry":{"type":"Polygon","coordinates":[[[103.95029845500005,16.77606519400007],[103.90706371700009,16.80290506500006],[103.79762839700004,16.707256665000045],[103.80061721200008,16.645121262000032],[103.89061390200004,16.568392837000033],[103.96458293700005,16.63458404900007],[103.95029845500005,16.77606519400007]]]}},{"type":"Feature","properties":{"code":"4603","name":"กมลาไสย","parentCode":"46"},"geometry":{"type":"Polygon","coordinates":[[[103.69116392500007,16.384384082000054],[103.51734391600007,16.342842748000066],[103.45254611000007,16.276691705000076],[103.53677590500007,16.263250447000075],[103.54787464000003,16.213760356000023],[103.66155580700007,16.192637181000066],[103.70473423900006,16.221528845000023],[103.70942319400007,16.36466936000005],[103.70596527800006,16.386315204000027],[103.69116392500007,16.384384082000054]]]}},{"type":"Feature","properties":{"code":"4610","name":"คำม่วง","parentCode":"46"},"geometry":{"type":"Polygon","coordinates":[[[103.66212023000008,17.019615229000067],[103.62074341900006,17.092853047000062],[103.53019888300008,17.062729473000047],[103.59759351700006,16.94925304000003],[103.58848292800008,16.839763506000054],[103.63710052500005,16.76684498000003],[103.76315579000004,16.964307833000078],[103.73999944000008,16.971270779000065],[103.66212023000008,17.019615229000067]]]}},{"type":"Feature","properties":{"code":"4606","name":"เขาวง","parentCode":"46"},"geometry":{"type":"Polygon","coordinates":[[[104.19909079400009,16.66002331800007],[104.09871321400004,16.784213385000044],[103.99147482200004,16.679772684000056],[104.10941880600006,16.607211634000066],[104.17708392600008,16.597859693000032],[104.19909079400009,16.66002331800007]]]}},{"type":"Feature","properties":{"code":"4618","name":"ฆ้องชัย","parentCode":"46"},"geometry":{"type":"Polygon","coordinates":[[[103.51734391600007,16.342842748000066],[103.51051311600008,16.34065643100007],[103.41107347500008,16.28600246900004],[103.41490269100007,16.238991613000053],[103.50228135300006,16.199650546000044],[103.54787464000003,16.213760356000023],[103.53677590500007,16.263250447000075],[103.45254611000007,16.276691705000076],[103.51734391600007,16.342842748000066]]]}},{"type":"Feature","properties":{"code":"4605","name":"กุฉินารายณ์","parentCode":"46"},"geometry":{"type":"Polygon","coordinates":[[[103.99147482200004,16.679772684000056],[103.96458293700005,16.63458404900007],[103.89061390200004,16.568392837000033],[103.83200475000007,16.489048358000048],[103.82283783900004,16.470103490000042],[103.88959195700005,16.45255485100006],[104.03782103500004,16.436680161000027],[104.04547132500005,16.390880409000033],[104.17242400300006,16.445946495000044],[104.23785792300004,16.428572174000067],[104.22106505200009,16.542185678000067],[104.17708392600008,16.597859693000032],[104.10941880600006,16.607211634000066],[103.99147482200004,16.679772684000056]]]}},{"type":"Feature","properties":{"code":"4601","name":"เมืองกาฬสินธุ์","parentCode":"46"},"geometry":{"type":"Polygon","coordinates":[[[103.66149510300005,16.629811440000026],[103.46020127600008,16.676757725000073],[103.41203757300008,16.60659411200004],[103.47172552100005,16.54031136800006],[103.45300490600005,16.429981676000068],[103.51051311600008,16.34065643100007],[103.51734391600007,16.342842748000066],[103.69116392500007,16.384384082000054],[103.59790618700004,16.48939566300004],[103.65536165800006,16.496794644000033],[103.70440305800008,16.568928302000074],[103.68683308000004,16.597998292000057],[103.66149510300005,16.629811440000026]]]}},{"type":"Feature","properties":{"code":"4616","name":"นาคู","parentCode":"46"},"geometry":{"type":"Polygon","coordinates":[[[104.07010685000006,16.82129992800003],[104.02281402700004,16.855939136000075],[103.95029845500005,16.77606519400007],[103.96458293700005,16.63458404900007],[103.99147482200004,16.679772684000056],[104.09871321400004,16.784213385000044],[104.07010685000006,16.82129992800003]]]}},{"type":"Feature","properties":{"code":"4602","name":"นามน","parentCode":"46"},"geometry":{"type":"Polygon","coordinates":[[[103.80061721200008,16.645121262000032],[103.71589188600007,16.67503838500005],[103.68683308000004,16.597998292000057],[103.70440305800008,16.568928302000074],[103.83200475000007,16.489048358000048],[103.89061390200004,16.568392837000033],[103.80061721200008,16.645121262000032]]]}},{"type":"Feature","properties":{"code":"4612","name":"หนองกุงศรี","parentCode":"46"},"geometry":{"type":"Polygon","coordinates":[[[103.42162529600006,16.803074037000044],[103.40076142800007,16.854806452000048],[103.30386484200005,16.814381221000076],[103.22314499000004,16.83695065200004],[103.17951094200004,16.78619587000003],[103.17136768500006,16.771122873000024],[103.21115245700008,16.649775565000027],[103.32221020700007,16.607570966000026],[103.37383616500006,16.61877170300005],[103.41203757300008,16.60659411200004],[103.46020127600008,16.676757725000073],[103.47738413300004,16.759700124000062],[103.42162529600006,16.803074037000044]]]}},{"type":"Feature","properties":{"code":"4604","name":"ร่องคำ","parentCode":"46"},"geometry":{"type":"Polygon","coordinates":[[[103.72303221100009,16.22084116900004],[103.75411051900005,16.303596742000025],[103.70942319400007,16.36466936000005],[103.70473423900006,16.221528845000023],[103.70909426400004,16.219597599000053],[103.72303221100009,16.22084116900004]]]}},{"type":"Feature","properties":{"code":"4609","name":"สหัสขันธ์","parentCode":"46"},"geometry":{"type":"Polygon","coordinates":[[[103.58848292800008,16.839763506000054],[103.53961528900004,16.76525854600004],[103.47738413300004,16.759700124000062],[103.46020127600008,16.676757725000073],[103.66149510300005,16.629811440000026],[103.69631714000008,16.718312191000052],[103.63710052500005,16.76684498000003],[103.58848292800008,16.839763506000054]]]}},{"type":"Feature","properties":{"code":"4615","name":"สามชัย","parentCode":"46"},"geometry":{"type":"Polygon","coordinates":[[[103.53019888300008,17.062729473000047],[103.49166146300007,16.907026579000046],[103.42162529600006,16.803074037000044],[103.47738413300004,16.759700124000062],[103.53961528900004,16.76525854600004],[103.58848292800008,16.839763506000054],[103.59759351700006,16.94925304000003],[103.53019888300008,17.062729473000047]]]}},{"type":"Feature","properties":{"code":"4613","name":"สมเด็จ","parentCode":"46"},"geometry":{"type":"Polygon","coordinates":[[[103.90706371700009,16.80290506500006],[103.78889851300005,16.888802767000072],[103.76315579000004,16.964307833000078],[103.63710052500005,16.76684498000003],[103.69631714000008,16.718312191000052],[103.66149510300005,16.629811440000026],[103.68683308000004,16.597998292000057],[103.71589188600007,16.67503838500005],[103.80061721200008,16.645121262000032],[103.79762839700004,16.707256665000045],[103.90706371700009,16.80290506500006]]]}},{"type":"Feature","properties":{"code":"4611","name":"ท่าคันโท","parentCode":"46"},"geometry":{"type":"Polygon","coordinates":[[[103.33011977600006,16.924071163000065],[103.22095961000008,16.967839921000063],[103.11729689700007,16.961118657000043],[103.09811585400007,16.912621710000053],[103.17507234100003,16.863453023000034],[103.17951094200004,16.78619587000003],[103.22314499000004,16.83695065200004],[103.30386484200005,16.814381221000076],[103.40076142800007,16.854806452000048],[103.33011977600006,16.924071163000065]]]}},{"type":"Feature","properties":{"code":"4607","name":"ยางตลาด","parentCode":"46"},"geometry":{"type":"Polygon","coordinates":[[[103.51051311600008,16.34065643100007],[103.45300490600005,16.429981676000068],[103.47172552100005,16.54031136800006],[103.41203757300008,16.60659411200004],[103.37383616500006,16.61877170300005],[103.33135772700007,16.487704199000063],[103.26034196300009,16.508177470000078],[103.16391014200008,16.487637371000062],[103.17441221300004,16.458743221000077],[103.17542241700005,16.363430399000038],[103.34358900600006,16.36022659400004],[103.41107347500008,16.28600246900004],[103.51051311600008,16.34065643100007]]]}}]}