{"type":"FeatureCollection","features":[{"type":"Feature","properties":{"code":"5405","name":"เด่นชัย","parentCode":"54"},"geometry":{"type":"Polygon","coordinates":[[[100.18822022800003,17.903718406000053],[100.14859297100008,17.980448313000068],[99.97217582300004,18.043810327000074],[99.87680672400006,17.925381531000028],[99.93614492100005,17.854186190000064],[99.89449126700003,17.807192434000058],[99.95962152600003,17.778376240000057],[99.99527384200007,17.830758536000076],[100.13412990400008,17.86011837500007],[100.18822022800003,17.903718406000053]]]}},{"type":"Feature","properties":{"code":"5403","name":"ลอง","parentCode":"54"},"geometry":{"type":"Polygon","coordinates":[[[100.07517575400004,18.348789302000057],[99.99920720100005,18.402593799000044],[99.90687505500006,18.28051904000006],[99.85759805600009,18.28390885500005],[99.79240393600008,18.193500493000045],[99.71982770900007,18.07008496800006],[99.66882569900008,18.041677436000043],[99.68935897900008,18.008001877000027],[99.63515387300004,17.91042224000006],[99.87680672400006,17.925381531000028],[99.97217582300004,18.043810327000074],[100.03660663600004,18.147542134000048],[100.09004246900008,18.276669191000053],[100.07517575400004,18.348789302000057]]]}},{"type":"Feature","properties":{"code":"5401","name":"เมืองแพร่","parentCode":"54"},"geometry":{"type":"Polygon","coordinates":[[[100.27503052700007,18.259370747000048],[100.17486857500006,18.24690331000005],[100.09004246900008,18.276669191000053],[100.03660663600004,18.147542134000048],[100.17098475100005,18.10069793300005],[100.27185651100007,17.955677785000034],[100.33484299000008,17.88916400000005],[100.35037815700008,17.983298172000048],[100.41429748700006,18.021697394000057],[100.41437905900005,18.153567800000076],[100.30327582000007,18.180460636000078],[100.27503052700007,18.259370747000048]]]}},{"type":"Feature","properties":{"code":"5408","name":"หนองม่วงไข่","parentCode":"54"},"geometry":{"type":"Polygon","coordinates":[[[100.20545957100006,18.317537273000028],[100.07517575400004,18.348789302000057],[100.09004246900008,18.276669191000053],[100.17486857500006,18.24690331000005],[100.27503052700007,18.259370747000048],[100.20545957100006,18.317537273000028]]]}},{"type":"Feature","properties":{"code":"5402","name":"ร้องกวาง","parentCode":"54"},"geometry":{"type":"Polygon","coordinates":[[[100.55039903000005,18.419308399000045],[100.54186485200006,18.48922513900004],[100.39931541800007,18.48575016800004],[100.39268491700005,18.419296804000055],[100.31998268700005,18.466912196000067],[100.21310870300005,18.382206754000038],[100.20545957100006,18.317537273000028],[100.27503052700007,18.259370747000048],[100.30327582000007,18.180460636000078],[100.41437905900005,18.153567800000076],[100.47647280900009,18.260218833000067],[100.47983351200008,18.318518294000057],[100.55039903000005,18.419308399000045]]]}},{"type":"Feature","properties":{"code":"5406","name":"สอง","parentCode":"54"},"geometry":{"type":"Polygon","coordinates":[[[100.34038381300007,18.80595545500006],[100.15593258000007,18.835470908000048],[100.11402458500004,18.808551408000028],[100.10525611600008,18.559282215000053],[100.04929202100004,18.531813655000065],[99.99920720100005,18.402593799000044],[100.07517575400004,18.348789302000057],[100.20545957100006,18.317537273000028],[100.21310870300005,18.382206754000038],[100.31998268700005,18.466912196000067],[100.39268491700005,18.419296804000055],[100.39931541800007,18.48575016800004],[100.37101007500007,18.567448975000048],[100.39258899400005,18.638393515000075],[100.35157959900005,18.68055431700003],[100.39136919900005,18.739382987000056],[100.34038381300007,18.80595545500006]]]}},{"type":"Feature","properties":{"code":"5404","name":"สูงเม่น","parentCode":"54"},"geometry":{"type":"Polygon","coordinates":[[[100.27185651100007,17.955677785000034],[100.17098475100005,18.10069793300005],[100.03660663600004,18.147542134000048],[99.97217582300004,18.043810327000074],[100.14859297100008,17.980448313000068],[100.18822022800003,17.903718406000053],[100.27185651100007,17.955677785000034]]]}},{"type":"Feature","properties":{"code":"5407","name":"วังชิ้น","parentCode":"54"},"geometry":{"type":"Polygon","coordinates":[[[99.66882569900008,18.041677436000043],[99.48303666200007,17.920189523000033],[99.36757282600007,17.773487857000077],[99.38720594500006,17.687556630000074],[99.47105082100006,17.73786806100003],[99.51927372800009,17.797552389000032],[99.59846545700003,17.821580273000052],[99.67069502200007,17.79925189200003],[99.72629227100003,17.72151345800006],[99.80354330500006,17.800368411000022],[99.89449126700003,17.807192434000058],[99.93614492100005,17.854186190000064],[99.87680672400006,17.925381531000028],[99.63515387300004,17.91042224000006],[99.68935897900008,18.008001877000027],[99.66882569900008,18.041677436000043]]]}}]}