{"type":"FeatureCollection","features":[{"type":"Feature","properties":{"code":"7305","name":"บางเลน","parentCode":"73"},"geometry":{"type":"Polygon","coordinates":[[[100.28179029100005,14.126881928000046],[100.21290035300007,14.179213636000043],[100.06343058700008,14.145437848000029],[100.06428017600007,14.032634245000054],[100.11406084400005,14.043139645000053],[100.10010756300005,13.970561786000076],[100.17513656800008,13.92272207800005],[100.25612202000008,13.904495505000057],[100.28597582100008,13.892333072000042],[100.26406632100009,14.01016809600003],[100.28179029100005,14.126881928000046]]]}},{"type":"Feature","properties":{"code":"7304","name":"ดอนตูม","parentCode":"73"},"geometry":{"type":"Polygon","coordinates":[[[100.17513656800008,13.92272207800005],[100.10010756300005,13.970561786000076],[100.11406084400005,14.043139645000053],[100.06428017600007,14.032634245000054],[100.01923601100003,13.972955111000033],[100.05739443800007,13.913663632000066],[100.11650078200006,13.871844614000054],[100.17513656800008,13.92272207800005]]]}},{"type":"Feature","properties":{"code":"7302","name":"กำแพงแสน","parentCode":"73"},"geometry":{"type":"Polygon","coordinates":[[[100.06343058700008,14.145437848000029],[99.92714714100003,14.12774511200007],[99.81410249700008,14.064243240000053],[99.87586105300005,13.961235181000063],[99.92702629000007,13.933968390000075],[100.03361939100006,13.88460152600004],[100.05739443800007,13.913663632000066],[100.01923601100003,13.972955111000033],[100.06428017600007,14.032634245000054],[100.06343058700008,14.145437848000029]]]}},{"type":"Feature","properties":{"code":"7301","name":"เมืองนครปฐม","parentCode":"73"},"geometry":{"type":"Polygon","coordinates":[[[100.05739443800007,13.913663632000066],[100.03361939100006,13.88460152600004],[99.92702629000007,13.933968390000075],[99.90904544600005,13.847306923000076],[99.95793804100003,13.836253653000028],[99.93792437800005,13.769773061000024],[99.94821213300008,13.737627470000064],[100.01954339400004,13.746843462000072],[100.06788866400007,13.69335264700004],[100.10741387700006,13.704790374000027],[100.11650078200006,13.871844614000054],[100.05739443800007,13.913663632000066]]]}},{"type":"Feature","properties":{"code":"7303","name":"นครชัยศรี","parentCode":"73"},"geometry":{"type":"Polygon","coordinates":[[[100.25612202000008,13.904495505000057],[100.17513656800008,13.92272207800005],[100.11650078200006,13.871844614000054],[100.10741387700006,13.704790374000027],[100.24788013000006,13.801656527000034],[100.25612202000008,13.904495505000057]]]}},{"type":"Feature","properties":{"code":"7307","name":"พุทธมณฑล","parentCode":"73"},"geometry":{"type":"Polygon","coordinates":[[[100.28597582100008,13.892333072000042],[100.25612202000008,13.904495505000057],[100.24788013000006,13.801656527000034],[100.33010398200008,13.76309221200006],[100.32791238700008,13.80412552100006],[100.31920486400008,13.822555284000032],[100.29681910800008,13.869552457000054],[100.28597582100008,13.892333072000042]]]}},{"type":"Feature","properties":{"code":"7306","name":"สามพราน","parentCode":"73"},"geometry":{"type":"Polygon","coordinates":[[[100.33010398200008,13.76309221200006],[100.24788013000006,13.801656527000034],[100.10741387700006,13.704790374000027],[100.06788866400007,13.69335264700004],[100.06026825100008,13.660286144000054],[100.17135058100007,13.680630305000022],[100.27074667700003,13.683395778000033],[100.33033285600004,13.719719976000022],[100.33745528100008,13.736036289000026],[100.33010398200008,13.76309221200006]]]}}]}