{"type":"FeatureCollection","features":[{"type":"Feature","properties":{"code":"7403","name":"บ้านแพ้ว","parentCode":"74"},"geometry":{"type":"Polygon","coordinates":[[[100.17135058100007,13.680630305000022],[100.06026825100008,13.660286144000054],[100.03110954200008,13.612613751000026],[100.02951576800007,13.507781799000043],[100.05315896400003,13.485801796000032],[100.22790413200005,13.604494406000072],[100.17135058100007,13.680630305000022]]]}},{"type":"Feature","properties":{"code":"7402","name":"กระทุ่มแบน","parentCode":"74"},"geometry":{"type":"Polygon","coordinates":[[[100.33033285600004,13.719719976000022],[100.27074667700003,13.683395778000033],[100.17135058100007,13.680630305000022],[100.22790413200005,13.604494406000072],[100.35024229000004,13.640497348000054],[100.34683704300005,13.655339513000058],[100.33033285600004,13.719719976000022]]]}},{"type":"Feature","properties":{"code":"7401","name":"เมืองสมุทรสาคร","parentCode":"74"},"geometry":{"type":"Polygon","coordinates":[[[100.37648208400009,13.619703151000067],[100.35024229000004,13.640497348000054],[100.22790413200005,13.604494406000072],[100.05315896400003,13.485801796000032],[100.07878223200004,13.425330343000041],[100.26017218500004,13.480507147000026],[100.40883825200007,13.493389571000023],[100.37648208400009,13.619703151000067]]]}}]}