{"type":"FeatureCollection","features":[{"type":"Feature","properties":{"code":"7503","name":"อัมพวา","parentCode":"75"},"geometry":{"type":"Polygon","coordinates":[[[100.01435767500004,13.477550037000071],[99.89091936900007,13.449203085000022],[99.88368261600004,13.416274197000064],[99.85595101000007,13.329181510000069],[99.88375008100007,13.246462721000057],[99.93119533600009,13.283808055000065],[99.94708948500005,13.403617197000074],[100.01435767500004,13.477550037000071]]]}},{"type":"Feature","properties":{"code":"7502","name":"บางคนที","parentCode":"75"},"geometry":{"type":"Polygon","coordinates":[[[100.02627364800009,13.504561636000062],[99.91345807800008,13.51048323200007],[99.88916384500004,13.470097473000067],[99.89091936900007,13.449203085000022],[100.01435767500004,13.477550037000071],[100.02627364800009,13.504561636000062]]]}},{"type":"Feature","properties":{"code":"7501","name":"เมืองสมุทรสงคราม","parentCode":"75"},"geometry":{"type":"Polygon","coordinates":[[[100.05315896400003,13.485801796000032],[100.02951576800007,13.507781799000043],[100.02627364800009,13.504561636000062],[100.01435767500004,13.477550037000071],[99.94708948500005,13.403617197000074],[99.93119533600009,13.283808055000065],[99.95250447900008,13.296620133000033],[100.07878223200004,13.425330343000041],[100.05315896400003,13.485801796000032]]]}}]}