{"type":"FeatureCollection","features":[{"type":"Feature","properties":{"code":"8302","name":"กะทู้","parentCode":"83"},"geometry":{"type":"Polygon","coordinates":[[[98.35033361600006,7.9440683740000395],[98.27634422100004,7.970316088000061],[98.27513864200006,7.874329931000034],[98.36823934400007,7.901138092000053],[98.35033361600006,7.9440683740000395]]]}},{"type":"Feature","properties":{"code":"8301","name":"เมืองภูเก็ต","parentCode":"83"},"geometry":{"type":"Polygon","coordinates":[[[98.39546966400007,7.965591471000039],[98.35033361600006,7.9440683740000395],[98.36823934400007,7.901138092000053],[98.27513864200006,7.874329931000034],[98.30355545300006,7.763380346000076],[98.34874275500005,7.827557948000049],[98.44070159300009,7.88231292100005],[98.39546966400007,7.965591471000039]]]}},{"type":"Feature","properties":{"code":"8303","name":"ถลาง","parentCode":"83"},"geometry":{"type":"Polygon","coordinates":[[[98.39546966400007,7.965591471000039],[98.43633803900008,8.066656520000038],[98.34619987900004,8.122220699000025],[98.28600930500005,8.199949698000069],[98.27634422100004,7.970316088000061],[98.35033361600006,7.9440683740000395],[98.39546966400007,7.965591471000039]]]}}]}