{"type":"FeatureCollection","features":[{"type":"Feature","properties":{"code":"9603","name":"บาเจาะ","parentCode":"96"},"geometry":{"type":"Polygon","coordinates":[[[101.70931256500006,6.568903285000033],[101.63140115900006,6.635138712000071],[101.58668031700006,6.626373642000033],[101.59243153100005,6.56560236200005],[101.59076258800008,6.512082323000072],[101.63634355600004,6.472036279000065],[101.71593086700005,6.4999496260000456],[101.70931256500006,6.568903285000033]]]}},{"type":"Feature","properties":{"code":"9612","name":"จะแนะ","parentCode":"96"},"geometry":{"type":"Polygon","coordinates":[[[101.80185691300005,6.129716704000032],[101.74863762500007,6.117584996000062],[101.71221241900008,6.187694992000047],[101.62828762800007,6.180893811000033],[101.60155139300008,6.094079823000072],[101.51161357300003,6.054083436000042],[101.47058598000007,6.073894192000068],[101.47793917500007,6.043515905000049],[101.50222226700004,5.889682420000042],[101.58108960500005,5.934509778000063],[101.61768585900006,5.896407322000073],[101.73588259800005,6.08612615800007],[101.79931654300003,6.087545835000071],[101.80505113600003,6.1241100340000685],[101.80185691300005,6.129716704000032]]]}},{"type":"Feature","properties":{"code":"9613","name":"เจาะไอร้อง","parentCode":"96"},"geometry":{"type":"Polygon","coordinates":[[[101.91634903900007,6.2831757310000285],[101.82211605500004,6.298502015000054],[101.76060898800006,6.232792715000073],[101.80185691300005,6.129716704000032],[101.80505113600003,6.1241100340000685],[101.90113469200008,6.213035318000038],[101.91712836600004,6.277851158000033],[101.91634903900007,6.2831757310000285]]]}},{"type":"Feature","properties":{"code":"9601","name":"เมืองนราธิวาส","parentCode":"96"},"geometry":{"type":"Polygon","coordinates":[[[101.91879983200005,6.372850005000032],[101.81629190400008,6.452915207000046],[101.72484185400003,6.576857325000049],[101.70931256500006,6.568903285000033],[101.71593086700005,6.4999496260000456],[101.78569375300003,6.402848635000055],[101.72106031000004,6.347393670000031],[101.82211605500004,6.298502015000054],[101.91634903900007,6.2831757310000285],[101.91879983200005,6.372850005000032]]]}},{"type":"Feature","properties":{"code":"9605","name":"ระแงะ","parentCode":"96"},"geometry":{"type":"Polygon","coordinates":[[[101.63591660200007,6.368956227000069],[101.60099134600006,6.317841720000047],[101.62828762800007,6.180893811000033],[101.71221241900008,6.187694992000047],[101.74863762500007,6.117584996000062],[101.80185691300005,6.129716704000032],[101.76060898800006,6.232792715000073],[101.82211605500004,6.298502015000054],[101.72106031000004,6.347393670000031],[101.63591660200007,6.368956227000069]]]}},{"type":"Feature","properties":{"code":"9606","name":"รือเสาะ","parentCode":"96"},"geometry":{"type":"Polygon","coordinates":[[[101.63634355600004,6.472036279000065],[101.59076258800008,6.512082323000072],[101.46917008400004,6.426180402000057],[101.42488644300005,6.422483691000025],[101.38779984700005,6.335564738000073],[101.39844426200006,6.23142746000002],[101.48425424900006,6.251769000000024],[101.50530488400005,6.303852046000031],[101.60099134600006,6.317841720000047],[101.63591660200007,6.368956227000069],[101.63634355600004,6.472036279000065]]]}},{"type":"Feature","properties":{"code":"9607","name":"ศรีสาคร","parentCode":"96"},"geometry":{"type":"Polygon","coordinates":[[[101.60099134600006,6.317841720000047],[101.50530488400005,6.303852046000031],[101.48425424900006,6.251769000000024],[101.39844426200006,6.23142746000002],[101.39390589000004,6.159855831000073],[101.47058598000007,6.073894192000068],[101.51161357300003,6.054083436000042],[101.60155139300008,6.094079823000072],[101.62828762800007,6.180893811000033],[101.60099134600006,6.317841720000047]]]}},{"type":"Feature","properties":{"code":"9610","name":"สุไหงโก-ลก","parentCode":"96"},"geometry":{"type":"Polygon","coordinates":[[[102.06406462100006,6.104892113000062],[102.02270797500006,6.151056502000074],[101.93645121000009,6.07926830100007],[101.92456490800004,6.015719499000056],[101.94816826500005,5.990587145000063],[102.06406462100006,6.104892113000062]]]}},{"type":"Feature","properties":{"code":"9611","name":"สุไหงปาดี","parentCode":"96"},"geometry":{"type":"Polygon","coordinates":[[[101.91712836600004,6.277851158000033],[101.90113469200008,6.213035318000038],[101.80505113600003,6.1241100340000685],[101.79931654300003,6.087545835000071],[101.80981812700009,5.97719889800004],[101.92456490800004,6.015719499000056],[101.93645121000009,6.07926830100007],[102.02270797500006,6.151056502000074],[101.91919873800003,6.230605125000068],[101.91712836600004,6.277851158000033]]]}},{"type":"Feature","properties":{"code":"9609","name":"สุคิริน","parentCode":"96"},"geometry":{"type":"Polygon","coordinates":[[[101.79931654300003,6.087545835000071],[101.73588259800005,6.08612615800007],[101.61768585900006,5.896407322000073],[101.65412946400005,5.877629551000041],[101.69020704800005,5.756031193000069],[101.76179870700008,5.794778533000056],[101.82516801800006,5.767311993000021],[101.79542202600004,5.869658564000076],[101.80981812700009,5.97719889800004],[101.79931654300003,6.087545835000071]]]}},{"type":"Feature","properties":{"code":"9602","name":"ตากใบ","parentCode":"96"},"geometry":{"type":"Polygon","coordinates":[[[102.06406462100006,6.104892113000062],[102.08904838600006,6.244874955000057],[101.91879983200005,6.372850005000032],[101.91634903900007,6.2831757310000285],[101.91712836600004,6.277851158000033],[101.91919873800003,6.230605125000068],[102.02270797500006,6.151056502000074],[102.06406462100006,6.104892113000062]]]}},{"type":"Feature","properties":{"code":"9608","name":"แว้ง","parentCode":"96"},"geometry":{"type":"Polygon","coordinates":[[[101.82516801800006,5.767311993000021],[101.94320512600007,5.872064641000065],[101.94816826500005,5.990587145000063],[101.92456490800004,6.015719499000056],[101.80981812700009,5.97719889800004],[101.79542202600004,5.869658564000076],[101.82516801800006,5.767311993000021]]]}},{"type":"Feature","properties":{"code":"9604","name":"ยี่งอ","parentCode":"96"},"geometry":{"type":"Polygon","coordinates":[[[101.72106031000004,6.347393670000031],[101.78569375300003,6.402848635000055],[101.71593086700005,6.4999496260000456],[101.63634355600004,6.472036279000065],[101.63591660200007,6.368956227000069],[101.72106031000004,6.347393670000031]]]}}]}